,place_id,name,main_category,phone,address,address_ward,address_street,address_city,address_postal_code,address_state,address_country_code,coordinates
0,ChIJEX2-yqFioDERCkI2Dyekh9I,Sài Gòn Bakery - Bánh Kem Cần Thơ,Tiệm bánh,,"Sài Gòn Bakery - Bánh Kem Cần Thơ, 05 Đ. Đồng Khởi, Tân An, Ninh Kiều, Cần Thơ 900000","Tân An, Ninh Kiều",05 Đ. Đồng Khởi,Cần Thơ,900000.0,"Ninh Kiều, Cần Thơ",VN,"10.0335906,105.7850464"
3,ChIJLxpg1rSJoDERRasxmNOYBIo,Bánh Ướt Cây Me (Nguyễn Văn Cừ),Nhà hàng,0338 858 068,"Bánh Ướt Cây Me (Nguyễn Văn Cừ), 138D Đ. Nguyễn Văn Cừ, Phường An Khánh, Ninh Kiều, Cần Thơ","Phường An Khánh, Ninh Kiều",138D Đ. Nguyễn Văn Cừ,Cần Thơ,,"Ninh Kiều, Cần Thơ",VN,"10.0405988,105.76190899999999"
4,ChIJ2ZqPnBiIoDER-cgM1YXN6ik,Bánh Sinh Nhật Singapore Cần Thơ,Tiệm bánh,0292 3734 916,"Bánh Sinh Nhật Singapore Cần Thơ, Số 03 Đ. Mậu Thân, An Phú, Ninh Kiều, Cần Thơ","An Phú, Ninh Kiều",Số 03 Đ. Mậu Thân,Cần Thơ,,"Ninh Kiều, Cần Thơ",VN,"10.028051999999999,105.7765419"
7,ChIJmc8X3B-IoDEReuXXMFDsaWQ,Tiệm Bánh Cống Cô Út,Cửa hàng bánh,0292 2210 758,"Tiệm Bánh Cống Cô Út, 28 Đ. Lý Tự Trọng, Tân An, Ninh Kiều, Cần Thơ","Tân An, Ninh Kiều",28 Đ. Lý Tự Trọng,Cần Thơ,,"Ninh Kiều, Cần Thơ",VN,"10.0341723,105.7817098"
13,ChIJYQ4hf59ioDERfZDAFJDTmyw,Madam Thu Bakery,Cửa hàng bánh,0292 3822 935,"Madam Thu Bakery, 21C Võ Văn Tần, Street, Ninh Kiều, Cần Thơ 900000","Street, Ninh Kiều",21C Võ Văn Tần,Cần Thơ,900000.0,"Ninh Kiều, Cần Thơ",VN,"10.0319916,105.78730069999999"
15,ChIJp-ivvVSJoDER4XgU05HIrj8,Tiệm bánh Célia,Tiệm bánh,0832 633 888,"Tiệm bánh Célia, 309 Đ. Nguyễn Văn Cừ, An Hoà, Ninh Kiều, Cần Thơ","An Hoà, Ninh Kiều",309 Đ. Nguyễn Văn Cừ,Cần Thơ,,"Ninh Kiều, Cần Thơ",VN,"10.0462274,105.7681806"
17,ChIJEzSkTNeJoDERhWu7del3y2U,Lò Bánh Như Ý - Chú Dũng,Cửa hàng bán thực phẩm đặc sản,0937 796 996,"Lò Bánh Như Ý - Chú Dũng, 99 Đ. Trương Định, Tân An, Ninh Kiều, Cần Thơ 900000","Tân An, Ninh Kiều",99 Đ. Trương Định,Cần Thơ,900000.0,"Ninh Kiều, Cần Thơ",VN,"10.0343932,105.7807606"
18,ChIJr5Je20OIoDERY0gE7ZGC_Cg,Bánh bò út dứt tân châu an giang,Cửa hàng bánh ngọt,,"2QJ2+3W3 Bánh bò út dứt tân châu an giang, Phường An Khánh, Ninh Kiều, Cần Thơ","Phường An Khánh, Ninh Kiều",2QJ2+3W3,Cần Thơ,,"Ninh Kiều, Cần Thơ",VN,"10.0301349,105.7522855"
19,ChIJz_kz3USIoDERvLGs1ugDQpE,Bánh Kem Kim Thanh,Tiệm bánh,0939 197 839,"Bánh Kem Kim Thanh, 12 Đ. Nguyễn Văn Linh, Phường An Khánh, Ninh Kiều, Cần Thơ","Phường An Khánh, Ninh Kiều",12 Đ. Nguyễn Văn Linh,Cần Thơ,,"Ninh Kiều, Cần Thơ",VN,"10.035102799999999,105.7465501"
21,ChIJze5Tn3uJoDERw8IOzViYiaU,Tiệm Bánh Trứng - Tarte,Tiệm bánh,0901 027 871,"Tiệm Bánh Trứng - Tarte, Hẻm giữa quán Cơm Mười Mập & Phụ Kiện Phương Thảo, Đ. Mạc Thiên Tích, Xuân Khánh, Ninh Kiều, Cần Thơ 900000","Xuân Khánh, Ninh Kiều","Hẻm giữa quán Cơm Mười Mập & Phụ Kiện Phương Thảo, Đ. Mạc Thiên Tích",Cần Thơ,900000.0,"Ninh Kiều, Cần Thơ",VN,"10.027734599999999,105.7724389"
22,ChIJr8c3GjKJoDERur4NY4zpUqY,Bánh Tráng Tôm Khô Cô Tiên,Tiệm bánh,0938 125 333,"Bánh Tráng Tôm Khô Cô Tiên, 1B Hẻm 1 Đ. Lý Tự Trọng, P, Ninh Kiều, Cần Thơ","P, Ninh Kiều",1B Hẻm 1 Đ. Lý Tự Trọng,Cần Thơ,,"Ninh Kiều, Cần Thơ",VN,"10.0337289,105.7791647"
23,ChIJG0Ou4L6JoDERy74mrrZG9-U,Lò Bánh Mì Sài Gòn Bơ,Tiệm bánh,0937 575 494,"Lò Bánh Mì Sài Gòn Bơ, 162 Đ. Phạm Hùng, Lê Bình, Cái Răng, Cần Thơ 94900","Lê Bình, Cái Răng",162 Đ. Phạm Hùng,Cần Thơ,94900.0,"Cái Răng, Cần Thơ",VN,"9.999485,105.7499826"
25,ChIJ0bNteaiJoDERJ0HsDh_HyaA,Tiệm bánh Mật Ong,Tiệm bánh,0948 993 308,"Tiệm bánh Mật Ong, Hẻm 132/16 Đường Hùng Vương, An Cư, Ninh Kiều, Cần Thơ","An Cư, Ninh Kiều",Hẻm 132/16 Đường Hùng Vương,Cần Thơ,,"Ninh Kiều, Cần Thơ",VN,"10.0413654,105.7757953"
31,ChIJ2W_dow-IoDERK0Qi5KzO-Ao,Bánh Pía Sóc Trăng,Tiệm bánh,0926 999 924,"Bánh Pía Sóc Trăng, 235 Đ. Nguyễn Văn Cừ, An Hoà, Ninh Kiều, Cần Thơ","An Hoà, Ninh Kiều",235 Đ. Nguyễn Văn Cừ,Cần Thơ,,"Ninh Kiều, Cần Thơ",VN,"10.047402199999999,105.7696059"
36,ChIJN0Mqr_aJoDER2QyFqDbFWa8,Tiệm Bánh Cake House,Tiệm bánh,0907 765 321,"Tiệm Bánh Cake House, 76 Nguyễn Văn Trỗi, Xuân Khánh, Ninh Kiều, Cần Thơ","Xuân Khánh, Ninh Kiều",76 Nguyễn Văn Trỗi,Cần Thơ,,"Ninh Kiều, Cần Thơ",VN,"10.036842799999999,105.77011859999999"
38,ChIJMy27HNeJoDERuMzRGvxKI3E,DAK's House Bánh Rau Câu Sinh Nhật Cần Thơ,Tiệm bánh,0777 860 271,"DAK's House Bánh Rau Câu Sinh Nhật Cần Thơ, 61/57 Hùng Vương, Thới Bình, Ninh Kiều, Cần Thơ","Thới Bình, Ninh Kiều",61/57 Hùng Vương,Cần Thơ,,"Ninh Kiều, Cần Thơ",VN,"10.041899599999999,105.7792896"
44,ChIJA1CyOhSJoDERFkX7Lu-NR5c,Trần Gia Bakery 5,Cửa hàng bánh,0938 937 808,"Trần Gia Bakery 5, Chợ An Khánh, 11 Đường 17, Phường An Khánh, Ninh Kiều, Cần Thơ","Phường An Khánh, Ninh Kiều","Chợ An Khánh, 11 Đường 17",Cần Thơ,,"Ninh Kiều, Cần Thơ",VN,"10.0400488,105.7547"
45,ChIJjdF4bi-JoDERzSsAzsZNV2Q,Bánh nhà bé Thỏ,Tiệm bánh,0933 606 804,"Bánh nhà bé Thỏ, 83/4 KV 2 bờ hồ Búng Xáng, Phường An Khánh, Ninh Kiều, Cần Thơ 902494","Phường An Khánh, Ninh Kiều",83/4 KV 2 bờ hồ Búng Xáng,Cần Thơ,902494.0,"Ninh Kiều, Cần Thơ",VN,"10.0382365,105.76828959999999"
48,ChIJL8cAv7SJoDERS307zIN45X0,Bánh tráng tô tô,Tiệm bánh,0966 169 670,"Bánh tráng tô tô, 136 Nguyễn Văn Cừ Nối Dài, Phường An Khánh, Ninh Kiều, Cần Thơ","Phường An Khánh, Ninh Kiều",136 Nguyễn Văn Cừ Nối Dài,Cần Thơ,,"Ninh Kiều, Cần Thơ",VN,"10.0394066,105.7607113"
50,ChIJX9sRHz-JoDER9KaSYJxQ1mE,GẤU - Bánh Crepe Sầu Riêng Bigsize Cần Thơ,Tiệm bánh,0798 071 345,"GẤU - Bánh Crepe Sầu Riêng Bigsize Cần Thơ, Đường B8, Khu dân cư 91B, Ninh Kiều, Cần Thơ","Khu dân cư 91B, Ninh Kiều",Đường B8,Cần Thơ,,"Ninh Kiều, Cần Thơ",VN,"10.022252,105.75562579999999"
53,ChIJW7VbGoKJoDERoIvkR9OtBTk,BÁNH CREPE SẦU RIÊNG PHÚ SĨ - DIỆP BẢO NGÂN,Cửa hàng bánh ngọt,0393 543 723,"2QC8+36Q BÁNH CREPE SẦU RIÊNG PHÚ SĨ - DIỆP BẢO NGÂN, Hưng Lợi, Ninh Kiều, Cần Thơ","Hưng Lợi, Ninh Kiều",2QC8+36Q,Cần Thơ,,"Ninh Kiều, Cần Thơ",VN,"10.0201988,105.7655496"
55,ChIJt5vTR--JoDER0yH_VprTHb8,"Bánh Sầu Riêng 9 Sạch, Cách Mạng Tháng 8",Tiệm bánh,0939 564 234,"Bánh Sầu Riêng 9 Sạch, Cách Mạng Tháng 8, 90 Đ. Cách Mạng Tháng 8, Cái Khế, Bình Thủy, Cần Thơ","Cái Khế, Bình Thủy",90 Đ. Cách Mạng Tháng 8,Cần Thơ,,"Bình Thủy, Cần Thơ",VN,"10.0545993,105.7710292"
56,ChIJdzl528eJoDERa9Z-bpsJh9Y,Tiệm bánh Trứng Gà Vàng,Tiệm bánh,0987 143 456,"Tiệm bánh Trứng Gà Vàng, 29a Đ. Nguyễn Việt Hồng, An Phú, Ninh Kiều, Cần Thơ","An Phú, Ninh Kiều",29a Đ. Nguyễn Việt Hồng,Cần Thơ,,"Ninh Kiều, Cần Thơ",VN,"10.0311527,105.77662"
57,ChIJY8ekdmiJoDERRgH2XoI634k,Hiệu bánh Nắng chang chang,Tiệm bánh,0899 504 908,"Hiệu bánh Nắng chang chang, 22 Huỳnh Cương, An Cư, Ninh Kiều, Cần Thơ","An Cư, Ninh Kiều",22 Huỳnh Cương,Cần Thơ,,"Ninh Kiều, Cần Thơ",VN,"10.0394688,105.7780999"
64,ChIJa8Ye5iuJoDERE8f4F9MC9Nk,Tâm Việt - Tiệm bánh sầu riêng,Tiệm bánh,0939 113 100,"Tâm Việt - Tiệm bánh sầu riêng, 110 Đ. Phan Huy Chú, Phường An Khánh, Ninh Kiều, Cần Thơ 94117","Phường An Khánh, Ninh Kiều",110 Đ. Phan Huy Chú,Cần Thơ,94117.0,"Ninh Kiều, Cần Thơ",VN,"10.0404237,105.7556862"
67,ChIJIatFUEmJoDERupQodnqBmxk,Tiệm Của An Bakery - Thế Giới Bánh Ngọt,Tiệm bánh,0356 050 160,"Tiệm Của An Bakery - Thế Giới Bánh Ngọt, 282/8F Đ. Trần Vĩnh Kiết, An Bình, Ninh Kiều, Cần Thơ","An Bình, Ninh Kiều",282/8F Đ. Trần Vĩnh Kiết,Cần Thơ,,"Ninh Kiều, Cần Thơ",VN,"10.0269275,105.7505109"
68,ChIJV3UEpkiJoDER1pSamKCFf2c,UYÊN TRẦN FOOD - CHUYÊN SỈ BÁNH DÂN GIAN NAM BỘ,Tiệm bánh,0924 321 606,"UYÊN TRẦN FOOD - CHUYÊN SỈ BÁNH DÂN GIAN NAM BỘ, 44 Đường B21, Khu dân cư 91B, Ninh Kiều, Cần Thơ","Khu dân cư 91B, Ninh Kiều",44 Đường B21,Cần Thơ,,"Ninh Kiều, Cần Thơ",VN,"10.0260939,105.75565069999999"
69,ChIJieVmhIOJoDERSD4TYWivRkI,Tiệm bánh Thu Thủy,Tiệm bánh,0707 005 888,"Tiệm bánh Thu Thủy, 198/7 Tầm Vu, Hưng Lợi, Ninh Kiều, Cần Thơ","Hưng Lợi, Ninh Kiều",198/7 Tầm Vu,Cần Thơ,,"Ninh Kiều, Cần Thơ",VN,"10.0095381,105.7575153"
70,ChIJXepVkQaJoDERostHbld0DfM,Bánh crepe sầu riêng Như Lệ,Tiệm bánh,0968 790 301,"2QF6+V5C Bánh crepe sầu riêng Như Lệ, Cầu Số 2, Hưng Lợi, Ninh Kiều, Cần Thơ","Hưng Lợi, Ninh Kiều","2QF6+V5C, Cầu Số 2",Cần Thơ,,"Ninh Kiều, Cần Thơ",VN,"10.0246897,105.7603783"
75,ChIJ9RFi3vSJoDERRvpD4uDpGJg,Tiệm Bánh Ma Kết,Tiệm bánh,0835 232 065,"Tiệm Bánh Ma Kết, 11/7 Đ. Mậu Thân, An Phú, Ninh Kiều, Cần Thơ 94000","An Phú, Ninh Kiều",11/7 Đ. Mậu Thân,Cần Thơ,94000.0,"Ninh Kiều, Cần Thơ",VN,"10.0325638,105.7734241"
79,ChIJHZsLhSWHoDER7nDT4-lRBGs,Bánh Trung Thu Túi Da - The Quin Bakery - Chi nhánh Cần Thơ,Cửa hàng bánh,0907 264 272,"Bánh Trung Thu Túi Da - The Quin Bakery - Chi nhánh Cần Thơ, 244/60 Đ. Cách Mạng Tháng 8, Bùi Hữu Nghĩa, Bình Thủy, Cần Thơ 900000","Bùi Hữu Nghĩa, Bình Thủy",244/60 Đ. Cách Mạng Tháng 8,Cần Thơ,900000.0,"Bình Thủy, Cần Thơ",VN,"10.059816699999999,105.7698427"
80,ChIJgy4xR9KJoDERUR8h6PsL9_I,Bánh Của Nâu,Cửa hàng bánh ngọt,0916 452 404,"Bánh Của Nâu, quán cafe Gum chạy vô hẻm, Hẻm 160c liên tổ 13, P An Khánh, Ninh Kiều, Cần Thơ 900000","P An Khánh, Ninh Kiều","quán cafe Gum chạy vô hẻm, Hẻm 160c liên tổ 13",Cần Thơ,900000.0,"Ninh Kiều, Cần Thơ",VN,"10.0445044,105.7607625"
81,ChIJ7-2F6ZOJoDERQpWcA3DfWfE,Tiệm Bánh Mino,Tiệm bánh,0936 382 324,"Tiệm Bánh Mino, 17 Đường số 6, Phường An Khánh, Ninh Kiều, Cần Thơ","Phường An Khánh, Ninh Kiều",17 Đường số 6,Cần Thơ,,"Ninh Kiều, Cần Thơ",VN,"10.043674399999999,105.75754669999999"
84,ChIJG-O_FwqJoDER6QRN3GAGIdg,Tiệm Bánh Tráng Abi,Tiệm bánh,0829 117 477,"Tiệm Bánh Tráng Abi, 11 Đ. Số 5A, Phường An Khánh, Ninh Kiều, Cần Thơ","Phường An Khánh, Ninh Kiều",11 Đ. Số 5A,Cần Thơ,,"Ninh Kiều, Cần Thơ",VN,"10.0391934,105.7545468"
85,ChIJ9w5kXjCJoDER67iIEJTBTcM,Bánh Tét Truyền Thống Tư Dân,Tiệm bánh,0909 622 387,"Bánh Tét Truyền Thống Tư Dân, 7 Đường B30, Khu dân cư 91B, Ninh Kiều, Cần Thơ 90000","Khu dân cư 91B, Ninh Kiều",7 Đường B30,Cần Thơ,90000.0,"Ninh Kiều, Cần Thơ",VN,"10.019311199999999,105.7554342"
86,ChIJx8IjnmaJoDERuGah8w0UDko,Bánh tráng tây ninh,Tiệm bánh,0916 024 605,"2P2C+87G Bánh tráng tây ninh, Mỹ Khánh, Phong Điền, Cần Thơ","Mỹ Khánh, Phong Điền",2P2C+87G,Cần Thơ,,"Phong Điền, Cần Thơ",VN,"10.000821499999999,105.7207184"
87,ChIJjXh6rNGJoDER-nzrlDrs88M,Tiệm bánh Baris,Tiệm bánh,0789 600 269,"Tiệm bánh Baris, 600 Nguyễn Văn Cừ Nối Dài, An Bình, Ninh Kiều, Cần Thơ","An Bình, Ninh Kiều",600 Nguyễn Văn Cừ Nối Dài,Cần Thơ,,"Ninh Kiều, Cần Thơ",VN,"10.0127952,105.7309011"
89,ChIJM8WEBbiJoDERgFdKPuzeLDs,Tiệm Bánh Trần Gia 4,Tiệm bánh,0938 937 808,"Tiệm Bánh Trần Gia 4, 5 Trần Chiên, Lê Bình, Cái Răng, Cần Thơ","Lê Bình, Cái Răng",5 Trần Chiên,Cần Thơ,,"Cái Răng, Cần Thơ",VN,"10.000625999999999,105.758072"
92,ChIJQy3hfp9ioDERSkPdDUUePaM,Cửa Hàng Bánh Bao - Xíu Mại - Há Cảo Viễn Hưng,Tiệm bánh,0292 3814 134,"Cửa Hàng Bánh Bao - Xíu Mại - Há Cảo Viễn Hưng, 61 Võ Văn Tần, Tân An, Ninh Kiều, Cần Thơ 900000","Tân An, Ninh Kiều",61 Võ Văn Tần,Cần Thơ,900000.0,"Ninh Kiều, Cần Thơ",VN,"10.0324308,105.78528639999999"
96,ChIJxausQp9ioDERagRHtFdKxzk,Bánh Mì Thủy,Cửa hàng bán đồ ăn nấu sẵn,0903 930 159,"Bánh Mì Thủy, 2-4 Đ. Nam Kỳ Khởi Nghĩa, Tân An, Ninh Kiều, Cần Thơ","Tân An, Ninh Kiều",2-4 Đ. Nam Kỳ Khởi Nghĩa,Cần Thơ,,"Ninh Kiều, Cần Thơ",VN,"10.0318085,105.7864788"
97,ChIJlTxvOteJoDEReLeKxcR7Nu0,Tiệm Bánh Bà Ròm,Tiệm bánh,0942 010 713,"2Q96+MJQ Tiệm Bánh Bà Ròm, Khu dân cư 148, Ninh Kiều, Cần Thơ","Khu dân cư 148, Ninh Kiều",2Q96+MJQ,Cần Thơ,,"Ninh Kiều, Cần Thơ",VN,"10.019209499999999,105.76161549999999"
99,ChIJuwcKWiGIoDERB3RkYWlj2zE,Bánh su kem Chewy Junior Cần Thơ,Tiệm bánh,0292 3734 916,"Bánh su kem Chewy Junior Cần Thơ, 3 Đ. Mậu Thân, Xuân Khánh, Ninh Kiều, Cần Thơ","Xuân Khánh, Ninh Kiều",3 Đ. Mậu Thân,Cần Thơ,,"Ninh Kiều, Cần Thơ",VN,"10.0279479,105.77654319999999"
100,ChIJdSEHcU5joDER87Di9YoG6yQ,Xe bánh Crepe Plus,Tiệm bánh,0819 122 199,"Xe bánh Crepe Plus, 26 Phan Bội Châu, Tân An, Ninh Kiều, Cần Thơ","Tân An, Ninh Kiều",26 Phan Bội Châu,Cần Thơ,,"Ninh Kiều, Cần Thơ",VN,"10.0316542,105.7872077"
102,ChIJRcjs30qJoDERxf0_piqMfa4,Bánh Mì KuDo,Tiệm bánh,0876 818 768,"Bánh Mì KuDo, 56 Nguyễn Văn Cừ Nối Dài, An Bình, Ninh Kiều, Cần Thơ 94000","An Bình, Ninh Kiều",56 Nguyễn Văn Cừ Nối Dài,Cần Thơ,94000.0,"Ninh Kiều, Cần Thơ",VN,"10.0259687,105.7470488"
104,ChIJr7F0HiSIoDERnTLAlCK6AgI,Bánh kem Đức Thành,Cửa hàng bánh,0292 3752 982,"Bánh kem Đức Thành, 241, Cần Thơ","Xuân Khánh, Ninh Kiều",241,Cần Thơ,,"Ninh Kiều, Cần Thơ",VN,"10.0265358,105.7760175"
105,ChIJJ16mY6uJoDERuNFIk6-P2KU,Bánh Mì KuDo,Tiệm bánh,0876 818 768,"Bánh Mì KuDo, 23 Đ. Nguyễn Hiền, Khu dân cư 91B, Ninh Kiều, Cần Thơ 900000","Khu dân cư 91B, Ninh Kiều",23 Đ. Nguyễn Hiền,Cần Thơ,900000.0,"Ninh Kiều, Cần Thơ",VN,"10.024593999999999,105.7577451"
108,ChIJM7w0EaBioDERDmnFzAglHZM,Hiệu Bánh Sông Yến 2,Tiệm bánh,0938 386 969,"Hiệu Bánh Sông Yến 2, 13 Đ. Đề Thám, Tân An, Ninh Kiều, Cần Thơ","Tân An, Ninh Kiều",13 Đ. Đề Thám,Cần Thơ,,"Ninh Kiều, Cần Thơ",VN,"10.0334503,105.7831439"
113,ChIJidRor5WJoDERogqDE_Pi61A,THE POLYGON Tiệm trà & bánh ngọt,Tiệm bánh,0932 914 646,"THE POLYGON Tiệm trà & bánh ngọt, 32 Đ. Trần Việt Châu, Thới Bình, Ninh Kiều, Cần Thơ","Thới Bình, Ninh Kiều",32 Đ. Trần Việt Châu,Cần Thơ,,"Ninh Kiều, Cần Thơ",VN,"10.047617899999999,105.7730721"
119,ChIJwepf76FioDERth8Lmj9JN4s,Bánh Mì Gà 37,Tiệm bánh,0292 3810 203,"Bánh Mì Gà 37, 37 Phan Đình Phùng, Tân An, Ninh Kiều, Cần Thơ","Tân An, Ninh Kiều",37 Phan Đình Phùng,Cần Thơ,,"Ninh Kiều, Cần Thơ",VN,"10.033042499999999,105.78695069999999"
122,ChIJ_RhEwgaHoDERVCSPXujSW9Y,Bánh Mì KuDo,Tiệm bánh,0876 828 768,"Bánh Mì KuDo, 176A3 Trần Quang Diệu, An Thới, Bình Thủy, Cần Thơ 94000","An Thới, Bình Thủy",176A3 Trần Quang Diệu,Cần Thơ,94000.0,"Bình Thủy, Cần Thơ",VN,"10.0583558,105.76469469999999"
123,ChIJjYvDPbCJoDERuDZSFXnSZ9o,Hiệu bánh Chín Chín - Tiệm bánh ngọt và trà sữa,Tiệm bánh,0943 418 091,"Hiệu bánh Chín Chín - Tiệm bánh ngọt và trà sữa, 53 Đ. Đinh Tiên Hoàng, An Hội, Ninh Kiều, Cần Thơ 900000","An Hội, Ninh Kiều",53 Đ. Đinh Tiên Hoàng,Cần Thơ,900000.0,"Ninh Kiều, Cần Thơ",VN,"10.0425585,105.7798091"
127,ChIJObbJrXKJoDERZayWA5qM6tQ,Bánh Trung Thu Kinh Đô Cần Thơ,Tiệm bánh kẹo,0987 700 288,"Bánh Trung Thu Kinh Đô Cần Thơ, 8B Đường số 26, KDC, Ninh Kiều, Cần Thơ 94000","KDC, Ninh Kiều",8B Đường số 26,Cần Thơ,94000.0,"Ninh Kiều, Cần Thơ",VN,"10.0390179,105.7566082"
128,ChIJnwIzszKJoDERCgEGwF0K97k,Tiem banh Vy,Tiệm bánh,,"Tiem banh Vy, 10 Nguyễn Văn Trỗi, Xuân Khánh, Ninh Kiều, Cần Thơ","Xuân Khánh, Ninh Kiều",10 Nguyễn Văn Trỗi,Cần Thơ,,"Ninh Kiều, Cần Thơ",VN,"10.0370464,105.7697141"
129,ChIJy7vCHlhjoDERzqbbNHRn210,Bánh Cá Kit,Tiệm bánh,0907 456 227,"Bánh Cá Kit, 1 Đ. Mạc Đĩnh Chi, Tân An, Ninh Kiều, Cần Thơ","Tân An, Ninh Kiều",1 Đ. Mạc Đĩnh Chi,Cần Thơ,,"Ninh Kiều, Cần Thơ",VN,"10.0361292,105.78292409999999"
133,ChIJ06ou0q2JoDERIWqsi8085m4,LÒ BÁNH SẦU RIÊNG MINH CHÂU,Tiệm bánh,0385 365 123,"LÒ BÁNH SẦU RIÊNG MINH CHÂU, 398 Nguyễn Văn Cừ Nối Dài, P, Ninh Kiều, Cần Thơ","P, Ninh Kiều",398 Nguyễn Văn Cừ Nối Dài,Cần Thơ,,"Ninh Kiều, Cần Thơ",VN,"10.035503799999999,105.75726739999999"
134,ChIJKdnzUiGIoDERTUNjOhhyhdc,Tiệm Bánh Patêsô Kim Hương,Tiệm bánh,0936 814 815,"Tiệm Bánh Patêsô Kim Hương, 20 Đ. Mậu Thân, An Phú, Ninh Kiều, Cần Thơ","An Phú, Ninh Kiều",20 Đ. Mậu Thân,Cần Thơ,,"Ninh Kiều, Cần Thơ",VN,"10.0275941,105.7769325"
137,ChIJO7CBSZ9ioDERZ0n_4Fdq3Ss,Cơ Sở Bánh Tét NĂM HÒA,Cửa hàng bánh ngọt,0939 525 388,"Cơ Sở Bánh Tét NĂM HÒA, 150 Đường Hai Bà Trưng, Tân An, Ninh Kiều, Cần Thơ","Tân An, Ninh Kiều",150 Đường Hai Bà Trưng,Cần Thơ,,"Ninh Kiều, Cần Thơ",VN,"10.030997,105.788017"
139,ChIJf_mtd4SJoDERyHQ9xa8kApI,Tiệm Bánh Cô Vân Ú,Tiệm bánh,0939 228 353,"Tiệm Bánh Cô Vân Ú, 112 Hẻm 132 Đ. 3 Tháng 2, Hưng Lợi, Ninh Kiều, Cần Thơ","Hưng Lợi, Ninh Kiều",112 Hẻm 132 Đ. 3 Tháng 2,Cần Thơ,,"Ninh Kiều, Cần Thơ",VN,"10.017719699999999,105.76129259999999"
143,ChIJxeaw2vWJoDERB9ktUI66Dm0,Bánh Mì Chả Cá Dì Ba,Tiệm bánh,0828 828 333,"Bánh Mì Chả Cá Dì Ba, 2 Đ. Phạm Ngũ Lão, Thới Bình, Ninh Kiều, Cần Thơ","Thới Bình, Ninh Kiều",2 Đ. Phạm Ngũ Lão,Cần Thơ,,"Ninh Kiều, Cần Thơ",VN,"10.047192899999999,105.77744799999999"
144,ChIJ_cGdi59ioDER6QeEq8X7BGQ,Cửa Hàng Bánh Flan 82,Tiệm bánh,0783 866 929,"Cửa Hàng Bánh Flan 82, 82 Đ. Nam Kỳ Khởi Nghĩa, Tân An, Ninh Kiều, Cần Thơ","Tân An, Ninh Kiều",82 Đ. Nam Kỳ Khởi Nghĩa,Cần Thơ,,"Ninh Kiều, Cần Thơ",VN,"10.032352399999999,105.78347889999999"
148,ChIJFZcNIziJoDERQkSkjMnQvUk,Bánh Trứng HongKong Smile,Cửa hàng bánh,0918 629 755,"Bánh Trứng HongKong Smile, 132/3 Đ. 3 Tháng 2, Hưng Lợi, Ninh Kiều, Cần Thơ 900000","Hưng Lợi, Ninh Kiều",132/3 Đ. 3 Tháng 2,Cần Thơ,900000.0,"Ninh Kiều, Cần Thơ",VN,"10.018525499999999,105.76136819999999"
152,ChIJS_ZkXkGIoDER3PA9PVuhhiA,Lò Bánh Mì Thuận Tiến 4,Tiệm bánh,0907 467 474,"Lò Bánh Mì Thuận Tiến 4, 307 Đ. Nguyễn Văn Linh, Phường An Khánh, Ninh Kiều, Cần Thơ","Phường An Khánh, Ninh Kiều",307 Đ. Nguyễn Văn Linh,Cần Thơ,,"Ninh Kiều, Cần Thơ",VN,"10.0298156,105.7530319"
153,ChIJhaPCTbWJoDERLuwhRTag4Hw,Lò Bánh Mì Huỳnh Suôl,Tiệm bánh,0292 3838 917,"Lò Bánh Mì Huỳnh Suôl, 59 Đ. 30 Tháng 4, Hưng Lợi, Ninh Kiều, Cần Thơ","Hưng Lợi, Ninh Kiều",59 Đ. 30 Tháng 4,Cần Thơ,,"Ninh Kiều, Cần Thơ",VN,"10.0120159,105.7583397"
155,ChIJjx8o99VjoDEREywkt5R5Hmw,Castella Taiwan - Bánh Bông Lan Tươi Đài Loan,Tiệm bánh,,"Castella Taiwan - Bánh Bông Lan Tươi Đài Loan, 31 Đ. Ngô Văn Sở, Tân An, Ninh Kiều, Cần Thơ","Tân An, Ninh Kiều",31 Đ. Ngô Văn Sở,Cần Thơ,,"Ninh Kiều, Cần Thơ",VN,"10.0338915,105.7855862"
157,ChIJkd2aKACJoDERxu5U0BeYLQY,Bánh mì truyền thống Thanh Xuân,Tiệm bánh,0939 468 676,"Bánh mì truyền thống Thanh Xuân, 148 Ngô Thì Nhậm, Phường An Khánh, Ninh Kiều, Cần Thơ","Phường An Khánh, Ninh Kiều",148 Ngô Thì Nhậm,Cần Thơ,,"Ninh Kiều, Cần Thơ",VN,"10.0413562,105.7557049"
158,ChIJkaWBQq-JoDERc2bqRnODRYo,Bánh Mì & Cafe AT.Bình,Quán cà phê,0989 009 014,"Bánh Mì & Cafe AT.Bình, 173, đường số 3, Khu Cán bộ - Giảng viên ĐHCT, P. An Khánh, Q, Ninh Kiều, Cần Thơ","Hưng Lợi, Ninh Kiều","173, đường số 3, Khu Cán bộ - Giảng viên ĐHCT, P. An Khánh, Q",Cần Thơ,,"Ninh Kiều, Cần Thơ",VN,"10.0258862,105.7599319"
160,ChIJf5jr7EOHoDERjj6o5-u166k,Bánh Bao Lộ Tẻ Lê Vy,Tiệm bánh,0939 538 224,"Bánh Bao Lộ Tẻ Lê Vy, 176G Trần Quang Diệu, An Thới, Bình Thủy, Cần Thơ","An Thới, Bình Thủy",176G Trần Quang Diệu,Cần Thơ,,"Bình Thủy, Cần Thơ",VN,"10.0583432,105.76425809999999"
161,ChIJVWep5hhjoDERXXgMLndRcks,La Baguette,Cửa hàng bánh ngọt,0292 3819 994,"La Baguette, 120 Đường Hai Bà Trưng, Tân An, Ninh Kiều, Cần Thơ","Tân An, Ninh Kiều",120 Đường Hai Bà Trưng,Cần Thơ,,"Ninh Kiều, Cần Thơ",VN,"10.0320435,105.78792279999999"
167,ChIJPeSbYgCJoDERf7Q7uueo36c,Bánh Trung Thu Cần Thơ,Tiệm bánh,0907 092 371,"Bánh Trung Thu Cần Thơ, 69 Võ Tánh, Lê Bình, Cái Răng, Cần Thơ 920000","Lê Bình, Cái Răng",69 Võ Tánh,Cần Thơ,920000.0,"Cái Răng, Cần Thơ",VN,"10.003490099999999,105.7459143"
170,ChIJlewlm3VjoDERL7KxwWjdukk,Bánh Peteso Mai Anh,Tiệm bánh,,"Bánh Peteso Mai Anh, 12-22 Đ. Điện Biên Phủ, Tân An, Ninh Kiều, Cần Thơ","Tân An, Ninh Kiều",12-22 Đ. Điện Biên Phủ,Cần Thơ,,"Ninh Kiều, Cần Thơ",VN,"10.0309847,105.78563489999999"
171,ChIJU1u8hiWJoDER8_8cIM5T364,Bánh khoai mỡ OLIN,Tiệm bánh,0933 579 790,"Bánh khoai mỡ OLIN, 74A Đ. Đề Thám, An Cư, Ninh Kiều, Cần Thơ","An Cư, Ninh Kiều",74A Đ. Đề Thám,Cần Thơ,,"Ninh Kiều, Cần Thơ",VN,"10.0343789,105.78205279999999"
174,ChIJFXuRUDeIoDERIQ6jxyIYnGM,Lò Bánh Mì Hiệp Sanh,Tiệm bánh,0787 837 317,"Lò Bánh Mì Hiệp Sanh, 18 Đ. Nguyễn Văn Linh, Hưng Lợi, Ninh Kiều, Cần Thơ","Hưng Lợi, Ninh Kiều",18 Đ. Nguyễn Văn Linh,Cần Thơ,,"Ninh Kiều, Cần Thơ",VN,"10.0222842,105.7638314"
176,ChIJuZpOcgCJoDERSCF7SpwNn5g,Bánh tráng Kim Nhi,Tiệm bánh,,"Bánh tráng Kim Nhi, 101 Đ. Nguyễn Văn Cừ, P, Ninh Kiều, Cần Thơ","P, Ninh Kiều",101 Đ. Nguyễn Văn Cừ,Cần Thơ,,"Ninh Kiều, Cần Thơ",VN,"10.0498566,105.7718574"
177,ChIJPQmxKtWJoDERv0NsSr-Ca2U,Bánh Tráng Trộn Lá Ngọc,Tiệm bánh,0939 816 679,"Bánh Tráng Trộn Lá Ngọc, 95/25 Hẻm, 95 Đ. Mậu Thân, Xuân Khánh, Ninh Kiều, Cần Thơ","Xuân Khánh, Ninh Kiều","95/25 Hẻm, 95 Đ. Mậu Thân",Cần Thơ,,"Ninh Kiều, Cần Thơ",VN,"10.0309679,105.77421749999999"
180,ChIJjYcdvReJoDERYNLifQK-4ec,Bánh trứng HongKong Smile 2,Tiệm bánh,,"Bánh trứng HongKong Smile 2, 04 Đ. Trần Hoàng Na, Phường An Khánh, Ninh Kiều, Cần Thơ","Phường An Khánh, Ninh Kiều",04 Đ. Trần Hoàng Na,Cần Thơ,,"Ninh Kiều, Cần Thơ",VN,"10.0244863,105.75027139999999"
181,ChIJoRkaMASJoDER27vVJmenVNY,Lò Bánh Tét Sơn Thuỷ,Tiệm bánh,0398 536 674,"Lò Bánh Tét Sơn Thuỷ, 187A1/6A, Đ. Trần Vĩnh Kiết, An Bình, Ninh Kiều, Cần Thơ","An Bình, Ninh Kiều","187A1/6A, Đ. Trần Vĩnh Kiết",Cần Thơ,,"Ninh Kiều, Cần Thơ",VN,"10.017361099999999,105.75023739999999"
182,ChIJJdIhx7CJoDERi8QNkyMx8CE,Tiệm Bánh An Thảo,Tiệm bánh,0903 190 175,"Tiệm Bánh An Thảo, 488 Trần Hưng Đạo, Lê Bình, Cái Răng, Cần Thơ","Lê Bình, Cái Răng",488 Trần Hưng Đạo,Cần Thơ,,"Cái Răng, Cần Thơ",VN,"10.002125699999999,105.75199699999999"
185,ChIJu9Ls9FaJoDERkHHJ1Mt0378,Bánh khoai mỡ Má Sáu 2,Tiệm bánh,,"Bánh khoai mỡ Má Sáu 2, 54 Đ. Trần Hoàng Na, Hưng Lợi, Ninh Kiều, Cần Thơ","Hưng Lợi, Ninh Kiều",54 Đ. Trần Hoàng Na,Cần Thơ,,"Ninh Kiều, Cần Thơ",VN,"10.0180551,105.7582418"
193,ChIJJe02FC9joDER0ey2aN7oajU,Bánh lọt Thuỷ,Cửa hàng bán đồ ăn nấu sẵn,0783 932 169,"Bánh lọt Thuỷ, 26 Xô Viết Nghệ Tĩnh, An Hội, Ninh Kiều, Cần Thơ 94000","An Hội, Ninh Kiều",26 Xô Viết Nghệ Tĩnh,Cần Thơ,94000.0,"Ninh Kiều, Cần Thơ",VN,"10.0380792,105.78420369999999"
194,ChIJyf_VT59ioDERCJBM8uR2s5A,Cửa Hàng Phụ Liệu & Làm Bánh Kem Lệ Quyên,Tiệm bánh,0932 603 680,"Cửa Hàng Phụ Liệu & Làm Bánh Kem Lệ Quyên, 30 Phan Bội Châu, Tân An, Ninh Kiều, Cần Thơ 94000","Tân An, Ninh Kiều",30 Phan Bội Châu,Cần Thơ,94000.0,"Ninh Kiều, Cần Thơ",VN,"10.031760199999999,105.78751349999999"
195,ChIJe39dow1joDERGkKfvNM9UUA,Bánh mì 9 Cà,Tiệm bánh,0822 025 249,"2QVM+RMM Bánh mì 9 Cà, Lô 88, Cái Khế, Ninh Kiều, Cần Thơ","Cái Khế, Ninh Kiều","2QVM+RMM, Lô 88",Cần Thơ,,"Ninh Kiều, Cần Thơ",VN,"10.044586599999999,105.78416709999999"
200,ChIJISshLIOJoDERWJwAmH88twc,Bánh mì nướng Cô Phượng,Tiệm bánh,,"Bánh mì nướng Cô Phượng, 236 Đ. Nguyễn Văn Cừ, Phường An Khánh, Ninh Kiều, Cần Thơ","Phường An Khánh, Ninh Kiều",236 Đ. Nguyễn Văn Cừ,Cần Thơ,,"Ninh Kiều, Cần Thơ",VN,"10.0372027,105.7589799"
201,ChIJH5GZ4J5ioDERSyOz6eI9v6g,Bánh ướt 119,Cửa hàng bánh,,"Bánh ướt 119, 69/2 Đ. Cách Mạng Tháng 8, An Hoà, Ninh Kiều, Cần Thơ","An Hoà, Ninh Kiều",69/2 Đ. Cách Mạng Tháng 8,Cần Thơ,,"Ninh Kiều, Cần Thơ",VN,"10.0499276,105.77517119999999"
202,ChIJ3a6pA_5joDER9xOQjiKuUmM,Bánh mì NGÒ,Cửa hàng bán bánh mì tròn Bagels,,"Bánh mì NGÒ, 62 Phan Đình Phùng, Tân An, Ninh Kiều, Cần Thơ","Tân An, Ninh Kiều",62 Phan Đình Phùng,Cần Thơ,,"Ninh Kiều, Cần Thơ",VN,"10.030620899999999,105.78647409999999"
203,ChIJwe4u76FioDERKrSACjMkqBM,Tiệm Bánh Tét Chín Cẩm,Tiệm bánh,0932 901 049,"Tiệm Bánh Tét Chín Cẩm, 14 Phan Đình Phùng, Tân An, Ninh Kiều, Cần Thơ","Tân An, Ninh Kiều",14 Phan Đình Phùng,Cần Thơ,,"Ninh Kiều, Cần Thơ",VN,"10.033056799999999,105.7867488"
211,ChIJaziAOQ2JoDERcUxlsVGoTLo,AZ Bánh,Tiệm bánh,0886 368 386,"AZ Bánh, 124A Đ. Mậu Thân, An Hoà, Ninh Kiều, Cần Thơ 900000","An Hoà, Ninh Kiều",124A Đ. Mậu Thân,Cần Thơ,900000.0,"Ninh Kiều, Cần Thơ",VN,"10.0473196,105.76218469999999"
214,ChIJyYdz4YKJoDERCZ7yDm0xkrg,Bánh Bao Thọ Phát Nguyễn Văn Cừ,Tiệm bánh,0946 188 809,"Bánh Bao Thọ Phát Nguyễn Văn Cừ, 291B/9 Đ. Nguyễn Văn Cừ, Phường An Khánh, Ninh Kiều, Cần Thơ","Phường An Khánh, Ninh Kiều",291B/9 Đ. Nguyễn Văn Cừ,Cần Thơ,,"Ninh Kiều, Cần Thơ",VN,"10.031028599999999,105.75264659999999"
216,ChIJ3cykKfiJoDERLNpgUus7jlo,Tiệm Bánh Gia Mỹ,Tiệm bánh,,"Tiệm Bánh Gia Mỹ, 102 Hẻm 132 Đ. 3 Tháng 2, Hưng Lợi, Ninh Kiều, Cần Thơ","Hưng Lợi, Ninh Kiều",102 Hẻm 132 Đ. 3 Tháng 2,Cần Thơ,,"Ninh Kiều, Cần Thơ",VN,"10.0172634,105.7592543"
219,ChIJ679B-32JoDERJJl59U75RFc,Bánh Tráng Trộn Cầu số 1 - Cần Thơ,Tiệm bánh,0907 726 052,"Bánh Tráng Trộn Cầu số 1 - Cần Thơ, 7 Đ. Nguyễn Văn Linh, Hưng Lợi, Ninh Kiều, Cần Thơ 900000","Hưng Lợi, Ninh Kiều",7 Đ. Nguyễn Văn Linh,Cần Thơ,900000.0,"Ninh Kiều, Cần Thơ",VN,"10.0222392,105.76333629999999"
223,ChIJCx2LV0SJoDERnNkWCMfV-k8,Bánh Tráng Thảo Mèo,Tiệm bánh,0931 017 338,"Bánh Tráng Thảo Mèo, 188 Đ. 30 Tháng 4, An Phú, Ninh Kiều, Cần Thơ","An Phú, Ninh Kiều",188 Đ. 30 Tháng 4,Cần Thơ,,"Ninh Kiều, Cần Thơ",VN,"10.027615299999999,105.77736499999999"
225,ChIJyeScpQKJoDERHU1Q7bhROCA,Bánh tráng phơi sương như ý 2,Tiệm bánh,0917 897 243,"Bánh tráng phơi sương như ý 2, 27b Đ. Mậu Thân, An Hoà, Ninh Kiều, Cần Thơ 900000","An Hoà, Ninh Kiều",27b Đ. Mậu Thân,Cần Thơ,900000.0,"Ninh Kiều, Cần Thơ",VN,"10.0401445,105.76809279999999"
227,ChIJ11uVIiOIoDER9-YXVl5sKN0,Cơ Sở Sản Xuất Bánh Thanh Nga,Tiệm bánh,0292 3825 437,"Cơ Sở Sản Xuất Bánh Thanh Nga, Số 47/11, Đường 3/2, Phường Xuân Khánh, Quận Ninh Kiều, Xuân Khánh, Ninh Kiều, Cần Thơ","Xuân Khánh, Ninh Kiều","Số 47/11, Đường 3/2, Phường Xuân Khánh, Quận Ninh Kiều",Cần Thơ,,"Ninh Kiều, Cần Thơ",VN,"10.025175299999999,105.7674567"
228,ChIJJ5ghMlSIoDERInEXUhH5dws,Lò bánh mì Thuận tiến 3,Cửa hàng bán bánh mì tròn Bagels,,"2P9Q+39C Lò bánh mì Thuận tiến 3, An Bình, Ninh Kiều, Cần Thơ","An Bình, Ninh Kiều",2P9Q+39C,Cần Thơ,,"Ninh Kiều, Cần Thơ",VN,"10.017699499999999,105.7384002"
229,ChIJxRIi8kSIoDERSPHna8qFAu0,Tiệm Bánh Mì Huy Phát,Tiệm bánh,0933 533 380,"Tiệm Bánh Mì Huy Phát, 388E Nguyễn Văn Cừ Nối Dài, Phường An Khánh, Ninh Kiều, Cần Thơ","Phường An Khánh, Ninh Kiều",388E Nguyễn Văn Cừ Nối Dài,Cần Thơ,,"Ninh Kiều, Cần Thơ",VN,"10.0277578,105.7488498"
231,ChIJV8m-TbWJoDERlK93cN0EcFg,Cửa Hàng Bánh Mì,Tiệm bánh,0976 178 801,"Cửa Hàng Bánh Mì, 619 Đ. 30 Tháng 4, Hưng Lợi, Ninh Kiều, Cần Thơ","Hưng Lợi, Ninh Kiều",619 Đ. 30 Tháng 4,Cần Thơ,,"Ninh Kiều, Cần Thơ",VN,"10.0117623,105.7577156"
233,ChIJfUv5LHKJoDERoKgGUMykDPg,Tiệm Bánh MỘC YÊN,Tiệm bánh,,"Tiệm Bánh MỘC YÊN, 7/5 Đ. Số 4, Hưng Lợi, Ninh Kiều, Cần Thơ 900000","Hưng Lợi, Ninh Kiều",7/5 Đ. Số 4,Cần Thơ,900000.0,"Ninh Kiều, Cần Thơ",VN,"10.0210998,105.7599695"
236,ChIJp1QeTNeJoDERx9zvJqGuIKQ,Bánh bao Hoà Hương,Cửa hàng bánh,0967 599 602,"Bánh bao Hoà Hương, 328 Đ. Nguyễn Văn Linh, Phường An Khánh, Ninh Kiều, Cần Thơ","Phường An Khánh, Ninh Kiều",328 Đ. Nguyễn Văn Linh,Cần Thơ,,"Ninh Kiều, Cần Thơ",VN,"10.027356,105.7559926"
241,ChIJo3O3RCOIoDERzGeWvq6ZdZA,Tiệm Bánh ÔVêPa 8688,Cửa hàng bánh ngọt,0907 491 779,"2QHC+9GJ Tiệm Bánh ÔVêPa 8688, Đ. 3 Tháng 2, Xuân Khánh, Ninh Kiều, Cần Thơ","Xuân Khánh, Ninh Kiều","2QHC+9GJ, Đ. 3 Tháng 2",Cần Thơ,,"Ninh Kiều, Cần Thơ",VN,"10.0284519,105.7712801"
244,ChIJGYQvkI2JoDERg3yMwEa90Uc,Tiệm Bánh Mì Hữu Hiệp 3/2,Tiệm bánh,,"Tiệm Bánh Mì Hữu Hiệp 3/2, 43c Đ. 3/2, Xuân Khánh, Ninh Kiều, Cần Thơ","Xuân Khánh, Ninh Kiều",43c Đ. 3/2,Cần Thơ,,"Ninh Kiều, Cần Thơ",VN,"10.0281156,105.7743541"
246,ChIJZa5y955ioDEReXIuGRbssNk,Lò Bánh Trung Thu Di Thành,Tiệm bánh,0292 3821 349,"Lò Bánh Trung Thu Di Thành, 80 Đ. Điện Biên Phủ, Tân An, Ninh Kiều, Cần Thơ","Tân An, Ninh Kiều",80 Đ. Điện Biên Phủ,Cần Thơ,,"Ninh Kiều, Cần Thơ",VN,"10.0287398,105.7851956"
247,ChIJ_x4e7DSJoDERDLWRBO5q7Xo,Bánh crepe sầu riêng - Ngân Cờ rép,Tiệm bánh,,"Bánh crepe sầu riêng - Ngân Cờ rép, 311/16b Đ. Nguyễn Văn Cừ, Phường An Khánh, Ninh Kiều, Cần Thơ","Phường An Khánh, Ninh Kiều",311/16b Đ. Nguyễn Văn Cừ,Cần Thơ,,"Ninh Kiều, Cần Thơ",VN,"10.044972699999999,105.76916489999999"
248,ChIJ3YgbDKxjoDERWn3qYiSxmE0,Bánh mì anh Mập,Tiệm bánh,,"Bánh mì anh Mập, 2 Đường Hai Bà Trưng, Tân An, Ninh Kiều, Cần Thơ","Tân An, Ninh Kiều",2 Đường Hai Bà Trưng,Cần Thơ,,"Ninh Kiều, Cần Thơ",VN,"10.035451799999999,105.789188"
250,ChIJT_e6vgKIoDER_c5JvDWM1rg,Bánh Mì Gà 156 Nguyễn Trãi,Cửa hàng,0966 299 255,"Bánh Mì Gà 156 Nguyễn Trãi, 156 Nguyễn Trãi, An Hội, Ninh Kiều, Cần Thơ","An Hội, Ninh Kiều",156 Nguyễn Trãi,Cần Thơ,,"Ninh Kiều, Cần Thơ",VN,"10.044600899999999,105.7808546"
251,ChIJVSsomJSJoDERTKwsv43xNNc,Bánh tằm bì LÊ LAI,Tiệm bánh,,"Bánh tằm bì LÊ LAI, 3 Đ. Lê Lai, An Phú, Ninh Kiều, Cần Thơ","An Phú, Ninh Kiều",3 Đ. Lê Lai,Cần Thơ,,"Ninh Kiều, Cần Thơ",VN,"10.0329981,105.77984339999999"
253,ChIJUwSg9qOJoDERrJvT7gegTls,Bánh bao Thảo Vân,Tiệm bánh,0706 595 443,"Bánh bao Thảo Vân, 78 Đ. Mậu Thân, An Nghiệp, Ninh Kiều, Cần Thơ","An Nghiệp, Ninh Kiều",78 Đ. Mậu Thân,Cần Thơ,,"Ninh Kiều, Cần Thơ",VN,"10.0365992,105.7722886"
255,ChIJbz5YbC2JoDERRn2XxC7uqiM,Bánh xèo Cô Thắm,Tiệm bánh,0772 672 143,"Bánh xèo Cô Thắm, Cạnh 2/121C, Hẻm 311 Đ. Nguyễn Văn Cừ, An Hoà, Ninh Kiều, Cần Thơ","An Hoà, Ninh Kiều","Cạnh 2/121C, Hẻm 311 Đ. Nguyễn Văn Cừ",Cần Thơ,,"Ninh Kiều, Cần Thơ",VN,"10.043530299999999,105.77067489999999"
256,ChIJfZwBKLOJoDERMVEsdUDw6Rg,Tiệm Bánh Cô Vân Ú 5,Tiệm bánh,,"Tiệm Bánh Cô Vân Ú 5, 53a1 Đ. Hồ Bún Xáng, Xuân Khánh, Ninh Kiều, Cần Thơ","Xuân Khánh, Ninh Kiều",53a1 Đ. Hồ Bún Xáng,Cần Thơ,,"Ninh Kiều, Cần Thơ",VN,"10.0327311,105.7633012"
259,ChIJ1YEGlqyJoDERYD012UUdSxE,TIỆM BÁNH KEM -RAU CÂU KIỀU VY,Tiệm bánh,0786 958 603,"TIỆM BÁNH KEM -RAU CÂU KIỀU VY, 154 Lộ Vòng Cung, Mỹ Khánh, Phong Điền, Cần Thơ","Mỹ Khánh, Phong Điền",154 Lộ Vòng Cung,Cần Thơ,,"Phong Điền, Cần Thơ",VN,"9.9967034,105.7229344"
261,ChIJg1qv-pqJoDERH3eF128y74A,Lò bánh mỳ heo quay hoàng thiện 2,Tiệm bánh,,"Lò bánh mỳ heo quay hoàng thiện 2, 245 Lộ Vòng Cung, An Bình, Ninh Kiều, Cần Thơ","An Bình, Ninh Kiều",245 Lộ Vòng Cung,Cần Thơ,,"Ninh Kiều, Cần Thơ",VN,"10.0082963,105.7493181"
262,ChIJw0Iww7CJoDERsW_exYSc3cY,Lò Bánh Mì Minh Anh 2,Tiệm bánh,0944 447 367,"Lò Bánh Mì Minh Anh 2, 563 Nguyễn Trãi, Lê Bình, Cái Răng, Cần Thơ","Lê Bình, Cái Răng",563 Nguyễn Trãi,Cần Thơ,,"Cái Răng, Cần Thơ",VN,"10.003514299999999,105.75177839999999"
263,ChIJ0fd711aJoDERknSjTovFBSU,Tiệm Bánh Rùa Béo,Tiệm bánh,0915 684 042,"Tiệm Bánh Rùa Béo, Đ. Trần Hoàng Na, Hưng Lợi, Ninh Kiều, Cần Thơ 900000","Hưng Lợi, Ninh Kiều",Đ. Trần Hoàng Na,Cần Thơ,900000.0,"Ninh Kiều, Cần Thơ",VN,"10.0126595,105.7646718"
264,ChIJrcgmp7GJoDERt8nOOej_2YU,Cơ Sở Bánh Mì Đại Phong,Cửa hàng giao pizza,0292 3846 139,"Cơ Sở Bánh Mì Đại Phong, 98/4, Võ Tánh, Phường Lê Bình, Quận Cái Răng, Tp. Cần Thơ, Lê Bình, Cái Răng, Cần Thơ","Lê Bình, Cái Răng","98/4, Võ Tánh, Phường Lê Bình, Quận Cái Răng, Tp. Cần Thơ",Cần Thơ,,"Cái Răng, Cần Thơ",VN,"10.0050314,105.7488709"
265,ChIJ8-LlfTiIoDERNGBR7Zxph-c,Lò Bánh Mì 24h,Tiệm bánh,0917 441 001,"Lò Bánh Mì 24h, 91B Đ. Nguyễn Văn Linh, Hưng Lợi, Ninh Kiều, Cần Thơ","Hưng Lợi, Ninh Kiều",91B Đ. Nguyễn Văn Linh,Cần Thơ,,"Ninh Kiều, Cần Thơ",VN,"10.02554,105.759"
267,ChIJcYra_5OJoDER62c-ncUqYxQ,Bếp bánh Hana,Tiệm bánh,0359 963 763,"Bếp bánh Hana, Hẻm 22 Đ. Trần Hoàng Na, Hưng Lợi, Ninh Kiều, Cần Thơ","Hưng Lợi, Ninh Kiều",Hẻm 22 Đ. Trần Hoàng Na,Cần Thơ,,"Ninh Kiều, Cần Thơ",VN,"10.013401499999999,105.76393"
269,ChIJVcAaSTWIoDERuqt0Bg_wiTA,Bánh Pía Lê Dương,Cửa hàng,0917 073 037,"Bánh Pía Lê Dương, 730 Đ. 30 Tháng 4, Hưng Lợi, Ninh Kiều, Cần Thơ","Hưng Lợi, Ninh Kiều",730 Đ. 30 Tháng 4,Cần Thơ,,"Ninh Kiều, Cần Thơ",VN,"10.0120869,105.7594536"
272,ChIJUZwNJEdjoDEREIA3HY2IjeU,Bánh trán trộm bà bảy,Cửa hàng tạp phẩm,,"Bánh trán trộm bà bảy, 10 Đ. Nguyễn Khuyến, Tân An, Ninh Kiều, Cần Thơ","Tân An, Ninh Kiều",10 Đ. Nguyễn Khuyến,Cần Thơ,,"Ninh Kiều, Cần Thơ",VN,"10.0353823,105.7837076"
275,ChIJHyzLvuiJoDERCy1vBYKBMfk,Bánh khoai mỡ công viên Lưu Hữu Phước,Tiệm bánh,,"Bánh khoai mỡ công viên Lưu Hữu Phước, 30 Đ. Phan Văn Trị, An Lạc, Ninh Kiều, Cần Thơ","An Lạc, Ninh Kiều",30 Đ. Phan Văn Trị,Cần Thơ,,"Ninh Kiều, Cần Thơ",VN,"10.0325218,105.78075489999999"
276,ChIJuXKSWMiJoDERQJBBX-mmAQo,Tiệm bánh December,Tiệm bánh,0292 3611 616,"Tiệm bánh December, 15 Đ. Lý Tự Trọng, An Cư, Ninh Kiều, Cần Thơ 94000","An Cư, Ninh Kiều",15 Đ. Lý Tự Trọng,Cần Thơ,94000.0,"Ninh Kiều, Cần Thơ",VN,"10.0342393,105.77935049999999"
277,ChIJz_Io5qKJoDER2ysDnm5E37E,"Thành Đạt - Bánh ngọt, há cảo, dimsum",Tiệm bánh,,"Thành Đạt - Bánh ngọt, há cảo, dimsum, 70 Đ. Nguyễn Việt Hồng, An Lạc, Ninh Kiều, Cần Thơ","An Lạc, Ninh Kiều",70 Đ. Nguyễn Việt Hồng,Cần Thơ,,"Ninh Kiều, Cần Thơ",VN,"10.0314184,105.7792295"
278,ChIJ8yenH3aJoDERFsYYA1ZnBOw,Quầy bánh trung thu Kinh Đô - Kido,Tiệm bánh,0962 374 906,"Quầy bánh trung thu Kinh Đô - Kido, 256 Đ. Nguyễn Văn Cừ, An Hoà, Ninh Kiều, Cần Thơ 90000","An Hoà, Ninh Kiều",256 Đ. Nguyễn Văn Cừ,Cần Thơ,90000.0,"Ninh Kiều, Cần Thơ",VN,"10.0466793,105.7676958"
279,ChIJRSCdxwtjoDERdtkEdYC7swo,Bánh mì heo quay,Tiệm bánh,,"Bánh mì heo quay, 19-21 Đ. Thủ Khoa Huân, Tân An, Ninh Kiều, Cần Thơ","Tân An, Ninh Kiều",19-21 Đ. Thủ Khoa Huân,Cần Thơ,,"Ninh Kiều, Cần Thơ",VN,"10.0345993,105.7876198"
280,ChIJw5Q7VmmJoDERcGo35LEkGzA,Bánh Tráng Phương Uyên,Tiệm bánh,0765 932 874,"Bánh Tráng Phương Uyên, 1/63 Đ. Đinh Tiên Hoàng, An Hội, Ninh Kiều, Cần Thơ","An Hội, Ninh Kiều",1/63 Đ. Đinh Tiên Hoàng,Cần Thơ,,"Ninh Kiều, Cần Thơ",VN,"10.042361999999999,105.7800274"
281,ChIJWRqxFqBioDERccPYMeUeycY,Tiệm Bánh Batêsô Phú Cường,Tiệm bánh,0292 3811 382,"Tiệm Bánh Batêsô Phú Cường, 28 Đ. Đề Thám, Tân An, Ninh Kiều, Cần Thơ","Tân An, Ninh Kiều",28 Đ. Đề Thám,Cần Thơ,,"Ninh Kiều, Cần Thơ",VN,"10.033693099999999,105.7830436"
282,ChIJg3Tfu7qJoDERAKZuLDQI2G4,Bánh Mì Mỹ Phụng,Tiệm bánh,,"Bánh Mì Mỹ Phụng, 43 Hùng Vương, An Cư, Ninh Kiều, Cần Thơ","An Cư, Ninh Kiều",43 Hùng Vương,Cần Thơ,,"Ninh Kiều, Cần Thơ",VN,"10.0440001,105.7790251"
284,ChIJm5RVya5ioDERr-xzxl_tau8,Tiệm Bánh Huy Hoàng,Tiệm bánh,0919 305 022,"Tiệm Bánh Huy Hoàng, 193 Trần Văn Khéo, Cái Khế, Ninh Kiều, Cần Thơ","Cái Khế, Ninh Kiều",193 Trần Văn Khéo,Cần Thơ,,"Ninh Kiều, Cần Thơ",VN,"10.0469659,105.7882745"
286,ChIJZwXNkuWJoDERDACO3fIodAo,Bánh Cuốn Nóng Út Tho,Tiệm bánh,0382 326 682,"Bánh Cuốn Nóng Út Tho, 111 Đ. Đề Thám, An Cư, Ninh Kiều, Cần Thơ","An Cư, Ninh Kiều",111 Đ. Đề Thám,Cần Thơ,,"Ninh Kiều, Cần Thơ",VN,"10.0349998,105.7815105"
294,ChIJq6qqBw-IoDERFdPBfNPz1_c,Tiệm Bánh Xèo An Bình,Tiệm bánh,0292 3601 186,"Tiệm Bánh Xèo An Bình, 175, Đường Nguyễn Văn Cừ, Phường An Hoà, Quận Ninh Kiều, Tp Cần Thơ, An Hoà, Ninh Kiều, Cần Thơ","An Hoà, Ninh Kiều","175, Đường Nguyễn Văn Cừ, Phường An Hoà, Quận Ninh Kiều, Tp Cần Thơ",Cần Thơ,,"Ninh Kiều, Cần Thơ",VN,"10.047019299999999,105.76794439999999"
295,ChIJh5mRBN6JoDERj9fOLUJSLtY,Bánh ngọt A LIAN,Tiệm bánh,0986 056 684,"Bánh ngọt A LIAN, 76A Đ. Phạm Thế Hiển, Phường An Khánh, Ninh Kiều, Cần Thơ","Phường An Khánh, Ninh Kiều",76A Đ. Phạm Thế Hiển,Cần Thơ,,"Ninh Kiều, Cần Thơ",VN,"10.039608099999999,105.7567009"
296,ChIJu5BdN5OJoDERBLnOyeREbv8,Bánh bột lọc huế cần thơ,Tiệm bánh,0865 255 710,"Bánh bột lọc huế cần thơ, 158A2/16, hẻm liên tổ 12...20, Nguyễn Văn Cừ Nối Dài, Phường An Khánh, Ninh Kiều, Cần Thơ","Phường An Khánh, Ninh Kiều","158A2/16, hẻm liên tổ 12...20, Nguyễn Văn Cừ Nối Dài",Cần Thơ,,"Ninh Kiều, Cần Thơ",VN,"10.0429812,105.7612479"
298,ChIJExzl8V-JoDERj01bBQDhXlE,Lò Bánh Mì Phú Ông,Tiệm bánh,,"Lò Bánh Mì Phú Ông, 385V9 Nguyễn Văn Cừ Nối Dài, Phường An Khánh, Ninh Kiều, Cần Thơ","Phường An Khánh, Ninh Kiều",385V9 Nguyễn Văn Cừ Nối Dài,Cần Thơ,,"Ninh Kiều, Cần Thơ",VN,"10.034166899999999,105.7593873"
299,ChIJSZYJO7yJoDER-o2obveg8m0,Bánh nướng Đài Loan,Tiệm bánh,0939 744 720,"Bánh nướng Đài Loan, 114 Đ. Mậu Thân, An Nghiệp, Ninh Kiều, Cần Thơ 900000","An Nghiệp, Ninh Kiều",114 Đ. Mậu Thân,Cần Thơ,900000.0,"Ninh Kiều, Cần Thơ",VN,"10.0373588,105.7717696"
301,ChIJxWk7dB-JoDERlDy1sDFmedY,Bánh Bạch tuộc - Takoyaki Cô Chủ Nhỏ,Tiệm bánh,0909 770 095,"Bánh Bạch tuộc - Takoyaki Cô Chủ Nhỏ, 94 Đ. Mậu Thân, An Hoà, Ninh Kiều, Cần Thơ","An Hoà, Ninh Kiều",94 Đ. Mậu Thân,Cần Thơ,,"Ninh Kiều, Cần Thơ",VN,"10.0431207,105.7658543"
302,ChIJ_04phT6JoDERdASIjTyxP_E,Bánh bò Cô Thúy,Tiệm bánh,0946 477 052,"Bánh bò Cô Thúy, 132B30 Đ. Nguyễn Văn Cừ, Xuân Khánh, Ninh Kiều, Cần Thơ","Xuân Khánh, Ninh Kiều",132B30 Đ. Nguyễn Văn Cừ,Cần Thơ,,"Ninh Kiều, Cần Thơ",VN,"10.036272199999999,105.76606989999999"
305,ChIJr0sFyzuJoDERedOU79Fa3zY,Bánh Xèo Cô Sáu,Cửa hàng bán đồ ăn nấu sẵn,0907 642 707,"Bánh Xèo Cô Sáu, 161/13 tổ 13, Nguyễn Văn Cừ Nối Dài, Phường An Khánh, Ninh Kiều, Cần Thơ","Phường An Khánh, Ninh Kiều","161/13 tổ 13, Nguyễn Văn Cừ Nối Dài",Cần Thơ,,"Ninh Kiều, Cần Thơ",VN,"10.0433833,105.7597136"
306,ChIJ_TWwhXqJoDERGXOan1gXazI,Bánh Bảo Khánh,Tiệm bánh,0919 245 697,"Bánh Bảo Khánh, 143 Đ. Chu Văn An, KV1, Ninh Kiều, Cần Thơ","KV1, Ninh Kiều",143 Đ. Chu Văn An,Cần Thơ,,"Ninh Kiều, Cần Thơ",VN,"10.0441518,105.7538732"
308,ChIJoZzW9j-IoDERkOp2eVAGUZA,Bánh Kem Thúy Kiều,Tiệm bánh,,"Bánh Kem Thúy Kiều, An Khánh, Ninh Kiều, Cần Thơ","An Khánh, Ninh Kiều",,Cần Thơ,,"Ninh Kiều, Cần Thơ",VN,"10.0328755,105.7589332"
310,ChIJx1UrqH6JoDERDzNEgzagIhA,Bánh Mì Thổ Nhĩ Kỳ - KEBAB THIÊN Ý,Tiệm bánh,0783 739 789,"Bánh Mì Thổ Nhĩ Kỳ - KEBAB THIÊN Ý, 96 Trần Bạch Đằng, Phường An Khánh, Ninh Kiều, Cần Thơ","Phường An Khánh, Ninh Kiều",96 Trần Bạch Đằng,Cần Thơ,,"Ninh Kiều, Cần Thơ",VN,"10.0375509,105.75375"
311,ChIJl4zt3DeJoDERd1BURBI0GtY,Toto - tiệm bánh thiên đường,Tiệm bánh,0907 057 918,"Toto - tiệm bánh thiên đường, 68 Nguyễn Văn Cừ Nối Dài, An Bình, Ninh Kiều, Cần Thơ 90000","An Bình, Ninh Kiều",68 Nguyễn Văn Cừ Nối Dài,Cần Thơ,90000.0,"Ninh Kiều, Cần Thơ",VN,"10.0253611,105.7464313"
312,ChIJi7Z1XB2JoDEREpmzCN3urow,Lò bánh mì Hiệp Lợi 7,Tiệm bánh,0969 900 494,"Lò bánh mì Hiệp Lợi 7, 185 Đ. Trần Vĩnh Kiết, An Bình, Ninh Kiều, Cần Thơ","An Bình, Ninh Kiều",185 Đ. Trần Vĩnh Kiết,Cần Thơ,,"Ninh Kiều, Cần Thơ",VN,"10.016881399999999,105.7502202"
313,ChIJNb4siQSJoDERoQ55vqxi6f4,Bánh sầu riêng KanTho,Tiệm bánh,,"Bánh sầu riêng KanTho, 315a6 Khu dân cư Hàng Bàng, Phường An Khánh, Ninh Kiều, Cần Thơ","Phường An Khánh, Ninh Kiều",315a6 Khu dân cư Hàng Bàng,Cần Thơ,,"Ninh Kiều, Cần Thơ",VN,"10.0323301,105.7457719"
314,ChIJxbsCb8WJoDERYslCrqPPotY,Bánh Mì,Tiệm bánh,,"Bánh Mì, 14 Đ. Hoàng Quốc Việt, An Bình, Ninh Kiều, Cần Thơ","An Bình, Ninh Kiều",14 Đ. Hoàng Quốc Việt,Cần Thơ,,"Ninh Kiều, Cần Thơ",VN,"10.008557699999999,105.7483458"
315,ChIJt6LGJ9uJoDERsq7g4-oui_Y,Bánh bao 12K,Tiệm bánh,0909 778 827,"Bánh bao 12K, Số 25 hẻm 132, 132/25 Hẻm 132 Đ. 3 Tháng 2, Hưng Lợi, Ninh Kiều, Cần Thơ","Hưng Lợi, Ninh Kiều","Số 25 hẻm 132, 132/25 Hẻm 132 Đ. 3 Tháng 2",Cần Thơ,,"Ninh Kiều, Cần Thơ",VN,"10.0193497,105.759428"
316,ChIJSUSCRXSJoDERkGf6FumBpZM,Bánh mì bơ sữa,Tiệm bánh,,"Bánh mì bơ sữa, 85-85 Bông Vang, Mỹ Khánh, Phong Điền, Cần Thơ","Mỹ Khánh, Phong Điền",85-85 Bông Vang,Cần Thơ,,"Phong Điền, Cần Thơ",VN,"9.996721299999999,105.71487259999999"
317,ChIJpU_p6gqJoDERWGw9C-wcEjs,Lò bánh ướt Tuyền 3A,Tiệm bánh,,"Lò bánh ướt Tuyền 3A, 5F3 KV5, KDC, 3A, An Bình, Ninh Kiều, Cần Thơ","An Bình, Ninh Kiều","5F3 KV5, KDC, 3A",Cần Thơ,,"Ninh Kiều, Cần Thơ",VN,"10.005617599999999,105.74009919999999"
318,ChIJHbO8YT2JoDERhkbJHV7T7_4,Bánh Phúc Nguyên,Tiệm bánh,0935 176 889,"Bánh Phúc Nguyên, 14 Đ. Phạm Hùng, Lê Bình, Cái Răng, Cần Thơ","Lê Bình, Cái Răng",14 Đ. Phạm Hùng,Cần Thơ,,"Cái Răng, Cần Thơ",VN,"9.993642099999999,105.7478996"
319,ChIJuS_Z5_iJoDERjYWGUQ1FU2k,Bánh mỳ mini thiện huệ,Tiệm bánh,,"Bánh mỳ mini thiện huệ, 403 Lê Bình, Cái Răng, Cần Thơ","Lê Bình, Cái Răng",403 Lê Bình,Cần Thơ,,"Cái Răng, Cần Thơ",VN,"9.999486899999999,105.75072039999999"
321,ChIJMUdy_iGJoDERX2HmTb8Mgws,Tiệm Bánh Lê Ái,Tiệm bánh,0899 675 020,"Tiệm Bánh Lê Ái, 158/5 Đ. Trần Vĩnh Kiết, An Bình, Ninh Kiều, Cần Thơ","An Bình, Ninh Kiều",158/5 Đ. Trần Vĩnh Kiết,Cần Thơ,,"Ninh Kiều, Cần Thơ",VN,"10.0113228,105.751611"
325,ChIJG9rjZu2JoDEREm2F7BM7QI4,Tiệm Bánh Mộc,Tiệm bánh,,"Tiệm Bánh Mộc, 102/38d Hẻm 132 Đ. 3 Tháng 2, Hưng Lợi, Ninh Kiều, Cần Thơ","Hưng Lợi, Ninh Kiều",102/38d Hẻm 132 Đ. 3 Tháng 2,Cần Thơ,,"Ninh Kiều, Cần Thơ",VN,"10.017942,105.75628139999999"
327,ChIJqYMDJ_GJoDERyEWjsiFe454,Tiệm Bánh Cô Vân Ú Metro,Tiệm bánh,,"Tiệm Bánh Cô Vân Ú Metro, 11 Đường số 3, Hưng Lợi, Ninh Kiều, Cần Thơ","Hưng Lợi, Ninh Kiều",11 Đường số 3,Cần Thơ,,"Ninh Kiều, Cần Thơ",VN,"10.0202194,105.7605717"
328,ChIJFUe5KjaJoDERxbjzg1vw4WU,Bánh mì - Cá viên chiên Khởi 3D,Tiệm bánh,0982 586 044,"Bánh mì - Cá viên chiên Khởi 3D, 607 Hẻm 553, Hưng Lợi, Ninh Kiều, Cần Thơ","Hưng Lợi, Ninh Kiều",607 Hẻm 553,Cần Thơ,,"Ninh Kiều, Cần Thơ",VN,"10.011728699999999,105.75804869999999"
329,ChIJzzyJnNWJoDERX6NHLIYCg1o,Bánh mì Má Hải Kiosk 966,Tiệm bánh,0869 686 969,"Bánh mì Má Hải Kiosk 966, 102/4d Đ. Trần Hoàng Na, Hưng Lợi, Ninh Kiều, Cần Thơ","Hưng Lợi, Ninh Kiều",102/4d Đ. Trần Hoàng Na,Cần Thơ,,"Ninh Kiều, Cần Thơ",VN,"10.0199318,105.7559316"
334,ChIJx9ueOMyJoDERuHxLvLiG7Ms,Tiệm Bánh Ngọt Suncake,Tiệm bánh,0969 197 577,"Tiệm Bánh Ngọt Suncake, 50/151/50/37 Đ. Trần Hoàng Na, Hưng Lợi, Ninh Kiều, Cần Thơ 90000","Hưng Lợi, Ninh Kiều",50/151/50/37 Đ. Trần Hoàng Na,Cần Thơ,90000.0,"Ninh Kiều, Cần Thơ",VN,"10.0121437,105.7651592"
337,ChIJJaFNaLuJoDERHwUaJvKlSgY,Bánh mì thịt nướng Nơ,Tiệm bánh,0939 990 696,"Bánh mì thịt nướng Nơ, 151/39D Đ. Trần Hoàng Na, Hưng Lợi, Ninh Kiều, Cần Thơ","Hưng Lợi, Ninh Kiều",151/39D Đ. Trần Hoàng Na,Cần Thơ,,"Ninh Kiều, Cần Thơ",VN,"10.011865799999999,105.7644626"
338,ChIJ_VkZFDCIoDERF8s1h8-enE4,Bánh Bông Lan Trứng Muối,Tiệm bánh,,"Bánh Bông Lan Trứng Muối, 178 Đ. Lê Bình, Hưng Lợi, Ninh Kiều, Cần Thơ","Hưng Lợi, Ninh Kiều",178 Đ. Lê Bình,Cần Thơ,,"Ninh Kiều, Cần Thơ",VN,"10.0212244,105.76908039999999"
341,ChIJ1Tw_qiSIoDERFND5swxEUek,Tiệm Bánh Mì Thuý,Tiệm bánh,0907 351 711,"Tiệm Bánh Mì Thuý, 126 Đ. 3 Tháng 2, Xuân Khánh, Ninh Kiều, Cần Thơ","Xuân Khánh, Ninh Kiều",126 Đ. 3 Tháng 2,Cần Thơ,,"Ninh Kiều, Cần Thơ",VN,"10.0280395,105.770759"
342,ChIJC0nO1SaJoDERF0ZrTeBF_0w,Bánh Tráng Trộn Sài Gòn,Tiệm bánh,0334 338 513,"Bánh Tráng Trộn Sài Gòn, 3c Đ. Mậu Thân, An Nghiệp, Ninh Kiều, Cần Thơ","An Nghiệp, Ninh Kiều",3c Đ. Mậu Thân,Cần Thơ,,"Ninh Kiều, Cần Thơ",VN,"10.033109399999999,105.7740001"
345,ChIJmYNcu85joDERB8TGef5ZNK4,Tiện bánh Minh Anh 2,Tiệm bánh,,"Tiện bánh Minh Anh 2, 29 Đ. Ngô Văn Sở, Tân An, Ninh Kiều, Cần Thơ","Tân An, Ninh Kiều",29 Đ. Ngô Văn Sở,Cần Thơ,,"Ninh Kiều, Cần Thơ",VN,"10.0338737,105.7856379"
347,ChIJpzyy8CqJoDERgWOAj8-7fNs,TIỆM TẠP HÓA BÁNH BAO NHỎ YÊN,Cửa hàng tổng hợp,0763 823 807,"TIỆM TẠP HÓA BÁNH BAO NHỎ YÊN, 85 Đ. Đề Thám, Tân An, Ninh Kiều, Cần Thơ","Tân An, Ninh Kiều",85 Đ. Đề Thám,Cần Thơ,,"Ninh Kiều, Cần Thơ",VN,"10.0346618,105.7815748"
349,ChIJ3xnaWhOJoDER9aK0Hx5CoJc,Tiệm bánh Xuân Mai,Tiệm bánh,,"Tiệm bánh Xuân Mai, 69 Đ. Lý Tự Trọng, Tân An, Ninh Kiều, Cần Thơ","Tân An, Ninh Kiều",69 Đ. Lý Tự Trọng,Cần Thơ,,"Ninh Kiều, Cần Thơ",VN,"10.0339782,105.77972799999999"
350,ChIJvzUTHp1joDERxDVpv_u2cFA,Tiệm Bánh Kem Sữa Tươi Kim Huệ,Cửa hàng bánh,0292 3825 215,"Tiệm Bánh Kem Sữa Tươi Kim Huệ, 16A Phan Đình Phùng, Tân An, Ninh Kiều, Cần Thơ","Tân An, Ninh Kiều",16A Phan Đình Phùng,Cần Thơ,,"Ninh Kiều, Cần Thơ",VN,"10.033072299999999,105.786932"
351,ChIJGdt87leJoDER_8y57KwLMEY,Tủ bánh dân gian Cô Tiên 2,Tiệm bánh,0977 553 044,"Tủ bánh dân gian Cô Tiên 2, 70 Đ. Trần Việt Châu, Thới Bình, Ninh Kiều, Cần Thơ","Thới Bình, Ninh Kiều",70 Đ. Trần Việt Châu,Cần Thơ,,"Ninh Kiều, Cần Thơ",VN,"10.048223,105.7753333"
352,ChIJcQY4fSOJoDERpEetFC7ucMY,Lò Bánh Mì Ngọc Thắm,Tiệm bánh,0903 132 114,"Lò Bánh Mì Ngọc Thắm, 148 Đ. Phạm Ngũ Lão, Thới Bình, Ninh Kiều, Cần Thơ","Thới Bình, Ninh Kiều",148 Đ. Phạm Ngũ Lão,Cần Thơ,,"Ninh Kiều, Cần Thơ",VN,"10.043891,105.7736901"
353,ChIJm0P8oAKIoDERWQgk95yANf8,Tiệm Bánh Tam Bảo,Tiệm bánh,0939 002 988,"Tiệm Bánh Tam Bảo, 1E Trần Quang Khải, An Hội, Ninh Kiều, Cần Thơ 900000","An Hội, Ninh Kiều",1E Trần Quang Khải,Cần Thơ,900000.0,"Ninh Kiều, Cần Thơ",VN,"10.044611399999999,105.78200199999999"
354,ChIJ0RplgCaJoDERYfLzYs9xUyo,Bánh mì LIỄU,Tiệm bánh,,"Bánh mì LIỄU, 9 Hùng Vương, An Hội, Ninh Kiều, Cần Thơ","An Hội, Ninh Kiều",9 Hùng Vương,Cần Thơ,,"Ninh Kiều, Cần Thơ",VN,"10.0445543,105.77958729999999"
355,ChIJx0YDc1mHoDERyQq50lLmjBI,Bánh mì chả cá nóng,Tiệm bánh,,"Bánh mì chả cá nóng, 362 Đ. Cách Mạng Tháng 8, Cái Khế, Ninh Kiều, Cần Thơ","Cái Khế, Ninh Kiều",362 Đ. Cách Mạng Tháng 8,Cần Thơ,,"Ninh Kiều, Cần Thơ",VN,"10.0633369,105.76230539999999"
356,ChIJN0zPchtjoDERggj4A1EeqBI,Bánh Crepe Ông Hầu,Tiệm bánh,,"Bánh Crepe Ông Hầu, 23A4 Trần Phú, Cái Khế, Ninh Kiều, Cần Thơ","Cái Khế, Ninh Kiều",23A4 Trần Phú,Cần Thơ,,"Ninh Kiều, Cần Thơ",VN,"10.042131999999999,105.79322049999999"
357,ChIJhbobVodjoDERvqWTM1N2fVQ,Bánh lan ngoc ngân,Cửa hàng kem,,"Bánh lan ngoc ngân, 35 Lê Lợi, Cái Khế, Ninh Kiều, Cần Thơ","Cái Khế, Ninh Kiều",35 Lê Lợi,Cần Thơ,,"Ninh Kiều, Cần Thơ",VN,"10.043853,105.790526"
358,ChIJ5VveDKBioDERX1R3inzR5g0,Bánh Ngọt 29,Tiệm bánh,,"Bánh Ngọt 29, 33 Đ. Đề Thám, Tân An, Ninh Kiều, Cần Thơ","Tân An, Ninh Kiều",33 Đ. Đề Thám,Cần Thơ,,"Ninh Kiều, Cần Thơ",VN,"10.0338396,105.7825841"
359,ChIJIyuUyqZioDERhKKHXV29qWs,Tiệm Bánh Tét Vân,Tiệm bánh,0913 550 737,"Tiệm Bánh Tét Vân, 26 Võ Thị Sáu, Tân An, Ninh Kiều, Cần Thơ","Tân An, Ninh Kiều",26 Võ Thị Sáu,Cần Thơ,,"Ninh Kiều, Cần Thơ",VN,"10.0378911,105.7862603"
360,ChIJl49r06lioDERHGD5Ue121eY,Shop Ngọc Liên Kinh Doanh Bánh Kẹo,Tiệm bánh,,"Shop Ngọc Liên Kinh Doanh Bánh Kẹo, Cái Khế, Ninh Kiều, Cần Thơ","Cái Khế, Ninh Kiều",,Cần Thơ,,"Ninh Kiều, Cần Thơ",VN,"10.04627,105.7826017"
361,ChIJ-fB_Vp9ioDERjw-OlsCivhw,Tiệm Bánh Kẹo Sanh Phong,Tiệm bánh,0292 3829 457,"Tiệm Bánh Kẹo Sanh Phong, 16 Nguyễn Thái Học, Tân An, Ninh Kiều, Cần Thơ","Tân An, Ninh Kiều",16 Nguyễn Thái Học,Cần Thơ,,"Ninh Kiều, Cần Thơ",VN,"10.0323844,105.78759649999999"
363,ChIJGb6UdQCJoDERQ63k11QliyA,Bánh ngọt Oanh's Cake,Tiệm bánh,,"Bánh ngọt Oanh's Cake, 72 B Đ. Lý Tự Trọng, An Phú, Ninh Kiều, Cần Thơ","An Phú, Ninh Kiều",72 B Đ. Lý Tự Trọng,Cần Thơ,,"Ninh Kiều, Cần Thơ",VN,"10.033360799999999,105.7772902"
364,ChIJBXTIyqFioDERKsbf1029PnU,Lò Bánh Mì Huỳnh Suôl,Tiệm bánh,,"Lò Bánh Mì Huỳnh Suôl, 13-15A Đ. Đồng Khởi, Tân An, Ninh Kiều, Cần Thơ","Tân An, Ninh Kiều",13-15A Đ. Đồng Khởi,Cần Thơ,,"Ninh Kiều, Cần Thơ",VN,"10.033734299999999,105.78504679999999"
365,ChIJU7KnLZ9ioDERxbFt2UaSrgs,Shop Bánh Kẹo Hiếu Hưng,Tiệm bánh,0918 317 617,"Shop Bánh Kẹo Hiếu Hưng, 20 Đường Hai Bà Trưng, Tân An, Ninh Kiều, Cần Thơ","Tân An, Ninh Kiều",20 Đường Hai Bà Trưng,Cần Thơ,,"Ninh Kiều, Cần Thơ",VN,"10.0301937,105.7876943"
366,ChIJZe8HMQljoDERki8mqGci7qY,Tiệm Bánh Mì An,Tiệm bánh,,"Tiệm Bánh Mì An, 59 Hẻm 1 Đ. Hoàng Văn Thụ, Tân An, Ninh Kiều, Cần Thơ","Tân An, Ninh Kiều",59 Hẻm 1 Đ. Hoàng Văn Thụ,Cần Thơ,,"Ninh Kiều, Cần Thơ",VN,"10.036475699999999,105.7833622"
367,ChIJW5t03D1joDERE07PwbV1Edo,Lò Bánh Mì Phát Đạt 2,Tiệm bánh,0966 069 301,"Lò Bánh Mì Phát Đạt 2, 77, Tân An, Ninh Kiều, Cần Thơ","Tân An, Ninh Kiều",77,Cần Thơ,,"Ninh Kiều, Cần Thơ",VN,"10.0330434,105.7872034"
368,ChIJWRvIGyCIoDERViBt4HlPPsk,Cửa Hàng Bánh Laguette,Tiệm bánh,,"Cửa Hàng Bánh Laguette, Tân An, Ninh Kiều, Cần Thơ","Tân An, Ninh Kiều",,Cần Thơ,,"Ninh Kiều, Cần Thơ",VN,"10.0336771,105.7880938"
370,ChIJDdgr8QKIoDERHBNR9xkrLR4,Cửa Hàng Bánh Bao Ngọc Quyên,Tiệm bánh,0917 881 945,"Cửa Hàng Bánh Bao Ngọc Quyên, 4B Đ. Cách Mạng Tháng 8, Thới Bình, Ninh Kiều, Cần Thơ","Thới Bình, Ninh Kiều",4B Đ. Cách Mạng Tháng 8,Cần Thơ,,"Ninh Kiều, Cần Thơ",VN,"10.0457888,105.7800511"
373,ChIJwetq6GOJoDER6kfteXUIyEQ,Bánh mì Duy Tân,Tiệm bánh,,"Bánh mì Duy Tân, 3 Đ. Hồ Xuân Hương, An Hội, Ninh Kiều, Cần Thơ","An Hội, Ninh Kiều",3 Đ. Hồ Xuân Hương,Cần Thơ,,"Ninh Kiều, Cần Thơ",VN,"10.0431964,105.779642"
375,ChIJYYk_mB2IoDERjrY9V-4mXxo,Tiệm Bánh Happy Cake Ánh Linh,Tiệm bánh,,"2QRJ+37F Tiệm Bánh Happy Cake Ánh Linh, Hẻm 83 Đ. Hoàng Văn Thụ, An Cư, Ninh Kiều, Cần Thơ","An Cư, Ninh Kiều","2QRJ+37F, Hẻm 83 Đ. Hoàng Văn Thụ",Cần Thơ,,"Ninh Kiều, Cần Thơ",VN,"10.0401936,105.7806588"
377,ChIJzUNpDnmJoDERDOyyM9LvVj4,Bánh Bánh Tráng Nướng Siêu Ngon,Tiệm bánh,,"Bánh Bánh Tráng Nướng Siêu Ngon, 46 Đường Yết Kiêu, An Nghiệp, Ninh Kiều, Cần Thơ","An Nghiệp, Ninh Kiều",46 Đường Yết Kiêu,Cần Thơ,,"Ninh Kiều, Cần Thơ",VN,"10.042646999999999,105.7728853"
389,ChIJB2ulaKBioDERNabpu48DzJU,Cửa Hàng Bánh Ngọt Tuyết Hạnh,Tiệm bánh,7103733197,"Cửa Hàng Bánh Ngọt Tuyết Hạnh, 40 Đ. Nguyễn Khuyến, Tân An, Ninh Kiều, Cần Thơ","Tân An, Ninh Kiều",40 Đ. Nguyễn Khuyến,Cần Thơ,,"Ninh Kiều, Cần Thơ",VN,"10.0345553,105.7832189"
393,ChIJQ3lHbRyIoDERWXkTPDDS9PQ,Cửa Hàng Bánh Mì Thanh Xuân,Tiệm bánh,0292 3732 374,"Cửa Hàng Bánh Mì Thanh Xuân, 16 Đ. Trần Hưng Đạo, An Cư, Ninh Kiều, Cần Thơ","An Cư, Ninh Kiều",16 Đ. Trần Hưng Đạo,Cần Thơ,,"Ninh Kiều, Cần Thơ",VN,"10.0396532,105.7769842"
402,ChIJr6uN1jCJoDERNKKKEK0r5hQ,Tiệm bánh Tùng Vân,Tiệm bánh,0969 775 121,"Tiệm bánh Tùng Vân, 50 Đ. Trần Việt Châu, Thới Bình, Ninh Kiều, Cần Thơ","Thới Bình, Ninh Kiều",50 Đ. Trần Việt Châu,Cần Thơ,,"Ninh Kiều, Cần Thơ",VN,"10.047720799999999,105.77583109999999"
409,ChIJc9Ol8UqJoDERMViQOxGO9AE,Bánh Tráng Nướng A Họt,Tiệm bánh,0977 320 162,"Bánh Tráng Nướng A Họt, 34 Đ. 3 Tháng 2, Xuân Khánh, Ninh Kiều, Cần Thơ","Xuân Khánh, Ninh Kiều",34 Đ. 3 Tháng 2,Cần Thơ,,"Ninh Kiều, Cần Thơ",VN,"10.0318638,105.7741314"
410,ChIJlYz966iJoDEREngxd0JHoIc,Bánh Nhím Cô 6,Tiệm bánh,,"2QMH+338 Bánh Nhím Cô 6, An Phú, Ninh Kiều, Cần Thơ","An Phú, Ninh Kiều",2QMH+338,Cần Thơ,,"Ninh Kiều, Cần Thơ",VN,"10.032689,105.7777507"
411,ChIJWe5Rz2GJoDERuVtDi63ghic,Bánh mì Lan,Tiệm bánh,0907 095 063,"Bánh mì Lan, 331A Đ. Nguyễn Văn Cừ, An Hoà, Ninh Kiều, Cần Thơ","An Hoà, Ninh Kiều",331A Đ. Nguyễn Văn Cừ,Cần Thơ,,"Ninh Kiều, Cần Thơ",VN,"10.0456662,105.7675426"
412,ChIJuYBtNxKIoDER37KNKFhgPls,Tiệm Bánh Đan,Tiệm bánh,0762 960 265,"Tiệm Bánh Đan, Nguyễn Văn Cừ, Liên Tổ 12-20, Phường An Khánh, Ninh Kiều, Cần Thơ","Phường An Khánh, Ninh Kiều","Nguyễn Văn Cừ, Liên Tổ 12-20",Cần Thơ,,"Ninh Kiều, Cần Thơ",VN,"10.0422238,105.76319939999999"
415,ChIJ5VEEmvaJoDER0moIHG16a-A,Bánh Lá Dừa - Bánh Tét Cô Năm,Tiệm bánh,0902 779 926,"Bánh Lá Dừa - Bánh Tét Cô Năm, 132B34 Nguyễn Văn Cừ Nối Dài, Phường An Khánh, Ninh Kiều, Cần Thơ","Phường An Khánh, Ninh Kiều",132B34 Nguyễn Văn Cừ Nối Dài,Cần Thơ,,"Ninh Kiều, Cần Thơ",VN,"10.0397961,105.7616742"
417,ChIJmQVSrz6JoDERdHlFEKeWQKw,Bánh tằm xíu mại cô 3,Tiệm bánh,0704 797 436,"Bánh tằm xíu mại cô 3, Đường Đ. Trần Nam Phú, Phường An Khánh, Ninh Kiều, Cần Thơ","Phường An Khánh, Ninh Kiều",Đường Đ. Trần Nam Phú,Cần Thơ,,"Ninh Kiều, Cần Thơ",VN,"10.0338984,105.7598146"
419,ChIJaT2jEYaJoDERjf2srHyXKy4,Bánh mì Ngọc Ngân,Tiệm bánh,0848 503 987,"Bánh mì Ngọc Ngân, 50/b1 Ngô Thì Nhậm, Phường An Khánh, Ninh Kiều, Cần Thơ","Phường An Khánh, Ninh Kiều",50/b1 Ngô Thì Nhậm,Cần Thơ,,"Ninh Kiều, Cần Thơ",VN,"10.0404391,105.7579978"
420,ChIJ4fb3ehOIoDERuJ_DQ7n1UDA,Bánh Trung Thu Đồng Khánh,Tiệm bánh,,"Bánh Trung Thu Đồng Khánh, An Khánh, Ninh Kiều, Cần Thơ","An Khánh, Ninh Kiều",,Cần Thơ,,"Ninh Kiều, Cần Thơ",VN,"10.0396334,105.7609293"
422,ChIJXc00aGuIoDERa9tvpxln7L8,"Anh Khôi Nhận Đặt Bánh Kem , Bánh Âu",Tiệm bánh,,"Anh Khôi Nhận Đặt Bánh Kem , Bánh Âu, An Khánh, Ninh Kiều, Cần Thơ","An Khánh, Ninh Kiều",,Cần Thơ,,"Ninh Kiều, Cần Thơ",VN,"10.038285499999999,105.7571693"
423,ChIJMwoti2uIoDERpUIuY9kCVs8,Lò Bánh Mì Khánh Hương,Tiệm bánh,0963 090 980,"2QQ3+MMJ Lò Bánh Mì Khánh Hương, Đ. Tô Hiến Thành, Phường An Khánh, Ninh Kiều, Cần Thơ","Phường An Khánh, Ninh Kiều","2QQ3+MMJ, Đ. Tô Hiến Thành",Cần Thơ,,"Ninh Kiều, Cần Thơ",VN,"10.0392101,105.7541268"
424,ChIJDUoMI0yJoDERH3-QNsgEMLI,Tiệm Bánh Heo Vàng,Tiệm bánh,,"Tiệm Bánh Heo Vàng, Phường An Khánh, Ninh Kiều, Cần Thơ","Phường An Khánh, Ninh Kiều",,Cần Thơ,,"Ninh Kiều, Cần Thơ",VN,"10.0367479,105.7628582"
426,ChIJ5YZqYDeIoDER-MDfl6WzdMU,Tiệm Bánh Abc,Tiệm bánh,,"Tiệm Bánh Abc, 11 Đ. Nguyễn Văn Linh, Hưng Lợi, Ninh Kiều, Cần Thơ","Hưng Lợi, Ninh Kiều",11 Đ. Nguyễn Văn Linh,Cần Thơ,,"Ninh Kiều, Cần Thơ",VN,"10.0303498,105.7525173"
428,ChIJsUau9MRRIyoRAC_w6-GYedk,Lò Bánh Diên Thạnh,Tiệm bánh,0292 3891 542,,,,,,,,"15.793925199999999,105.91025889999999"
430,ChIJoX4KZxKJoDER7Zql3Ly-cRE,Bánh mì Mỹ Linh,Tiệm bánh,,"Bánh mì Mỹ Linh, 212 Nguyễn Văn Cừ Nối Dài, An Bình, Ninh Kiều, Cần Thơ","An Bình, Ninh Kiều",212 Nguyễn Văn Cừ Nối Dài,Cần Thơ,,"Ninh Kiều, Cần Thơ",VN,"10.022087299999999,105.7430837"
431,ChIJ4b9gPGuJoDERNd5Cj9BUHHc,Bánh Mì,Tiệm bánh,,"Bánh Mì, Số232A, Tổ 10C, Kv4, Nguyễn Văn Cừ Nối Dài, An Bình, Ninh Kiều, Cần Thơ","An Bình, Ninh Kiều","Số232A, Tổ 10C, Kv4, Nguyễn Văn Cừ Nối Dài",Cần Thơ,,"Ninh Kiều, Cần Thơ",VN,"10.022877,105.743906"
432,ChIJ5SwsqvOJoDERXNrX3dYU7cQ,Bánh kẹo Trường An,Tiệm bánh,,"2P7W+J93 Bánh kẹo Trường An, Hẽm 136, An Bình, Ninh Kiều, Cần Thơ","An Bình, Ninh Kiều","2P7W+J93, Hẽm 136",Cần Thơ,,"Ninh Kiều, Cần Thơ",VN,"10.0140125,105.74592009999999"
433,ChIJHTW0U8uJoDERJ0BKZbB6BKY,Tiệm bánh Hồng Nhung,Tiệm bánh,0919 853 912,"Tiệm bánh Hồng Nhung, 2/6b Đ. 3 Tháng 2, Hưng Lợi, Ninh Kiều, Cần Thơ","Hưng Lợi, Ninh Kiều",2/6b Đ. 3 Tháng 2,Cần Thơ,,"Ninh Kiều, Cần Thơ",VN,"10.0131643,105.75411"
434,ChIJ5wQMqW-JoDERvdptv3yBLZ8,Tiệm Bánh Dân Gian,Tiệm bánh,,"Tiệm Bánh Dân Gian, 117 Đ. Nguyễn Hiền, Khu dân cư 91B, Ninh Kiều, Cần Thơ","Khu dân cư 91B, Ninh Kiều",117 Đ. Nguyễn Hiền,Cần Thơ,,"Ninh Kiều, Cần Thơ",VN,"10.0227952,105.75601089999999"
436,ChIJFx5a2UqIoDER0G7aAwcxaU4,Cửa Hàng Bánh Kẹo Lê Linh,Tiệm bánh,0919 463 733,"Cửa Hàng Bánh Kẹo Lê Linh, 20 Đường 3-2, Hưng Lợi, Ninh Kiều, Cần Thơ","Hưng Lợi, Ninh Kiều",20 Đường 3-2,Cần Thơ,,"Ninh Kiều, Cần Thơ",VN,"10.0131708,105.7559337"
437,ChIJFyuT1fWJoDERqRWd4TnHY9A,TIỆM BÁNH ĐAN,Tiệm bánh,,"TIỆM BÁNH ĐAN, 137 Nguyễn Văn Cừ Nối Dài, Phường An Khánh, Ninh Kiều, Cần Thơ","Phường An Khánh, Ninh Kiều",137 Nguyễn Văn Cừ Nối Dài,Cần Thơ,,"Ninh Kiều, Cần Thơ",VN,"10.0288635,105.7506818"
438,ChIJBWg5Ll2JoDERMW3csL0qdBM,Bánh bao đêm ( thiên nhiên),Tiệm bánh,0856 164 868,"2Q73+QXP Bánh bao đêm ( thiên nhiên), Hẻm 12 Đ. 3 Tháng 2, Hưng Lợi, Ninh Kiều, Cần Thơ","Hưng Lợi, Ninh Kiều","2Q73+QXP, Hẻm 12 Đ. 3 Tháng 2",Cần Thơ,,"Ninh Kiều, Cần Thơ",VN,"10.0144615,105.7549605"
439,ChIJKTsiUfsvdTERSC2k-48uzD8,Tiệm Bánh Ngon Nhất,Cửa hàng bánh ngọt,0901 856 228,"Tiệm Bánh Ngon Nhất, 19 Đ. 3 Tháng 2, Phường 11, Quận 10, Thành phố Hồ Chí Minh 700000","Phường 11, Quận 10",19 Đ. 3 Tháng 2,Thành phố Hồ Chí Minh,700000.0,"Quận 10, Thành phố Hồ Chí Minh",VN,"10.775184,106.6800327"
440,ChIJK3NZW8CJoDERk21WCTUZ1OU,Bánh kem Quỳnh lam,Tiệm bánh,,"Bánh kem Quỳnh lam, 291 Bông Vang, Mỹ Khánh, Phong Điền, Cần Thơ","Mỹ Khánh, Phong Điền",291 Bông Vang,Cần Thơ,,"Phong Điền, Cần Thơ",VN,"10.0093435,105.70607729999999"
442,ChIJ8TDo6bCJoDERzFzCDu5WqkU,Lò Bánh Mì Thành Phát 2,Tiệm bánh,0909 146 356,"Lò Bánh Mì Thành Phát 2, 465 Nguyễn Trãi, Lê Bình, Cái Răng, Cần Thơ","Lê Bình, Cái Răng",465 Nguyễn Trãi,Cần Thơ,,"Cái Răng, Cần Thơ",VN,"10.00337,105.7512"
443,ChIJf6jmZLqJoDERp1qWnBx3zuM,Tiệm Bánh Bích Nga,Tiệm bánh,0917 651 979,"Tiệm Bánh Bích Nga, 165/4, Quốc Lộ 1A, Quận Cái Răng, Lê Bình, Cái Răng, Cần Thơ","Lê Bình, Cái Răng","165/4, Quốc Lộ 1A, Quận Cái Răng",Cần Thơ,,"Cái Răng, Cần Thơ",VN,"10.0008017,105.7502614"
446,ChIJ-w8-IbGJoDERFC685H83t9M,Hiệu Bánh Sông Yến 3,Tiệm bánh,0938 386 969,"Hiệu Bánh Sông Yến 3, 1 Lê Thái Tổ, Lê Bình, Cái Răng, Cần Thơ","Lê Bình, Cái Răng",1 Lê Thái Tổ,Cần Thơ,,"Cái Răng, Cần Thơ",VN,"10.004524,105.751533"
449,ChIJH_vXocqJoDERDUcIXqlXA_8,Lò Bánh Mì Ngọc Sang,Tiệm bánh,0292 3783 854,"Lò Bánh Mì Ngọc Sang, 91/26A, Đường 30/4, Phường Hưng Lợi, Quận Ninh Kiều, Thành Phố Cần Thơ, Hưng Lợi, Ninh Kiều, Cần Thơ","Hưng Lợi, Ninh Kiều","91/26A, Đường 30/4, Phường Hưng Lợi, Quận Ninh Kiều, Thành Phố Cần Thơ",Cần Thơ,,"Ninh Kiều, Cần Thơ",VN,"10.0110181,105.7589519"
452,ChIJK63wY_CJoDERQzaH2t51YmE,Jac Bánh Tráng Mix - Chi nhánh Cần Thơ,Tiệm bánh,0942 774 678,"Jac Bánh Tráng Mix - Chi nhánh Cần Thơ, 160B Đ. 3 Tháng 2, Hưng Lợi, Ninh Kiều, Cần Thơ 900000","Hưng Lợi, Ninh Kiều",160B Đ. 3 Tháng 2,Cần Thơ,900000.0,"Ninh Kiều, Cần Thơ",VN,"10.019126,105.762788"
453,ChIJ0yTSHi-JoDER2cJynl7lVBo,Bánh Tráng Mâm,Tiệm bánh,,"Bánh Tráng Mâm, mới, 20 Đ. Trần Hoàng Na, Hưng Lợi, Ninh Kiều, Cần Thơ","Hưng Lợi, Ninh Kiều","mới, 20 Đ. Trần Hoàng Na",Cần Thơ,,"Ninh Kiều, Cần Thơ",VN,"10.015195799999999,105.7616781"
455,ChIJO5yWevSJoDERWovmD8zsung,Tiệm bánh Lynh Nguyễn,Tiệm bánh,0769 388 338,"Tiệm bánh Lynh Nguyễn, khu cán bộ, Đ. Số 7, đại học, Ninh Kiều, Cần Thơ","đại học, Ninh Kiều","khu cán bộ, Đ. Số 7",Cần Thơ,,"Ninh Kiều, Cần Thơ",VN,"10.028423799999999,105.76122919999999"
456,ChIJ_xWXQjiIoDERgeBaSfx4lgY,Quán Bánh Bao Hòa Hương,Cửa hàng bán đồ ăn nấu sẵn,0292 3783 267,"Quán Bánh Bao Hòa Hương, 211/15, Nguyễn Văn Linh, Phường Hưng Lợi, Quận Ninh Kiều, Thành Phố Cần Thơ, Hưng Lợi, Ninh Kiều, Cần Thơ","Hưng Lợi, Ninh Kiều","211/15, Nguyễn Văn Linh, Phường Hưng Lợi, Quận Ninh Kiều, Thành Phố Cần Thơ",Cần Thơ,,"Ninh Kiều, Cần Thơ",VN,"10.0249356,105.76006269999999"
457,ChIJ83ycrdOJoDERvWdSNZTa-vg,Bánh mì Anh Bắp,Tiệm bánh,0946 030 800,"Bánh mì Anh Bắp, 132/2 Hẻm 132 Đ. 3 Tháng 2, Hưng Lợi, Ninh Kiều, Cần Thơ","Hưng Lợi, Ninh Kiều",132/2 Hẻm 132 Đ. 3 Tháng 2,Cần Thơ,,"Ninh Kiều, Cần Thơ",VN,"10.0185502,105.7616164"
459,ChIJtd39NEGIoDERCS7qmfHrnok,Tiệm Bánh Mì Kim Nghề,Tiệm bánh,0933 399 429,"Tiệm Bánh Mì Kim Nghề, 318 Đ. Nguyễn Văn Linh, Phường An Khánh, Ninh Kiều, Cần Thơ","Phường An Khánh, Ninh Kiều",318 Đ. Nguyễn Văn Linh,Cần Thơ,,"Ninh Kiều, Cần Thơ",VN,"10.0283106,105.7545955"
462,ChIJzQUxVaiJoDER2EgySGIQqjo,Bánh Cống 30/4,Tiệm bánh,,"Bánh Cống 30/4, 276 Đ. 30 Tháng 4, Hưng Lợi, Ninh Kiều, Cần Thơ","Hưng Lợi, Ninh Kiều",276 Đ. 30 Tháng 4,Cần Thơ,,"Ninh Kiều, Cần Thơ",VN,"10.020189,105.76873529999999"
464,ChIJve3pQACJoDERsYbAdl1-rmw,Tiệm bánh MiA,Tiệm bánh,,"Tiệm bánh MiA, 30/4 Hẻm 391, Hưng Lợi, Ninh Kiều, Cần Thơ","Hưng Lợi, Ninh Kiều",30/4 Hẻm 391,Cần Thơ,,"Ninh Kiều, Cần Thơ",VN,"10.0179382,105.7703815"
466,ChIJ-5QAstOJoDERcXvVvHgILuU,Bánh bao đêm ( thiên nhiên),Tiệm bánh,0856 164 868,"Bánh bao đêm ( thiên nhiên), 457 Đ. 30 Tháng 4, Hưng Lợi, Ninh Kiều, Cần Thơ","Hưng Lợi, Ninh Kiều",457 Đ. 30 Tháng 4,Cần Thơ,,"Ninh Kiều, Cần Thơ",VN,"10.0143518,105.7626715"
468,ChIJqbSTx2GJoDERudWBPHk1Akk,Lò Bánh Mì Hoàng,Tiệm bánh,,"Lò Bánh Mì Hoàng, 149/3 Đ. 30 Tháng 4, Hưng Lợi, Ninh Kiều, Cần Thơ","Hưng Lợi, Ninh Kiều",149/3 Đ. 30 Tháng 4,Cần Thơ,,"Ninh Kiều, Cần Thơ",VN,"10.0140127,105.7625224"
470,ChIJ35TdYfqJoDERK1h33JnF5UA,Bánh Bao Không Tên - Ngon Nhất Cần Thơ,Cửa hàng bánh,,"Bánh Bao Không Tên - Ngon Nhất Cần Thơ, 137C Đ. 30 Tháng 4, Hưng Lợi, Ninh Kiều, Cần Thơ","Hưng Lợi, Ninh Kiều",137C Đ. 30 Tháng 4,Cần Thơ,,"Ninh Kiều, Cần Thơ",VN,"10.0191717,105.76820289999999"
473,ChIJdZDR8XiJoDERginBDjGgO-U,BÁNH SINH NHẬT CẦN THƠ - SÀI GÒN BAKERY,Tiệm bánh,0932 860 088,"BÁNH SINH NHẬT CẦN THƠ - SÀI GÒN BAKERY, 276, Đường 30/4, Phường Hưng Lợi, Quận Ninh Kiều, Tỉnh Cần Thơ, Hưng Lợi, Ninh Kiều, Cần Thơ","Hưng Lợi, Ninh Kiều","276, Đường 30/4, Phường Hưng Lợi, Quận Ninh Kiều, Tỉnh Cần Thơ",Cần Thơ,,"Ninh Kiều, Cần Thơ",VN,"10.0203794,105.7691157"
478,ChIJD_36NxiJoDERhFwKXHs2PgI,Tiệm Bánh Bao BẢO CHÂU -211/15,Tiệm bánh kẹo,0907 860 255,"Tiệm Bánh Bao BẢO CHÂU -211/15, 15 Đ. Nguyễn Văn Linh, Hưng Lợi, Ninh Kiều, Cần Thơ","Hưng Lợi, Ninh Kiều",15 Đ. Nguyễn Văn Linh,Cần Thơ,,"Ninh Kiều, Cần Thơ",VN,"10.0204092,105.76607399999999"
479,ChIJtXfKUiiJoDERkSe-_919O6o,Quầy bánh Vy Ông,Tiệm bánh,0825 606 968,"Quầy bánh Vy Ông, 172 Đ. Lê Bình, Hưng Lợi, Ninh Kiều, Cần Thơ","Hưng Lợi, Ninh Kiều",172 Đ. Lê Bình,Cần Thơ,,"Ninh Kiều, Cần Thơ",VN,"10.0214059,105.7691787"
480,ChIJ200IyoaJoDERoe4g4yDrB6U,Bánh mì Hữu Liêm 2,Tiệm bánh,0918 150 775,"Bánh mì Hữu Liêm 2, 37 Hẻm 553, Hưng Lợi, Ninh Kiều, Cần Thơ","Hưng Lợi, Ninh Kiều",37 Hẻm 553,Cần Thơ,,"Ninh Kiều, Cần Thơ",VN,"10.009889699999999,105.7624307"
481,ChIJrYZCYNOJoDERH8CPzwU0Z24,Bánh mì B & Q,Tiệm bánh,,"Bánh mì B & Q, 220 Đ. 3 Tháng 2, Hưng Lợi, Ninh Kiều, Cần Thơ","Hưng Lợi, Ninh Kiều",220 Đ. 3 Tháng 2,Cần Thơ,,"Ninh Kiều, Cần Thơ",VN,"10.0223513,105.7658414"
484,ChIJ3xrC7ImJoDERnWxyplnrgPs,Tiệm Bánh Henry,Tiệm bánh,0939 009 608,"Tiệm Bánh Henry, 124/28 Đ. Mạc Thiên Tích, Xuân Khánh, Ninh Kiều, Cần Thơ","Xuân Khánh, Ninh Kiều",124/28 Đ. Mạc Thiên Tích,Cần Thơ,,"Ninh Kiều, Cần Thơ",VN,"10.0276496,105.77223149999999"
486,ChIJaYoQufOJoDERBy8LyO_PTmE,Tiệm Bánh Trung Thu Huỳnh Đăng,Cửa hàng bánh,,"Tiệm Bánh Trung Thu Huỳnh Đăng, 108a-108b Đ. Mậu Thân, Xuân Khánh, Ninh Kiều, Cần Thơ","Xuân Khánh, Ninh Kiều",108a-108b Đ. Mậu Thân,Cần Thơ,,"Ninh Kiều, Cần Thơ",VN,"10.0301277,105.7759564"
487,ChIJuVeZtTyJoDERPagHJUNaLQ0,Bánh Cô Út,Tiệm bánh,,"Bánh Cô Út, 58/3 Hẻm 3 Mậu Thân, Xuân Khánh, Ninh Kiều, Cần Thơ","Xuân Khánh, Ninh Kiều",58/3 Hẻm 3 Mậu Thân,Cần Thơ,,"Ninh Kiều, Cần Thơ",VN,"10.028034199999999,105.7747011"
490,ChIJF2sEg1qJoDERjMpTNixk2S8,Hủ tíu bánh lọt Bình dân Sáng sớm,Tiệm bánh,,"Hủ tíu bánh lọt Bình dân Sáng sớm, 122/7 Đ. 3 Tháng 2, Xuân Khánh, Ninh Kiều, Cần Thơ","Xuân Khánh, Ninh Kiều",122/7 Đ. 3 Tháng 2,Cần Thơ,,"Ninh Kiều, Cần Thơ",VN,"10.0284944,105.77235399999999"
494,ChIJ0yQ9SiGIoDERKUd5xybJDDs,Lò Bánh Mì Hiệp Sanh,Tiệm bánh,0787 837 317,"2QHH+32R Lò Bánh Mì Hiệp Sanh, Đ. 30 Tháng 4, Xuân Khánh, Ninh Kiều, Cần Thơ","Xuân Khánh, Ninh Kiều","2QHH+32R, Đ. 30 Tháng 4",Cần Thơ,,"Ninh Kiều, Cần Thơ",VN,"10.0277327,105.7775255"
499,ChIJmzJ9NN5joDERqkGKazhcD1g,Bánh cống Cô Yhaor,Cửa hàng bán đồ ăn nấu sẵn,,"Bánh cống Cô Yhaor, 28 Đ. Đề Thám, Tân An, Ninh Kiều, Cần Thơ","Tân An, Ninh Kiều",28 Đ. Đề Thám,Cần Thơ,,"Ninh Kiều, Cần Thơ",VN,"10.033693099999999,105.7830436"
500,ChIJZ6O2uqyJoDERQCyS33zwIzI,Tủ bánh dân gian Cô Tiên,Tiệm bánh,,"Tủ bánh dân gian Cô Tiên, 61 Đ. Đề Thám, An Cư, Ninh Kiều, Cần Thơ 94000","An Cư, Ninh Kiều",61 Đ. Đề Thám,Cần Thơ,94000.0,"Ninh Kiều, Cần Thơ",VN,"10.0341516,105.782033"
501,ChIJK8k0GKFioDERrChOg4bgQzw,Quán Bánh Tráng Trộn TNN,Cửa hàng bán đồ ăn nấu sẵn,0817 773 989,"Quán Bánh Tráng Trộn TNN, 5 Đ. Xô Viết Nghệ Tĩnh, Tân An, Ninh Kiều, Cần Thơ","Tân An, Ninh Kiều",5 Đ. Xô Viết Nghệ Tĩnh,Cần Thơ,,"Ninh Kiều, Cần Thơ",VN,"10.0363036,105.78561459999999"
