,place_id,name,main_category,phone,address,lat,lng,House_number,Street,Ward,District,City,progress
0,ChIJcWJ70U6rNTERxFCKqdDKXrw,"Joily Coffee, Tea & Bakery",Quán cà phê,0703 666 668,"Joily Coffee, Tea & Bakery, A10 Ng. Đức Hạnh 3, Khu đô thị Nam Trung Yên, Cầu Giấy, Hà Nội 11312",,,,,,,,True
1,ChIJKbnmWQApdTERwsotmjhioIE,Du Miên Garden Cafe,Quán cà phê,028 3894 5555,"Du Miên Garden Cafe, 7 Đ. Phan Văn Trị, Phường 10, Gò Vấp, Thành phố Hồ Chí Minh",10.83218,106.67366,,Đường Phan Văn Trị,Phường 10,Quận Gò Vấp,Hồ Chí Minh,True
13,ChIJbUggYwcpdTERceZS9v1RSFY,Country Houses Coffee,Quán cà phê,0903 704 399,"Country Houses Coffee, 18 Đ. Phan Văn Trị, Phường 10, Gò Vấp, Thành phố Hồ Chí Minh",10.77402,106.70419,42,Đường Nguyễn Huệ,Phường Bến Nghé,Quận 1,Hồ Chí Minh,True
23,ChIJ32cXs5erNTERsqdVf0cP-mg,Xofa Café & Bistro,Quán cà phê,024 3717 1555,"Xofa Café & Bistro, 14 P. Tống Duy Tân, Hàng Bông, Hoàn Kiếm, Hà Nội",10.02463,105.76727,49,Đường 3 Tháng 2,Phường Xuân Khánh,Quận Ninh Kiều,Cần Thơ,True
25,ChIJiXZG2IqrNTERdSRq4nRh9U4,"Lofita - Chuỗi quán Trà & Cà Phê (Cafe) Ngon, View Đẹp Nhất Hà Nội",Quán cà phê,1800 6503,"Lofita - Chuỗi quán Trà & Cà Phê (Cafe) Ngon, View Đẹp Nhất Hà Nội, 225 P. Trần Quốc Hoàn, Dịch Vọng Hậu, Cầu Giấy, Hà Nội",10.02986,105.78677,31,Đường Ngô Đức Kế,Phường Tân An,Quận Ninh Kiều,Cần Thơ,True
28,ChIJ-ccIKnwvdTERcwhsdEeX6cs,Cafe Cô Ba - Đồng Khởi,Quán cà phê,,"Cafe Cô Ba - Đồng Khởi, 4-6 Đ. Đồng Khởi, Bến Nghé, Quận 1, Thành phố Hồ Chí Minh 700000",10.03094,105.77833,81,Đường Nguyễn Việt Hồng,Phường An Phú,Quận Ninh Kiều,Cần Thơ,True
40,ChIJj1y29UYvdTERjGrWH9smE-U,Katinat Saigon Kafe,Quán cà phê,028 3825 6679,"Katinat Saigon Kafe, 91 Đ. Đồng Khởi, Bến Nghé, Quận 1, Thành phố Hồ Chí Minh 70000",10.03289,105.78684,,,Phường Tân An,Quận Ninh Kiều,Cần Thơ,True
47,ChIJ5Q3WZaWrNTERYpWt95xQn2Q,THAIYEN CAFE - CAFEYEN - Quán Thánh,Quán cà phê,0989 750 180,"THAIYEN CAFE - CAFEYEN - Quán Thánh, 184 P. Quán Thánh, Quán Thánh, Ba Đình, Hà Nội",10.00913,105.80165,65,Đường Mai Chí Thọ,Phường Phú Thứ,Quận Cái Răng,Cần Thơ,True
49,ChIJpap4NZGrNTERU1baVzYXQZo,Cộng Cà Phê,Quán cà phê,0911 811 132,"Cộng Cà Phê, 68 P. Quán Sứ, Trần Hưng Đạo, Hoàn Kiếm, Hà Nội",21.06598,105.74502,12,Ngõ 12 Phú Minh,Phường Minh Khai,Quận Bắc Từ Liêm,Hà Nội,True
51,ChIJE5-utYgXQjERgi6BGTJ5WEI,Wind Garden Coffee,Quán cà phê,0914 288 818,"Wind Garden Coffee, 72 Lê Mạnh Trinh, Phước Mỹ, Sơn Trà, Đà Nẵng 550000",,,,,,,,True
56,ChIJoSenAIQpdTEREL7_vv33scU,Phen’s Coffee,Quán cà phê,0396 439 014,"Phen’s Coffee, 142 Nguyễn Văn Công, Phường 3, Gò Vấp, Thành phố Hồ Chí Minh",31.54905,-82.84922,,,,,Coffee,True
66,ChIJKyYzwU8ndTERA1zCwYeytGQ,Bonjour cafe the art,Quán cà phê,0387 384 548,"Bonjour cafe the art, 42 Đ. Thảo Điền, Thảo Điền, Quận 2, Thành phố Hồ Chí Minh 70000",,,,,,,,True
74,ChIJtdMTz6JjoDERuwhioFmU8GE,The Coffee House - Hòa Bình (Cần Thơ),Quán cà phê,028 7303 9079,"The Coffee House - Hòa Bình (Cần Thơ), 8 Đại lộ Hoà Bình, P, Ninh Kiều, Cần Thơ",10.05035,105.76714,203,Đường Nguyễn Đệ,Phường An Hòa,Quận Ninh Kiều,Cần Thơ,True
75,ChIJw7k36kYvdTERJ9L8Dd7o-0U,Cà phê Sài Gòn Ơi,Quán cà phê,0938 531 517,"Cà phê Sài Gòn Ơi, 42 Đ. Nguyễn Huệ, Bến Nghé, Quận 1, Thành phố Hồ Chí Minh",10.03936,105.7843,64E,Hẻm 18 Đường Xô Viết Nghệ Tĩnh,Phường Tân An,Quận Ninh Kiều,Cần Thơ,True
82,ChIJUWgrCqZioDERlNGHIYEhr60,Nhà Gỗ Cafe - Wood House Coffee Cần Thơ,Quán cà phê,0899 503 919,"Nhà Gỗ Cafe - Wood House Coffee Cần Thơ, 40 Đ. Phạm Ngọc Thạch, Cái Khế, Ninh Kiều, Cần Thơ 900000",10.03855,105.78396,48,Đường Xô Viết Nghệ Tĩnh,Phường An Cư,Quận Ninh Kiều,Cần Thơ,True
85,ChIJW8bVvUwvdTERMK3h6j6UBuk,Beanthere Cafe,Quán cà phê,0987 168 584,"Beanthere Cafe, 42 Hồ Hảo Hớn, Phường Cô Giang, Quận 1, Thành phố Hồ Chí Minh 70000",10.01695,105.75293,370B/3,Tổ 3 Khu Vực 6,Phường An Khánh,Quận Ninh Kiều,Cần Thơ,True
95,ChIJx_s4ZTiIoDERJhnCubUmeEM,Cà Phê Thời Gian,Quán cà phê,0901 062 020,"Cà Phê Thời Gian, 35 Đ. Nguyễn Văn Linh, Hưng Lợi, Ninh Kiều, Cần Thơ",10.02499,105.77381,2,Đường Trần Văn Hoài,Phường Xuân Khánh,Quận Ninh Kiều,Cần Thơ,True
98,ChIJy2NIVoarNTER1maj2Dt1S-Q,Căng-tin Caphe,Quán cà phê,0372 099 359,"Căng-tin Caphe, Đối diện số, 31 Ngh. 180/29 P. Kim Hoa, Phương Liên, Đống Đa, Hà Nội",10.01908,105.7625,148,Đường 3 Tháng 2,Phường Hưng Lợi,Quận Ninh Kiều,Cần Thơ,True
101,ChIJ18tvsaFioDERsEF9qhIjZj8,HIGHLANDS COFFEE - Sense City,Quán cà phê,0292 3827 129,"HIGHLANDS COFFEE - Sense City, 1 Đại lộ Hoà Bình, Tân An, Ninh Kiều, Cần Thơ",10.02837,105.75846,2,Đường Số 6,Phường An Khánh,Quận Ninh Kiều,Cần Thơ,True
102,ChIJ4yCUNwwmdTER8t4ojhQavrA,Quán cafe đẹp - AA Coffee,Quán cà phê,0902 900 816,"Quán cafe đẹp - AA Coffee, 102 Cao Đức Lân, Khu đô thị An Phú An Khánh, Quận 2, Thành phố Hồ Chí Minh",10.02826,105.75343,6,Đường Nguyễn Văn Linh,Phường An Khánh,Quận Ninh Kiều,Cần Thơ,True
113,ChIJT9IBetEpdTERv1WHWPOkMLo,Oromia Coffee & Lounge,Quán cà phê,0908 861 136,"Oromia Coffee & Lounge, 85 Phan Kế Bính, Đa Kao, Quận 1, Thành phố Hồ Chí Minh",10.03594,105.76323,27A,Hẻm 388J Đường Nguyễn Văn Cừ,Phường An Khánh,Quận Ninh Kiều,Cần Thơ,True
122,ChIJL6pXqX6rNTERcJ19UWhe1Bc,Bốt Cà Phê,Quán cà phê,0981 358 758,"Bốt Cà Phê, 18b Ng. 18 P. Võ Văn Dũng, Chợ Dừa, Đống Đa, Hà Nội",10.03258,105.78422,89A,Đường Võ Văn Tần,Phường Tân An,Quận Ninh Kiều,Cần Thơ,True
123,ChIJgaIQ76xioDERj6ONtM0nc5A,Nesta Coffee,Quán cà phê,0292 3831 216,"Nesta Coffee, 9C Trần Phú, Cái Khế, Ninh Kiều, Cần Thơ",10.03667,105.75813,,Đường Nguyễn Văn Cừ Nối Dài,Phường An Khánh,Quận Ninh Kiều,Cần Thơ,True
124,ChIJUew2yEWJoDER25-sskI9C1w,CHILL COFFEE,Quán cà phê,0903 963 688,"CHILL COFFEE, 49 Đ. 3 Tháng 2, Xuân Khánh, Ninh Kiều, Cần Thơ",10.03661,105.77186,25,Đường Mậu Thân,Phường Xuân Khánh,Quận Ninh Kiều,Cần Thơ,True
125,ChIJy1VzIUmrNTERX26zMhtwSgQ,Lofita Cafe,Quán cà phê,1800 6503,"Lofita Cafe, 30A Trần Hưng Đạo, Phan Chu Trinh, Hoàn Kiếm, Hà Nội 11019",10.03525,105.78606,6,Đại Lộ Hòa Bình,Phường An Cư,Quận Ninh Kiều,Cần Thơ,True
126,ChIJ72s1_bFjoDERUgSKI9kxCYE,VADO Canteen - Nhà Hàng Nhỏ Vui Vẻ,Nhà hàng món lẩu,0799 637 739,"VADO Canteen - Nhà Hàng Nhỏ Vui Vẻ, 42 Đ. Đề Thám, Tân An, Ninh Kiều, Cần Thơ",10.06054,105.78173,8,Đường Phạm Công Trứ,Phường Cái Khế,Quận Ninh Kiều,Cần Thơ,True
127,ChIJM19gduurNTERptHpW_ybbGo,T.Coffee 14 Ngô Quyền,Quán cà phê,0942 893 686,"T.Coffee 14 Ngô Quyền, 14 P. Ngô Quyền, Tràng Tiền, Hoàn Kiếm, Hà Nội 10000",10.00574,105.74298,2,Đường D2,Phường An Bình,Quận Ninh Kiều,Cần Thơ,True
128,ChIJM15XtJCJoDERKrjTOAi9PEY,Hoa Yên An Bình,Quán cà phê,0919 462 904,"Hoa Yên An Bình, A3 khu dân cư 923, An Bình, Ninh Kiều, Cần Thơ 27000",10.03349,105.78338,14,Đường Đề Thám,Phường An Cư,Quận Ninh Kiều,Cần Thơ,True
129,ChIJPSJDgCGIoDEROvrrCgGNMGA,CÀ PHÊ MILANO NGỌC THUÝ 1,Quán cà phê,0943 473 309,"CÀ PHÊ MILANO NGỌC THUÝ 1, 81 Đ. Nguyễn Việt Hồng, An Phú, Ninh Kiều, Cần Thơ 92000",43.76052,1.89396,,,La Caïphe,Puybegon,Tarn,True
131,ChIJC5JFZCGIoDERs9-xioqsHxg,Coffee Fresh,Quán cà phê,0292 3735 245,"Coffee Fresh, Hẻm 15 Đ. Trần Văn Hoài, Xuân Khánh, Ninh Kiều, Cần Thơ 94000",10.01362,105.76284,3,Đường Trần Hoàng Na,Phường Hưng Lợi,Quận Ninh Kiều,Cần Thơ,True
132,ChIJYWgKnI-rNTERBK7N4VUOAbk,Cafe Mai,Quán cà phê,0936 606 789,"Cafe Mai, 75 P. Trần Nhân Tông, Nguyễn Du, Hai Bà Trưng, Hà Nội",10.04106,105.76707,39,Đường Mậu Thân,Phường An Hòa,Quận Ninh Kiều,Cần Thơ,True
133,ChIJa8eWrGyIoDERJJdb_cEoSp8,Cafe Sành Điệu 2,Quán cà phê,0932 964 157,"Cafe Sành Điệu 2, Đ. Nguyễn Tri Phương, Phường An Khánh, Ninh Kiều, Cần Thơ",10.01362,105.76284,,Đường Trần Hoàng Na,Phường Hưng Lợi,Quận Ninh Kiều,Cần Thơ,True
134,ChIJz1_Q5lljoDERugYFVbXbnq4,GÓC KAFÉ,Quán cà phê,0907 121 316,"GÓC KAFÉ, 127 Nguyễn Trãi, Tân An, Ninh Kiều, Cần Thơ 900000",10.03515,105.77255,A5,Hẻm 21B Đường Cao Thắng,Phường Xuân Khánh,Quận Ninh Kiều,Cần Thơ,True
155,ChIJJ8InsOwpdTERKzAX9Kfc8Wc,Zeraffe Coffee,Quán cà phê,,"Zeraffe Coffee, 226/36 Đ. Lê Văn Sỹ, Phường 1, Tân Bình, Thành phố Hồ Chí Minh 700000",21.02274,105.84531,2,Phố Trần Bình Trọng,Phường Trần Hưng Đạo,Quận Hoàn Kiếm,Hà Nội,True
165,ChIJ-4t8WfiJoDERQCjS2A_fu7w,Mộc Nhiên Coffee,Quán cà phê,0939 967 888,"2QM7+PVF Mộc Nhiên Coffee, Hẻm 51, Phường An Khánh, Ninh Kiều, Cần Thơ",10.05635,105.77817,60,Đường Nguyễn Văn Cừ,Phường Cái Khế,Quận Ninh Kiều,Cần Thơ,True
167,ChIJw3D-6A-JoDERbEgBFsjHz3w,Mộng Coffee,Quán cà phê,0907 695 073,"Mộng Coffee, 57A4 Đ. Hồ Bún Xáng, Xuân Khánh, Ninh Kiều, Cần Thơ",10.0271,105.74819,28,Đường Nguyễn Văn Cừ,Phường An Bình,Quận Ninh Kiều,Cần Thơ,True
169,ChIJ92g2xnSJoDERK_XtYtgT7L8,A Coffee and Flower Garden,Quán cà phê,0911 678 910,"A Coffee and Flower Garden, 132 Nguyễn Văn Cừ Nối Dài, Phường An Khánh, Ninh Kiều, Cần Thơ",10.04532,105.77962,2,Đường Hùng Vương,Phường Thới Bình,Quận Ninh Kiều,Cần Thơ,True
170,ChIJ7d7KYryrNTER7Qc5Rzc7XyQ,Maison d'été,Quán cà phê,0915 450 572,"2R6M+52F Maison d'été, Trung Tự, Đống Đa, Hà Nội",10.01403,105.76297,151,Đường Trần Hoàng Na,Phường Hưng Lợi,Quận Ninh Kiều,Cần Thơ,True
171,ChIJFSU86Z2JoDERBJQbtmbsy6g,Prince Koi Coffee,Quán cà phê,0979 007 795,"Prince Koi Coffee, 467 Đ. 30 Tháng 4, Hưng Lợi, Ninh Kiều, Cần Thơ 90000",10.03592,105.75738,,,Phường An Khánh,Quận Ninh Kiều,Cần Thơ,True
172,ChIJmUy_VS2tNTERH8ugHtNt83s,Anh Hai Sài Gòn Cà Phê,Quán cà phê,0348 399 598,"Anh Hai Sài Gòn Cà Phê, P107 K10B, Khu tập thể Bách Khoa, Hai Bà Trưng, Hà Nội",10.02332,105.75621,104,Đường Nguyễn Hiền,Phường An Khánh,Quận Ninh Kiều,Cần Thơ,True
174,ChIJvXKlkFmJoDERfnXqmoiucIY,MK Coffee and Tea,Quán cà phê,,"MK Coffee and Tea, 7a1 Đ bờ kè Hồ Bún Xáng, Phường An Khánh, Ninh Kiều, Cần Thơ",10.03663,105.76652,,Hẻm 51 Nguyễn Văn Cừ,Phường An Khánh,Quận Ninh Kiều,Cần Thơ,True
175,ChIJb2bin4eJoDER8NSJU2fUwpM,Cà phê Phương Hân,Quán cà phê,,"Cà phê Phương Hân, 18 Đ. Nguyễn Văn Linh, Hưng Lợi, Ninh Kiều, Cần Thơ",31.54905,-82.84922,,,,,Coffee,True
176,ChIJRQ3U8YyrNTERlzVbZ5o_rNM,Big Ben Cafe,Quán cà phê,,"Big Ben Cafe, 30 P. Tuệ Tĩnh, Bùi Thị Xuân, Hai Bà Trưng, Hà Nội",10.03226,105.77408,,,Phường Xuân Khánh,Quận Ninh Kiều,Cần Thơ,True
178,ChIJF4ZpWdyJoDERzRN84j08ma8,Cà phê Sữa Đá,Quán cà phê,0859 995 359,"Cà phê Sữa Đá, 79/21 Hùng Vương, An Cư, Ninh Kiều, Cần Thơ",10.01984,105.76321,172B,Đường 3 Tháng 2,Phường Hưng Lợi,Quận Ninh Kiều,Cần Thơ,True
183,ChIJI2emurKJoDER5uyUUtCX2Mc,Cà phê Black Gold,Quán cà phê,0772 822 546,"Cà phê Black Gold, 299 Võ Văn Kiệt, An Thới, Ninh Kiều, Cần Thơ",50.1846,3.50233,,Place du Béart,,Solesmes,Nord,True
187,ChIJ-TMBQVGIoDERwSrR51a4ues,Cafe Milano Hồng Phát,Quán cà phê,0939 311 660,"Cafe Milano Hồng Phát, KDC Hồng Phát, Đ.Xuân Thủy, An Bình, Ninh Kiều, Cần Thơ",10.03223,105.7503,335,Đường Nguyễn Văn Linh,Phường An Khánh,Quận Ninh Kiều,Cần Thơ,True
188,ChIJvwKH-CGJoDERV0c_hMgygTw,CÀ PHÊ NHÀ PHẠM,Quán cà phê,0772 170 707,"CÀ PHÊ NHÀ PHẠM, 219 Đường số 3, khu CBGV, Ninh Kiều, Cần Thơ",10.02601,105.74876,,Đường Trần Hoàng Na,Phường An Bình,Quận Ninh Kiều,Cần Thơ,True
190,ChIJ95ZVm6VjoDERRs-ls71JwE0,T-COFFEE,Quán cà phê,0907 454 848,"T-COFFEE, 65 Mai Chí Thọ, Phú Thứ, Cái Răng, Cần Thơ 900000",10.05979,105.72429,,Đường Bùi Hữu Nghĩa,Phường Long Hòa,Quận Bình Thủy,Cần Thơ,True
207,ChIJ6aQxBkCJoDER6HdlntNqEoA,Cafe & Sách Không Thời Gian,Quán cà phê,0706 862 168,"Cafe & Sách Không Thời Gian, 94 Đường số 3, KDC ĐHCT, Ninh Kiều, Cần Thơ 94117",31.61151,-82.73486,9494,Highway 221 N,,West Green,Coffee,True
208,ChIJISvNKEdVNDERZtXVnZvqL3c,Quận Cà Phê,Quán cà phê,,"Quận Cà Phê, 12 Đường Phú Minh, Minh Khai, Bắc Từ Liêm, Hà Nội 10000",10.0277,105.77039,144B,Đường 3 Tháng 2,Phường Xuân Khánh,Quận Ninh Kiều,Cần Thơ,True
211,ChIJxWSvk5CJoDER4Q-k02JGans,TRUNG NGUYÊN E COFFEE 24 VÕ VĂN KIỆT,Quán cà phê,0943 253 275,"TRUNG NGUYÊN E COFFEE 24 VÕ VĂN KIỆT, 24 Võ Văn Kiệt, An Hoà, Ninh Kiều, Cần Thơ",10.06648,105.75898,,Đường Cách Mạng Tháng 8,Phường Bùi Hữu Nghĩa,Quận Bình Thủy,Cần Thơ,True
214,ChIJAweY6-KJoDERoGU7T45AjJU,Mộc Lan Trà Quán,Quán cà phê,0903 122 383,"Mộc Lan Trà Quán, 54 tổ 7 , Đường Bờ Hồ Bún Xáng, Cần Thơ 900000",10.02685,105.7479,36,Đường Nguyễn Văn Cừ,Phường An Bình,Quận Ninh Kiều,Cần Thơ,True
216,ChIJDwDtoaFjoDERLommZQPHssA,Lê’s Path Coffee Cái Răng - Quán Cà Phê Đẹp Có Sân Vườn Máy Lạnh Và Điểm Tâm Sáng,Quán cà phê,0939 549 245,"Lê’s Path Coffee Cái Răng - Quán Cà Phê Đẹp Có Sân Vườn Máy Lạnh Và Điểm Tâm Sáng, 12 Mai Chí Thọ, KDC 586, Cái Răng, Cần Thơ 900000",10.04221,105.75468,,Đường Số 10,Phường An Khánh,Quận Ninh Kiều,Cần Thơ,True
218,ChIJh_SqyOqJoDERFXK94Ewn7O4,HOYA Tea & Coffee Búng Xáng,Quán cà phê,0909 996 672,"HOYA Tea & Coffee Búng Xáng, Tổ 4 Khu Vực 3, Phường An Khánh, Ninh Kiều, Cần Thơ 900000",10.04366,105.76188,152A/17,Đường Nguyễn Văn Cừ,Phường An Khánh,Quận Ninh Kiều,Cần Thơ,True
219,ChIJe36kBhWJoDERgCzxVd9QEWg,Trạm Dừng Chân (Quán Trà - Sách),Quán cà phê,0939 889 945,"Trạm Dừng Chân (Quán Trà - Sách), 1A/15A Nguyễn Văn Trỗi, An Nghiệp, Ninh Kiều, Cần Thơ",10.03835,105.75368,118,Đường Tô Hiến Thành,Phường An Khánh,Quận Ninh Kiều,Cần Thơ,True
220,ChIJ37vstxSJoDERCIu2NXrRmOM,Hạt Specialty Coffee - Roastery,Quán cà phê,0362 164 429,"Hạt Specialty Coffee - Roastery, 67-69 Đường B25, Khu dân cư 91B, Ninh Kiều, Cần Thơ 90000",10.0263,105.758,10,Quốc Lộ 91B,Phường An Khánh,Quận Ninh Kiều,Cần Thơ,True
221,ChIJ-6I1hZmJoDERXIaXaV4hgiI,Coffee & Food Tiếng Xưa - TTTM Cái Khế - Trần Phú,Quán cà phê,0866 719 799,"Coffee & Food Tiếng Xưa - TTTM Cái Khế - Trần Phú, Lô H Trần Phú, Thới Bình, Ninh Kiều, Cần Thơ 94000",10.0501,105.78701,2,Đường Lê Lợi,Phường Cái Khế,Quận Ninh Kiều,Cần Thơ,True
223,ChIJecnD4D2JoDERXpnttF_lD3c,Tojime cafe,Quán cà phê,0902 754 777,"Tojime cafe, 12A Đ. Lê Anh Xuân, An Cư, Ninh Kiều, Cần Thơ",10.05384,105.77173,76,Đường Cách Mạng Tháng 8,Phường Cái Khế,Quận Ninh Kiều,Cần Thơ,True
224,ChIJSZJDJgOIoDERraFeDjWz1ao,Tasa Coffee Hùng Vương,Quán cà phê,0932 838 588,"Tasa Coffee Hùng Vương, 55 Hùng Vương, An Hội, Ninh Kiều, Cần Thơ",10.03518,105.76522,,Hẻm 51 Nguyễn Văn Cừ,Phường An Khánh,Quận Ninh Kiều,Cần Thơ,True
225,ChIJyf68tyBjoDERgOFKPFobSfY,Cafe Thềm Xưa,Quán cà phê,0931 022 424,"Cafe Thềm Xưa, 07 Đ. Phạm Ngọc Thạch, P, Ninh Kiều, Cần Thơ 90000",10.01063,105.76196,24,Đường 30 Tháng 4,Phường Hưng Lợi,Quận Ninh Kiều,Cần Thơ,True
227,ChIJs8lmXcOJoDERYDSbDYe1D9E,Lily cafe,Quán cà phê,0909 575 999,"Lily cafe, 171 Huỳnh Cương, An Cư, Ninh Kiều, Cần Thơ",10.02463,105.76011,29,Đường Nguyễn Văn Linh,Phường Hưng Lợi,Quận Ninh Kiều,Cần Thơ,True
228,ChIJWUJYJvSJoDERbGel3eYTEN4,Tiệm cà phê Nhà Có Khách,Quán cà phê,0363 618 128,"Tiệm cà phê Nhà Có Khách, 359/19b Đ. Nguyễn Văn Cừ, An Hoà, Ninh Kiều, Cần Thơ",10.04465,105.78187,10,Đường Trần Quang Khải,Phường Cái Khế,Quận Ninh Kiều,Cần Thơ,True
231,ChIJnQdgZdmrNTERLv2nbqmvenM,Lang Thang Cà Phê - Đỗ Hành,Quán cà phê,0363 767 866,"Lang Thang Cà Phê - Đỗ Hành, 14 P. Đỗ Hành, Nguyễn Du, Hai Bà Trưng, Hà Nội",10.01403,105.76297,151,Đường Trần Hoàng Na,Phường Hưng Lợi,Quận Ninh Kiều,Cần Thơ,True
232,ChIJ24MMnCFjoDERIZq8jNXWVqQ,Đất cà phê - takeaway & delivery,Quán cà phê,0348 782 788,"Đất cà phê - takeaway & delivery, 28 Xô Viết Nghệ Tĩnh, An Hội, Ninh Kiều, Cần Thơ 94000",31.36044,-85.81688,,Mossey Ln,,Enterprise,Coffee,True
233,ChIJTaFpXd6JoDERk1j12Kc2h9w,Up Coffee & Bistro,Quán cà phê,0774 451 319,"Up Coffee & Bistro, 35 Hẻm 6 Mậu Thân, An Phú, Ninh Kiều, Cần Thơ",,,,,,,,True
234,ChIJceiwADQtdTERXVmmlEXN4lg,HONEYLLA COFFEE | COFFEE VIEW ĐẸP QUẬN 6 | COFFEE NGON QUẬN 6,Quán cà phê,0938 838 896,"HONEYLLA COFFEE | COFFEE VIEW ĐẸP QUẬN 6 | COFFEE NGON QUẬN 6, 209 Bà Hom, Phường 13, Quận 6, Thành phố Hồ Chí Minh",10.05864,105.78112,51,Đường Nguyễn Văn Cừ,Phường Cái Khế,Quận Ninh Kiều,Cần Thơ,True
262,ChIJRWQ9adaJoDERxeywzi3cVZQ,Bus Stop coffee & tea,Quán cà phê,0939 882 432,"Bus Stop coffee & tea, 114 Đường số 3, Phường An Khánh, Ninh Kiều, Cần Thơ",10.05101,105.77295,37,Đường Nguyễn Văn Cừ,Phường An Hòa,Quận Ninh Kiều,Cần Thơ,True
263,ChIJIY49UnFjoDERuiyJb5kerdI,Highlands Coffee Trần Văn Khéo - Cần Thơ,Quán cà phê,0292 7302 324,"Highlands Coffee Trần Văn Khéo - Cần Thơ, 66-68 Trần Văn Khéo, An Hội, Ninh Kiều, Cần Thơ 94000",10.02968,105.75126,138,Đường Nguyễn Văn Cừ,Phường An Khánh,Quận Ninh Kiều,Cần Thơ,True
265,ChIJaUksgVWJoDERmCqy8te6vKo,Highlands Coffee Huỳnh Cương - Cần Thơ,Quán cà phê,0292 7302 627,"Highlands Coffee Huỳnh Cương - Cần Thơ, TP, 198–200 Huỳnh Cương, An Cư, Ninh Kiều, Cần Thơ 94000",10.03214,105.74612,2,Đường Nguyễn Tri Phương,Phường An Khánh,Quận Ninh Kiều,Cần Thơ,True
266,ChIJ8aSTJZ-JoDER773DhOQYbEI,NÂU Coffee & Tea,Quán cà phê,0939 483 366,"NÂU Coffee & Tea, 103A, kv2, bờ kè rạch ngỗng, Phường An Khánh, Ninh Kiều, Cần Thơ",10.03392,105.74699,,Khu Dân Cư Hàng Bàng,Phường An Khánh,Quận Ninh Kiều,Cần Thơ,True
267,ChIJGRjHnJuJoDERiJEodhJM9QU,Quán cà phê Bida Guitar,Quán cà phê,0939 822 338,"Quán cà phê Bida Guitar, 16 Bông Vang, Đối diện công an xã, Phong Điền, Cần Thơ 000000",10.02893,105.75014,4,Đường Nguyễn Văn Cừ,Phường An Khánh,Quận Ninh Kiều,Cần Thơ,True
268,ChIJG_uCjsyJoDERfyhsD4v5rrw,Uyên Nhi Coffee,Quán cà phê,,"Uyên Nhi Coffee, 654 Đ. 30 Tháng 4, Hưng Lợi, Ninh Kiều, Cần Thơ",10.03108,105.75126,339,Đường Nguyễn Văn Linh,Phường An Khánh,Quận Ninh Kiều,Cần Thơ,True
269,ChIJFTKty0iJoDERc1psLbx0Nno,Cà phê Đỉnh,Quán cà phê,0926 616 775,"Cà phê Đỉnh, 57 Đ. Nguyễn Đệ, An Hoà, Ninh Kiều, Cần Thơ 92000",10.03387,105.74821,345,Đường Nguyễn Văn Linh,Phường An Khánh,Quận Ninh Kiều,Cần Thơ,True
270,ChIJpx0CL5SJoDER98MWnvj1Gmw,Cafe Nhà anh Đỗ,Quán cà phê,0967 904 249,"Cafe Nhà anh Đỗ, 25C Đ. Nguyễn Văn Cừ, An Phú, Ninh Kiều, Cần Thơ",,,,,,,,True
271,ChIJr7JyMJGJoDERwvsVHNTPlOQ,Co-Coffee,Quán cà phê,0939 154 202,"Co-Coffee, 202 Đ. Nguyễn Đệ, An Hoà, Ninh Kiều, Cần Thơ",10.08162,105.74039,,,,Quận Bình Thủy,Cần Thơ,True
281,ChIJJb1-72SJoDERh3P6EpoBQqs,By Ken Le - Cafe Sữa Bọt,Quán cà phê,,"By Ken Le - Cafe Sữa Bọt, 65 Xô Viết Nghệ Tĩnh, Tân An, Ninh Kiều, Cần Thơ 900022",10.05867,105.78086,6/138A,Đường Nguyễn Văn Cừ,Phường Cái Khế,Quận Ninh Kiều,Cần Thơ,True
282,ChIJK_0EZgZjoDER4IZvKHy-h-w,Huy Anh Coffee.Tea.Juice,Quán cà phê,0787 979 989,"Huy Anh Coffee.Tea.Juice, 6 Đ. Đề Thám, Tân An, Ninh Kiều, Cần Thơ",10.04861,105.77471,,Hẻm 24 Đường Trần Việt Châu,Phường An Hòa,Quận Ninh Kiều,Cần Thơ,True
283,ChIJ52lPMMGJoDER0idfPPBjOTE,Quán Cà Phê - Sinh Tố 136,Cửa hàng bán nước quả ép,0908 768 027,"Quán Cà Phê - Sinh Tố 136, 136 Đ. Đồng Văn Cống, An Hoà, Bình Thủy, Cần Thơ 94200",10.04543,105.79094,,Đường Sông Hậu,Phường Cái Khế,Quận Ninh Kiều,Cần Thơ,True
284,ChIJVdn88XqJoDER4Ta4buisBbY,Coffee 51 - Cơm tấm,Quán cà phê,0762 909 990,"2QG8+8C8 Coffee 51 - Cơm tấm, Xuân Khánh, Ninh Kiều, Cần Thơ",10.04422,105.78169,2A,Đường Trần Quang Khải,Phường Cái Khế,Quận Ninh Kiều,Cần Thơ,True
285,ChIJ7aGVQJ5ioDERj5pQT5YKSfE,Kafe'Tin97,Quán cà phê,0932 829 333,"Kafe'Tin97, Tân An, Ninh Kiều, Cần Thơ",10.04847,105.76556,75,Hẻm 75 Đường Võ Trường Toản,Phường An Hòa,Quận Ninh Kiều,Cần Thơ,True
297,ChIJY6sP2OBjoDER72dPs_gLShE,Cà Phê Tình Lai,Quán cà phê,,"Cà Phê Tình Lai, 24 Đ. Tân Trào, Tân An, Ninh Kiều, Cần Thơ",10.03934,105.75424,39,Đường Tô Hiến Thành,Phường An Khánh,Quận Ninh Kiều,Cần Thơ,True
298,ChIJ2SjHI65joDERnqDMVplwEpw,Cà phê tình nhân Bi Coffee 2,Quán cà phê,0292 2468 879,"Cà phê tình nhân Bi Coffee 2, 30-32 Đ. Phạm Ngọc Thạch, P, Ninh Kiều, Cần Thơ",,,,,,,,True
302,ChIJ7-U23NxjoDERBFhvVBHj5dw,Cả Nhà Mình Coffee,Quán cà phê,0913 973 360,"Cả Nhà Mình Coffee, 48 Xô Viết Nghệ Tĩnh, An Hội, Ninh Kiều, Cần Thơ",10.02122,105.7423,10/261,Đường Nguyễn Văn Cừ,Phường An Bình,Quận Ninh Kiều,Cần Thơ,True
304,ChIJdYcpvbyJoDER4Iuq7O7kh9E,Chất Cà Phê,Quán cà phê,0939 828 929,"Chất Cà Phê, 381 Đ. Nguyễn Văn Cừ, An Hoà, Ninh Kiều, Cần Thơ",10.00849,105.74982,,Cầu Cái Răng,Phường An Bình,Quận Ninh Kiều,Cần Thơ,True
305,ChIJ-_L7OwNjoDERHlmIeHw1IWc,E-Coffee Trung Nguyên Phan Đình Phùng,Quán cà phê,,"E-Coffee Trung Nguyên Phan Đình Phùng, 12 Phan Đình Phùng, Tân An, Ninh Kiều, Cần Thơ",10.0082,105.74878,,Đường Lộ Vòng Cung,Phường An Bình,Quận Ninh Kiều,Cần Thơ,True
306,ChIJi1pA1IOJoDERts7F7MyS3rM,Võ Café,Quán cà phê,0907 192 730,"Võ Café, 96 Tổ 3, khu vực 12, Ninh Kiều, Cần Thơ 94117",10.01972,105.77284,,,Phường Hưng Lợi,Quận Ninh Kiều,Cần Thơ,True
324,ChIJrVNRBKQpdTERcBT53j5pXHk,Kaizen Coffee,Nhà bán buôn cà phê,0815 111 888,"Kaizen Coffee, TP, Nhà L9, đường số 12, KDC Jamona Home Resort, Hiệp Bình Phước, Thủ Đức, Thành phố Hồ Chí Minh 71300",10.04369,105.7648,111,Đường Võ Văn Kiệt,Phường An Hòa,Quận Ninh Kiều,Cần Thơ,True
330,ChIJz457NjWIoDERgtQrSK-RFNM,Tim Coffee,Quán cà phê,,"Tim Coffee, 29/3 Đ. 30 Tháng 4, Hưng Lợi, Ninh Kiều, Cần Thơ",10.04447,105.75276,2,Đường Số 7,Phường An Khánh,Quận Ninh Kiều,Cần Thơ,True
331,ChIJ2edBXEWJoDER2JP7qJ_9CnU,Quynh Anh Coffee,Nhà sản xuất thực phẩm,0773 595 554,"Quynh Anh Coffee, 3 Đ. Trần Vĩnh Kiết, An Bình, Ninh Kiều, Cần Thơ 92000",10.04172,105.76317,138,Đường Nguyễn Văn Cừ Nối Dài,Phường An Khánh,Quận Ninh Kiều,Cần Thơ,True
332,ChIJV4lwhMeJoDERlokURbPiXf8,1995s Coffee & Tea,Quán cà phê,0706 799 379,"1995s Coffee & Tea, 251/32A Đ. Trần Ngọc Quế, Xuân Khánh, Ninh Kiều, Cần Thơ",10.04767,105.76924,413,Đường Nguyễn Văn Cừ,Phường An Hòa,Quận Ninh Kiều,Cần Thơ,True
344,ChIJGVQ5ulCJoDERKQmLHT4xlWA,HOMELY MILK-TEA TAKEAWAY,Quán cà phê,0814 748 978,"HOMELY MILK-TEA TAKEAWAY, 388Z6A, Nguyễn Văn Cừ Nối Dài, Phường An Khánh, Ninh Kiều, Cần Thơ",10.02954,105.77909,,Hẻm 108 Đường 30 Tháng 4,Phường An Phú,Quận Ninh Kiều,Cần Thơ,True
354,ChIJCStwutOJoDERcx0fD3JCxk0,Cà Phê Đồ Nghề Phước Duy,Quán cà phê,0946 377 778,"Cà Phê Đồ Nghề Phước Duy, 159 Huỳnh Cương, An Cư, Ninh Kiều, Cần Thơ",10.0175,105.74329,313,Đường Hoàng Quốc Việt,Phường An Bình,Quận Ninh Kiều,Cần Thơ,True
356,ChIJJ7NkhWqJoDERXIcM5VRte10,Cà Phê Xe Lam,Quán cà phê,0971 842 135,"Cà Phê Xe Lam, 31 Hùng Vương, An Hội, Ninh Kiều, Cần Thơ",9.99698,105.72165,,Đường Lộ Vòng Cung,Xã Mỹ Khánh,Huyện Phong Điền,Cần Thơ,True
357,ChIJXedSC3GJoDERCJ9MsUx8DpI,Cà phê Vợt mang đi,Quán cà phê,0949 127 890,"Cà phê Vợt mang đi, 62 Đ. Mậu Thân, An Nghiệp, Ninh Kiều, Cần Thơ",21.01897,105.84156,36,Phố Nguyễn Thượng Hiền,Phường Nguyễn Du,Quận Hai Bà Trưng,Hà Nội,True
358,ChIJ4RCpJPRjoDER3D0ReG2dKOk,Cà phê Tarot,Quán cà phê,0899 666 788,"Cà phê Tarot, 44 Đ. Nguyễn Khuyến, Tân An, Ninh Kiều, Cần Thơ 900000",10.03538,105.7862,2,Đường Hòa Bình,Phường An Cư,Quận Ninh Kiều,Cần Thơ,True
359,ChIJJY9PuSSIoDER7MHl4OKk4QY,Quán Cà Phê Pha Lê,Quán cà phê,0292 3738 399,"2QGC+JHV Quán Cà Phê Pha Lê, Đ. Trần Văn Hoài, Xuân Khánh, Ninh Kiều, Cần Thơ",10.01127,105.75203,,Đường 3 Tháng 2,Phường An Bình,Quận Ninh Kiều,Cần Thơ,True
365,ChIJ33JDPhOJoDERJ2SmP9lHdS0,Cafe cá KOI,Quán cà phê,0939 961 728,"Cafe cá KOI, 163e Nguyễn Văn Cừ Nối Dài, Phường An Khánh, Ninh Kiều, Cần Thơ",10.03212,105.78464,44A,Đường Nam Kỳ Khởi Nghĩa,Phường Tân An,Quận Ninh Kiều,Cần Thơ,True
366,ChIJs5zJYDqIoDERoQ-O7t6vrQY,Quán Cà Phê Lê Bình,Quán cà phê,0989 900 077,"2QF8+FRV Quán Cà Phê Lê Bình, Đ. 3 Tháng 2, Hưng Lợi, Ninh Kiều, Cần Thơ",10.01385,105.76718,216,Hẻm 216 Tầm Vu,Phường Hưng Lợi,Quận Ninh Kiều,Cần Thơ,True
370,ChIJL9Ud_iyJoDERmk-3n21rAVs,Cafe Ngọc Yến 3,Quán cà phê,,"2QF8+PR2 Cafe Ngọc Yến 3, Hưng Lợi, Ninh Kiều, Cần Thơ",10.03257,105.7749,156,Đường Mậu Thân,Phường Xuân Khánh,Quận Ninh Kiều,Cần Thơ,True
371,ChIJSwzxdMOJoDERFD3n1eV2LDY,Cafe PHỐ 24H,Quán cà phê,0989 900 077,"Cafe PHỐ 24H, 124 Đ. 30 Tháng 4, Hưng Lợi, Ninh Kiều, Cần Thơ",10.05269,105.77568,36,Hẻm 152 Đường Đoàn Thị Điểm,Phường Cái Khế,Quận Ninh Kiều,Cần Thơ,True
372,ChIJY8V7QDmtNTERNruZUVj4uU0,Sam Rooftop Coffee,Quán cà phê,0987 870 931,"Sam Rooftop Coffee, 58 Ng. 298 Tây Sơn, Ngã Tư Sở, Đống Đa, Hà Nội",10.0438,105.7906,39,Đường Lê Lợi,Phường Cái Khế,Quận Ninh Kiều,Cần Thơ,True
373,ChIJn7RJk7yJoDEReCOEcgUe7hs,NHÀ DÁT VÀNG CẦN THƠ,Quán cà phê,0913 824 742,"NHÀ DÁT VÀNG CẦN THƠ, Số18 Đường số 6, Kdc Thới Nhựt 2, Ninh Kiều, Cần Thơ",10.04422,105.78169,2A,Đường Trần Quang Khải,Phường Cái Khế,Quận Ninh Kiều,Cần Thơ,True
374,ChIJV_FD4EOIoDERUsytZhQWddg,CAFE NGỌC YẾN 6,Quán cà phê,0939 064 848,"CAFE NGỌC YẾN 6, 306N Đ. Nguyễn Văn Linh, Phường An Khánh, Ninh Kiều, Cần Thơ",10.03223,105.78218,2,Đường Lý Tự Trọng,Phường An Cư,Quận Ninh Kiều,Cần Thơ,True
375,ChIJiTr5bzSIoDER_7DJCUzeyDg,Aurora Cafe,Quán cà phê,,"Aurora Cafe, 169B Đ. 30 Tháng 4, Hưng Lợi, Ninh Kiều, Cần Thơ",10.04011,105.77767,157,Đường Hoàng Văn Thụ,Phường An Cư,Quận Ninh Kiều,Cần Thơ,True
378,ChIJfZ7K6zqIoDERr_IzgMQbv7A,Hoa Đô Coffee,Quán cà phê,0939 659 059,"Hoa Đô Coffee, 164/7A Đ. Trần Ngọc Quế, Xuân Khánh, Ninh Kiều, Cần Thơ",10.03855,105.76488,132D3,Hẻm 132 Đường Nguyễn Văn Cừ,Phường An Khánh,Quận Ninh Kiều,Cần Thơ,True
388,ChIJp7ErsKdioDERvXNzqlN12qE,Quán Cà Phê Đoàn 30,Quán cà phê,0292 3832 574,"Quán Cà Phê Đoàn 30, 80 Nguyễn Trãi, An Hội, Ninh Kiều, Cần Thơ",10.00557,105.74951,,Đường Lý Thường Kiệt,Phường Lê Bình,Quận Cái Răng,Cần Thơ,True
398,ChIJ5VqtGaBioDER3NQLlbGoQyA,Quán Cà Phê Phương Mai,Quán cà phê,0949 111 223,"Quán Cà Phê Phương Mai, 42-44 Đại lộ Hoà Bình, Tân An, Ninh Kiều, Cần Thơ",10.01344,105.76133,,Đường 30/4,Phường Hưng Lợi,Quận Ninh Kiều,Cần Thơ,True
401,ChIJfeQb2f2HoDERkEFhMLeNv28,Cafe An Gia,Quán cà phê,0925 631 506,"Cafe An Gia, 8 Trần Văn Giàu, Cái Khế, Ninh Kiều, Cần Thơ",10.0341,105.78216,2,Hẻm 59 Đề Thám,Phường An Cư,Quận Ninh Kiều,Cần Thơ,True
404,ChIJkfSqn1qIoDER80ttQS5RxqQ,Cafe Nhà Gỗ,Quán cà phê,0902 097 245,"Cafe Nhà Gỗ, 231 Nguyễn Văn Cừ Nối Dài, An Bình, Tp, Cần Thơ",10.03802,105.75985,184,Đường Nguyễn Văn Cừ Nối Dài,Phường An Khánh,Quận Ninh Kiều,Cần Thơ,True
405,ChIJeWIJ2keIoDERN8HETfZTh24,Cafe Hoa Hồng,Quán cà phê,0917 130 999,"2QF4+9HF Cafe Hoa Hồng, Phường An Khánh, Ninh Kiều, Cần Thơ",10.02599,105.77537,258,Đường 30 Tháng 4,Phường Xuân Khánh,Quận Ninh Kiều,Cần Thơ,True
406,ChIJLYBYwDqIoDERuElQZO_4-vg,Cà Phê Hoàng Hôn,Quán cà phê,0292 3840 123,"Cà Phê Hoàng Hôn, 162 Đ. Trần Ngọc Quế, Xuân Khánh, Ninh Kiều, Cần Thơ 900000",10.03239,105.77953,86,Đường Lê Lai,Phường An Phú,Quận Ninh Kiều,Cần Thơ,True
407,ChIJR8zsxkOIoDERlxCWlfCzV3o,Cafe Hoa Nắng,Quán cà phê,0292 3769 103,"Cafe Hoa Nắng, 299 C Đ. Nguyễn Văn Cừ, Phường An Khánh, Ninh Kiều, Cần Thơ",10.02565,105.77915,213D,Đường Nguyễn Thị Minh Khai,Phường Xuân Khánh,Quận Ninh Kiều,Cần Thơ,True
409,ChIJDS8toZSrNTERNJ026MyznXs,Cà phê Hai Bốn,Quán cà phê,0912 170 210,"Cà phê Hai Bốn, 43 Nguyễn Du Hà Nội, Hanoi City, 110115",,,,,,,,True
411,ChIJid_tjESIoDER6a6pRgDP7V8,Cà Phê 338,Quán cà phê,,"Cà Phê 338, 28 Nguyễn Văn Cừ Nối Dài, Phường An Khánh, Ninh Kiều, Cần Thơ",10.04498,105.78223,41,Đường Trần Quang Khải,Phường Cái Khế,Quận Ninh Kiều,Cần Thơ,True
417,ChIJ78GcTDJjoDERsnbGDpEmGgs,Yên Garden Coffee & Tea,Quán cà phê,0939 141 177,"Yên Garden Coffee & Tea, 70-72 Lê Lợi, Cái Khế, Ninh Kiều, Cần Thơ 94000",10.03327,105.76171,385II/14B,Đường Trần Nam Phú,Phường An Khánh,Quận Ninh Kiều,Cần Thơ,True
435,ChIJlUQs3zWIoDERyp7XgqYVr7M,Café 112,Quán cà phê,,"Café 112, 112 Đ. 3 Tháng 2, Hưng Lợi, Ninh Kiều, Cần Thơ",9.99694,105.66559,,,,Huyện Phong Điền,Cần Thơ,True
436,ChIJr0vURCKIoDERu3qIlb7SyOw,Quán Café Thi Thơ,Quán cà phê,0292 3739 869,"Quán Café Thi Thơ, 226, Đường 3/2, Quận Ninh Kiều, Tp Cần Thơ, An Phú, Ninh Kiều, Cần Thơ",9.99497,105.73795,431,Đường Lộ Vòng Cung,Phường An Bình,Quận Ninh Kiều,Cần Thơ,True
437,ChIJj24YLp6JoDERgGWtK5eMzYk,King Koi Coffee,Quán cà phê,0929 828 384,"King Koi Coffee, 41 Đ. Mậu Thân, An Hoà, Ninh Kiều, Cần Thơ",10.04006,105.77743,3,Quốc Lộ 1A,Phường An Nghiệp,Quận Ninh Kiều,Cần Thơ,True
438,ChIJH1gePhaJoDERxELx-DJEXsI,Cafe 369,Quán cà phê,,"Cafe 369, 152 Đ. Nguyễn Tri Phương, Phường An Khánh, Ninh Kiều, Cần Thơ",10.02113,105.76919,,Đường Lê Bình,Phường Hưng Lợi,Quận Ninh Kiều,Cần Thơ,True
439,ChIJyT7XhqqrNTERbz0ellLo1f4,Hầm Trú Ẩn Cafe,Quán cà phê,0378 802 382,"Hầm Trú Ẩn Cafe, 78 Ng. Trung Tiền, Khâm Thiên, Đống Đa, Hà Nội",10.02338,105.75658,85,Đường Nguyễn Hiền,Phường An Khánh,Quận Ninh Kiều,Cần Thơ,True
441,ChIJYxLXLc-JoDEREtxz9U9XZ4c,Hoàng Phát Pro 1,Quán cà phê,,"Hoàng Phát Pro 1, 108 Đ. Trần Hoàng Na, Hưng Lợi, Ninh Kiều, Cần Thơ",10.03432,105.74766,91B,Đường Nguyễn Văn Linh,Phường An Khánh,Quận Ninh Kiều,Cần Thơ,True
442,ChIJX5VetDGIoDERCG8HLsda1Xo,Quán Cà Phê Cây Khế,Quán cà phê,0292 3839 336,"2Q99+PFG Quán Cà Phê Cây Khế, Đ. Nguyễn Văn Linh, Hưng Lợi, Ninh Kiều, Cần Thơ",10.03008,105.78661,97,Đường Phan Đình Phùng,Phường Tân An,Quận Ninh Kiều,Cần Thơ,True
446,ChIJpWu3KaBioDERhoYKUtijfrE,Time Cafe,Quán cà phê,,"Time Cafe, 89a Võ Văn Tần, Tân An, Ninh Kiều, Cần Thơ",10.02796,105.77032,,Đường 3 Tháng 2,Phường Xuân Khánh,Quận Ninh Kiều,Cần Thơ,True
450,ChIJIzeO0kGIoDERSeaRa2HUWzY,Quán Cafe Sala,Quán cà phê,0292 3789 789,"2QM4+C39 Quán Cafe Sala, Đường Nguyễn Văn Cừ Nối Dài, Phường An Khánh, Quận Ninh Kiều, Phường An Khánh, Ninh Kiều, Cần Thơ",10.03656,105.78617,5,Đường Ngô Hữu Hạnh,Phường Tân An,Quận Ninh Kiều,Cần Thơ,True
451,ChIJ4XY5zwmJoDERyJM9q23mhpc,WIMI Specialty Coffee and Tea,Quán cà phê,0865 084 744,"WIMI Specialty Coffee and Tea, 25G Đ. Mậu Thân, Xuân Khánh, Ninh Kiều, Cần Thơ",10.03219,105.785,27,Đường Đồng Khởi,Phường Tân An,Quận Ninh Kiều,Cần Thơ,True
452,ChIJCSPlLl5joDERaCi3yhpLWG0,Cafe Six Garden,Quán cà phê,,"Cafe Six Garden, 6 Đại lộ Hoà Bình, Tân An, Ninh Kiều, Cần Thơ",10.05421,105.75992,,Đường Đồng Văn Cống,Phường An Thới,Quận Bình Thủy,Cần Thơ,True
453,ChIJ_wm6t0CHoDERGUYvvZPi-Rc,NAM Coffee,Quán cà phê,,"3Q4G+9WC NAM Coffee, Phạm Công Trứ, Cái Khế, Ninh Kiều, Cần Thơ",10.04606,105.76754,256/1A,Đường Nguyễn Văn Cừ,Phường An Hòa,Quận Ninh Kiều,Cần Thơ,True
455,ChIJ9bfG6XqJoDERA4zpB_UHJP8,Xóm Cà Phê,Quán cà phê,0292 3818 283,"Xóm Cà Phê, 290 Đường 3-2, An Bình, Ninh Kiều, Cần Thơ",10.0298,105.78038,45,Đường 30 Tháng 4,Phường An Phú,Quận Ninh Kiều,Cần Thơ,True
458,ChIJvTSQdaBioDERxSgHheoEAGU,Cà Phê Cát Tường 1,Quán cà phê,,"Cà Phê Cát Tường 1, 39 Đ. Đề Thám, Tân An, Ninh Kiều, Cần Thơ",10.02725,105.77001,145,Đường Trần Văn Hoài,Phường Xuân Khánh,Quận Ninh Kiều,Cần Thơ,True
460,ChIJc_aRgw-JoDER_Z_xaAatr4c,Cà phê & Ăn sáng Tiếng Xưa,Quán cà phê,,"Cà phê & Ăn sáng Tiếng Xưa, 68 Đ. 3 Tháng 2, Hưng Lợi, Ninh Kiều, Cần Thơ",10.02358,105.76724,10,Đường Lê Bình,Phường Hưng Lợi,Quận Ninh Kiều,Cần Thơ,True
461,ChIJ45cM6j6JoDER8QkD9a_4YMM,Thi Thơ - Coffee and Tea,Quán cà phê,0292 3899 988,"Thi Thơ - Coffee and Tea, 77-79 Võ Văn Kiệt, An Hoà, Ninh Kiều, Cần Thơ",10.04009,105.78554,26,Đường Nguyễn Trãi,Phường Tân An,Quận Ninh Kiều,Cần Thơ,True
463,ChIJEYYihxCJoDERzpkGVOVQVpY,MAY COFFEE,Quán cà phê,0292 3939 000,"MAY COFFEE, 03 Đ. Trần Hoàng Na, Hưng Lợi, Ninh Kiều, Cần Thơ",10.02447,105.75074,71B,Đường Trần Hoàng Na,Phường An Bình,Quận Ninh Kiều,Cần Thơ,True
464,ChIJz2vXItaJoDER5qOCI8WD4Ew,4Cs Cafe,Quán cà phê,0292 3868 000,"4Cs Cafe, 80 Đ. Mậu Thân, An Nghiệp, Ninh Kiều, Cần Thơ",10.01176,105.76184,,Đường 30 Tháng 4,Phường Hưng Lợi,Quận Ninh Kiều,Cần Thơ,True
468,ChIJ02nyRZGJoDERH7Zx1_Uqfds,Cafe F,Quán cà phê,0939 347 789,"Cafe F, mới, Đ. Trần Hoàng Na, Hưng Lợi, Ninh Kiều, Cần Thơ",10.04499,105.76641,426,Đường Nguyễn Văn Cừ,Phường An Hòa,Quận Ninh Kiều,Cần Thơ,True
489,ChIJKXVolsKJoDERNjAlUsgo99A,Bocora Coffee Garden,Quán cà phê,0896 616 268,"Bocora Coffee Garden, Hẻm 51, Xuân Khánh, Ninh Kiều, Cần Thơ",10.02685,105.78605,119,Đường Hai Bà Trưng,Phường Tân An,Quận Ninh Kiều,Cần Thơ,True
490,ChIJK-JG490udTERJh71ols4j0Q,Cafe HD MAY 2,Rạp chiếu phim,0906 846 599,"Cafe HD MAY 2, 16 Hẻm 343 Sư Vạn Hạnh, Phường 12, Quận 10, Thành phố Hồ Chí Minh",10.04277,105.75702,37,Đường Số 12,Phường An Khánh,Quận Ninh Kiều,Cần Thơ,True
496,ChIJ7bP-JSSIoDERP05Xr_wjdGM,G-Master Boardgames Coffee,Quán cà phê,0829 990 399,"G-Master Boardgames Coffee, 19/27 Đ. Trương Định, Tân An, Ninh Kiều, Cần Thơ",10.03667,105.75813,,Đường Nguyễn Văn Cừ Nối Dài,Phường An Khánh,Quận Ninh Kiều,Cần Thơ,True
497,ChIJ2TDLQquJoDERh4-4Wx8Yg3A,The 80’s coffee 24h,Quán cà phê,0369 002 733,"The 80’s coffee 24h, 307H Đ. Nguyễn Văn Linh, Phường An Khánh, Ninh Kiều, Cần Thơ",10.04182,105.76354,1,Đường Nguyễn Văn Cừ Nối Dài,Phường An Khánh,Quận Ninh Kiều,Cần Thơ,True
498,ChIJZdC56MuJoDERvKcx7T_4suQ,PHÚC COFFEE,Quán cà phê,0947 703 456,"PHÚC COFFEE, 207 Đ. Nguyễn Hiền, Khu dân cư 91B, Ninh Kiều, Cần Thơ 94000",10.0387,105.7602,163,Đường Nguyễn Văn Cừ Nối Dài,Phường An Khánh,Quận Ninh Kiều,Cần Thơ,True
499,ChIJY7DRVhqIoDER5pFAe4PY9XA,Quán Cà Phê 2.63,Quán cà phê,0292 3768 213,"Quán Cà Phê 2.63, 124 Đ. Lê Anh Xuân, An Nghiệp, Ninh Kiều, Cần Thơ",10.03355,105.7484,337,Đường Nguyễn Văn Linh,Phường An Khánh,Quận Ninh Kiều,Cần Thơ,True
514,ChIJRff3EP6HoDERlQfjAd6jT0Q,Cà Phê Vườn Tơ Hồng,Quán cà phê,,"Cà Phê Vườn Tơ Hồng, 8 Nguyễn Văn Cừ nối dài, Phường An Khánh, Ninh Kiều, Cần Thơ",9.99518,105.73798,,Đường Lộ Vòng Cung,Phường An Bình,Quận Ninh Kiều,Cần Thơ,True
516,ChIJWRFajTqIoDERaWxGvO5Diyk,Cà Phê Cố Đô,Quán cà phê,0913 312 259,"Cà Phê Cố Đô, 170 Đ. Quản Trọng Hoàng, Xuân Khánh, Ninh Kiều, Cần Thơ",10.01013,105.75073,1,Đường 3 Tháng 2,Phường An Bình,Quận Ninh Kiều,Cần Thơ,True
517,ChIJ920-41yJoDERWXGajR57rl4,LêLa Coffee & Tea,Quán cà phê,0949 756 754,"LêLa Coffee & Tea, 118 Đ. Trần Hoàng Na, Hưng Lợi, Ninh Kiều, Cần Thơ",,,,,,,,True
518,ChIJzaUZo69joDERWa0oeoL7Lgg,Yên Coffee,Quán cà phê,0917 223 305,"Yên Coffee, 12R Hẻm 22 Đ. Mạc Đĩnh Chi, Tân An, Ninh Kiều, Cần Thơ",10.00849,105.74982,,Cầu Cái Răng,Phường An Bình,Quận Ninh Kiều,Cần Thơ,True
519,ChIJ8xhaq8yJoDERXCznfeWGeoA,Cà Phê Nhanh,Quán cà phê,0292 2477 998,"Cà Phê Nhanh, 41 Đ. Trần Hoàng Na, Hưng Lợi, Ninh Kiều, Cần Thơ",9.99554,105.73972,,Đường Lộ Vòng Cung,Phường An Bình,Quận Ninh Kiều,Cần Thơ,True
520,ChIJy1EwWymHoDERRW2ksUC7hqE,Coffee Trung Đông,Quán cà phê,0292 3832 852,"Coffee Trung Đông, 38 Đ. Nguyễn Văn Cừ, Cái Khế, Ninh Kiều, Cần Thơ",9.99265,105.74875,169/1A,Quốc Lộ 1A,Phường Lê Bình,Quận Cái Răng,Cần Thơ,True
522,ChIJB0Uhy5iJoDERwZZT6UXWnpc,Cafe Koi- Sanh Lộc,Quán cà phê,0903 363 700,"Cafe Koi- Sanh Lộc, 287 Đường Số 4, An Bình, Ninh Kiều, Cần Thơ",10.01369,105.76297,,Đường Trần Hoàng Na,Phường Hưng Lợi,Quận Ninh Kiều,Cần Thơ,True
523,ChIJT-CJ-y-IoDERhwhRaNbXtA0,Kaffeine House,Quán cà phê,,"Kaffeine House, 320 Đ. Trần Ngọc Quế, Xuân Khánh, Ninh Kiều, Cần Thơ",10.01972,105.77284,,,Phường Hưng Lợi,Quận Ninh Kiều,Cần Thơ,True
545,ChIJP8Wj9nmJoDERfMeoOvSp5W4,Bee Art & Coffee 2,Quán cà phê,0913 303 780,"2QP8+HGM Bee Art & Coffee 2, Hẻm 51, Xuân Khánh, Ninh Kiều, Cần Thơ",10.03325,105.78777,,Đường Tân Trào,Phường Tân An,Quận Ninh Kiều,Cần Thơ,True
547,ChIJUVYgkPCJoDERsJPk0ubc1KY,VOI Coffee,Quán cà phê,0946 144 244,"VOI Coffee, 250 Đ. Nguyễn Hiền, Hưng Lợi, Ninh Kiều, Cần Thơ 94000",10.06678,105.75604,36C,Hẻm 36 Nguyễn Thông,Phường An Thới,Quận Bình Thủy,Cần Thơ,True
548,ChIJUZb5WPKJoDERnJdcu0aict4,Coffee 1985,Quán cà phê,0909 286 024,"Coffee 1985, 145 Đ. Nguyễn Hiền, Hưng Lợi, Ninh Kiều, Cần Thơ",10.05641,105.77264,55B,Hẻm 86 Cách Mạng Tháng 8,Phường An Thới,Quận Bình Thủy,Cần Thơ,True
549,ChIJyWUGIV2JoDERdu1pVJHIOgY,REX COFFEE,Quán cà phê,0904 165 165,"REX COFFEE, Hẻm 51, Xuân Khánh, Ninh Kiều, Cần Thơ",10.05874,105.76327,,Hẻm 39 Cách Mạng Tháng 8,Phường An Thới,Quận Bình Thủy,Cần Thơ,True
551,ChIJL--wOMSJoDERMkfWTEl7chQ,The Fox Coffee Working Space,Quán cà phê,,"2QR7+C4H The Fox Coffee Working Space, 131 Đ. Nguyễn Văn Cừ, Phường An Khánh, Ninh Kiều, Cần Thơ",10.02106,105.7537,99,Đường B30,Phường An Khánh,Quận Ninh Kiều,Cần Thơ,True
553,ChIJLYyaS5uJoDERuI8eL7k7d3c,Cà phê Cổ Ngoạn,Quán cà phê,0997 307 979,"Cà phê Cổ Ngoạn, Cà phê Cổ ngoạn, Long Tuyền, Bình Thủy, Cần Thơ",10.01364,105.77124,153,Đường Tầm Vu,Phường Hưng Lợi,Quận Ninh Kiều,Cần Thơ,True
554,ChIJS3Mn4th9oDERiyWynuWd0UA,Cà phê QUYÊN (Cồn Khương),Quán cà phê,,"3Q6M+HP7 Cà phê QUYÊN (Cồn Khương), Đ. Nguyễn Văn Cừ, Cái Khế, Ninh Kiều, Cần Thơ",10.0397,105.75347,43,Đường Số 14,Phường An Khánh,Quận Ninh Kiều,Cần Thơ,True
556,ChIJUzADtwKrNTERswolJ9OLhJ8,Cà phê ven hồ,Quán cà phê,,"2R9V+QRM Cà phê ven hồ, Ngã tư, P. Trần Bình Trọng, P, Hoàn Kiếm, Hà Nội",10.03226,105.76214,50C/2,Đường Trần Nam Phú,Phường An Khánh,Quận Ninh Kiều,Cần Thơ,True
558,ChIJtZkzIXiJoDERLYoquJNEcis,Thi Thơ Coffee,Quán cà phê,,"Thi Thơ Coffee, 20 Đ. Trần Hoàng Na, Hưng Lợi, Ninh Kiều, Cần Thơ",10.03465,105.7794,38,Đường Lý Tự Trọng,Phường An Phú,Quận Ninh Kiều,Cần Thơ,True
559,ChIJe2FMbCeJoDER9Im_s0N76F8,Quán Cà Phê PHÙ SA,Quán cà phê,,"2QC4+V2G Quán Cà Phê PHÙ SA, Khu dân cư 91B, Ninh Kiều, Cần Thơ",10.06235,105.76322,340,Đường Cách Mạng Tháng 8,Phường Bùi Hữu Nghĩa,Quận Bình Thủy,Cần Thơ,True
565,ChIJLYNmES-JoDERt1rCQxe_lKY,Cafe 1985,Quán cà phê,0292 3892 626,"Cafe 1985, 138a Huỳnh Cương, An Cư, Ninh Kiều, Cần Thơ",10.01356,105.75807,49,Đường 3 Tháng 2,Phường Hưng Lợi,Quận Ninh Kiều,Cần Thơ,True
566,ChIJSd-S-KBioDERPUdzD3Lmmlc,Cafe Mai Hoa,Quán cà phê,0908 888 777,"Cafe Mai Hoa, 71 Đ. Ngô Quyền, Tân An, Ninh Kiều, Cần Thơ",10.0226,105.7662,229,Đường 3 Tháng 2,Phường Hưng Lợi,Quận Ninh Kiều,Cần Thơ,True
567,ChIJJzCZOzyJoDERy2uFsAGBpJg,Dạ lý,Quán cà phê,,"Dạ lý, 118 Đ. Trần Hoàng Na, Hưng Lợi, Ninh Kiều, Cần Thơ",,,,,,,,True
568,ChIJda_lzTSJoDERwjYvaTxnD30,Là Cafe,Quán cà phê,0977 666 647,"Là Cafe, 122/6 Đ. Mạc Thiên Tích, Xuân Khánh, Ninh Kiều, Cần Thơ",10.77031,106.6823,584,Đường Nguyễn Đình Chiểu,Phường 5,Quận 3,Hồ Chí Minh,True
569,ChIJHcCdGOqJoDERy7S9HK6sYLM,Tiệm cà phê Ông Quan,Quán cà phê,0937 296 565,"Tiệm cà phê Ông Quan, 78 Đ. 30 Tháng 4, Hưng Lợi, Ninh Kiều, Cần Thơ",10.04177,105.72244,,Đường Bùi Hữu Nghĩa,,Quận Bình Thủy,Cần Thơ,True
571,ChIJwwKJTPyJoDERh1c7eBfQUBM,Sonder Tea & Coffee Nguyễn Văn Cừ,Quán cà phê,0292 3943 259,"Sonder Tea & Coffee Nguyễn Văn Cừ, 877 Nguyễn Văn Cừ Nối Dài, Phường An Khánh, Ninh Kiều, Cần Thơ",10.05893,105.77953,2,Đường Phạm Công Trứ,Phường Cái Khế,Quận Ninh Kiều,Cần Thơ,True
572,ChIJpwaCvhmIoDERdpuy-x0MoGo,Quán Cà Phê Tuyết Trắng,Quán cà phê,0918 885 222,"Quán Cà Phê Tuyết Trắng, 41F Đ. Mậu Thân, An Nghiệp, Ninh Kiều, Cần Thơ",10.05704,105.75556,3,Đường Trần Quang Diệu,Phường An Thới,Quận Bình Thủy,Cần Thơ,True
573,ChIJLzisQP6HoDERrz8qz9OuMyk,Mộc Miên Coffee,Quán cà phê,,"Mộc Miên Coffee, 60 Đ. Nguyễn Văn Cừ, Cái Khế, Ninh Kiều, Cần Thơ",10.04374,105.78512,37-39,Đường Lý Hồng Thanh,Phường Cái Khế,Quận Ninh Kiều,Cần Thơ,True
575,ChIJV9UG12qIoDER1vJSBD8qli0,Quán Cafe 24/7,Quán cà phê,,"2QP5+F5P Quán Cafe 24/7, Nguyễn Văn Cừ Nối Dài, Phường An Khánh, Ninh Kiều, Cần Thơ",10.05194,105.77395,,Đường Nguyễn Văn Cừ,Phường Cái Khế,Quận Ninh Kiều,Cần Thơ,True
576,ChIJs0ye6FCIoDERINq9CwbO2E4,Cà Phê Tuyết Nhi,Quán cà phê,,"Cà Phê Tuyết Nhi, 28 Nguyễn Văn Cừ Nối Dài, An Bình, Ninh Kiều, Cần Thơ",,,,,,,,True
577,ChIJVQg8-B-IoDERM3BccBPTc6I,Quán Cafe Bích Kiều,Quán cà phê,0292 3813 502,"Quán Cafe Bích Kiều, 87 Hoàng Văn Thụ, An Cư, Ninh Kiều, Cần Thơ",10.0564,105.7785,3,Đường Nguyễn Văn Cừ,Phường Cái Khế,Quận Ninh Kiều,Cần Thơ,True
579,ChIJg6QHPayJoDERq2Y9OxR-pU8,HIGHLANDS COFFEE - VinCom Hùng Vương,Quán cà phê,,"HIGHLANDS COFFEE - VinCom Hùng Vương, 02 Hùng Vương, Thới Bình, Ninh Kiều, Cần Thơ",10.04708,105.77654,24,Hẻm 24 Đường Trần Việt Châu,Phường An Hòa,Quận Ninh Kiều,Cần Thơ,True
580,ChIJqc_wpDSIoDERmyI3cJeITnQ,Cà Phê Không Gian,Quán cà phê,,"Cà Phê Không Gian, 151 Đ. Trần Hoàng Na, Hưng Lợi, Ninh Kiều, Cần Thơ",10.04769,105.77772,25,Đường Cách Mạng Tháng 8,Phường An Hòa,Quận Ninh Kiều,Cần Thơ,True
594,ChIJt4u4SEKIoDERR6Dehr84E1Q,Quán Cà Phê Hoa Sữa,Quán cà phê,,"Quán Cà Phê Hoa Sữa, 80 KDC Thới Nhựt, Quận Ninh Kiều, Tp Cần Thơ, Phường An Khánh, Ninh Kiều, Cần Thơ",10.04246,105.77799,94,Đường Hùng Vương,Phường Thới Bình,Quận Ninh Kiều,Cần Thơ,True
600,ChIJOyJG10eIoDERdtSeoFmBKYg,Cà Phê Góc Phố,Quán cà phê,0946 401 699,"Cà Phê Góc Phố, 57 Đ. Nguyễn Hiền, Hưng Lợi, Ninh Kiều, Cần Thơ",10.02731,105.78629,166,Đường Hai Bà Trưng,Phường Tân An,Quận Ninh Kiều,Cần Thơ,True
601,ChIJQ_TcocmJoDERG52vpAgWhKE,Kho Cafe,Quán cà phê,0854 267 394,"Kho Cafe, 44 Đ. Võ Trường Toản, An Hoà, Ninh Kiều, Cần Thơ",10.0271,105.74819,28,Đường Nguyễn Văn Cừ,Phường An Bình,Quận Ninh Kiều,Cần Thơ,True
602,ChIJgR2Cg3OJoDERwswrrVEbo0Q,We Coffee,Quán cà phê,,"2QP8+HGM We Coffee, Hẻm 51, Xuân Khánh, Ninh Kiều, Cần Thơ",10.01174,105.7617,,Hẻm 515 Đường 30 Tháng 4,Phường Hưng Lợi,Quận Ninh Kiều,Cần Thơ,True
603,ChIJi5tBOQCJoDERMF8iP5eeZXY,Coffee & MILK TEA HOA GIẤY,Quán cà phê,0973 793 335,"Coffee & MILK TEA HOA GIẤY, 151/39C Đ. Trần Hoàng Na, Hưng Lợi, Ninh Kiều, Cần Thơ",9.99752,105.75295,,Đường Trần Hưng Đạo,Phường Lê Bình,Quận Cái Răng,Cần Thơ,True
604,ChIJteomA5SJoDERYIt9H0UTkKk,Coffee 389 - Không Gian Làm Việc Lý Tưởng,Quán cà phê,0787 861 622,"2QM7+QW4 Coffee 389 - Không Gian Làm Việc Lý Tưởng, Hẻm 51, Xuân Khánh, Ninh Kiều, Cần Thơ",10.04961,105.76582,255,Đường Nguyễn Đệ,Phường An Hòa,Quận Ninh Kiều,Cần Thơ,True
606,ChIJefxlRQSJoDERlAw9SAehmm4,Cà phê Lâm,Quán cà phê,0786 848 333,"Cà phê Lâm, 35 Đường Số 4, KDC, Ninh Kiều, Cần Thơ",10.04603,105.76796,313,Đường Nguyễn Văn Cừ,Phường An Hòa,Quận Ninh Kiều,Cần Thơ,True
607,ChIJ09_7OXSJoDERAQwef0ZTjqI,Cafe điểm tâm sáng 666,Quán cà phê,,"Cafe điểm tâm sáng 666, 172C Đ. 3 Tháng 2, Hưng Lợi, Ninh Kiều, Cần Thơ",10.04292,105.76493,75,Đường Nguyễn Văn Cừ,Phường An Hòa,Quận Ninh Kiều,Cần Thơ,True
608,ChIJieMOU5iJoDER96C6wTiJD2k,Cà phê YUME,Quán cà phê,0919 189 169,"2QH6+GHG Cà phê YUME, Hẻm 51, Phường An Khánh, Ninh Kiều, Cần Thơ",10.02016,105.76002,132/22/10,Hẻm 132 Đường 3 Tháng 2,Phường Hưng Lợi,Quận Ninh Kiều,Cần Thơ,True
609,ChIJ9zpP7K2JoDERHNZ7OsSN1mk,Cà phê Quỳnh Anh,Quán cà phê,0934 125 124,"Cà phê Quỳnh Anh, 57 Đ. Nguyễn Tri Phương, Phường An Khánh, Ninh Kiều, Cần Thơ",10.04928,105.76475,57,Đường Nguyễn Đệ,Phường An Hòa,Quận Ninh Kiều,Cần Thơ,True
610,ChIJq0TAtIOJoDER40nrRHE8yfg,Đắng 2 Coffee,Quán cà phê,0376 167 391,"Đắng 2 Coffee, 59/3 đường Bờ Hồ Bún Xáng, Hẻm 51 Đường 3/2, Phường An Khánh, Ninh Kiều, Cần Thơ",10.05003,105.77211,85,Đường Nguyễn Văn Cừ,Phường An Hòa,Quận Ninh Kiều,Cần Thơ,True
611,ChIJnWw1DT-JoDERJgj0SZR5HKk,Cà Phê Tia Chớp,Quán cà phê,0939 555 836,"Cà Phê Tia Chớp, 91 Đ. B19, Khu dân cư 91B, Ninh Kiều, Cần Thơ",10.0469,105.76902,271,Đường Nguyễn Văn Cừ,Phường An Hòa,Quận Ninh Kiều,Cần Thơ,True
613,ChIJl1gqOCJjoDERgGWVbuTxOKE,Beeart & coffee,Quán cà phê,0913 303 780,"Beeart & coffee, 07 Hoàng Văn Thụ, An Hội, Ninh Kiều, Cần Thơ",10.04399,105.7658,389,Đường Nguyễn Văn Cừ,Phường An Hòa,Quận Ninh Kiều,Cần Thơ,True
614,ChIJt9zbOR2JoDERPS451j_NAGE,Doctor Coffee,Quán cà phê,,"Doctor Coffee, Ngã ba Đường Trần Minh Sơn và Đường Số 11, Phường An Khánh, Ninh Kiều, Cần Thơ",10.05131,105.77333,11,Đường Nguyễn Văn Cừ,Phường An Hòa,Quận Ninh Kiều,Cần Thơ,True
625,ChIJGQ9I6GqIoDERFVoEvlpRTQU,Quán Cà Phê Nhịp Sống Mới,Quán cà phê,0292 3890 195,"Quán Cà Phê Nhịp Sống Mới, 161 Nguyễn Văn Cừ Nối Dài, Phường An Khánh, Ninh Kiều, Cần Thơ",10.04545,105.76739,341,Đường Nguyễn Văn Cừ,Phường An Hòa,Quận Ninh Kiều,Cần Thơ,True
638,ChIJeZQlLE2JoDERZpCpwf6Cl4Q,Quán Cà Phê TD Coffee,Quán cà phê,,"Quán Cà Phê TD Coffee, 4 Đ. Nguyễn Văn Linh, Hưng Lợi, Ninh Kiều, Cần Thơ",10.04401,105.7564,2,Đường Tô Hiến Thành,Phường An Khánh,Quận Ninh Kiều,Cần Thơ,True
640,ChIJm-DG0NGJoDERKuJWxIKrOug,Cafe Phong Lan,Quán cà phê,0944 353 469,"Cafe Phong Lan, 335 Đ. Nguyễn Văn Linh, Phường An Khánh, Ninh Kiều, Cần Thơ",10.03631,105.74832,4,Hẻm Liên Tổ 4-5,Phường An Khánh,Quận Ninh Kiều,Cần Thơ,True
641,ChIJG9MX6LWJoDER-4gsHRwBaYs,cafe YÊN BÌNH,Quán cà phê,,"2Q94+RC3 cafe YÊN BÌNH, Đ. Trần Hoàng Na, Khu dân cư 91B, Ninh Kiều, Cần Thơ",10.04158,105.76332,6,Đường Nguyễn Văn Cừ Nối Dài,Phường An Khánh,Quận Ninh Kiều,Cần Thơ,True
642,ChIJaT9rxJSJoDERo7QTAZneZX8,Cà Phê Nhà Tôi,Quán cà phê,0779 633 247,"Cà Phê Nhà Tôi, 3A dãy B, 17 Đ. Trần Hoàng Na, Hưng Lợi, Ninh Kiều, Cần Thơ",10.03765,105.75878,165,Đường Nguyễn Văn Cừ Nối Dài,Phường An Khánh,Quận Ninh Kiều,Cần Thơ,True
643,ChIJLy5PM2aIoDERX11AUnXgQHc,Cà phê Làng Hoa,Quán cà phê,,"2PPW+R9J Cà phê Làng Hoa, Unnamed Road, Bình Thủy, Cần Thơ",10.02153,105.75969,6,Đường Số 2,Phường Hưng Lợi,Quận Ninh Kiều,Cần Thơ,True
644,ChIJdVhtV0yIoDERk21VSO1aXKo,Cà Phê Bida Ngọc Loan,Quán cà phê,,"Cà Phê Bida Ngọc Loan, 66 Đ. Trần Vĩnh Kiết, An Bình, Ninh Kiều, Cần Thơ",10.04137,105.75417,171,Đường Nguyễn Tri Phương,Phường An Khánh,Quận Ninh Kiều,Cần Thơ,True
645,ChIJURDz4SGIoDERAdb_YmNxwpI,Cà phê Mười Hai Giờ,Quán cà phê,0916 802 875,"Cà phê Mười Hai Giờ, 158/72, Hẻm 2, Đ. Nguyễn Việt Hồng, An Phú, Ninh Kiều, Cần Thơ",10.04037,105.78518,44,Đường Nguyễn Trãi,Phường Tân An,Quận Ninh Kiều,Cần Thơ,True
646,ChIJbxgL_FOHoDER9Cyrk8AWrnk,Coffee Thềm Xưa 2,Quán cà phê,,"Coffee Thềm Xưa 2, 60 Đ. Nguyễn Văn Cừ, Cái Khế, Ninh Kiều, Cần Thơ",10.03923,105.76103,136B,Đường Nguyễn Văn Cừ Nối Dài,Phường An Khánh,Quận Ninh Kiều,Cần Thơ,True
648,ChIJiUyU2TmIoDERsD78HZ6XLX8,Quán Cà Phê Ngọc,Quán cà phê,0939 329 817,"Quán Cà Phê Ngọc, 15 QL91B, Hưng Lợi, Ninh Kiều, Cần Thơ",10.03796,105.75974,148,Đường Nguyễn Văn Cừ Nối Dài,Phường An Khánh,Quận Ninh Kiều,Cần Thơ,True
651,ChIJx0Xl1cWJoDERrR71rAKAgjA,Forest Coffee,Quán cà phê,,"Forest Coffee, 133 Nguyễn Ngọc Trai, Xuân Khánh, Ninh Kiều, Cần Thơ",10.02529,105.76362,2,Hẻm 2 Nguyễn Văn Linh,Phường An Khánh,Quận Ninh Kiều,Cần Thơ,True
652,ChIJTa3dHqJioDERjJ-mp2k3sKg,Chè - cà phê - kem - sinh tố Mỹ Hoá,Quán cà phê,0292 3820 841,"Chè - cà phê - kem - sinh tố Mỹ Hoá, 62 Đường Hai Bà Trưng, Tân An, Ninh Kiều, Cần Thơ",10.03025,105.75146,,Đường Nguyễn Văn Cừ,Phường An Khánh,Quận Ninh Kiều,Cần Thơ,True
653,ChIJqwp-LjFjoDERz6vJzB_tuH0,Phúc Long coffee & tea,Quán cà phê,,"Phúc Long coffee & tea, 1 Đại lộ Hoà Bình, Tân An, Ninh Kiều, Cần Thơ",10.03082,105.75128,298,Đường Nguyễn Văn Linh,Phường An Khánh,Quận Ninh Kiều,Cần Thơ,True
654,ChIJAf_mNKBioDERt2_3RBXipko,F25 Cafe,Quán cà phê,,"F25 Cafe, 59 Đ. Ngô Văn Sở, Tân An, Ninh Kiều, Cần Thơ",10.03525,105.74646,312,Đường Nguyễn Văn Linh,Phường An Khánh,Quận Ninh Kiều,Cần Thơ,True
660,ChIJu57TJTdjoDERzpzxBtV3bOE,CHẠM CREAM COFFEE,Quán cà phê,0939 373 835,"CHẠM CREAM COFFEE, 134 Trần Phú, Cái Khế, Ninh Kiều, Cần Thơ",10.02111,105.75408,230,Đường Nguyễn Hiền,Phường An Khánh,Quận Ninh Kiều,Cần Thơ,True
661,ChIJ5b973TWJoDERUduiwmxq2w4,Quán cà phê võng cánh buồm,Quán cà phê,0777 892 606,"2QRC+4Q5 Quán cà phê võng cánh buồm, Đ. Lê Anh Xuân, An Nghiệp, Ninh Kiều, Cần Thơ",10.03224,105.74979,329,Đường Nguyễn Văn Linh,Phường An Khánh,Quận Ninh Kiều,Cần Thơ,True
669,ChIJeeWPyKiJoDER2QXdRA0PkPA,Hứng Coffee,Quán cà phê,0339 343 392,"Hứng Coffee, Đại Ngân, Đường số 3, Khu dân cư, Ninh Kiều, Cần Thơ 900000",10.01968,105.74056,,Đường Nguyễn Văn Cừ Nối Dài,Phường An Bình,Quận Ninh Kiều,Cần Thơ,True
684,ChIJFzCvKFGIoDERsh6yYPu9NrY,Cafe Kiều My 2,Quán cà phê,,"2PCR+8M4 Cafe Kiều My 2, Đ. Hoàng Quốc Việt, An Bình, Ninh Kiều, Cần Thơ",,,,,,,,True
685,ChIJT_16E9SJoDERxhnBK2RudKA,Cafe - Bida - Game Hoàng tử,Quán cà phê,0913 979 899,"Cafe - Bida - Game Hoàng tử, 602 Hẻm 553, Hưng Lợi, Ninh Kiều, Cần Thơ 900000",10.00563,105.74487,163/4,Đường Lộ Vòng Cung,Phường An Bình,Quận Ninh Kiều,Cần Thơ,True
686,ChIJhTcThyGIoDERkYWn9B4PTn4,Quán Cafe Toàn,Quán cà phê,0977 068 071,"Quán Cafe Toàn, 176 Đ. Nguyễn Việt Hồng, Xuân Khánh, Ninh Kiều, Cần Thơ",10.0243,105.7671,1,Quốc Lộ 1A,Phường Xuân Khánh,Quận Ninh Kiều,Cần Thơ,True
687,ChIJbav2XKGJoDERbsVvjMxO94o,Coffee Võng Tài Lộc,Quán cà phê,,"2QH2+XQX Coffee Võng Tài Lộc, Phường An Khánh, Ninh Kiều, Cần Thơ",10.01856,105.76214,134,Đường 3 Tháng 2,Phường Hưng Lợi,Quận Ninh Kiều,Cần Thơ,True
688,ChIJ0TvH4TSIoDER-cPFoBAPZgQ,Cà Phê Doggie,Quán cà phê,,"Cà Phê Doggie, 92 Đ. 30 Tháng 4, Hưng Lợi, Ninh Kiều, Cần Thơ",10.0104,105.7511,3,Quốc Lộ 1A,Phường An Bình,Quận Ninh Kiều,Cần Thơ,True
689,ChIJO3iMv_eJoDERQkBs2bkfC_4,BIG BEN Coffee & Beer - Chill Out,Quán cà phê,0974 023 890,"BIG BEN Coffee & Beer - Chill Out, Hẻm 51, Hưng Lợi, Ninh Kiều, Cần Thơ",10.00541,105.7517,,Đường Ngô Quyền,Phường Lê Bình,Quận Cái Răng,Cần Thơ,True
690,ChIJy9ikVDuIoDERHYLRHBXRWfE,Quán Cà Phê - Trà Sữa V2,Quán cà phê,0292 6506 777,"Quán Cà Phê - Trà Sữa V2, 144B Đ. 3 Tháng 2, Xuân Khánh, Ninh Kiều, Cần Thơ",9.99265,105.74875,169/1A,Quốc Lộ 1A,Phường Lê Bình,Quận Cái Răng,Cần Thơ,True
692,ChIJUxvV2-OrNTERylUg5YBD_io,Sứ Cà Phê - Quán Sứ,Quán cà phê,,"Sứ Cà Phê - Quán Sứ, 86 P. Quán Sứ, Cửa Nam, Hoàn Kiếm, Hà Nội",10.0243,105.7671,1,Quốc Lộ 1A,Phường Xuân Khánh,Quận Ninh Kiều,Cần Thơ,True
694,ChIJ092viEeIoDERmVovcQivVcw,Quán Cà Phê Chiếu Phim - Bóng Đá K+ Kim Ngân,Quán cà phê,0292 3508 797,"Quán Cà Phê Chiếu Phim - Bóng Đá K+ Kim Ngân, 91B QL91B, Phường An Khánh, Ninh Kiều, Cần Thơ",10.02208,105.76897,310/43,Đường 30 Tháng 4,Phường Hưng Lợi,Quận Ninh Kiều,Cần Thơ,True
696,ChIJt31onOWHoDERehWNHHg5pMU,Cheerio Coffee,Quán cà phê,0292 3884 877,"Cheerio Coffee, 300/69 Cách Mạng Tháng Tám, Hẻm 300, Bùi Hữu Nghĩa, Bình Thủy, Cần Thơ",10.02274,105.75594,,Đường Nguyễn Hiền,Phường An Khánh,Quận Ninh Kiều,Cần Thơ,True
697,ChIJT3GvNApjoDERgkYrb1kbKH0,FAIRY GARDEN,Quán cà phê,,"FAIRY GARDEN, 45 Lê Lợi, Cái Khế, Ninh Kiều, Cần Thơ",10.01267,105.75572,6,Đường 3 Tháng 2,Phường Hưng Lợi,Quận Ninh Kiều,Cần Thơ,True
698,ChIJp9nUFSKIoDER6F6EsXofdv8,Quán Cà Phê Quang Khánh,Quán cà phê,0292 3508 513,"Quán Cà Phê Quang Khánh, 146 Đ. Mậu Thân, An Phú, Ninh Kiều, Cần Thơ",10.02376,105.77093,60,Khu Dân Cư Số 9,Phường Xuân Khánh,Quận Ninh Kiều,Cần Thơ,True
701,ChIJY6nIPguJoDERfsP5pADMs1I,Cafe Ngọc Yến 7,Quán cà phê,,"2P9V+V7W Cafe Ngọc Yến 7, An Bình, Ninh Kiều, Cần Thơ",10.01377,105.75821,55,Đường 3 Tháng 2,Phường Hưng Lợi,Quận Ninh Kiều,Cần Thơ,True
702,ChIJL9pwmZOJoDERgGOrF7jlVJk,Cà phê Nguyệt Quế 3,Quán cà phê,0939 037 039,"Cà phê Nguyệt Quế 3, 236 Đ. Nguyễn Hiền, Hưng Lợi, Ninh Kiều, Cần Thơ",10.02499,105.76303,30/48K,Quốc Lộ 91B,Phường Hưng Lợi,Quận Ninh Kiều,Cần Thơ,True
703,ChIJN-lhE7eJoDERK2NSAdIn5cg,Tiệm cà phê Leng Keng,Quán cà phê,0939 842 171,"Tiệm cà phê Leng Keng, khu cán bộ giảng viên, đường số 10/Số 1 Đại học, Phường An Khánh, Ninh Kiều, Cần Thơ",10.02632,105.74847,49,Đường Trần Hoàng Na,Phường An Bình,Quận Ninh Kiều,Cần Thơ,True
707,ChIJu9kPkaBioDER8ZfQUSIp-mk,CAFE 50,Quán cà phê,0974 133 330,"CAFE 50, 50 Hẻm 1 Đ. Hoàng Văn Thụ, Tân An, Ninh Kiều, Cần Thơ",10.01403,105.76297,151,Đường Trần Hoàng Na,Phường Hưng Lợi,Quận Ninh Kiều,Cần Thơ,True
708,ChIJB7XkcZmJoDERZDAudTx1G_A,Milano LEO Coffee,Quán cà phê,,"Milano LEO Coffee, 152 Đ. Nguyễn Văn Cừ, Phường An Khánh, Ninh Kiều, Cần Thơ",10.02254,105.76346,,Hẻm 26 Nguyễn Văn Linh,Phường Hưng Lợi,Quận Ninh Kiều,Cần Thơ,True
709,ChIJkbMXSYiJoDERCLimjKenzWo,Quán Cà Phê Lụa Coffe,Quán cà phê,,"Quán Cà Phê Lụa Coffe, 118 Đ. Tô Hiến Thành, Phường An Khánh, Ninh Kiều, Cần Thơ",10.01201,105.76431,39B,Đường Trần Hoàng Na,Phường Hưng Lợi,Quận Ninh Kiều,Cần Thơ,True
712,ChIJzSqqcgaJoDERm20rDcWjPQk,Cafe Nhà Gỗ 91B,Quán cà phê,0914 844 799,"Cafe Nhà Gỗ 91B, 10 Đ. B23, Khu dân cư 91B, Ninh Kiều, Cần Thơ",10.02502,105.76455,1,Khu Vực 3,Phường An Khánh,Quận Ninh Kiều,Cần Thơ,True
713,ChIJr-gCtjeIoDERpckhIKGZfF8,Cafe Wifi Mái Lá,Quán cà phê,,"2QC6+527 Cafe Wifi Mái Lá, Hưng Lợi, Ninh Kiều, Cần Thơ",10.02615,105.7662,51,Hẻm 51F Đường 3 Tháng 2,Phường Xuân Khánh,Quận Ninh Kiều,Cần Thơ,True
714,ChIJczbjLDWJoDERXV1Cp6gOQ5A,Cafe Trầm,Quán cà phê,,"Cafe Trầm, A151/39B Đ. Trần Hoàng Na, Hưng Lợi, Ninh Kiều, Cần Thơ",10.022,105.7642,24b,Đường Nguyễn Văn Linh,Phường Hưng Lợi,Quận Ninh Kiều,Cần Thơ,True
715,ChIJT36z-CmJoDERyb4QOP2E6RM,Tự Cà Phê,Quán cà phê,0907 434 597,"Tự Cà Phê, 78 Đ. Cách Mạng Tháng 8, Cái Khế, Ninh Kiều, Cần Thơ",10.0501,105.78701,2,Đường Lê Lợi,Phường Cái Khế,Quận Ninh Kiều,Cần Thơ,True
716,ChIJBZEppjGJoDERSLSCcfhv4DA,Ai Cà Phê,Quán cà phê,,"Ai Cà Phê, 57a Hẻm 51, Phường An Khánh, Ninh Kiều, Cần Thơ",10.03291,105.74934,345,Đường Nguyễn Văn Linh,Phường An Khánh,Quận Ninh Kiều,Cần Thơ,True
731,ChIJ3384GPOJoDER_RYlGasWz-I,Cafe Ý Phát 24h,Quán cà phê,0948 532 876,"Cafe Ý Phát 24h, 475 Đ. 30 Tháng 4, Hưng Lợi, Ninh Kiều, Cần Thơ",10.0363,105.78308,46,Đường Trương Định,Phường An Cư,Quận Ninh Kiều,Cần Thơ,True
737,ChIJ2ROLle-JoDERThreM_PgDvM,Tiệm cà phê The The,Quán cà phê,,"Tiệm cà phê The The, 9c Đ. Nguyễn Văn Linh, Hưng Lợi, Ninh Kiều, Cần Thơ",,,,,,,,
738,ChIJnwUczzmIoDERcLdWSqqMOQE,quán cafe,Quán cà phê,0908 458 052,"quán cafe, 29 p tp, Đ. Nguyễn Văn Linh, Hưng Lợi, Ninh Kiều, Cần Thơ",,,,,,,,
754,ChIJN0E_oQKIoDERvqsqkdWgcdw,The Pipe Coffee,Quán cà phê,0911 612 778,"The Pipe Coffee, 10 Trần Quang Khải, An Hội, Ninh Kiều, Cần Thơ",,,,,,,,
762,ChIJ8zGX8DSJoDERgh0Mxmrw_JY,Cà phê Lê Huy,Quán cà phê,,"Cà phê Lê Huy, 13 KDC Thới Nhựt, Phường An Khánh, Ninh Kiều, Cần Thơ",,,,,,,,
769,ChIJbUbCcQqJoDERYC0VOXwCuCI,Quán Cà Phê Vườn Mận,Quán cà phê,0292 3849 982,"Quán Cà Phê Vườn Mận, 351 Ấp Mỹ Phước, Huyện Phong Điền, An Bình, Ninh Kiều, Cần Thơ",,,,,,,,
775,ChIJ0w7glTSIoDERRcX9KPzSYPo,Cafe Hoàng Hải,Quán cà phê,,"Cafe Hoàng Hải, 151 Đ. Trần Hoàng Na, Hưng Lợi, Ninh Kiều, Cần Thơ",,,,,,,,
780,ChIJ3QpzTd-JoDER_BKnLf6hl90,Mossy coffee & tea,Quán cà phê,0789 447 488,"Mossy coffee & tea, 178 Huỳnh Cương, An Cư, Ninh Kiều, Cần Thơ 900000",,,,,,,,
782,ChIJmRQGD1CJoDER3E7J4_XJv2g,GaNi coffee & tea,Quán cà phê,0939 833 179,"GaNi coffee & tea, 3c Đ. Mậu Thân, An Phú, Ninh Kiều, Cần Thơ",,,,,,,,
783,ChIJ7_FGPQeIoDERRcQnV843JV4,Cafe Võng Chiều Vàng,Quán cà phê,0982 177 727,"Cafe Võng Chiều Vàng, 51 Đ. Nguyễn Văn Cừ, Cái Khế, Ninh Kiều, Cần Thơ",,,,,,,,
784,ChIJH86jBOyJoDERsUXAfDnujZ8,Cafe 24h,Quán cà phê,0939 438 439,"2QQ5+CW3 Cafe 24h, Nguyễn Văn Cừ Nối Dài, Phường An Khánh, Ninh Kiều, Cần Thơ",,,,,,,,
785,ChIJ7wZxYT2JoDERt-L17wd1hrw,Tiệm cà phê bèo,Quán cà phê espresso,0907 946 094,"Tiệm cà phê bèo, 27 Đ. Trần Hoàng Na, Phường An Khánh, Ninh Kiều, Cần Thơ 700000",,,,,,,,
786,ChIJJ95tcJWJoDERk-iK0m5gXW0,CÀ PHÊ GREEN PARK,Quán cà phê,0917 432 442,"CÀ PHÊ GREEN PARK, 1 Đường số 6, Phường An Khánh, Ninh Kiều, Cần Thơ",,,,,,,,
787,ChIJy_r_svarNTERdtsyCvvWnb0,Cafe Phố Cũ,Quán cà phê,0939 389 900,"Cafe Phố Cũ, 39A P. Liên Trì, Trần Hưng Đạo, Hoàn Kiếm, Hà Nội",,,,,,,,
788,ChIJKc144niJoDERiJJ6ePYdL9k,Cà Phê Mộc,Quán cà phê,0985 126 711,"2QF4+JWM Cà Phê Mộc, Khu dân cư 91B, Ninh Kiều, Cần Thơ 900000",,,,,,,,
789,ChIJ-_SVga6JoDERQkg5F0SSSok,Cafe Emi,Quán cà phê,,"2QPJ+5FC Cafe Emi, Đ. Đề Thám, An Cư, Ninh Kiều, Cần Thơ",,,,,,,,
790,ChIJSQOoM8GJoDERp2bzOAj0524,CÀ PHÊ MILANO - NGUYỄN ĐỆ,Quán cà phê,0919 520 179,"CÀ PHÊ MILANO - NGUYỄN ĐỆ, 13 Đ. Nguyễn Đệ, An Hoà, Ninh Kiều, Cần Thơ",,,,,,,,
791,ChIJo2-qlGqIoDERDtu1BxMVWJ4,Cà Phê Meo Happy,Quán cà phê,0987 563 969,"Cà Phê Meo Happy, 163c/7 Đ. Nguyễn Văn Cừ, Phường An Khánh, Ninh Kiều, Cần Thơ",,,,,,,,
792,ChIJx2iMZBGIoDERm-sijgZIjks,Cà Phê Cây Khế,Quán cà phê,0903 368 226,"Cà Phê Cây Khế, 121 Đ. Nguyễn Văn Cừ, Phường An Khánh, Ninh Kiều, Cần Thơ",,,,,,,,
793,ChIJWb77MEuIoDEROBzJ6IOWOD8,Quán Cà Phê Minh Thư,Quán cà phê,0292 3838 694,"Quán Cà Phê Minh Thư, 10, Đường 3/2, Quận Ninh Kiều, TP Cần Thơ, Hưng Lợi, Ninh Kiều, Cần Thơ",,,,,,,,
794,ChIJ2U1F-LeJoDERqXlE22LvKHQ,Cafe Minh Phúc,Quán cà phê,,"2QC3+V75 Cafe Minh Phúc, Đ. Trần Hoàng Na, Phường An Khánh, Ninh Kiều, Cần Thơ",,,,,,,,
795,ChIJP2IHp_BjoDERtcXxrfl3XDg,Cà Phê Chất,Quán cà phê,0939 828 929,"Cà Phê Chất, 6B Đ. Ng. Hữu Hạnh, Tân An, Ninh Kiều, Cần Thơ",,,,,,,,
796,ChIJFddpMSCJoDERk-HWNrpaF8k,Cafe Sao Mai,Quán cà phê,0901 012 318,"Cafe Sao Mai, QL91B Đ. Nguyễn Văn Linh, Hưng Lợi, Bình Thủy, Cần Thơ",,,,,,,,
797,ChIJMaNQiDiIoDERAQOglmEsERs,Quán Cà Phê 24h,Quán cà phê,0939 440 487,"2QG5+7RJ Quán Cà Phê 24h, Nguyễn Văn Linh, Phường Hưng Lợi, Quận Ninh Kiều, Hưng Lợi, Ninh Kiều, Cần Thơ",,,,,,,,
798,ChIJJ6gqm0GIoDEReir_-AwXAHg,Cafe Net Hà,Quán cà phê,,"Cafe Net Hà, 10°01'54.5""N 105°45'12.4""E, 373C Đ. Nguyễn Văn Cừ, Phường An Khánh, Ninh Kiều, Cần Thơ",,,,,,,,
802,ChIJk1NsXiGIoDERk_pKg5g0sCE,Quán Cà Phê Xin Chào,Quán cà phê,,"Quán Cà Phê Xin Chào, 66 Đ. Mậu Thân, Xuân Khánh, Ninh Kiều, Cần Thơ",,,,,,,,
804,ChIJ0_XJMPJjoDERAc21mg9LnFw,Cafe 1998,Quán cà phê,0799 636 063,"Cafe 1998, Sông Hậu, Cái Khế, Ninh Kiều, Cần Thơ",,,,,,,,
813,ChIJTXcHmiGJoDERR45sgnV9Hl8,TRUNG VY COFFEE - Chuỗi Quán Cung Cấp Cafe Hạt ÁI XUÂN.,Quán cà phê,,"TRUNG VY COFFEE - Chuỗi Quán Cung Cấp Cafe Hạt ÁI XUÂN., 277 Đ. Nguyễn Văn Cừ, An Hoà, Ninh Kiều, Cần Thơ",,,,,,,,
817,ChIJryGZHj2JoDERhFw-pqePnsw,Coffee Gu 22,Quán cà phê,0905 860 890,"Coffee Gu 22, 298/4 Hẻm 4, Phường An Khánh, Ninh Kiều, Cần Thơ",,,,,,,,
821,ChIJ0SyE0bCJoDERYShCSQpIY_4,Quán Cà Phê Ven Sông,Quán cà phê,0939 692 944,"Quán Cà Phê Ven Sông, 1A Nguyễn Trãi, Lê Bình, Cái Răng, Cần Thơ",,,,,,,,
825,ChIJpyVzCLOJoDERR5fbAEbSXtA,Cà Phê Diệu Ngân,Quán cà phê,0994 513 979,"2Q52+X67 Cà Phê Diệu Ngân, 98 Đ. 3 Tháng 2, An Bình, Ninh Kiều, Cần Thơ",,,,,,,,
827,ChIJ28Dw1G6JoDER9qOZy9K7tZg,Cà Phê & Bida Duy Khôi,Quán cà phê,0908 723 457,"Cà Phê & Bida Duy Khôi, 30/28 KDC 30, Hưng Lợi, Ninh Kiều, Cần Thơ",,,,,,,,
830,ChIJ2fYYlPZjoDERoeb60ZSRVqc,Đồng Khởi Coffee,Quán cà phê,0939 141 672,"Đồng Khởi Coffee, 23 Đ. Đồng Khởi, Tân An, Ninh Kiều, Cần Thơ",,,,,,,,
832,ChIJbdyBX6BioDERCrynIlcBS5Q,Cà Phê Cà Mau,Quán cà phê,,"Cà Phê Cà Mau, 12 Đ. Nguyễn Khuyến, Tân An, Ninh Kiều, Cần Thơ",,,,,,,,
833,ChIJbZnWIr9joDERggQNHbP76kI,CÀ PHÊ K30,Quán cà phê,0292 2222 245,"CÀ PHÊ K30, LÔ K30, KHU DÂN CƯ NÔNG THỔ SẢN, Q, P, Cái Răng, Cần Thơ",,,,,,,,
836,ChIJMdHBfqFioDER6inmeF47sSg,Quán Cà Phê Hồng,Quán cà phê,0292 3827 628,"Quán Cà Phê Hồng, 12 Đường Đ. Trần Quốc Toản, Tân An, Ninh Kiều, Cần Thơ",,,,,,,,
842,ChIJtw5C12CJoDERKstElRlcH9M,Phúc Long Coffee & Tea (Vincom Hùng Vương),Phòng trà,,"Phúc Long Coffee & Tea (Vincom Hùng Vương), 2 Hùng Vương, Thới Bình, Ninh Kiều, Cần Thơ",,,,,,,,
843,ChIJOW73WkyJoDERpdJUf0g6_3A,Cookie Coffee,Quán cà phê,0939 818 312,"Cookie Coffee, 37 Đ. Nguyễn Văn Cừ, An Hoà, Ninh Kiều, Cần Thơ 90000",,,,,,,,
844,ChIJVxokokOJoDERBuzl1X63hkw,Shan Tuyết Tea and Coffee,Quán cà phê,,"Shan Tuyết Tea and Coffee, 138k Đ. Nguyễn Văn Cừ, Phường An Khánh, Ninh Kiều, Cần Thơ",,,,,,,,
845,ChIJkUnWnC2IoDERqRrK65LPH3o,Quán Café 262A,Quán cà phê,0292 3840 217,"Quán Café 262A, 262A Tầm Vu, Hưng Lợi, Ninh Kiều, Cần Thơ",,,,,,,,
846,ChIJ7RN9UxOIoDEROwgTI0aLWP0,Cà Phê Căn Tin,Quán cà phê,,"2QR5+28M Cà Phê Căn Tin, Đ. Nguyễn Tri Phương, Phường An Khánh, Ninh Kiều, Cần Thơ",,,,,,,,
847,ChIJc80jL7yJoDERH7F7CQmIHIM,Cà Phê YẾN,Quán cà phê,,"2PMW+GVP Cà Phê YẾN, Unnamed Road, Phường An Khánh, Ninh Kiều, Cần Thơ",,,,,,,,
848,ChIJWekk1x2JoDERv1EqHOycBkw,Cà Phê CÂY TRỨNG CÁ XINH,Quán cà phê,0945 498 030,"Cà Phê CÂY TRỨNG CÁ XINH, 4 Đ. Nguyễn Văn Cừ, Phường An Khánh, Ninh Kiều, Cần Thơ",,,,,,,,
849,ChIJ2ZEip0KIoDERpqhi_47AZxw,Cà Phê Hoa Cau,Quán cà phê,,"Cà Phê Hoa Cau, 339 Đ. Nguyễn Văn Linh, Phường An Khánh, Ninh Kiều, Cần Thơ",,,,,,,,
851,ChIJO7eakUKIoDERDZGUjL_Dmhw,Cà Phê Khả Phương Siêng,Quán cà phê,,"Cà Phê Khả Phương Siêng, 345 Đ. Nguyễn Văn Linh, Phường An Khánh, Ninh Kiều, Cần Thơ",,,,,,,,
852,ChIJT_OvwfKJoDERI-2mum2hKLM,SOHA coffee & tea,Quán cà phê,0368 505 789,"SOHA coffee & tea, 120 Nguyễn Văn Cừ Nối Dài, An Bình, Ninh Kiều, Cần Thơ",,,,,,,,
853,ChIJXywOt1WIoDERipcV1RgenoI,Cà Phê Phương Mai,Quán cà phê,,"2P8Q+Q2R Cà Phê Phương Mai, An Bình, Bình Thủy, Cần Thơ",,,,,,,,
854,ChIJAYNRMlGIoDER-egZV-8MRpM,Cafe Ali,Quán cà phê,,"2PCR+3FP Cafe Ali, An Bình, Ninh Kiều, Cần Thơ",,,,,,,,
859,ChIJGSEGQzeJoDERZ6zag3HYwjA,Cà Phê Đại Phát,Quán cà phê,0907 291 074,"Cà Phê Đại Phát, 21 Đ. A3, Hưng Lợi, Ninh Kiều, Cần Thơ",,,,,,,,
860,ChIJmehy5jaIoDERg-h8wIwtdag,Quán Cà Phê Cối Xay Gió,Quán cà phê,0292 2210 789,"Quán Cà Phê Cối Xay Gió, Tp, 151 Hẻm 132 Đ. 3 Tháng 2, Hưng Lợi, Ninh Kiều, Cần Thơ 900000",,,,,,,,
861,ChIJcfI0FFqJoDERe-dZgdvbY6c,Coffee khánh tiên,Quán cà phê,0932 637 196,"Coffee khánh tiên, 118 14 Đ. Trần Hoàng Na, Hưng Lợi, Ninh Kiều, Cần Thơ",,,,,,,,
862,ChIJVzm_ob-JoDERwOvwf05UZic,Phyto Cafe-Cafe Dinh Dưỡng,Quán cà phê,,"Phyto Cafe-Cafe Dinh Dưỡng, 449 Đ. 30 Tháng 4, Hưng Lợi, Ninh Kiều, Cần Thơ",,,,,,,,
864,ChIJQwS4f0-JoDERBsV8lx21ohI,MILAN COFFEE -BILLARDS,Quán cà phê,0916 469 933,"MILAN COFFEE -BILLARDS, Hẻm 51 hồ bún xáng, Cần Thơ",,,,,,,,
868,ChIJz7ahNw-JoDERZ8WMz1HZt4M,Cafe Thảo,Quán cà phê,,"Cafe Thảo, Phường An Khánh, Ninh Kiều, Cần Thơ",,,,,,,,
870,ChIJkfWWRv-HoDER79EIPMz915k,Cafe Bảy Cây Sưa,Quán cà phê,,"3Q5J+9CV Cafe Bảy Cây Sưa, Đ. Nguyễn Văn Cừ, Cái Khế, Ninh Kiều, Cần Thơ",,,,,,,,
871,ChIJBbayGsaJoDERr-G3TelqZ-Y,Cà phê tình nhân Bi Coffee 3,Quán cà phê,0789 687 968,"Cà phê tình nhân Bi Coffee 3, 236 Nguyễn Văn Cừ Nối Dài, Phường An Khánh, Ninh Kiều, Cần Thơ",,,,,,,,
873,ChIJl4djVv-HoDERc5_2E3bgQ28,Cà phê Số Đỏ,Quán cà phê,0292 3855 685,"Cà phê Số Đỏ, 6/138c Đ. Nguyễn Văn Cừ, Cái Khế, Ninh Kiều, Cần Thơ",,,,,,,,
878,ChIJxw8ZGASIoDERHxp6vxbUpe4,Quán Cà Phê Bằng Lăng,Quán cà phê,0292 3832 471,"Quán Cà Phê Bằng Lăng, 24/44A, Trần Việt Châu, Quận Ninh Kiều, Tp Cần Thơ",,,,,,,,
879,ChIJg_CQBKVjoDER8I9v57V281A,Lona Coffee House,Quán cà phê,0783 994 666,"Lona Coffee House, Bờ kè, Sông Hậu, Cái Khế, Ninh Kiều, Cần Thơ 900000",,,,,,,,
885,ChIJMcOb1N1joDERlRLWPMXwwWo,CÀ PHÊ TOMMY,Quán cà phê,,"CÀ PHÊ TOMMY, 11-6 Trần Quang Khải, Cái Khế, Ninh Kiều, Cần Thơ",,,,,,,,
894,ChIJt17DmK-JoDERXwaWZ2e06So,Rex Coffee,Quán cà phê,,"Rex Coffee, 75 Đ. Võ Trường Toản, An Hoà, Ninh Kiều, Cần Thơ",,,,,,,,
898,ChIJO9A4uk2JoDER0ppy_nn-HgI,Tiệm cà phê Phúc 1975,Quán cà phê,0333 032 939,"2QQ8+WHV Tiệm cà phê Phúc 1975, Hẻm 51, Xuân Khánh, Ninh Kiều, Cần Thơ",,,,,,,,
900,ChIJR81FQEOJoDERt_mAM_gJby4,Cà phê bánh Muồng Hoa Đào,Quán cà phê,,"Cà phê bánh Muồng Hoa Đào, Hem 9, Đ. Trần Nam Phú, Phường An Khánh, Ninh Kiều, Cần Thơ",,,,,,,,
904,ChIJc7pgObKJoDERa62pEit39Mo,Coffee Tường Vy,Quán cà phê,0766 958 921,"Coffee Tường Vy, 4 Lộ Vòng Cung, An Bình, Ninh Kiều, Cần Thơ",,,,,,,,
905,ChIJt0CsbzqIoDERLeFKl3uo5p8,Pha Lê Cafe,Quán cà phê,,"Pha Lê Cafe, 232 Đ. 3 Tháng 2, An Bình, Ninh Kiều, Cần Thơ",,,,,,,,
908,ChIJa1RCkPaJoDERiXcb7QSYA_A,Nâu Coffee,Quán cà phê,0933 719 109,"Nâu Coffee, 65 Đ. A3, Khu dân cư 91B, Ninh Kiều, Cần Thơ",,,,,,,,
909,ChIJG62j02yJoDER-3EQC0U0gX4,Cà Phê Võng Bảy Trường,Quán cà phê,,"Cà Phê Võng Bảy Trường, 410 Đ. Nguyễn Văn Linh, Hưng Lợi, Ninh Kiều, Cần Thơ",,,,,,,,
915,ChIJORSgbTyHoDERKEdbPCEcvBc,Cafe Sóc Cần Thơ,Quán cà phê,,"3Q65+XMF Cafe Sóc Cần Thơ, Hẻm 91 Cách Mạng Tháng Tám, An Thới, Bình Thủy, Cần Thơ",,,,,,,,
916,ChIJqWPanOOJoDERCrcfKwYKp_Y,Cafe Like,Quán cà phê,,"Cafe Like, 16-18 Đ. Phan Văn Trị, An Lạc, Ninh Kiều, Cần Thơ",,,,,,,,
917,ChIJJa--aTSIoDER_qbtK8JZpQA,Quán Cà Phê 150,Quán cà phê,0292 3837 461,"Quán Cà Phê 150, 150, Đường 30/4, Quận Ninh Kiều, Hưng Lợi, Ninh Kiều, Cần Thơ",,,,,,,,
918,ChIJnTsMv2OrNTERhQfH0wpy0oM,Quán cafe đẹp,Quán cà phê,,"2R7J+2V2 Quán cafe đẹp, Nam Đồng, Đống Đa, Hà Nội",,,,,,,,
937,ChIJrVQorW2IoDERD9TuU4X530Q,Cà Phê Lý Tưởng,Quán cà phê,0909 957 555,"Cà Phê Lý Tưởng, 95 Đ. Số 2, Phường An Khánh, Ninh Kiều, Cần Thơ",,,,,,,,
938,ChIJn8yyzXeJoDER-R3O5K3ZgIU,Cà Phê 39,Quán cà phê,0949 535 468,"Cà Phê 39, 39 Đ. Tô Hiến Thành, Phường An Khánh, Ninh Kiều, Cần Thơ",,,,,,,,
939,ChIJQc-jkwmJoDERIC5HuJiAYcY,Cà phê rang mộc 1 & 2,Quán cà phê,,"Cà phê rang mộc 1 & 2, 134 Đ. Nguyễn Văn Cừ, Phường An Khánh, Ninh Kiều, Cần Thơ",,,,,,,,
940,ChIJ9YWlsFiJoDERflFVaiW7RM8,Quán Cà Phê MU ( MU COFFEE SPORT),Quán cà phê,0939 986 388,"Quán Cà Phê MU ( MU COFFEE SPORT), Góc số 7 và, Đ. Số 2, khu CBĐHCT, Ninh Kiều, Cần Thơ",,,,,,,,
943,ChIJhe03QtWJoDERlZax1NmlFP4,Cafe Milano,Quán cà phê,,"Cafe Milano, 337 Đ. Nguyễn Văn Linh, Phường An Khánh, Ninh Kiều, Cần Thơ",,,,,,,,
945,ChIJ11oL10SIoDER16QqXs2zWLY,Quán Cafe BiBi,Quán cà phê,0913 784 646,"Quán Cafe BiBi, 40 Nguyễn Văn Cừ Nối Dài, An Bình, Ninh Kiều, Cần Thơ",,,,,,,,
947,ChIJJXqsIFGIoDER7r9p9PvoOk0,Cà Phê Ngọc Xoan,Quán cà phê,0786 644 468,"Cà Phê Ngọc Xoan, 261 Nguyễn Văn Cừ Nối Dài, An Bình, Ninh Kiều, Cần Thơ",,,,,,,,
948,ChIJb1iWkFqIoDERugofUOymMEY,Tiệm Cà Phê Ngọc Giàu,Quán cà phê,0292 3502 337,"Tiệm Cà Phê Ngọc Giàu, 10K4, Đường Nguyễn Văn Cừ, Quận Ninh Kiều, An Bình, Ninh Kiều, Cần Thơ",,,,,,,,
951,ChIJNZt9Ya2JoDERfh9HlL2b7pk,Quán Cà Phê Thanh Trúc,Quán cà phê,0939 957 678,"Quán Cà Phê Thanh Trúc, 247E, Đường Cái Sơn Hàng Bàng, Quận Cái Răng, An Bình, Ninh Kiều, Cần Thơ",,,,,,,,
955,ChIJKeDW-6CJoDERZk_Rg-RhbNY,Quán Cà Phê Thanh Thúy,Quán cà phê,0292 3743 547,"Quán Cà Phê Thanh Thúy, 65, Đường Lộ Vòng Cung, Quận Ninh Kiều, An Bình, Ninh Kiều, Cần Thơ",,,,,,,,
962,ChIJoT6GjDaIoDERndTNfnwwyUw,Quán Cà Phê 119,Quán cà phê,0292 3830 458,"Quán Cà Phê 119, 119, Đường 3/2, Quận Ninh Kiều, Hưng Lợi, Ninh Kiều, Cần Thơ",,,,,,,,
963,ChIJExBtQjiIoDER0xDAQV9rohA,Quán Cà Phê Hồng Nhung,Quán cà phê,0772 981 137,"Quán Cà Phê Hồng Nhung, 31 Quốc Lộ 91B, Quận Ninh Kiều, Tp Cần Thơ",,,,,,,,
966,ChIJ-Uuc9jSIoDERigb4f0FCMVc,Cà Phê Trân Trân,Quán cà phê,0292 6250 655,"Cà Phê Trân Trân, 153 Đ. 30 Tháng 4, Hưng Lợi, Ninh Kiều, Cần Thơ",,,,,,,,
973,ChIJX8Z0gCyJoDERou9KLwLLAjw,CAFE MỘC 1986,Quán cà phê,0977 170 977,"CAFE MỘC 1986, 1 Đ. Mậu Thân, Xuân Khánh, Ninh Kiều, Cần Thơ",,,,,,,,
975,ChIJTyymWkZjoDERVVqeXnmkpaI,Cà phê bảo tàng,Quán cà phê,,"Cà phê bảo tàng, 1 Đại lộ Hoà Bình, Tân An, Ninh Kiều, Cần Thơ",,,,,,,,
978,ChIJDaX6PyeIoDER--Dv9lfv2KU,Coffee MINH ( cà phê ) nguyên chất,Quán cà phê,,"Coffee MINH ( cà phê ) nguyên chất, 1a Quang Trung, An Lạc, Ninh Kiều, Cần Thơ",,,,,,,,
979,ChIJozwNBDeJoDERXM60BsfTaBw,Tiệm cà phê 1990s,Quán cà phê,0907 383 665,"Tiệm cà phê 1990s, 77 Đ. Trần Văn Hoài, Xuân Khánh, Ninh Kiều, Cần Thơ",,,,,,,,
980,ChIJ7XhicgGJoDERmwJMZOxD-lA,A Coffee,Quán cà phê,0971 189 518,"A Coffee, 6 Đường B39, Khu dân cư 91B, Ninh Kiều, Cần Thơ 90000",,,,,,,,
981,ChIJ0ZappTKJoDER_HoDEjICiXo,Cửa Hàng Cà Phê 65,Quán cà phê,,"Cửa Hàng Cà Phê 65, Cầu 3, Đ. Nguyễn Văn Linh, Phường An Khánh, Ninh Kiều, Cần Thơ",,,,,,,,
982,ChIJga_WxTWIoDERY9VUyW72qVI,Cà Phê 93,Quán cà phê,,"Cà Phê 93, 95 Đ. 3 Tháng 2, Hưng Lợi, Ninh Kiều, Cần Thơ",,,,,,,,
983,ChIJpYfNQjqIoDERmhlfFV_N8ps,Quán Cà Phê 178/4,Quán cà phê,0292 2460 343,"Quán Cà Phê 178/4, 178/2, Đường 3/2, Quận Ninh Kiều, Tp Cần Thơ, Đ. 3 Tháng 2, Hưng Lợi, Ninh Kiều, Cần Thơ",,,,,,,,
984,ChIJ0Sq6DD4vdTERwUZF1w5QOaw,View Đẹp,Quán cà phê,,"View Đẹp, 159 Đ. Phạm Ngũ Lão, Phường Phạm Ngũ Lão, Quận 1, Thành phố Hồ Chí Minh",,,,,,,,
993,ChIJm5Q-CbyHoDER7xMrqR6HkFM,Cafe Bảo Anh,Quán cà phê,0888 178 718,"Cafe Bảo Anh, 91 Đ. Nguyễn Văn Cừ, Cồn Khương, Ninh Kiều, Cần Thơ",,,,,,,,
999,ChIJwwYW2LNjoDERe4eynM5YV04,Cafe Võng Sân Vườn Minh Thư,Quán cà phê,0939 699 802,"Cafe Võng Sân Vườn Minh Thư, 3A Lê Lợi, Cái Khế, Ninh Kiều, Cần Thơ",,,,,,,,
1022,ChIJ6ewbWTRjoDERkTRoOor1cCk,Golden Coffee,Quán cà phê,,"Golden Coffee, 13 Nguyễn Trãi, An Hội, Ninh Kiều, Cần Thơ",,,,,,,,
1023,ChIJ_ZeIN2WJoDERNAc7kcobMX0,Cà phê sân vườn,Quán cà phê,,"Cà phê sân vườn, 15 Đường Yết Kiêu, An Nghiệp, Ninh Kiều, Cần Thơ",,,,,,,,
1026,ChIJc6h8PsiJoDERrrOiJOqZPy8,Cà Phê Ngọc Nhớ,Quán cà phê,0939 220 102,"Cà Phê Ngọc Nhớ, 686 Đ. Mậu Thân, An Hoà, Ninh Kiều, Cần Thơ",,,,,,,,
1032,ChIJwfEq7ECJoDERfYv8D9-3nD4,Cà Phê Cát Tường,Quán cà phê,,"Cà Phê Cát Tường, 294 Võ Văn Kiệt, An Thới, Bình Thủy, Cần Thơ",,,,,,,,
1034,ChIJ9XpuudyJoDERWpLUqF_5_ps,Cafe An Nhiên,Quán cà phê,,"Cafe An Nhiên, 111 Võ Văn Kiệt, An Hoà, Ninh Kiều, Cần Thơ",,,,,,,,
1039,ChIJO5bRkWuIoDERRjYph26JWsc,Quán Cà Phê Tuấn,Quán cà phê,0814 214 239,"Quán Cà Phê Tuấn, 17, Đường 18, Khu Tái Định Cư, Phường An Khánh, Quận Ninh Kiều, Thành Phố Cần Thơ, Phường An Khánh, Ninh Kiều, Cần Thơ",,,,,,,,
1041,ChIJk2dIDzOJoDERPO6CqpzHr-w,Cà Phê Sạch Black Gold - MiO,Quán cà phê,,"Cà Phê Sạch Black Gold - MiO, 385 Đ. Trần Nam Phú, Xuân Khánh, Ninh Kiều, Cần Thơ 900000",,,,,,,,
1044,ChIJOW1tkBSIoDERatED5CEbnkM,Tiệm Cà Phê Chiến Thắng,Quán cà phê,0292 3600 790,"Tiệm Cà Phê Chiến Thắng, 132, Nguyễn Văn Cừ, Quận Ninh Kiều, Phường An Khánh, Ninh Kiều, Cần Thơ",,,,,,,,
1047,ChIJbWQF9kKIoDERnc9D0K2f1OQ,Quán Cà Phê Hồng Ngọc,Quán cà phê,0292 2240 189,"Quán Cà Phê Hồng Ngọc, 307 QL91B, Phường An Khánh, Ninh Kiều, Cần Thơ",,,,,,,,
1048,ChIJHWy5BmiIoDERdRW8wSUVHgU,Quán Cà Phê Ngọc Lan,Quán cà phê,0938 520 843,"2PMW+WV8 Quán Cà Phê Ngọc Lan, QL91B, Phường An Khánh, Ninh Kiều, Cần Thơ",,,,,,,,
1050,ChIJnYg5HZ-JoDERbw2RHaw0XKI,Cafe võng,Quán cà phê,,"2PPX+W8X Cafe võng, Đường Số 3, Phường An Khánh, Ninh Kiều, Cần Thơ",,,,,,,,
1054,ChIJIV6p60OIoDERT8_m-774FjU,Quán Ca Phê Wif 99,Quán cà phê,,"Quán Ca Phê Wif 99, 138 Nguyễn Văn Cừ Nối Dài, Phường An Khánh, Ninh Kiều, Cần Thơ",,,,,,,,
1056,ChIJZcMBIVGIoDEREbgf_hbd_nw,Café Soccer,Quán cà phê,,"Café Soccer, 413 Nguyễn Văn Cừ Nối Dài, An Bình, Ninh Kiều, Cần Thơ",,,,,,,,
1067,ChIJJc-p2I-rNTERUJFiMSufmkQ,Cà Phê Kiến,Quán cà phê,,"Cà Phê Kiến, 4 P. Đỗ Hành, Nguyễn Du, Hai Bà Trưng, Hà Nội",,,,,,,,
1068,ChIJM6T5DrKJoDERoK0ny_JI4Gg,Cafe Anh Khoa,Quán cà phê,0292 3914 738,"Cafe Anh Khoa, 226 Lộ Vòng Cung, An Bình, Ninh Kiều, Cần Thơ",,,,,,,,
1080,ChIJcSDjXrOJoDERC6zzWL8jOsY,Quán Cà Phê KAFFA ( hồng thủy cũ),Quán cà phê,,"Quán Cà Phê KAFFA ( hồng thủy cũ), 107 Đ. 3 Tháng 2, An Bình, Ninh Kiều, Cần Thơ",,,,,,,,
1082,ChIJRQH3EUCJoDERaeU6RkfSnus,Cà phê Balli,Quán cà phê,,"Cà phê Balli, 350D Đ. Trần Hoàng Na, KV6, Ninh Kiều, Cần Thơ",,,,,,,,
1085,ChIJFZ0O1DSIoDERcgnF2q391M0,Quán Cà Phê Duy,Quán cà phê,0292 3840 883,"Quán Cà Phê Duy, 91/37, Đường 30/4, Quận Ninh Kiều, Tp Cần Thơ, Hưng Lợi, Ninh Kiều, Cần Thơ",,,,,,,,
1088,ChIJW_IWFdCJoDERxVh3XcrheJM,Coffee Nhân Trí 4.0,Quán cà phê,0292 2222 248,"Coffee Nhân Trí 4.0, 70 Ngô Sĩ Liên, Hưng Lợi, Ninh Kiều, Cần Thơ",,,,,,,,
1089,ChIJv5PJZDiIoDERYlBrfYfQ858,Cà Phê Sân Vườn Thời Gian,Quán cà phê,,"Cà Phê Sân Vườn Thời Gian, 321 Đ. Nguyễn Văn Linh, Hưng Lợi, Ninh Kiều, Cần Thơ",,,,,,,,
1090,ChIJifu5SjWIoDERR3i5AEf35jo,Mode Coffee Dj Lounge,Quán cà phê,0949 944 348,"Mode Coffee Dj Lounge, 354 Hẻm 553, Xuân Khánh, Ninh Kiều, Cần Thơ",,,,,,,,
1092,ChIJZ-cXqTaJoDERTONFOKkEj_Y,Home Coffee,Quán cà phê,0916 777 386,"Home Coffee, 178 Đ. 3 Tháng 2, Hưng Lợi, Ninh Kiều, Cần Thơ 90000",,,,,,,,
1097,ChIJQ37LdKSJoDERNN7j1wQLjZk,GU 65 Coffee,Quán cà phê,,"2Q86+78C GU 65 Coffee, Đ. Trần Hoàng Na, Hưng Lợi, Ninh Kiều, Cần Thơ",,,,,,,,
1109,ChIJwy14N6BioDERuWNwQGdDrN0,Cà Phê Mỹ Phương,Quán cà phê,0292 3828 300,"Cà Phê Mỹ Phương, 32 Đại lộ Hoà Bình, Tân An, Ninh Kiều, Cần Thơ",,,,,,,,
1115,ChIJnax0TSaJoDER-8MN6NiNOeE,Quán coffee gin 108,Quán cà phê,0796 901 579,"Quán coffee gin 108, 10 Đ. 30 Tháng 4, An Lạc, Ninh Kiều, Cần Thơ",,,,,,,,
1116,ChIJi6MpLjiIoDERfhvmWJneMzU,K Coffee Cần Thơ,Quán cà phê,0292 3508 941,"2QC6+M99 K Coffee Cần Thơ, Metro, Đường Ra ST, Hưng Lợi, Ninh Kiều, Cần Thơ",,,,,,,,
1122,ChIJs_oNAalioDERnLnPn-oD-38,Quán Cà Phê Bích Phượng,Quán cà phê,0292 3761 666,"2QWM+5X2 Quán Cà Phê Bích Phượng, Lô J, Trần Văn Khéo, Quận Ninh Kiều, Tp Cần Thơ, Cái Khế, Ninh Kiều, Cần Thơ",,,,,,,,
1134,ChIJZeK2tEqJoDERuLemeQZfiMQ,Cà phê Trung Nguyên,Quán cà phê,,"Cà phê Trung Nguyên, 27 duong Hùng Vương, An Hội, Ninh Kiều, Cần Thơ",,,,,,,,
1138,ChIJB59Vkw6IoDERDRxRIa3MnyY,Quán cafe đầu hẻm 65 Võ Trường Toản,Quán cà phê,,"2QX8+69Q Quán cafe đầu hẻm 65 Võ Trường Toản, Hẻm 65, An Hoà, Ninh Kiều, Cần Thơ",,,,,,,,
1141,ChIJr8OuhKGJoDERd5dadur1ADE,Cà phê 57,Quán cà phê,0854 504 961,"Cà phê 57, 57 Đường số 6, Phường An Khánh, Ninh Kiều, Cần Thơ",,,,,,,,
1143,ChIJsXWysuOJoDERVLy7X0uxyH4,Cà phê Anh Thư,Quán cà phê,,"Cà phê Anh Thư, 132 Đ. Nguyễn Văn Cừ, p, Ninh Kiều, Cần Thơ",,,,,,,,
1146,ChIJO55HvEOJoDERDJ4bY7J-gX8,NGUYÊN KHANG COFFEE,Quán cà phê,,"NGUYÊN KHANG COFFEE, 339 Đ. Nguyễn Văn Linh, Phường An Khánh, Ninh Kiều, Cần Thơ",,,,,,,,
1148,ChIJwcCAi0KIoDERHhg9PnrBTQc,Quán Cà Phê Thanh Thảo,Quán cà phê,0292 6555 469,"Quán Cà Phê Thanh Thảo, 54B3, Khu Vực 1, Phường An Khánh, Quận Ninh Kiều, Phường An Khánh, Ninh Kiều, Cần Thơ",,,,,,,,
1149,ChIJo6ZHAGiIoDER5ONAXftvBLM,Quán Cà Phê Quỳnh Anh,Quán cà phê,0946 310 038,"Quán Cà Phê Quỳnh Anh, 34, Đường 16, Phường An Khánh, Quận Ninh Kiều, Phường An Khánh, Ninh Kiều, Cần Thơ",,,,,,,,
1151,ChIJc0IlzlOIoDERm_eIhxU-Hpw,Cà Phê Ngọc Trâm,Quán cà phê,,"Cà Phê Ngọc Trâm, 313 Đ. Hoàng Quốc Việt, An Bình, Ninh Kiều, Cần Thơ",,,,,,,,
1153,ChIJZ7G5TUuIoDERhGIx-YvOd8k,Quán Cà Phê Kim Ngân,Quán cà phê,0292 3222 715,"Quán Cà Phê Kim Ngân, 167/4, Quốc Lộ 1A, P. Lê Bình, Quận Cái Răng, Hưng Lợi, Ninh Kiều, Cần Thơ",,,,,,,,
1154,ChIJx2Id1xOJoDER7SUNo8572b8,Quán Cà Phê Yến Nhi,Quán cà phê,0292 3850 933,"Quán Cà Phê Yến Nhi, 177 Ấp Mỹ Phước, Huyện Phong Điền, Mỹ Khánh, Phong Điền, Cần Thơ",,,,,,,,
1157,ChIJZ0UJ7o-rNTER2nSpYi3Figw,Cà Phê 36,Quán cà phê,,"Cà Phê 36, 36 P. Nguyễn Thượng Hiền, Nguyễn Du, Hai Bà Trưng, Hà Nội",,,,,,,,
1161,ChIJxzGrKWSJoDERCuEV9Yf2Tfo,Cafe Ngọc Nhi,Quán cà phê,,"2P6W+2RW Cafe Ngọc Nhi, An Bình, Ninh Kiều, Cần Thơ",,,,,,,,
1162,ChIJuffRW7OJoDERnljHHZPIYyg,Cà Phê KIM PHÁT,Quán cà phê,0913 973 797,"2Q62+GRP Cà Phê KIM PHÁT, An Bình, Ninh Kiều, Cần Thơ",,,,,,,,
1165,ChIJexQ-_LaJoDERpPPtUiPlN9w,Quán Cà Phê Như Ý,Quán cà phê,0292 3843 391,"Quán Cà Phê Như Ý, 430C Hậu Thạnh Mỹ, Lê Bình, Cái Răng, Cần Thơ",,,,,,,,
1166,ChIJ4bOeuxeJoDER2w4OT6nU-7I,Cà phê Lê Thông,Quán cà phê,0939 117 156,"Cà phê Lê Thông, 71 Đường B28, Phường An Khánh, Ninh Kiều, Cần Thơ",,,,,,,,
1168,ChIJO6E9ukSJoDER9eqes9CVwMw,TEA AND COFFE 1988,Quán cà phê,,"TEA AND COFFE 1988, 151 Đ. Trần Hoàng Na, Hưng Lợi, Ninh Kiều, Cần Thơ",,,,,,,,
1172,ChIJ3aAKvPmJoDERhh1df96_oTw,Go coffee,Quán cà phê,,"2QPC+2Q6 Go coffee, Đ. Cao Thắng, Xuân Khánh, Ninh Kiều, Cần Thơ",,,,,,,,
1175,ChIJ35-Zd8pjoDERQ_iXskCoZ7s,Cà phê bình dân,Quán cà phê,,"Cà phê bình dân, 19-21 Đ. Thủ Khoa Huân, Tân An, Ninh Kiều, Cần Thơ",,,,,,,,
1176,ChIJ-SqthZ9ioDERWXJ9cK2PLdo,Quán Cà Phê 44,Quán cà phê,0292 3821 056,"Quán Cà Phê 44, 44 Đ. Nam Kỳ Khởi Nghĩa, Tân An, Ninh Kiều, Cần Thơ",,,,,,,,
1177,ChIJj0cWRTWJoDERxKw3cRUxUhk,216 COFFEE,Quán cà phê,,"216 COFFEE, 216/40e Hẻm 216, Hưng Lợi, Ninh Kiều, Cần Thơ",,,,,,,,
1178,ChIJp82NfiGIoDERFIw2t02Pmig,Quán Cà Phê Mậu Thân,Quán cà phê,0292 3899 160,"Quán Cà Phê Mậu Thân, 102 Đ. Mậu Thân, Xuân Khánh, Ninh Kiều, Cần Thơ",,,,,,,,
1179,ChIJb7_pNzWIoDERXoBsLXVjun0,Quán Cà Phê 50,Quán cà phê,0292 3837 954,"Quán Cà Phê 50, 50 Đ. 30 Tháng 4, Hưng Lợi, Ninh Kiều, Cần Thơ",,,,,,,,
1180,ChIJqa9LT_-HoDER6M1-4zM57VE,Quán Cà Phê Hoàng Phú,Quán cà phê,0939 656 957,"3Q5J+M99 Quán Cà Phê Hoàng Phú, Nguyễn Văn Cừ nối dài, Cồn Khương, Ninh Kiều, Cần Thơ",,,,,,,,
1186,ChIJL0reZe2JoDERFtFhX88Gywg,Cafe Góc Phố,Quán cà phê,,"Cafe Góc Phố, 156 Đ. Mậu Thân, An Phú, Ninh Kiều, Cần Thơ",,,,,,,,
1192,ChIJiw9OMQeIoDERLmchPQjmA04,Cơ Sở Chế Biến Cà Phê Tiến Thắng,Quán cà phê,0292 3811 118,"Cơ Sở Chế Biến Cà Phê Tiến Thắng, 36 Đoàn Thị Điểm, Cái Khế, Ninh Kiều, Cần Thơ",,,,,,,,
1207,ChIJx3y4ma9ioDERhLvT09Xeni8,Cafe Ngọc Xuân,Quán cà phê,,"2QVR+MJ2 Cafe Ngọc Xuân, Cái Khế, Ninh Kiều, Cần Thơ",,,,,,,,
1208,ChIJg_RQZKlioDERelXSiuJydHM,Coffee MK,Quán cà phê,0963 881 191,"2QXP+8F2 Coffee MK, Cái Khế, Ninh Kiều, Cần Thơ",,,,,,,,
1221,ChIJWR8_4oGJoDERpKVFfcoB1tE,Cà phê Chốn Cũ Cần Thơ,Quán cà phê,,"2QRH+9V5 Cà phê Chốn Cũ Cần Thơ, An Cư, Ninh Kiều, Cần Thơ",,,,,,,,
1222,ChIJD78wxDaJoDERb9H9EZUK47o,Cà phê Cốc,Quán cà phê,,"Cà phê Cốc, 149B Hoàng Văn Thụ, An Cư, Ninh Kiều, Cần Thơ",,,,,,,,
1223,ChIJrablRyeIoDERKJTYoceOB0M,Quán Cà Phê 54,Quán cà phê,0292 3827 531,"Quán Cà Phê 54, 30 Quang Trung, An Lạc, Ninh Kiều, Cần Thơ",,,,,,,,
1229,ChIJ2TNgc16JoDERfjCUGCRfow8,Quán Cà Phê Duy Tâm,Quán cà phê,,"2QR6+8VM Quán Cà Phê Duy Tâm, Nguyễn Văn Cừ Nối Dài, Phường An Khánh, Ninh Kiều, Cần Thơ",,,,,,,,
1234,ChIJ1XZOcM-JoDERhP5uJTC1pdM,Cà Phê Xanh Coffee,Quán cà phê,0783 878 979,"Cà Phê Xanh Coffee, 132D Đ. Nguyễn Văn Cừ, Phường An Khánh, Ninh Kiều, Cần Thơ 900000",,,,,,,,
1236,ChIJ2Xhs-oGJoDERlOcAPoYqjIo,Cà Phê sạch Black Gold - Lụa Coffee,Quán cà phê,,"2QR4+C2P Cà Phê sạch Black Gold - Lụa Coffee, Đ. Tô Hiến Thành, Phường An Khánh, Ninh Kiều, Cần Thơ",,,,,,,,
1242,ChIJqdNwfBOIoDERN_1IF7XJT90,Cà Phê Win,Quán cà phê,,"Cà Phê Win, 136 Đ. Nguyễn Văn Cừ, Phường An Khánh, Ninh Kiều, Cần Thơ",,,,,,,,
1243,ChIJg5ix7iiJoDER1AooWLDEB5c,Mini House tea & coffee,Quán cà phê,0907 830 603,"Mini House tea & coffee, Tổ 4/387/4 Đ. Nguyễn Văn Cừ, Phường An Khánh, Ninh Kiều, Cần Thơ",,,,,,,,
1249,ChIJBYIZdzKJoDERZEJ5xvaMUgk,Cà phê Hạt mang về,Quán cà phê,0388 880 340,"2QH2+XJG Cà phê Hạt mang về, Nguyễn Văn Cừ Nối Dài, Phường An Khánh, Ninh Kiều, Cần Thơ",,,,,,,,
1252,ChIJTQu4ARWJoDERjvTSaaUeaDg,XÓM CÀ PHÊ- HỒNG PHÁT,Quán cà phê,,"XÓM CÀ PHÊ- HỒNG PHÁT, 260 Đ.Xuân Thủy, An Bình, Ninh Kiều, Cần Thơ",,,,,,,,
1253,ChIJTWEVPbKJoDERxW4b2AV9Sv0,Quán Cà Phê Thủy,Quán cà phê,,"2P5X+7JJ Quán Cà Phê Thủy, An Bình, Ninh Kiều, Cần Thơ",,,,,,,,
1259,ChIJofTXIBKJoDEREpyiQaOF8pU,Quán Cà Phê Hải Đăng,Quán cà phê,0292 3911 023,"Quán Cà Phê Hải Đăng, 146A Ấp Mỹ Phước, Huyện Phong Điền, Mỹ Khánh, Phong Điền, Cần Thơ",,,,,,,,
1260,ChIJSXo2ehSJoDERuwFu0_uMnho,Quán Cà Phê Hạnh Nhi,Quán cà phê,0292 3903 928,"Quán Cà Phê Hạnh Nhi, 253 Ấp Mỹ Phước, Huyện Phong Điền, Mỹ Khánh, Phong Điền, Cần Thơ",,,,,,,,
1271,ChIJqWoGIqGJoDERSEOUPnGM6jo,Quán Cà Phê 365,Quán cà phê,0292 3706 007,"Quán Cà Phê 365, 365, Đường Lộ Vòng Cung, Quận Ninh Kiều, An Bình, Ninh Kiều, Cần Thơ",,,,,,,,
1276,ChIJF-og6--JoDERcpaaAQiImqY,Quán cà phê Bảy Bé,Quán cà phê,0919 119 323,"Quán cà phê Bảy Bé, 35/1b Lý Thường Kiệt, Lê Bình, Cái Răng, Cần Thơ",,,,,,,,
1279,ChIJtwiKTUuIoDER5nicJHI91UE,Quán Cà Phê Tấn Thủy,Quán cà phê,0837 189 899,"Quán Cà Phê Tấn Thủy, 167/1A, Quốc Lộ 1A, P. Lê Bình, Quận Cái Răng, Hưng Lợi, Ninh Kiều, Cần Thơ",,,,,,,,
1280,ChIJsz0MlrCJoDERfy9B9Wp0pHQ,Que Anh Coffee Shop,Quán cà phê,0292 3911 728,"Que Anh Coffee Shop, 483A, Area No 1, 3/2 Street, Ninh Kieu District, Can Tho City, Lê Bình, Cái Răng, Cần Thơ",,,,,,,,
1281,ChIJxZOPV76JoDERos20b6U2ZGA,Cà phê Gia Hân,Quán cà phê,0389 291 746,"Cà phê Gia Hân, Hưng Lợi, Ninh Kiều, Cần Thơ",,,,,,,,
1282,ChIJXS09wkeIoDERQXIBCAUC-og,Cà Phê 138,Quán cà phê,0292 3781 358,"Cà Phê 138, 138 Đ. Nguyễn Hiền, Hưng Lợi, Ninh Kiều, Cần Thơ",,,,,,,,
1286,ChIJHQme9zSIoDERv-vQnibt_4o,Cà Phê Phố Đêm,Quán cà phê,0292 3838 476,"Cà Phê Phố Đêm, 124 Đ. 30 Tháng 4, Hưng Lợi, Ninh Kiều, Cần Thơ",,,,,,,,
1287,ChIJC0TV3UeJoDERWc7f04QC70U,Cà Phê Sạch Black Gold - Kim Châu,Quán cà phê,,"Cà Phê Sạch Black Gold - Kim Châu, 586 Hẻm 553, Hưng Lợi, Ninh Kiều, Cần Thơ",,,,,,,,
1288,ChIJXwCYWIWJoDERISgBmAUg8Kw,Cà Phê Sạch Black Gold - Ngọc Bích,Quán cà phê,,"Cà Phê Sạch Black Gold - Ngọc Bích, 118 Đường Trần Hoàng Na, Hưng Lợi, Ninh Kiều, Cần Thơ",,,,,,,,
1290,ChIJQcWIJDWIoDERlfYw09Deobs,Cà Phê Hồng Nghi,Quán cà phê,0947 707 431,"Cà Phê Hồng Nghi, 91 Đ. 30 Tháng 4, Hưng Lợi, Ninh Kiều, Cần Thơ",,,,,,,,
1291,ChIJqY4-QAGJoDERTUQfHcsbRqQ,Cà phê Sake 86,Quán cà phê,,"Cà phê Sake 86, 86 Đ. 3 Tháng 2, Hưng Lợi, Ninh Kiều, Cần Thơ",,,,,,,,
1295,ChIJk4yXWTSIoDERqDyqJl62meE,Quán Cà Phê Timon,Quán cà phê,0292 3508 673,"Quán Cà Phê Timon, 120A, Đường 30/4, Quận Ninh Kiều, Hưng Lợi, Ninh Kiều, Cần Thơ",,,,,,,,
1300,ChIJ0V-RMLGJoDERSX_ZjG6tKao,Cafe Văn Phòng Cửu Long,Quán cà phê,,"2QPC+2Q6 Cafe Văn Phòng Cửu Long, Đ. Cao Thắng, Xuân Khánh, Ninh Kiều, Cần Thơ",,,,,,,,
1301,ChIJG2siIk2JoDERbQRC2yJeu74,Quán cafe tình nhân Tim,Quán cà phê,0939 999 331,"Quán cafe tình nhân Tim, 19 Đ. 3 Tháng 2, Xuân Khánh, Ninh Kiều, Cần Thơ",,,,,,,,
1309,ChIJj2KpRKdioDERSxTwSYqEhXk,After All Coffee,Quán cà phê,0907 159 654,"2QQM+H4W After All Coffee, Hẻm 59 - Đề Thám, An Hội, Ninh Kiều, Cần Thơ",,,,,,,,
1311,ChIJ-5unJoiJoDER8WbbPvk7Yag,Caffe Tĩnh,Quán cà phê,,"Caffe Tĩnh, 1d Dãy A Trần Hoàng Na, Hưng Lợi, Ninh Kiều, Cần Thơ",,,,,,,,
1312,ChIJ-QCHcgOIoDERDhRAyHM6z4M,Quán Cafe 18,Quán cà phê,0292 3761 107,"Quán Cafe 18, 18, Bà Huyện Thanh Quan, Phường Thới Bình, Quận Ninh Kiều, Thành Phố Cần Thơ, Thới Bình, Ninh Kiều, Cần Thơ",,,,,,,,
1313,ChIJ9eRWmGuJoDER0nVNBshPDsQ,Coffee Thu 1984,Quán cà phê,0829 910 182,"Coffee Thu 1984, 184 Đ. Nguyễn Văn Cừ, Phường An Khánh, Ninh Kiều, Cần Thơ",,,,,,,,
1314,ChIJJ7CJ-i-IoDER0eOC1oNy6HM,TN Coffee,Quán cà phê,,"TN Coffee, 259 Đ. 30 Tháng 4, Xuân Khánh, Ninh Kiều, Cần Thơ",,,,,,,,
1315,ChIJkQSkhVSJoDERMvqjsPnFiYY,đi cà phê.,Quán cà phê,,"đi cà phê., 86 Đ. Lê Lai, An Lạc, Ninh Kiều, Cần Thơ",,,,,,,,
1316,ChIJc_lAC8CJoDER-V9Om9KMA50,Coffee Số,Quán cà phê,0901 576 679,"Coffee Số, 213d Nguyễn Thị Minh Khai, Xuân Khánh, Ninh Kiều, Cần Thơ",,,,,,,,
1324,ChIJrVgA_1V9oDERpNvGARxPJKU,Cafe Thảo Vân,Quán cà phê,0939 417 319,"3Q5J+RV9 Cafe Thảo Vân, Đ. Nguyễn Văn Cừ, Cái Khế, Ninh Kiều, Cần Thơ",,,,,,,,
1333,ChIJZXnWRQOIoDERwSafVluhcDY,Tran Thi Kim Tham Coffee Shop,Quán cà phê,0938 682 904,"Tran Thi Kim Tham Coffee Shop, 43B1/1/57, Tran Hung Dao Street, An Cu Ward, Ninh Kieu District, Thới Bình, Ninh Kiều, Cần Thơ",,,,,,,,
1336,ChIJ8bu2c2JjoDERJB6QmglZkfk,Cà phê võng Bờ Kè,Quán cà phê,,"2QWR+VP6 Cà phê võng Bờ Kè, Cái Khế, Ninh Kiều, Cần Thơ",,,,,,,,
1357,ChIJtxjPNRNjoDERMA-tfh4Xxf8,Cà Phê Lâm Bách Phú,Quán cà phê,0907 666 792,"Cà Phê Lâm Bách Phú, Trần Văn Khải, An Hội, Ninh Kiều, Cần Thơ",,,,,,,,
1369,ChIJNev306CJoDERM3Cq0K0ESU0,Hi Coffee,Quán cà phê,,"Hi Coffee, 70A Đ. 3/2, Xuân Khánh, Ninh Kiều, Cần Thơ",,,,,,,,
1374,ChIJXbQNhNaJoDERUIo12FTuXGk,Quán cà phê Anh Tài,Quán cà phê,,"Quán cà phê Anh Tài, 49 Đ. Nguyễn Đệ, An Hoà, Ninh Kiều, Cần Thơ",,,,,,,,
1380,ChIJwQIltBOIoDERQCnMCXpmVrM,Cà Phê Phúc Lợi Võng,Quán cà phê,,"Cà Phê Phúc Lợi Võng, An Khánh, Ninh Kiều, Cần Thơ",,,,,,,,
1384,ChIJjV0ZV26JoDER7bEA9IjFs8Y,MILANO Cofee - Take Away,Quán cà phê,,"MILANO Cofee - Take Away, 390 Nguyễn Văn Cừ Nối Dài, An Bình, Ninh Kiều, Cần Thơ",,,,,,,,
1386,ChIJwSHh92yIoDERCTK_psh9qzk,Cà phê Vạn Xuân,Quán cà phê,,"2QR4+G73 Cà phê Vạn Xuân, Phường An Khánh, Ninh Kiều, Cần Thơ",,,,,,,,
1387,ChIJverWm92JoDERICxzJzfVkIk,Cà phê pha máy an phat coffee,Quán cà phê,0939 195 049,"Cà phê pha máy an phat coffee, 14b Đ. Trần Nam Phú, Phường An Khánh, Ninh Kiều, Cần Thơ",,,,,,,,
1389,ChIJZw8nNauJoDERvTQdE55BLK4,Cà Phê Sạch Black Gold - Oxy Coffee,Quán cà phê,,"2QP5+QGJ Cà Phê Sạch Black Gold - Oxy Coffee, Phường An Khánh, Ninh Kiều, Cần Thơ",,,,,,,,
1390,ChIJn5-1C42JoDERJd0AxOuuTk4,Quán cà phê Bằng Lăng Tím,Quán cà phê,,"2QH6+664 Quán cà phê Bằng Lăng Tím, Đ. Số 7, Phường An Khánh, Ninh Kiều, Cần Thơ",,,,,,,,
1392,ChIJA2cRlUGIoDERNa1jBx5mAEk,Quán Cà Phê Bi Da Phượng,Quán cà phê,0292 3753 297,"Quán Cà Phê Bi Da Phượng, 372 Nguyễn Văn Cừ Nối Dài, Phường An Khánh, Ninh Kiều, Cần Thơ",,,,,,,,
1394,ChIJOVcpbKaJoDER1OSndnB1X9w,Quán Cà Phê KHẢ PHƯƠNG,Quán cà phê,,"2PMX+8JM Quán Cà Phê KHẢ PHƯƠNG, Phường An Khánh, Ninh Kiều, Cần Thơ",,,,,,,,
1395,ChIJyW-AuAqJoDERJ9WjOmJxmuo,Cà Phê Sala,Quán cà phê,0943 587 412,"2QJ2+3PC Cà Phê Sala, Nguyễn Văn Cừ Nối Dài, Phường An Khánh, Ninh Kiều, Cần Thơ",,,,,,,,
1396,ChIJGcfKlEOIoDERrDemSM_vZFs,Quán Cà Phê Ngộ Viện,Quán cà phê,0917 696 566,"2QH2+VFP Quán Cà Phê Ngộ Viện, Nguyễn Văn Cừ Nối Dài, Phường An Khánh, Ninh Kiều, Cần Thơ",,,,,,,,
1397,ChIJlQq5W0GIoDER7AbzYhku_JI,Quán Cà Phê Huyền Trân,Quán cà phê,0709 549 534,"Quán Cà Phê Huyền Trân, 222/6 , Quốc Lộ 91B,, Quận Bình Thủy, Tp Cần Thơ",,,,,,,,
1398,ChIJX4TlUbmJoDERcZlvT68ICjE,Cà Phê Sạch Black Gold - Khả Phương,Quán cà phê,,"Cà Phê Sạch Black Gold - Khả Phương, 345 Đ. Nguyễn Văn Linh, Phường An Khánh, Ninh Kiều, Cần Thơ",,,,,,,,
1402,ChIJpaCTNFGIoDER_hIkVAXhrtY,Cà Phê Mến Thương,Quán cà phê,0987 003 018,"2P9R+X9V Cà Phê Mến Thương, Nguyễn Văn Cừ Nối Dài, An Bình, Ninh Kiều, Cần Thơ",,,,,,,,
1403,ChIJ9y8HvfyJoDERaVnQpG22dGo,Cà Phê Và Giặt Sấy Nhà Tâm,Quán cà phê,0706 824 824,"Cà Phê Và Giặt Sấy Nhà Tâm, 11 Đ. Xuân Hồng, An Bình, Bình Thủy, Cần Thơ",,,,,,,,
1404,ChIJZ5-XwxSJoDERkhKKoNZH6Tg,COFFEE 1999,Quán cà phê,,"COFFEE 1999, 23/6 Nhật Tảo, Lê Bình, Cái Răng, Cần Thơ",,,,,,,,
1407,ChIJaY3U2UeIoDERGRtTTegCo9Y,Quán Cà Phê Trang Hạ,Quán cà phê,,"2QF4+7HF Quán Cà Phê Trang Hạ, Hưng Lợi, Ninh Kiều, Cần Thơ",,,,,,,,
1411,ChIJQTCD16iJoDERu87FCm7zG5c,Quán cà phê Ngọc Lan,Quán cà phê,,"XPW8+Q64 Quán cà phê Ngọc Lan, Chợ, Mỹ Khánh",,,,,,,,
1412,ChIJVzkKTvyIoDERBut4otuFm-c,Quán Cà Phê Phương Đại,Quán cà phê,0919 444 339,"Quán Cà Phê Phương Đại, 271/91B, Khu Vực Bình Phó B, Phường Long Tuyền, Quận Bình Thủy, Long Tuyền, Bình Thủy, Cần Thơ",,,,,,,,
1417,ChIJtdgnnKCJoDERfJSKbI_uwPg,Quán Cà Phê K+ - Bida - Nhạc Sống Kiều Vy,Quán cà phê,0292 3844 928,"Quán Cà Phê K+ - Bida - Nhạc Sống Kiều Vy, 255 Ấp Mỹ Phước, Huyện Phong Điền, An Bình, Ninh Kiều, Cần Thơ",,,,,,,,
1418,ChIJ-zRwmz6JoDERbR31rW33ik4,Cafe LyLy,Quán cà phê,0939 560 662,"Cafe LyLy, 34/1d Nguyễn Việt Dũng, Lê Bình, Cái Răng, Cần Thơ",,,,,,,,
1419,ChIJLR_KkKCJoDERkU8VSNqkysU,Quán Cà Phê Kim Yến,Quán cà phê,0292 3928 732,"Quán Cà Phê Kim Yến, 333 Ấp Mỹ Nhơn, Huyện Phong Điền, An Bình, Ninh Kiều, Cần Thơ",,,,,,,,
1421,ChIJm4sV66CJoDERzK5zIWlyJjw,Quán Cà Phê Bảo Ngọc,Quán cà phê,0292 3849 981,"Quán Cà Phê Bảo Ngọc, 251 Ấp Mỹ Phước, Huyện Phong Điền, An Bình, Ninh Kiều, Cần Thơ",,,,,,,,
1422,ChIJ76WVAq-JoDERYbyZWcwDG-Y,Quán Cà Phê Diễm Châu,Quán cà phê,0292 3097 977,"Quán Cà Phê Diễm Châu, 431, Lộ Vòng Cung, Quận Ninh Kiều, An Bình, Ninh Kiều, Cần Thơ",,,,,,,,
1426,ChIJuc43TLKJoDERf3LoM9PJRZc,Quán Cà Phê Hoàng Ngân,Quán cà phê,0292 3532 102,"Quán Cà Phê Hoàng Ngân, 7, Quốc Lộ 1A, Quận Cái Răng, An Bình, Ninh Kiều, Cần Thơ",,,,,,,,
1430,ChIJUfott7SJoDERsnb6HC55EgQ,Quán Cà Phê 168,Quán cà phê,0292 3913 579,"Quán Cà Phê 168, 168, Khu Vực Yên Hòa, P. Lê Bình, Quận Cái Răng, Hưng Lợi, Ninh Kiều, Cần Thơ",,,,,,,,
1432,ChIJLQbqdc-JoDERokGoV6dBNpU,Cafe Nice,Quán cà phê,,"Cafe Nice, 85 Đ. Nguyễn Hiền, Hưng Lợi, Ninh Kiều, Cần Thơ",,,,,,,,
1434,ChIJcffcyHyJoDERPS-AenEHx_4,Cà phê Bồ Công Anh,Quán cà phê,,"Cà phê Bồ Công Anh, 96 Đ. Nam Cao, Khu dân cư 91B, Ninh Kiều, Cần Thơ",,,,,,,,
1435,ChIJWQgQV9uJoDERMmgUnMTQn3I,Cà phê Phố 91B,Quán cà phê,,"Cà phê Phố 91B, 330 Đ. Nguyễn Văn Linh, Phường An Khánh, Ninh Kiều, Cần Thơ",,,,,,,,
1439,ChIJl3Xk3HdjoDERiEAitZzddzo,Cà Phê Chợ,Quán cà phê,0939 991 678,"Cà Phê Chợ, 97 Phan Đình Phùng, Tân An, Ninh Kiều, Cần Thơ",,,,,,,,
1441,ChIJe-QpvMmJoDERCqIg9UTjQgY,Nhà 102 Coffee,Quán cà phê,0939 258 384,"2Q85+RMV Nhà 102 Coffee, Đ. Trần Hoàng Na, Hưng Lợi, Ninh Kiều, Cần Thơ",,,,,,,,
1443,ChIJoYYRAU2JoDER2ooDcTg07Fw,Cafe Đêm A Minh,Quán cà phê,0939 607 360,"Cafe Đêm A Minh, 451 Đ. 30 Tháng 4, Hưng Lợi, Ninh Kiều, Cần Thơ",,,,,,,,
1449,ChIJEdgvxRiIoDERaAcYhF_4ORA,Cà Phê Lạc Hồng,Quán cà phê,0292 2213 468,"Cà Phê Lạc Hồng, 153g Đ. Trần Hưng Đạo, An Phú, Ninh Kiều, Cần Thơ",,,,,,,,
1451,ChIJDxlfEXuJoDERo2Sz_qwPjvE,Cà Phê Sạch Black Gold - Căn tin TTHL ĐHCT,Quán cà phê,,"Cà Phê Sạch Black Gold - Căn tin TTHL ĐHCT, Cổng A, Khu II, ĐHCT Đ. 3 Tháng 2, Xuân Khánh, Ninh Kiều, Cần Thơ",,,,,,,,
1454,ChIJvbBWqyWIoDERjXVKTl9XdIs,Quán Cà Phê The Girt,Quán cà phê,0292 3739 337,"Quán Cà Phê The Girt, 1 Đ. Trần Văn Hoài, Xuân Khánh, Ninh Kiều, Cần Thơ",,,,,,,,
1456,ChIJRVTCvySIoDER7wRo0jHD4m0,Thao Vy Coffee Shop,Quán cà phê,0913 703 919,"Thao Vy Coffee Shop, 146H, Tran Van Hoai Street, Ninh Kieu District, Can Tho City, Xuân Khánh, Ninh Kiều, Cần Thơ",,,,,,,,
1458,ChIJSVRJmp9ioDERJFd01xU9J9s,Xua Nay Coffee Shop,Quán cà phê,0292 3821 454,"Xua Nay Coffee Shop, 108 Đường Châu Văn Liêm, Tân An, Ninh Kiều, Cần Thơ",,,,,,,,
1463,ChIJVbO2wK5joDERR_FHdjhwWBw,Nước Mía Cà Phê,Quán cà phê,0944 014 894,"Nước Mía Cà Phê, 5 Đ. Ng. Hữu Hạnh, Tân An, Ninh Kiều, Cần Thơ",,,,,,,,
1466,ChIJ2whBf59ioDERVTFpWS0df80,Tiệm Cà Phê Khánh Băng,Quán cà phê,0918 869 385,"Tiệm Cà Phê Khánh Băng, 27 Đ. Đồng Khởi, P, Ninh Kiều, Cần Thơ",,,,,,,,
1467,ChIJyeYSnO6JoDER_xFj5eTUjmk,Piggee Kafe II,Quán cà phê,0795 916 075,"Piggee Kafe II, 100 Đường Đồng Văn Cống, An Thới, Bình Thủy, Cần Thơ, Vietnam Cần Thơ Can Tho City, 940000",,,,,,,,
1468,ChIJhemAjzaJoDERJlseRBoQd6c,Cafe Phố,Quán cà phê,,"Cafe Phố, 256/3B Đ. Nguyễn Văn Cừ, An Hoà, Ninh Kiều, Cần Thơ",,,,,,,,
1469,ChIJQagxi-pjoDERbdUfJ_mopcY,Quán cà phê 002,Quán cà phê,0933 424 002,"Quán cà phê 002, 2 Đ. Ng. Hữu Hạnh, Tân An, Ninh Kiều, Cần Thơ",,,,,,,,
1470,ChIJ68CuoNyJoDERd2iWSIvg1a4,Cà phê Hẻm Tài Xỉu,Quán cà phê,,"Cà phê Hẻm Tài Xỉu, 108, 45 Đ. 30 Tháng 4, An Lạc, Ninh Kiều, Cần Thơ",,,,,,,,
1471,ChIJZbI41FKJoDER2WLAlhOCUFw,Cà phê Trái tim,Quán cà phê,0932 848 383,"2QH6+QPM Cà phê Trái tim, Hồ Búng Xáng, Cần Thơ 900000",,,,,,,,
1472,ChIJ0WpuE5-JoDERPJKDMH-g_rw,Cà phê Đà Lạt,Quán cà phê,,"2PGX+GF8 Cà phê Đà Lạt, Đầu, Đường Số 4, Khu dân cư Hồng Phát, Ninh Kiều, Cần Thơ",,,,,,,,
1473,ChIJx1mbuqSJoDERlsErf06f8uU,Cafe 385,Quán cà phê,0772 546 755,"Cafe 385, 145f Đ. Trần Văn Hoài, Xuân Khánh, Ninh Kiều, Cần Thơ",,,,,,,,
1474,ChIJPeevj66JoDERyZsUCPU4NVA,Cà phê 679.,Quán cà phê,,"2QG6+83H Cà phê 679., Hưng Lợi, Ninh Kiều, Cần Thơ",,,,,,,,
1475,ChIJ551McmWJoDERXxqBN5Im5UY,Cafe,Quán cà phê,,"Cafe, 10 Đ. Lê Bình, Xuân Khánh, Ninh Kiều, Cần Thơ",,,,,,,,
1476,ChIJP0eIZ6BioDERgSSvIilKOIk,Cà Phê 26,Quán cà phê,,"Cà Phê 26, 26 Đ. Nguyễn Khuyến, Tân An, Ninh Kiều, Cần Thơ",,,,,,,,
1477,ChIJa1RSRdZjoDERyoPWmFozlp0,Café,Quán cà phê,,"2RC3+98H Café, Khu Vực I, Phú Thứ, Cái Răng, Cần Thơ",,,,,,,,
1478,ChIJT0qPzqSJoDERzpwaLFnw8H8,Cà phê 90,Quán cà phê,,"Cà phê 90, 90 Đường Trần Hoàng Na, Khu dân cư 91B, Ninh Kiều, Cần Thơ",,,,,,,,
1479,ChIJD0GNczSIoDERIOAj7GlLnyo,Cà Phê 379,Quán cà phê,,"Cà Phê 379, 175B Đ. 30 Tháng 4, Hưng Lợi, Ninh Kiều, Cần Thơ",,,,,,,,
1480,ChIJZQbw-YSJoDERi31qetJNyxM,Cà phê,Quán cà phê,,"Cà phê, 43-24 Đ. Trần Văn Hoài, Xuân Khánh, Ninh Kiều, Cần Thơ",,,,,,,,
1481,ChIJh1PKwTqIoDERg7IFhTYLOhU,Cafe Pi,Quán cà phê,,"Cafe Pi, 9 Đ. Trần Ngọc Quế, Xuân Khánh, Ninh Kiều, Cần Thơ",,,,,,,,
1486,ChIJmX5x30iJoDERllXN5-Rwt4k,Quán Cafe Rang Xây Copha,Quán cà phê,,"Quán Cafe Rang Xây Copha, 204 Đ. Nguyễn Văn Cừ, Phường An Khánh, Ninh Kiều, Cần Thơ",,,,,,,,
1495,ChIJm3MhASWJoDERp5a6iI11Blw,CAFEIN 1987,Quán cà phê,,"CAFEIN 1987, 426 Nguyễn Văn Cừ Nối Dài, An Bình, Ninh Kiều, Cần Thơ",,,,,,,,
1496,ChIJfSVqDe6JoDERb8xJwAXFXPM,Quán Cà Phê 179,Quán cà phê,0902 295 201,"Quán Cà Phê 179, 179 Đ. Nguyễn Văn Cừ, Cái Khế, Ninh Kiều, Cần Thơ",,,,,,,,
1498,ChIJvWNXcwaHoDERkTB-H5ILuMY,Cà Phê & Nước Ép 30/20,Quán cà phê,0393 475 065,"Cà Phê & Nước Ép 30/20, 30/20 Hẻm Số Đỏ, Cái Khế, Ninh Kiều, Cần Thơ",,,,,,,,
1499,ChIJybw6o799oDERqhOJszqgGqo,"Cà phê AE (võng, sân vườn thoáng mát)",Quán cà phê,,"3Q5J+WX7 Cà phê AE (võng, sân vườn thoáng mát), Đ. Nguyễn Văn Cừ, Cái Khế, Ninh Kiều, Cần Thơ",,,,,,,,
1528,ChIJc1uKUf6HoDERAdW9o44Cv9Q,Café - Sinh Tố Huỳnh Hà,Quán cà phê,,"3Q4H+JGC Café - Sinh Tố Huỳnh Hà, Đ. Nguyễn Văn Cừ, Cái Khế, Ninh Kiều, Cần Thơ 900000",,,,,,,,
1531,ChIJVad_lwSIoDERFiH3IEsbU28,Quán Cà Phê Mỹ Toàn,Quán cà phê,0939 466 070,"Quán Cà Phê Mỹ Toàn, 79 Đ. Phạm Ngũ Lão, Thới Bình, Ninh Kiều, Cần Thơ",,,,,,,,
1533,ChIJe2zKnlljoDERCkXkcD4m4yk,Cafe ăn sáng,Quán cà phê,,"Cafe ăn sáng, 3c Sông Hậu, Cái Khế, Ninh Kiều, Cần Thơ",,,,,,,,
1534,ChIJkXiC_S9joDERzpPhLdl1w1A,BOSS Cafe Trà Sữa Ăn Vặt,Quán cà phê,,"2QRV+MHG BOSS Cafe Trà Sữa Ăn Vặt, Sông Hậu, Cái Khế, Ninh Kiều, Cần Thơ",,,,,,,,
1545,ChIJpZ_BqK9ioDERn1yWbrvbC24,Quán Café Tân Tuyền,Quán cà phê,0292 3761 226,"Quán Café Tân Tuyền, 206/41/7, Đường Lê Lợi, Phường Cái Khế, Quận Ninh Kiều, Tp Cần Thơ, Cái Khế, Ninh Kiều, Cần Thơ",,,,,,,,
1548,ChIJv3rixaRioDER4wAfOpnt1OQ,Cà phê sân vườn Hoa Sứ,Quán cà phê,,"Cà phê sân vườn Hoa Sứ, B1 Trần Phú, Cái Khế, Ninh Kiều, Cần Thơ",,,,,,,,
1551,ChIJ4Sj1aCCIoDERoWu4ldBD0cQ,Hai Dang Coffee Shop,Quán cà phê,0292 3810 058,"Hai Dang Coffee Shop, 6, 30/4 Street, Ninh Kieu District, Can Tho City, An Lạc, Ninh Kiều, Cần Thơ",,,,,,,,
1601,ChIJsaIzkpeJoDERW_XMYJpi2bU,Cafe Hương,Quán cà phê,,"Cafe Hương, 2 Đ. Bùi Thị Xuân, An Hội, Ninh Kiều, Cần Thơ",,,,,,,,
1602,ChIJyyt3HXyJoDERuc4wy_A_UjQ,Copha coffee,Quán cà phê,,"Copha coffee, 63 Đ. Phan Đăng Lưu, Thới Bình, Ninh Kiều, Cần Thơ 900000",,,,,,,,
1603,ChIJLeUZoTKJoDERpmTpaDODsKs,Tiệm Cà phê Túi Ba Gang,Quán cà phê,,"Tiệm Cà phê Túi Ba Gang, 54/6/14, 54/6A Hùng Vương, Thới Bình, Ninh Kiều, Cần Thơ",,,,,,,,
1611,ChIJhYs4wEOIoDERCvfGJq1VgKU,Cà Phê Hè Phố,Quán cà phê,0292 3601 234,"Cà Phê Hè Phố, 300 Nguyễn Văn Cừ Nối Dài, Phường An Khánh, Ninh Kiều, Cần Thơ",,,,,,,,
1618,ChIJ8fFiCYeJoDEREsMx8sBpD0E,Cà Phê Ngày Đó,Quán cà phê,,"Cà Phê Ngày Đó, 189 Đ. Nguyễn Văn Cừ, An Hoà, Ninh Kiều, Cần Thơ",,,,,,,,
1619,ChIJSeWgLmeJoDERgbJtuMQw0zo,Tiệm cà phê Cá Hồi,Quán cà phê,0907 890 013,"Tiệm cà phê Cá Hồi, Chung cư A4, Mậu Thân, Đ. Mậu Thân, cũ, Ninh Kiều, Cần Thơ",,,,,,,,
1620,ChIJ8QTT6gOJoDERnEWH0D7VAC4,Cafe Bàn,Quán cà phê,,"Cafe Bàn, 13 Đ. Võ Trường Toản, An Hoà, Ninh Kiều, Cần Thơ",,,,,,,,
1621,ChIJt7I-u0GJoDERkz9bE3gw2zk,Cafe Xưa,Quán cà phê,,"Cafe Xưa, 18 Đ. Võ Trường Toản, An Hoà, Ninh Kiều, Cần Thơ",,,,,,,,
1630,ChIJq6qqBw-IoDERNDS6Ld89WGc,Quán Café Nguyễn,Quán cà phê,0292 3676 513,"Quán Café Nguyễn, 137 Đ. Nguyễn Văn Cừ, An Hoà, Ninh Kiều, Cần Thơ",,,,,,,,
1631,ChIJq6qqBw-IoDER1aWSQSl7qps,Quán Cà Phê Ngọc Hân,Quán cà phê,0947 819 770,"Quán Cà Phê Ngọc Hân, 327, Nguyễn Văn Cừ, Quận Ninh Kiều, Tp Cần Thơ, An Hoà, Ninh Kiều, Cần Thơ",,,,,,,,
1635,ChIJM9gdnp5ioDERKL7fQBGqwG8,Cà Phê 119,Quán cà phê,,"2QGP+QFP Cà Phê 119, Đường Hai Bà Trưng, Tân An, Ninh Kiều, Cần Thơ",,,,,,,,
1636,ChIJi46CrvuJoDERJ200D1_Q8pk,Cà Phê Sạch Black Gold - Têka Coffee,Quán cà phê,,"Cà Phê Sạch Black Gold - Têka Coffee, 36 Đường số 12, Phường An Khánh, Ninh Kiều, Cần Thơ",,,,,,,,
1638,ChIJ_ze_UGyIoDERvXw2SMoSVag,Quán Cà Phê Vy Nguyễn,Quán cà phê,0918 830 535,"Quán Cà Phê Vy Nguyễn, 162 Đường B1, Phường An Khánh, Ninh Kiều, Cần Thơ",,,,,,,,
1642,ChIJKQDjwk-JoDERhlPdcNRXMyE,Cà phê Muối Chú Rắc - CN Nguyễn Văn Cừ,Quán cà phê,,"Cà phê Muối Chú Rắc - CN Nguyễn Văn Cừ, 138/B8, Nguyễn Văn Cừ Nối Dài, Phường An Khánh, Ninh Kiều, Cần Thơ",,,,,,,,
1647,ChIJn2jduDuJoDERHi1bLXbEmpU,cafe 505,Quán cà phê,,"cafe 505, 497 Hẻm 553, Hưng Lợi, Ninh Kiều, Cần Thơ",,,,,,,,
1649,ChIJheKrfBSIoDERWRDhGoQMScU,Quán Cà Phê Bùi Thị Ngọc Minh (Cafe TayDo Model),Quán cà phê,0292 3838 780,"Quán Cà Phê Bùi Thị Ngọc Minh (Cafe TayDo Model), Số 132 K5, Đ. Nguyễn Văn Cừ, Phường An Khánh, Ninh Kiều, Cần Thơ",,,,,,,,
1652,ChIJ6aoAwaeJoDER1pACZiNydJw,Tiệm Cafe Anh,Quán cà phê,,"2QM8+X27 Tiệm Cafe Anh, Hẻm 51, Xuân Khánh, Ninh Kiều, Cần Thơ",,,,,,,,
1656,ChIJs98NN5aJoDERyXUAcgMpL0I,Sữa chua CHICCHU,Quán cà phê,,"Sữa chua CHICCHU, L30 - Đ2,Khu Đô Thị Mới Đại Ngân, Nguyễn Văn Cừ Nối Dài, Phường An Khánh, Ninh Kiều, Cần Thơ",,,,,,,,
1665,ChIJqYdiNveJoDER9QtQ2n_xnp8,CÀ PHÊ HỘI NGỘ,Quán cà phê,0931 070 987,"2QQ5+9W4 CÀ PHÊ HỘI NGỘ, Nguyễn Văn Cừ Nối Dài, Phường An Khánh, Ninh Kiều, Cần Thơ",,,,,,,,
1666,ChIJVVovnxSIoDERH71hz-s7_pw,Quán Cà Phê Như Ngọc,Quán cà phê,0292 3898 838,"Quán Cà Phê Như Ngọc, 163 Nguyễn Văn Cừ Nối Dài, Phường An Khánh, Ninh Kiều, Cần Thơ",,,,,,,,
1667,ChIJ7aHSjEKIoDERLAr475ELpi0,Cà Phê Thy Linh,Quán cà phê,0918 542 872,"Cà Phê Thy Linh, 337 Đ. Nguyễn Văn Linh, Phường An Khánh, Ninh Kiều, Cần Thơ",,,,,,,,
1668,ChIJgeT3NkKIoDER0LI_sBF2lew,Quán Cà Phê HIFI Lá,Quán cà phê,0292 4774 521,"Quán Cà Phê HIFI Lá, 7A8 KDC Thới Nhựt, Quận Ninh Kiều, Tp Cần Thơ, Phường An Khánh, Ninh Kiều, Cần Thơ",,,,,,,,
1671,ChIJ8zQz1zSJoDERe1W805Gm8Ow,Quán cà phê Kim Phượng,Quán cà phê,,"Quán cà phê Kim Phượng, SỐ 2 KDC HỒNG PHÁT, Phường An Khánh, Ninh Kiều, Cần Thơ",,,,,,,,
1672,ChIJIUSD_9iJoDER4D1IS2QSL2M,Cafe Ông Sáu,Quán cà phê,0919 925 265,"Cafe Ông Sáu, 306 Nguyễn Văn Cừ Nối Dài, Phường An Khánh, Ninh Kiều, Cần Thơ",,,,,,,,
1676,ChIJ7YSFxPuJoDERBJfROiSBXVc,Quán Cà Phê PHƯỢNG,Quán cà phê,0909 577 277,"Quán Cà Phê PHƯỢNG, KDC Hàng Bàng, Phường An Khánh, Ninh Kiều, Cần Thơ",,,,,,,,
1684,ChIJBSsn-0KIoDEREztR6PmFjbA,Quán Cà Phê Ngọc Anh,Quán cà phê,0292 6558 034,"Quán Cà Phê Ngọc Anh, 337/13B3, Đường Quốc Lộ 91B, Quận Ninh Kiều, TP.Cần Thơ, Phường An Khánh, Ninh Kiều, Cần Thơ",,,,,,,,
1685,ChIJ5xhDoUKIoDER9bcvzyocTQw,Cà Phê Xuân Mai,Quán cà phê,0292 3559 939,"2PMX+P49 Cà Phê Xuân Mai, QL91B, Phường An Khánh, Ninh Kiều, Cần Thơ",,,,,,,,
1686,ChIJmxAUuEOIoDEROg11ALD3R30,Quán Cà Phê Phú Quý,Quán cà phê,0292 5093 987,"Quán Cà Phê Phú Quý, 113A KDC Thới Nhựt, Quận Ninh Kiều, Tp Cần Thơ, Phường An Khánh, Ninh Kiều, Cần Thơ",,,,,,,,
1687,ChIJP-0_5pCJoDERwKKpF-duyd0,Cà Phê Song Khánh,Quán cà phê,0906 717 417,"Cà Phê Song Khánh, 443 Nguyễn Văn Cừ Nối Dài, An Bình, Ninh Kiều, Cần Thơ 90000",,,,,,,,
1688,ChIJjUarUWuJoDERCvwbRSzyr2Y,Cà Phê Bida Lan Anh,Quán cà phê,0932 840 006,"2P9Q+39C Cà Phê Bida Lan Anh, An Bình, Ninh Kiều, Cần Thơ",,,,,,,,
1689,ChIJY9pStViJoDERx3xfsE1JPRA,Cà phê Hùng Phú,Quán cà phê,0928 720 720,"2PCQ+44G Cà phê Hùng Phú, Đường Số 38, An Bình, Bình Thủy, Cần Thơ",,,,,,,,
1705,ChIJr2h4NeyJoDERo3rF8b5ozkY,Cafe Diem Tam Sang Duc Ky,Quán cà phê,,"2PCR+5JR Cafe Diem Tam Sang Duc Ky, An Bình, Ninh Kiều, Cần Thơ",,,,,,,,
1707,ChIJl32GRLOJoDERdRkSFjpEq6I,Quán Cà Phê Khả Phương,Quán cà phê,0292 3894 837,"Quán Cà Phê Khả Phương, 90A, Quốc Lộ 1A, P. An Bình, Quận Ninh Kiều, An Bình, Ninh Kiều, Cần Thơ",,,,,,,,
1712,ChIJm6wzdxKJoDERAaVk4Oh0hbk,Cafe 5Thiên,Quán cà phê,0399 060 704,"Cafe 5Thiên, 117 Tầm Vu, Hưng Lợi, Ninh Kiều, Cần Thơ",,,,,,,,
1723,ChIJF1kF5byJoDERihQmcvnNdKI,Quán Cà Phê Khánh Trang,Quán cà phê,,"XPVX+MG4 Quán Cà Phê Khánh Trang, Đ. Phạm Hùng, Lê Bình, Cái Răng, Cần Thơ",,,,,,,,
1736,ChIJAQep36CJoDERAKcxUht8CMU,Quán Cà Phê Sơ Ri,Quán cà phê,0292 3847 878,"Quán Cà Phê Sơ Ri, 243 Ấp Mỹ Ái, Huyện Phong Điền, An Bình, Ninh Kiều, Cần Thơ",,,,,,,,
1738,ChIJ10mFZVWJoDERiQ_LBYaHAPU,Cà phê Triệu,Quán cà phê,0969 699 534,"Cà phê Triệu, 107 Đ. 3 Tháng 2, An Bình, Ninh Kiều, Cần Thơ",,,,,,,,
1742,ChIJsfD-JECJoDER6HeProTPPbg,Cafe 4U - Cà phê sạch mang đi,Quán cà phê,0367 479 669,"Cafe 4U - Cà phê sạch mang đi, 1 Đ. 3 Tháng 2, An Bình, Ninh Kiều, Cần Thơ",,,,,,,,
1753,ChIJyxO_RLOJoDERBv2H6nd2Pm4,Quán Cà Phê Hồng,Quán cà phê,0292 3850 518,"Quán Cà Phê Hồng, 117, Quốc Lộ 1A, P. Lê Bình, Quận Cái Răng, An Bình, Ninh Kiều, Cần Thơ",,,,,,,,
1754,ChIJXwI2orOJoDERZsRdW4KHykk,Huynh Nhi Coffee Shop,Quán cà phê,0292 3924 837,"Huynh Nhi Coffee Shop, 92A Area 2, Highway 1A, Cai Rang District, Can Tho City, An Bình, Ninh Kiều, Cần Thơ",,,,,,,,
1755,ChIJBSgwP7KJoDERIxRi3fbVnFQ,Quán Cà Phê Hương Lan,Quán cà phê,0292 2460 587,"Quán Cà Phê Hương Lan, 158/4, Đường Lộ Vòng Cung, Quận Ninh Kiều, An Bình, Ninh Kiều, Cần Thơ",,,,,,,,
1757,ChIJRckksLSJoDER_4kKHavsz2c,Quán Cà Phê Anh Đào,Quán cà phê,0292 2474 394,"Quán Cà Phê Anh Đào, 152/3, Quốc Lộ 1A, P. Lê Bình, Quận Cái Răng, Hưng Lợi, Ninh Kiều, Cần Thơ",,,,,,,,
1758,ChIJV9z3BrGJoDERdUBdB7qmfJM,Phuoc Loc Tho Coffee Shop,Quán cà phê,0292 3094 862,"Phuoc Loc Tho Coffee Shop, 121, Area No 1, 3/2 Street, Ninh Kieu District, Can Tho City, Lê Bình, Cái Răng, Cần Thơ",,,,,,,,
1760,ChIJvfTdDoyJoDER1pbsTk0WdaE,Coffee Ngọc,Quán cà phê nghệ thuật,,"Coffee Ngọc, Mới, F, Đ. Trần Hoàng Na, Hưng Lợi, Ninh Kiều, Cần Thơ 94000",,,,,,,,
1765,ChIJV0vVkzWIoDERjdvgZFS3gYs,Quán Cà Phê Mỹ Tiên,Quán cà phê,0292 6350 181,"Quán Cà Phê Mỹ Tiên, 73, Đường 3/2, Quận Ninh Kiều, Tp Cần Thơ, Hưng Lợi, Ninh Kiều, Cần Thơ",,,,,,,,
1766,ChIJffbbksCJoDERq0hF84kqzOA,QUÁN CÀ PHÊ 1 MÌNH,Quán cà phê,0377 019 269,"QUÁN CÀ PHÊ 1 MÌNH, 133d Hẻm 132 Đ. 3 Tháng 2, Hưng Lợi, Ninh Kiều, Cần Thơ",,,,,,,,
1772,ChIJSYUOWDCIoDER6rkpFqXDf_k,Quán Cà Phê Trung Nguyên Cát Tường,Quán cà phê,0292 3831 541,"Quán Cà Phê Trung Nguyên Cát Tường, 268/62, Đường Nguyễn Văn Linh, Quận Ninh Kiều, Tp Cần Thơ, Hưng Lợi, Ninh Kiều, Cần Thơ",,,,,,,,
1773,ChIJ-Z8z4E-JoDER_NXTcd8-XGQ,Cafe Nguyên Trang,Quán cà phê,,"Cafe Nguyên Trang, 14 Đường Trần Hoàng Na, Hưng Lợi, Ninh Kiều, Cần Thơ",,,,,,,,
1775,ChIJ_WiTluCJoDERbY22Z9rB_vw,Cà phê - Giặt sấy MWT,Quán cà phê,0939 110 157,"Cà phê - Giặt sấy MWT, 68 Hẻm 132 Đ. 3 Tháng 2, Hưng Lợi, Ninh Kiều, Cần Thơ",,,,,,,,
1776,ChIJ6Suf9VmJoDERWoQWlNk7YNM,Cà phê Phương Vinh,Quán cà phê,,"Cà phê Phương Vinh, 151 Đ. Trần Hoàng Na, Hưng Lợi, Ninh Kiều, Cần Thơ",,,,,,,,
1779,ChIJSTt1UVaJoDERXLpAXRiAJgU,Pha cà phê,Quán cà phê,,"Pha cà phê, 660 Đ. 30 Tháng 4, Hưng Lợi, Ninh Kiều, Cần Thơ 90000",,,,,,,,
1780,ChIJ02WNITWIoDER0xKqmuSk33M,Cà Phê Hội Ngộ,Quán cà phê,,"Cà Phê Hội Ngộ, 501 Đ. 30 Tháng 4, Hưng Lợi, Ninh Kiều, Cần Thơ",,,,,,,,
1794,ChIJyegsQjSIoDERrpzdefDMdeI,Quán Cà Phê Khôi Nguyên,Quán cà phê,0292 3738 951,"Quán Cà Phê Khôi Nguyên, 237, Đường 30/04, Quận Ninh Kiều, Tp Cần Thơ, Hưng Lợi, Ninh Kiều, Cần Thơ",,,,,,,,
1799,ChIJZSRn3_qJoDERJRK0VPuyVvY,Cà phê sạch Black Gold - A Lùn,Quán cà phê,,"Cà phê sạch Black Gold - A Lùn, 283k Đ. Nguyễn Văn Linh, Phường An Khánh, Bình Thủy, Cần Thơ",,,,,,,,
1807,ChIJM3mmWSOIoDERkUxRqNTVP9E,Quán Cà Phê Yến Nhi,Quán cà phê,0292 3732 217,"Quán Cà Phê Yến Nhi, 116B, Đường 3/2, Quận Ninh Kiều, Tp Cần Thơ, Xuân Khánh, Ninh Kiều, Cần Thơ",,,,,,,,
1808,ChIJt4MUeqSJoDERkgzMz79Xlqk,Quán Cà phê An Nguyên,Quán cà phê,0901 599 006,"Quán Cà phê An Nguyên, 10 Đ. Mạc Thiên Tích, Xuân Khánh, Ninh Kiều, Cần Thơ",,,,,,,,
1811,ChIJW68jcK2JoDERrAoaGzkbS3o,Cafe Chín Mười Hai,Quán cà phê,,"2QPC+H5Q Cafe Chín Mười Hai, Nguyễn Văn Trỗi, Xuân Khánh, Ninh Kiều, Cần Thơ",,,,,,,,
1823,ChIJR1oCNmmJoDERS2BAVccG6Ac,Cà Phê Sinh tố Hoa Hồng 2,Quán cà phê,,"2QM7+JRV Cà Phê Sinh tố Hoa Hồng 2, Hẻm 9, An Bình, Ninh Kiều, Cần Thơ",,,,,,,,
1824,ChIJsUrwlxmIoDERM9VxlWNsCm8,Loi Cu Coffee Shop,Quán cà phê,0292 3732 654,"Loi Cu Coffee Shop, 93 Nguyễn Cư Trinh, An Phú, Ninh Kiều, Cần Thơ",,,,,,,,
1826,ChIJbdUVuCSIoDERTVcY7p-0xNU,Quán Cà Phê Sen,Quán cà phê,0292 3782 356,"Quán Cà Phê Sen, 146 Đ. Trần Văn Hoài, Xuân Khánh, Ninh Kiều, Cần Thơ 94155",,,,,,,,
1827,ChIJl5yMPCKIoDERzDSQs9-ceBc,Quán Cà Phê T Và T,Quán cà phê,,"Quán Cà Phê T Và T, 142 Đ. Mậu Thân, An Phú, Ninh Kiều, Cần Thơ",,,,,,,,
1829,ChIJMyoxuSSIoDERpFuvbK5XMII,Quán Cà Phê Trâm,Quán cà phê,0292 6654 524,"Quán Cà Phê Trâm, 146T, Đường Trần Văn Hoài, Quận Ninh Kiều, Tp Cần Thơ, Xuân Khánh, Ninh Kiều, Cần Thơ",,,,,,,,
1832,ChIJ77ac6X5joDERGSlFHhAzdaY,Cà phê Tơ Hồng,Quán cà phê,,"Cà phê Tơ Hồng, 18 Đ. Trương Định, Tân An, Ninh Kiều, Cần Thơ",,,,,,,,
1833,ChIJ79HLNSWJoDERc4rqKQDQUq8,Cà Phê Sạch Black Gold - Bình Râu,Quán cà phê,,"Cà Phê Sạch Black Gold - Bình Râu, 223 Huỳnh Cương, An Cư, Ninh Kiều, Cần Thơ",,,,,,,,
1834,ChIJnVRo06FioDERE-0ix_kOD2s,Coffee 68,Quán cà phê,,"Coffee 68, 68 Nguyễn Thái Học, Tân An, Ninh Kiều, Cần Thơ",,,,,,,,
1837,ChIJhWhYDuuJoDERqMa8zp_QvXc,Cafe Ruby,Quán cà phê,,"Cafe Ruby, 119 Huỳnh Cương, An Cư, Ninh Kiều, Cần Thơ",,,,,,,,
1843,ChIJowKdox-IoDERSqoRSYjyl-w,Quán Cafe Như Quỳnh,Quán cà phê,0292 3811 975,"Quán Cafe Như Quỳnh, 44 Đ. Đề Thám, Tân An, Ninh Kiều, Cần Thơ",,,,,,,,
1844,ChIJYVy18qBioDERqP17F4hlHA0,Quán Cafe Ngọc,Quán cà phê,0292 3826 831,"Quán Cafe Ngọc, 91 Đ. Ngô Quyền, Tân An, Ninh Kiều, Cần Thơ",,,,,,,,
1845,ChIJA2vwEceHoDER-gnvWX7V4oc,Cà Phê 1976,Quán cà phê,0907 221 976,"Cà Phê 1976, 36b Đ. Nguyễn Thông, An Thới, Bình Thủy, Cần Thơ",,,,,,,,
1846,ChIJP8nfSd-HoDERInFufG3HZWA,Coffee 1968,Quán cà phê,0945 309 178,"Coffee 1968, 55B Đ. Cách Mạng Tháng 8, An Thới, Bình Thủy, Cần Thơ",,,,,,,,
1847,ChIJWVZWyGOHoDERZx_rVR9SuAU,Quán Cà Phê Ngọc Ngân,Quán cà phê,,"3Q55+P8V Quán Cà Phê Ngọc Ngân, An Thới, Bình Thủy, Cần Thơ",,,,,,,,
1848,ChIJW-H68H2JoDERADHD4leiZ68,Cà Phê 279,Quán cà phê,0799 624 683,"Cà Phê 279, 2/79 Đường Yết Kiêu, An Nghiệp, Ninh Kiều, Cần Thơ",,,,,,,,
1849,ChIJ7VVayGyJoDERfwFQKYzkUnE,Cafe Kim,Quán cà phê,0916 969 627,"Cafe Kim, 99 đường 30, Phường An Khánh, Ninh Kiều, Cần Thơ",,,,,,,,
1850,ChIJuQFkOCiJoDERfqnfGuhPNMk,Cà Phê 96,Quán cà phê,,"Cà Phê 96, 96/4 Đ. Nguyễn Thần Hiến, An Cư, Ninh Kiều, Cần Thơ",,,,,,,,
1851,ChIJXdjleCqJoDERCOnqCWIv7-g,Cà Phê 153,Quán cà phê,0939 706 443,"Cà Phê 153, 153 Tầm Vu, Hưng Lợi, Ninh Kiều, Cần Thơ",,,,,,,,
1852,ChIJ337JTxWJoDERs-InxOMYK24,Quán cà phê,Quán cà phê,,"Quán cà phê, 43 Đường số 14, Phường An Khánh, Ninh Kiều, Cần Thơ",,,,,,,,
1853,ChIJtWRYhziJoDERN_9YyZuIlw0,Cà phê 153,Quán cà phê,,"Cà phê 153, 153 Đ. Nguyễn Tri Phương, Phường An Khánh, Ninh Kiều, Cần Thơ",,,,,,,,
1854,ChIJe6JTwoqJoDERXmK6j54rrqs,Phi Coffee,Quán cà phê,,"2QM6+3XX Phi Coffee, Đ. Trần Nam Phú, Xuân Khánh, Ninh Kiều, Cần Thơ",,,,,,,,
1855,ChIJffIGfwmJoDER02khvK5GT9A,Cafe phố,Quán cà phê,,"Cafe phố, 57b Đường Trần Hoàng Na, An Bình, Ninh Kiều, Cần Thơ",,,,,,,,
1856,ChIJVzxD88qHoDER_H_u6vS4sNs,Quán Cà Phê Giải khát Mỹ Hoa,Quán cà phê,0939 362 086,"3Q78+37W Quán Cà Phê Giải khát Mỹ Hoa, Đặng Thị Nhường, Bùi Hữu Nghĩa, Ninh Kiều, Cần Thơ",,,,,,,,
1857,ChIJ-wiFk-aHoDER69U1Ik9BhGA,Quán Cà Phê Rosy,Quán cà phê,0292 6251 797,"Quán Cà Phê Rosy, 340 Đ. Cách Mạng Tháng 8, Bùi Hữu Nghĩa, Bình Thủy, Cần Thơ",,,,,,,,
1858,ChIJLxq6keaHoDERbyoxLgTeJgI,Quán Cà Phê Quang Tâm,Quán cà phê,0367 233 182,"Quán Cà Phê Quang Tâm, 410A, Cách Mạng Tháng Tám, Quận Bình Thủy, Bùi Hữu Nghĩa, Bình Thủy, Cần Thơ",,,,,,,,
1859,ChIJT9USEl-JoDERbDnhFM-r0xY,Cafe the blue,Quán cà phê,,"Cafe the blue, 76b Đ. 3/2, Xuân Khánh, Ninh Kiều, Cần Thơ",,,,,,,,
1860,ChIJXwj5ph-IoDERUezka_QgTVU,Quán Cafe 38,Quán cà phê,0292 3831 342,"Quán Cafe 38, 38 Đ. Lý Tự Trọng, An Cư, Ninh Kiều, Cần Thơ",,,,,,,,
1861,ChIJm36rWSOIoDERr17wTUQWdeE,Quán Cà Phê 116,Quán cà phê,0292 3832 310,"Quán Cà Phê 116, 116, Đường 3/2, Quận Ninh Kiều, Tp Cần Thơ, Xuân Khánh, Ninh Kiều, Cần Thơ",,,,,,,,
1862,ChIJX4tcNrWJoDERVfBCaJD72d8,Quán Cà Phê Wifi Thanh,Quán cà phê,0938 516 055,"Quán Cà Phê Wifi Thanh, 310A, Quốc Lộ 1A, Quận Cái Răng, Hưng Lợi, Ninh Kiều, Cần Thơ",,,,,,,,
1863,ChIJ6z6S-DqIoDER_PzQwAji6A4,Cà Phê 49,Quán cà phê,,"Cà Phê 49, 49 Đ. 3 Tháng 2, Hưng Lợi, Ninh Kiều, Cần Thơ",,,,,,,,
1864,ChIJWU3blVaJoDERjW-4D7kM9TQ,Coffee Cần Thơ 1975,Quán cà phê,0376 424 113,"Coffee Cần Thơ 1975, 229 Đ. 3 Tháng 2, Hưng Lợi, Ninh Kiều, Cần Thơ",,,,,,,,
1865,ChIJsY35ZyOIoDER9LNqCIU1YAs,Cafe Ô Chi,Quán cà phê internet,0898 012 017,"Cafe Ô Chi, 40/2 Đường 3/2, Xuân Khánh, Ninh Kiều, Cần Thơ",,,,,,,,
1866,ChIJK0CTqSEvdTERNRKYvftQNU0,CÀ PHÊ NGON,Quán cà phê,0911 302 838,"CÀ PHÊ NGON, 584 Nguyễn Đình Chiểu, Phường 4, Quận 3, Thành phố Hồ Chí Minh",,,,,,,,
1867,ChIJ2aWjD-OHoDER5nD2dWEosFA,Nhi Tram Coffee Shop,Quán cà phê,0292 3881 896,"Nhi Tram Coffee Shop, Bùi Hữu Nghĩa, Bình Thủy, Cần Thơ",,,,,,,,
1868,ChIJgVvy160ndTERCUxQZxiIj28,Quán Cafe Tài,Nhà hàng,1229 713490,"Quán Cafe Tài, 33 Đ. Số 3, Trường Thọ, Thủ Đức, Thành phố Hồ Chí Minh",,,,,,,,
1869,ChIJZThBJP-HoDERUB5RIq3vH4A,Cà Phê Ăn Sáng Quỳnh Ku,Quán cà phê,,"3Q5H+HRC Cà Phê Ăn Sáng Quỳnh Ku, Phạm Công Trứ, Cái Khế, Ninh Kiều, Cần Thơ",,,,,,,,
1874,ChIJ6Y05ODuHoDERxnuf8SJ87us,Cà phê 98,Quán cà phê,,"3Q56+6J2 Cà phê 98, An Thới, Bình Thủy, Cần Thơ",,,,,,,,
1875,ChIJR_HDtalioDERkNtfpZnEJQc,Minh Nguyen Coffee Shop,Quán cà phê,0292 2477 777,"Minh Nguyen Coffee Shop, 37-39 Lý Hồng Thanh, Cái Khế, Ninh Kiều, Cần Thơ",,,,,,,,
1886,ChIJq6qqBw-IoDERrU04QLzdFKY,Quán Cà Phê 229,Quán cà phê,0292 3894 758,"Quán Cà Phê 229, 229, Nguyễn Văn Cừ, Quận Ninh Kiều, Tp Cần Thơ, An Hoà, Ninh Kiều, Cần Thơ",,,,,,,,
1891,ChIJkwolRS6HoDERbKN-biTChos,Quán Bảo Nguyên Coffee,Quán cà phê,,"Quán Bảo Nguyên Coffee, 54 Đ. Nguyễn Văn Cừ, Cái Khế, Ninh Kiều, Cần Thơ",,,,,,,,
1892,ChIJfU3VR5VjoDERoDqmlFp3DqU,Quán cà phê.Điểm tâm Sáng(Hủ tiếu Xương🦴🦴.Hủ tiếu Hải sản 🦐🦐🦑🦑🐙🐙),Quán cà phê,,"Quán cà phê.Điểm tâm Sáng(Hủ tiếu Xương🦴🦴.Hủ tiếu Hải sản 🦐🦐🦑🦑🐙🐙), 1A Trần Quang Khải, Cái Khế, Ninh Kiều, Cần Thơ",,,,,,,,
1905,ChIJZdV3Bv-HoDER91LazV-r9yo,Cà Phê Ngân Thành,Quán cà phê,,"3Q4H+XWC Cà Phê Ngân Thành, Đ. Nguyễn Văn Cừ, Cái Khế, Ninh Kiều, Cần Thơ",,,,,,,,
1906,ChIJE2ISlgaIoDERFvQ9f92w9Kk,Quán Cà Phê Giải Khát Bùi Thị Liễu,Quán cà phê,0838 846 582,"Quán Cà Phê Giải Khát Bùi Thị Liễu, 114 Đ. Cách Mạng Tháng 8, Cái Khế, Ninh Kiều, Cần Thơ",,,,,,,,
1930,ChIJg8sYGASIoDERPulHdW3IKaU,Quán Cà Phê Thu Sương,Quán cà phê,0292 6268 379,"Quán Cà Phê Thu Sương, 24/5B, Trần Việt Châu, Quận Ninh Kiều, TP Cần Thơ",,,,,,,,
1932,ChIJgUwuoAOIoDERttpm9y-aroI,Quán Cà Phê Hồng Phượng,Quán cà phê,0292 2461 613,"Quán Cà Phê Hồng Phượng, 25, Đường Cách Mạng Tháng 8, Quận Ninh Kiều, TP.Cần Thơ",,,,,,,,
1938,ChIJE_NILqJioDERbcsASsfrKs4,Quán Cà Phê - Sinh Tố,Quán cà phê,0292 3821 852,"Quán Cà Phê - Sinh Tố, Tp, 18 Đường Hai Bà Trưng, Tân An, Ninh Kiều, Cần Thơ",,,,,,,,
1939,ChIJqXf5LoRjoDERTKEkUfhZvt4,Quán Cà Phê Ga Cần Thơ,Quán cà phê,,"Quán Cà Phê Ga Cần Thơ, 10 Đ. Trần Đại Nghĩa, Cái Khế, Ninh Kiều, Cần Thơ",,,,,,,,
1940,ChIJS7yF4t1joDER7BjfX7_mCTA,Cà phê bích trâm,Quán cà phê,,"Cà phê bích trâm, 52 Đ. Lương Định Của, Cái Khế, Ninh Kiều, Cần Thơ",,,,,,,,
1947,ChIJFc3SE6BioDERpr-ZnoRcMAk,Quán Cà Phê Giải Khát 81,Quán cà phê,0292 3813 692,"Quán Cà Phê Giải Khát 81, 81 Đ. Đề Thám, An Cư, Ninh Kiều, Cần Thơ",,,,,,,,
1954,ChIJjTVPL6VioDERr5OZQKTUKM4,Cà Phê Chú Long,Quán cà phê,,"2QRV+67R Cà Phê Chú Long, Sông Hậu, Ninh Kiều, Cần Thơ",,,,,,,,
1955,ChIJ_06fNJ9ioDERUqvSV6A3kV4,Quán Cà Phê Bến Tàu,Quán cà phê,0292 3821 402,"Quán Cà Phê Bến Tàu, 1 Đường Hai Bà Trưng, Tân An, Ninh Kiều, Cần Thơ",,,,,,,,
1966,ChIJfXtjl6ljoDER1cV5EeY4sMo,Quán Cafe 19,Quán cà phê,,"2QWR+M6V Quán Cafe 19, Sông Hậu, Cái Khế, Ninh Kiều, Cần Thơ",,,,,,,,
1974,ChIJgS0SlqBioDERP5leZOi4alA,Quán Cà Phê Lâm,Quán cà phê,0292 3823 659,"Quán Cà Phê Lâm, 22/23/110 Hẻm 22 Đ. Mạc Đĩnh Chi, Tân An, Ninh Kiều, Cần Thơ",,,,,,,,
1989,ChIJ8aRt_YNjoDERTJZeoTIFTC0,Cà phê Hội Ngộ,Quán cà phê,,"Cà phê Hội Ngộ, Đ. Hồ Tùng Mậu/51 A1, Cái Khế, Ninh Kiều, Cần Thơ",,,,,,,,
2013,ChIJsdVVrHljoDERsZv1AS77py4,Cà phê Hương Quê,Quán cà phê,,"Cà phê Hương Quê, 118/15B Trần Văn Khéo, Cái Khế, Ninh Kiều, Cần Thơ",,,,,,,,
2029,ChIJVYzqdLZjoDERocpwkXvJJMU,Cà phê Tuyết Nhi,Quán cà phê,,"Cà phê Tuyết Nhi, 89 Phạm Ngọc Thạch, Cái Khế, Ninh Kiều, Cần Thơ",,,,,,,,
2038,ChIJw40MbTSJoDERB_yS78mBKBQ,Cà Phê Thanh Giang,Quán cà phê,0905 520 925,"Cà Phê Thanh Giang, 4/6/64, 4 Đ. Bùi Thị Xuân, An Hội, Ninh Kiều, Cần Thơ",,,,,,,,
2039,ChIJQ6CwxIyJoDER0W8P5DtJmgQ,Cà Phê Vợt hẻm 67,Quán cà phê,,"Cà Phê Vợt hẻm 67, 67 Đ. Phan Đăng Lưu, Thới Bình, Ninh Kiều, Cần Thơ",,,,,,,,
2040,ChIJa8uw_eCJoDEROJJknneetps,Cà Phê Ngọc Giàu,Quán cà phê,,"Cà Phê Ngọc Giàu, 94 Hùng Vương, An Cư, Ninh Kiều, Cần Thơ",,,,,,,,
2045,ChIJMbci7j-JoDER19E7pJ761QI,Cà Phê Sạch Black Gold - Ngọc Trâm,Quán cà phê,,"Cà Phê Sạch Black Gold - Ngọc Trâm, 155duong Hoàng Văn Thụ, An Cư, Ninh Kiều, Cần Thơ",,,,,,,,
2055,ChIJU7XiLAOIoDERB8JnrSoqJ5c,Cà Phê - Bida Hoàn Vũ,Quán cà phê,0292 3845 858,"Cà Phê - Bida Hoàn Vũ, 58 Hùng Vương, An Hội, Ninh Kiều, Cần Thơ 90000",,,,,,,,
2057,ChIJoZdADQOIoDER16Ns37KdyrA,Cà Phê Minh Vy,Quán cà phê,0292 3766 292,"Cà Phê Minh Vy, 35 Đ. Phạm Ngũ Lão, Thới Bình, Ninh Kiều, Cần Thơ",,,,,,,,
2059,ChIJsS7MBhyIoDERKa6-jKENpz8,Quán Cà Phê Anh Thư,Quán cà phê,7103833056,"Quán Cà Phê Anh Thư, 68 Đ. Trần Hưng Đạo, An Cư, Ninh Kiều, Cần Thơ",,,,,,,,
2062,ChIJq6qqBw-IoDERl5EtDANGrrw,Quán Cà Phê 187,Quán cà phê,0292 3787 823,"Quán Cà Phê 187, 187, 30/04, Quận Ninh Kiều, TP. Cần Thơ, Đ. Nguyễn Văn Cừ, An Hoà, Ninh Kiều, Cần Thơ",,,,,,,,
2065,ChIJjYLCnp5ioDERaRD6-_IJ1tE,Cà Phê 166,Quán cà phê,,"Cà Phê 166, 166 Đường Hai Bà Trưng, Tân An, Ninh Kiều, Cần Thơ",,,,,,,,
2066,ChIJEaqt1WuJoDERc9AcimoZA5I,Quán Cafe 237,Quán cà phê,,"Quán Cafe 237, 28 Nguyễn Văn Cừ Nối Dài, An Bình, Ninh Kiều, Cần Thơ",,,,,,,,
2068,ChIJX_1NkAiJoDERFowOdnOG0JA,Cafe ninh kiều,Quán cà phê,,"Cafe ninh kiều, 516 Đ. 30 Tháng 4, Hưng Lợi, Ninh Kiều, Cần Thơ",,,,,,,,
2069,ChIJ467rYLmJoDERS5JYuLMdRnY,Café-Wifi Phượng,Quán cà phê,,"Café-Wifi Phượng, 189 Trần Hưng Đạo nối dài, Lê Bình, Cái Răng, Cần Thơ",,,,,,,,
2072,ChIJ34DOHkGJoDER9axpfcQMMvg,Quán Coffee Chill,Quán cà phê,0827 734 511,"Quán Coffee Chill, 255 Đ. Nguyễn Đệ, An Hoà, Ninh Kiều, Cần Thơ",,,,,,,,
2073,ChIJ6zJHdKGJoDERhZ69fEg2cek,Cafe trung nguyên (quán bà ba),Quán cà phê,,"Cafe trung nguyên (quán bà ba), 16 Đ. Võ Trường Toản, An Hoà, Ninh Kiều, Cần Thơ",,,,,,,,
2074,ChIJq6qqBw-IoDERgo29QxdijuU,Quán Cà Phê Wifi Góc Phố,Quán cà phê,0939 557 169,"Quán Cà Phê Wifi Góc Phố, 313, Nguyễn Văn Cừ, Quận Ninh Kiều, Tp Cần Thơ, An Hoà, Ninh Kiều, Cần Thơ",,,,,,,,
2075,ChIJq6qqBw-IoDER3u9NnMQd814,Quán Cà Phê Kim Phượng,Quán cà phê,0292 3895 835,"Quán Cà Phê Kim Phượng, 77 A5 D2, Nguyễn Văn Cừ, Quận Ninh Kiều, Tp Cần Thơ, An Hoà, Ninh Kiều, Cần Thơ",,,,,,,,
2086,ChIJLxdxRVCJoDERtNUb6CNkMsE,1997 Coffee Take away,Quán cà phê,0388 599 847,"1997 Coffee Take away, 132/22 Đ. 3 Tháng 2, Xuân Khánh, Ninh Kiều, Cần Thơ 90000",,,,,,,,
2088,ChIJ_b4jGlGJoDERuQECSi9s2g8,Coffee Trang Min,Quán cà phê,,"Coffee Trang Min, 57 Đ. Nguyễn Đệ, An Hoà, Ninh Kiều, Cần Thơ 92000",,,,,,,,
2089,ChIJq6qqBw-IoDERVwFlogY5vKg,Quán Cà Phê Anh Thư,Quán cà phê,0916 269 552,"Quán Cà Phê Anh Thư, 85A C2 K2, Nguyễn Văn Cừ, Quận Ninh Kiều, Tp Cần Thơ, An Hoà, Ninh Kiều, Cần Thơ",,,,,,,,
2090,ChIJq6qqBw-IoDERw1EHhcBqHew,Quán Cà Phê Vân Linh,Quán cà phê,0292 3894 635,"Quán Cà Phê Vân Linh, 271, Nguyễn Văn Cừ, Quận Ninh Kiều, Tp Cần Thơ, An Hoà, Ninh Kiều, Cần Thơ",,,,,,,,
2091,ChIJq6qqBw-IoDERlTexTOr42jk,Quán Cà Phê Phúc Nguyên,Quán cà phê,0292 6291 102,"Quán Cà Phê Phúc Nguyên, 297 D7 Đ. Nguyễn Văn Cừ, An Hoà, Ninh Kiều, Cần Thơ",,,,,,,,
2092,ChIJq6qqBw-IoDERCaoOYXP76IA,Quán Cà Phê Phương Trang,Quán cà phê,0939 111 507,"Quán Cà Phê Phương Trang, 389, Nguyễn Văn Cừ, Quận Ninh Kiều, Tp Cần Thơ, An Hoà, Ninh Kiều, Cần Thơ",,,,,,,,
2093,ChIJq6qqBw-IoDERXBYKQwFvZgQ,Quán Cà Phê Anh Minh,Quán cà phê,0909 165 887,"Quán Cà Phê Anh Minh, 10 Đ. Nguyễn Văn Cừ, An Hoà, Ninh Kiều, Cần Thơ",,,,,,,,
2094,ChIJq6qqBw-IoDERQnkkRGB7jB0,Quán Cà Phê Mây Trắng,Quán cà phê,0988 232 459,"Quán Cà Phê Mây Trắng, 161A Đ. Nguyễn Văn Cừ, An Hoà, Ninh Kiều, Cần Thơ",,,,,,,,
2095,ChIJq6qqBw-IoDER_RSe2u8XB1A,Quán Cà Phê Trinh,Quán cà phê,0292 6235 448,"Quán Cà Phê Trinh, 631, Đường Nguyễn Văn Cừ, Quận Ninh Kiều, Tp Cần Thơ, An Hoà, Ninh Kiều, Cần Thơ",,,,,,,,
2097,ChIJq6qqBw-IoDERDcmagz6OO6I,Quán Cà Phê Cây Bàng,Quán cà phê,0292 3890 735,"Quán Cà Phê Cây Bàng, 141/7, Nguyễn Văn Cừ, Quận Ninh Kiều, Tp Cần Thơ, An Hoà, Ninh Kiều, Cần Thơ",,,,,,,,
2098,ChIJq6qqBw-IoDERRvUMPflddmU,Quán Cà Phê Green,Quán cà phê,0903 987 656,"Quán Cà Phê Green, 179, Đường Nguyễn Văn Cừ, Quận Ninh Kiều, Tp Cần Thơ, An Hoà, Ninh Kiều, Cần Thơ",,,,,,,,
2099,ChIJq6qqBw-IoDER4-MDQ42f7E4,Tiệm Cà Phê Bida Ngọc,Quán cà phê,0292 2222 633,"Tiệm Cà Phê Bida Ngọc, 34 Đ. Nguyễn Văn Cừ, An Hoà, Ninh Kiều, Cần Thơ",,,,,,,,
2100,ChIJq6qqBw-IoDERQVVAq0B3RpY,Quán Cà Phê Thu Nga,Quán cà phê,0292 6546 784,"Quán Cà Phê Thu Nga, 388/14, Nguyễn Văn Cừ, Quận Ninh Kiều, Tp Cần Thơ, An Hoà, Ninh Kiều, Cần Thơ",,,,,,,,
2101,ChIJq6qqBw-IoDER13mc_R3Qhr8,Quán Cà Phê Bằng Lăng,Quán cà phê,0906 699 624,"Quán Cà Phê Bằng Lăng, 279, Nguyễn Văn Cừ, Quận Ninh Kiều, Tp Cần Thơ, An Hoà, Ninh Kiều, Cần Thơ",,,,,,,,
2102,ChIJq6qqBw-IoDER6-igIXag3ZM,Cửa Hàng Trà Cà Phê,Quán cà phê,0292 3835 668,"Cửa Hàng Trà Cà Phê, 291E Đ. Nguyễn Văn Cừ, An Hoà, Ninh Kiều, Cần Thơ",,,,,,,,
2103,ChIJq6qqBw-IoDERiqVN3MHHvsc,Quán Cà Phê Cao Nguyên,Quán cà phê,0292 3893 924,"Quán Cà Phê Cao Nguyên, 268, Đường Nguyễn Văn Cừ, Quận Ninh Kiều, Tp Cần Thơ, An Hoà, Ninh Kiều, Cần Thơ",,,,,,,,
2104,ChIJq6qqBw-IoDERqdMT7rldKk4,Tiệm Cà Phê Sinh Tố Thảo Trang,Quán cà phê,0903 111 991,"Tiệm Cà Phê Sinh Tố Thảo Trang, 132D Đ. Nguyễn Văn Cừ, An Hoà, Ninh Kiều, Cần Thơ",,,,,,,,
2105,ChIJq6qqBw-IoDER7Eb7Fpcb1f8,Quán Cà Phê Tâm 2,Quán cà phê,0292 3892 658,"Quán Cà Phê Tâm 2, 341 Đ. Nguyễn Văn Cừ, An Hoà, Ninh Kiều, Cần Thơ",,,,,,,,
2107,ChIJ7zPGSg6IoDERGasbXoy3px0,Cà Phê Tâm 2,Quán cà phê,0292 3893 678,"Cà Phê Tâm 2, 333 Đ. Nguyễn Văn Cừ, An Hoà, Ninh Kiều, Cần Thơ",,,,,,,,
2109,ChIJ8cw_qhGIoDERBZ8BXgmX7Yg,Quán Cà Phê Hồng Nhi,Quán cà phê,0928 998 768,"Quán Cà Phê Hồng Nhi, 84 Đ. Mậu Thân, An Hoà, Ninh Kiều, Cần Thơ 900000",,,,,,,,
2115,ChIJfYMORm2IoDERr2Rd4ZVuf8I,Cà Phê Ven Sông,Quán cà phê,,"Cà Phê Ven Sông, 3 Đường số 6, Phường An Khánh, Ninh Kiều, Cần Thơ",,,,,,,,
2116,ChIJRegHsC6JoDERcTvG3E4I8fQ,Cà phê An Vy,Quán cà phê,,"Cà phê An Vy, 10 Đ. Tô Hiến Thành, Phường An Khánh, Ninh Kiều, Cần Thơ",,,,,,,,
2117,ChIJ-3CARX-JoDERJgljy0M1GZc,Cà phê Nhật Quỳnh,Quán cà phê,,"Cà phê Nhật Quỳnh, 12 Đường Số 20, Phường An Khánh, Ninh Kiều, Cần Thơ",,,,,,,,
2121,ChIJmZeh9g2JoDERKm5txSLEV7s,COFFEE 26,Quán cà phê,0789 522 626,"COFFEE 26, 26 Đ. Nguyễn Hiền, Khu dân cư 91B, Ninh Kiều, Cần Thơ",,,,,,,,
2123,ChIJIbFRxB2JoDERQDUqurikVrc,Rom' Coffee,Quán cà phê,,"Rom' Coffee, 127 Đường Trần Văn Long, Phường An Khánh, Ninh Kiều, Cần Thơ 900000",,,,,,,,
2127,ChIJA_d3tEiJoDERLBBlA5moGNE,Cà phê 39,Quán cà phê,,"Cà phê 39, 397 Nguyễn Văn Cừ Nối Dài, An Bình, Ninh Kiều, Cần Thơ",,,,,,,,
2128,ChIJ08eX9CaHoDERs7abBQyG-E0,Cafe T80,Quán cà phê,,"Cafe T80, 553 Trần Quang Diệu, An Thới, Bình Thủy, Cần Thơ",,,,,,,,
2131,ChIJOT7Jr9WJoDER1K_bl-hI3zY,Cà phê Gum,Quán cà phê,,"2QV6+C42 Cà phê Gum, Phường An Khánh, Ninh Kiều, Cần Thơ",,,,,,,,
2132,ChIJ_fjoMGyJoDERL3SbwVsfx5U,Quán cafe bảo pro,Quán cà phê,,"Quán cafe bảo pro, 174 Đường Trần Văn Long, Phường An Khánh, Ninh Kiều, Cần Thơ",,,,,,,,
2134,ChIJNaYZXICJoDERxu11dG13Ab8,Cà phê Thanh Tuyền,Quán cà phê,,"Cà phê Thanh Tuyền, 61 Đường số 6, KV2, Ninh Kiều, Cần Thơ",,,,,,,,
2136,ChIJmUvqVmyIoDERIHzanzB9NUY,Cà Phê Phương Quyên,Quán cà phê,,"2QR4+J5M Cà Phê Phương Quyên, Đ. Tô Hiến Thành, Phường An Khánh, Ninh Kiều, Cần Thơ",,,,,,,,
2137,ChIJbZlVMxKIoDERHDCVDTGATKI,Cà Phê Hoàng Nam,Quán cà phê,0908 481 590,"Cà Phê Hoàng Nam, 134 Đ. Nguyễn Văn Cừ, Phường An Khánh, Ninh Kiều, Cần Thơ",,,,,,,,
2151,ChIJz82931qJoDERE5S7wkg500k,Quán Cafe Nhà Chị Hường,Quán cà phê,,"Quán Cafe Nhà Chị Hường, 132x12 Hẻm Liên Tổ 1 - 2, Phường An Khánh, Ninh Kiều, Cần Thơ",,,,,,,,
2152,ChIJlcV-pTKJoDERIhmmS3KMCD4,Cà phê cây bàng,Quán cà phê,,"2QQ5+6WW Cà phê cây bàng, Nguyễn Văn Cừ Nối Dài, Phường An Khánh, Ninh Kiều, Cần Thơ",,,,,,,,
2155,ChIJSd8RUOGJoDERCtqP8bw3J1I,Cà phê Nước ép - Sinh tố Minh Huy 165,Quán cà phê,,"Cà phê Nước ép - Sinh tố Minh Huy 165, 165 Đ. Nguyễn Văn Cừ, Phường An Khánh, Ninh Kiều, Cần Thơ",,,,,,,,
2158,ChIJF23Wv9qJoDERKlqsMRFANvM,Quán cà phê Đăng,Quán cà phê,,"2QH6+22F Quán cà phê Đăng, Đ. Số 2, Hưng Lợi, Ninh Kiều, Cần Thơ",,,,,,,,
2160,ChIJ-5O7NeSJoDERM4v-ezvyAMw,"CŨ MÈM - Ở đây có bán cà phê, trà , sữa hạt và bánh ăn sáng",Quán cà phê,0977 636 201,"CŨ MÈM - Ở đây có bán cà phê, trà , sữa hạt và bánh ăn sáng, 171 Đ. Nguyễn Tri Phương, Phường An Khánh, Ninh Kiều, Cần Thơ",,,,,,,,
2161,ChIJc7Ge-QJjoDERfmiVWsYZ8Mg,42Thảo Cafe,Quán cà phê,0919 392 526,"42Thảo Cafe, 44 Đ. Nguyễn Đức Cảnh, An Hội, Ninh Kiều, Cần Thơ",,,,,,,,
2167,ChIJYcIQcGGJoDERxASBoudj3T0,Quán cà phê đặc sản,Quán cà phê,,"Quán cà phê đặc sản, 136b Đ. Nguyễn Văn Cừ, Phường An Khánh, Ninh Kiều, Cần Thơ",,,,,,,,
2168,ChIJ7ZI9YxOIoDERZuNNrH8nhpo,Cà Phê Minh Thư,Quán cà phê,0936 023 027,"Cà Phê Minh Thư, 136 Đ. Nguyễn Văn Cừ, Phường An Khánh, Ninh Kiều, Cần Thơ",,,,,,,,
2169,ChIJRRkrvRSIoDERIyNQJrn-s5U,Quán Cà Phê Huỳnh Lương,Quán cà phê,0949 444 774,"Quán Cà Phê Huỳnh Lương, 148 Nguyễn Văn Cừ Nối Dài, Phường An Khánh, Ninh Kiều, Cần Thơ 900000",,,,,,,,
2171,ChIJ9UHqUgCJoDERHIqA3KfXg44,Cà phê 388,Quán cà phê,,"2QP5+RHJ Cà phê 388, Hẻm 388 Đ. Nguyễn Văn Cừ, Phường An Khánh, Ninh Kiều, Cần Thơ",,,,,,,,
2172,ChIJoZ54gAqJoDER2_WjCIDLhiw,Cà Phê Sạch Black Gold - Lê Huy cofffe,Quán cà phê,,"Cà Phê Sạch Black Gold - Lê Huy cofffe, 354 QL91B, Phường An Khánh, Ninh Kiều, Cần Thơ",,,,,,,,
2173,ChIJs89zdxaJoDERBhJZuqzqelo,Quán cafe hồng ngọc,Quán cà phê,0389 506 808,"2PMX+G7G Quán cafe hồng ngọc, Đ. Nguyễn Văn Linh, Phường An Khánh, Ninh Kiều, Cần Thơ",,,,,,,,
2174,ChIJRRKxvl-JoDERZCmiyxBoZ30,Cà phê Gold Ocean Coffee,Quán cà phê,0859 888 865,"Cà phê Gold Ocean Coffee, 853 Đ. Nguyễn Văn Cừ, Phường An Khánh, Ninh Kiều, Cần Thơ 90000",,,,,,,,
2175,ChIJXYMf-bSJoDERDX2M-4Kvib0,Cà phê võng Khánh Linh,Quán cà phê,,"Cà phê võng Khánh Linh, 298 Đ. Nguyễn Văn Linh, Phường An Khánh, Ninh Kiều, Cần Thơ",,,,,,,,
2176,ChIJM8xhSkGIoDERowNTvX5Oz28,Quán Cà Phê Hoàng Quyên,Quán cà phê,0292 3894 443,"Quán Cà Phê Hoàng Quyên, 312 Đ. Nguyễn Văn Linh, Phường An Khánh, Ninh Kiều, Cần Thơ",,,,,,,,
2188,ChIJDQQyEmiIoDERsqpn_cweJrY,Quán Cà Phê Tuyết,Quán cà phê,0292 3893 649,"Quán Cà Phê Tuyết, 302A/1, Đường Quốc Lộ 91B, Quận Ninh Kiều, TP.Cần Thơ, Phường An Khánh, Ninh Kiều, Cần Thơ",,,,,,,,
2189,ChIJ1xN2p0KIoDERRPU0KldHj0w,Cà Phê M7,Quán cà phê,0932 886 211,"2PMX+P48 Cà Phê M7, Đ. Nguyễn Văn Linh, Phường An Khánh, Ninh Kiều, Cần Thơ",,,,,,,,
2190,ChIJQ9Zql0KIoDERvo_8gY8kukM,Quán Cà Phê Giọt Đắng,Quán cà phê,0292 2240 193,"Quán Cà Phê Giọt Đắng, 337 QL91B, Phường An Khánh, Ninh Kiều, Cần Thơ",,,,,,,,
2191,ChIJZZBukUKIoDER8WgJ71ZS51k,Cà Phê Anh Thơ,Quán cà phê,0292 6500 828,"Cà Phê Anh Thơ, 337 Đ. Nguyễn Văn Linh, Phường An Khánh, Ninh Kiều, Cần Thơ",,,,,,,,
2192,ChIJgW-GsUOIoDERf2rbq10-XF8,Quán Cà Phê 79,Quán cà phê,0292 3893 698,"Quán Cà Phê 79, 316, Quốc Lộ 91B, Quận Ninh Kiều, Tp Cần Thơ, Phường An Khánh, Ninh Kiều, Cần Thơ",,,,,,,,
2193,ChIJg17jsUOIoDERbnsnO-rIU7I,Quán Cà Phê Nguyễn Huỳnh,Quán cà phê,0292 6445 663,"Quán Cà Phê Nguyễn Huỳnh, 230 KDC Thới Nhựt, Quận Ninh Kiều, Tp Cần Thơ, Phường An Khánh, Ninh Kiều, Cần Thơ",,,,,,,,
2194,ChIJB931bLuJoDERluZ_GxQ3cr8,"Trà sữa,cà phê Hương Lúa",Quán cà phê,,"Trà sữa,cà phê Hương Lúa, 329 Đ. Nguyễn Văn Linh, Phường An Khánh, Ninh Kiều, Cần Thơ",,,,,,,,
2195,ChIJ76WrB2iIoDEReR16nhN2OCg,Quán Cà Phê Kim Quyên,Quán cà phê,0939 060 896,"Quán Cà Phê Kim Quyên, 32 QL91B, Phường An Khánh, Ninh Kiều, Cần Thơ",,,,,,,,
2196,ChIJhTcnJ7uJoDERoVyQfufaqXk,CÀ PHÊ AN NHIÊN ( nuôi on ),Quán cà phê,0901 687 576,"CÀ PHÊ AN NHIÊN ( nuôi on ), 379 Đ. Nguyễn Văn Cừ, An Bình, Ninh Kiều, Cần Thơ 94000",,,,,,,,
2197,ChIJraFbQ0KJoDER9rOcsWRLgiU,Cà Phê Sạch Black Gold - Zone,Quán cà phê,,"Cà Phê Sạch Black Gold - Zone, 210 Nguyễn Văn Cừ Nối Dài, Phường An Khánh, Ninh Kiều, Cần Thơ",,,,,,,,
2198,ChIJJY4TDmqJoDERNyZ7N2U56dM,Cà Phê SK,Quán cà phê,0939 393 609,"Cà Phê SK, 455 Nguyễn Văn Cừ Nối Dài, An Bình, Ninh Kiều, Cần Thơ",,,,,,,,
2202,ChIJSxZoCneJoDERrojQb8yoGyk,Quán Cafe Hoàng Phụng,Quán cà phê,,"XPJW+5W6 Quán Cafe Hoàng Phụng, Thường Thạnh, Cái Răng, Cần Thơ",,,,,,,,
2211,ChIJO_fHPttjoDERnzcPtnRaSn0,Cafee Asin,Quán cà phê,,"2Q6R+VMR Cafee Asin, Phạm Văn Nhờ, KHU DÂN CƯ ĐÔ THỊ MỚI HƯNG PHÚ, Cái Răng, Cần Thơ",,,,,,,,
2212,ChIJc_edqIOJoDERb0dXvKK604M,Coffee ZEN,Quán cà phê,,"Coffee ZEN, 261A, An Bình, Ninh Kiều, Cần Thơ",,,,,,,,
2213,ChIJzw-zM1GIoDER93K5Pjmj4O4,Café Võng,Quán cà phê,,"2PCR+3FG Café Võng, Nguyễn Văn Cừ Nối Dài, An Bình, Ninh Kiều, Cần Thơ",,,,,,,,
2216,ChIJ0_fVjhuJoDERgtMlvUsu-pI,Ca Phe Vong HIEN,Quán cà phê,,"2P8P+25V Ca Phe Vong HIEN, An Bình, Ninh Kiều, Cần Thơ",,,,,,,,
2222,ChIJX5dsDWVjoDERgBFUvDeN3g8,Cà Phê Mi,Quán cà phê,,"Cà Phê Mi, H161 Đ. Bùi Quang Trinh, Phú Thứ, Cái Răng, Cần Thơ",,,,,,,,
2225,ChIJh5RzWu-JoDERLbJwyfAZIrk,Cafe 923,Quán cà phê,,"Cafe 923, 29A1 Đ. 3 Tháng 2, Hưng Lợi, Ninh Kiều, Cần Thơ",,,,,,,,
2237,ChIJ9QYkdRKJoDERmgKMmMm0ecc,Quán Cà Phê Mỹ Thúy,Quán cà phê,0292 3848 909,"Quán Cà Phê Mỹ Thúy, 190 Ấp Mỹ Phước, Huyện Phong Điền, Mỹ Khánh, Phong Điền, Cần Thơ",,,,,,,,
2258,ChIJwU2__a6JoDERl05WdN6HaYE,Quán Cà Phê Như Huỳnh,Quán cà phê,0292 3575 603,"Quán Cà Phê Như Huỳnh, 61/4, Lộ Vòng Cung, Quận Ninh Kiều, An Bình, Ninh Kiều, Cần Thơ",,,,,,,,
2259,ChIJC87x_7GJoDERhRSipU0vSdY,Quán Cà Phê Minh Thư,Quán cà phê,0292 3815 252,"Quán Cà Phê Minh Thư, 183/4, Đường Lộ Vòng Cung, An Bình, Ninh Kiều, Cần Thơ",,,,,,,,
2260,ChIJe4bPAa6JoDERBw12YlpJk24,Quán Cà Phê Giải Khát Phạm Quốc Huy,Quán cà phê,0854 419 422,"Quán Cà Phê Giải Khát Phạm Quốc Huy, 54/2, Đường Lộ Vòng Cung, An Bình, Ninh Kiều, Cần Thơ",,,,,,,,
2272,ChIJwbjrrLOJoDER8EXZ-fKVpeU,Hong Minh Coffee Shop,Quán cà phê,0292 3986 543,"Hong Minh Coffee Shop, 116, Highway 1A, Cai Rang District, Can Tho City, An Bình, Ninh Kiều, Cần Thơ",,,,,,,,
2273,ChIJ57VG7kyIoDERiSkb1H2KSdY,Cà Phê Võng 94,Quán cà phê,,"2Q72+Q82 Cà Phê Võng 94, Đ. Trần Vĩnh Kiết, An Bình, Ninh Kiều, Cần Thơ",,,,,,,,
2276,ChIJ31z4G6SJoDERu9QZni4h69Y,Quán cafe Trịn,Quán cà phê,0904 888 961,"2Q62+89Q Quán cafe Trịn, BV, Hưng Lợi, Ninh Kiều, Cần Thơ",,,,,,,,
2290,ChIJd7cLgbKJoDERFG84hvkyyYY,Cà Phê Hồng Nhi,Quán cà phê,,"2P6W+3R3 Cà Phê Hồng Nhi, An Bình, Ninh Kiều, Cần Thơ",,,,,,,,
2291,ChIJNY1pCbOJoDER-A1MxW5dN1E,Cà Phê Khả Phương,Quán cà phê,,"2Q52+X67 Cà Phê Khả Phương, 98 Đ. 3 Tháng 2, An Bình, Ninh Kiều, Cần Thơ",,,,,,,,
2292,ChIJDVzJC7OJoDER-GKxpgnE0Vg,Cà Phê Dota,Quán cà phê,0292 3512 072,"Cà Phê Dota, 1 Đ. 3 Tháng 2, An Bình, Ninh Kiều, Cần Thơ",,,,,,,,
2293,ChIJyc_MqbOJoDERw5CnmjIzorg,Kiều Trang Cà Phê Hạt Nguyên Chất,Quán cà phê,,"2Q52+V4W Kiều Trang Cà Phê Hạt Nguyên Chất, ĐT923, An Bình, Ninh Kiều, Cần Thơ",,,,,,,,
2294,ChIJhYpHW7OJoDERhTXrixHptJA,Quán Cà Phê Như,Quán cà phê,0292 3846 011,"Quán Cà Phê Như, 105/3, Đường 3/2, Phường An Bình, Quận Ninh Kiều, An Bình, Ninh Kiều, Cần Thơ",,,,,,,,
2295,ChIJdXIbDK6JoDERQlyr-n3gy4g,Quán Cà Phê Giải Khát Ngọc Ngân,Quán cà phê,0854 304 319,"Quán Cà Phê Giải Khát Ngọc Ngân, 163/4, Đường Lộ Vòng Cung, Phường An Bình, Quận Ninh Kiều, An Bình, Ninh Kiều, Cần Thơ",,,,,,,,
2296,ChIJj1mHTUuIoDERRzCyTEWFvRg,Quán Cà Phê Quế Hương,Quán cà phê,0292 3502 214,"Quán Cà Phê Quế Hương, 146/2, Quốc Lộ 1A, Quận Cái Răng, Hưng Lợi, Ninh Kiều, Cần Thơ",,,,,,,,
2297,ChIJ37EIS7KJoDERwtFLCpoYAmY,Cà Phê Thiện Ngân,Quán cà phê,0984 278 729,"Cà Phê Thiện Ngân, 134 Đ. 3 Tháng 2, An Bình, Ninh Kiều, Cần Thơ",,,,,,,,
2298,ChIJyUUVZbOJoDERQvm0h3WEWcE,Quán Cà Phê 110,Quán cà phê,0292 3915 331,"Quán Cà Phê 110, 110/3, Quốc Lộ 1A, P. An Bình, Quận Ninh Kiều, An Bình, Ninh Kiều, Cần Thơ",,,,,,,,
2299,ChIJPS2hJrGJoDERQW9bGEP1XPI,My Huong Coffee Shop,Quán cà phê,0979 518 746,"My Huong Coffee Shop, City, 15/2 Ngô Quyền, Street, Cái Răng, Cần Thơ",,,,,,,,
2300,ChIJq8EUsbSJoDERjT7n4sdef3M,Quán Cà Phê Hoàng,Quán cà phê,0776 174 702,"Quán Cà Phê Hoàng, 166/1B, Quốc Lộ 1A, Quận Cái Răng, Hưng Lợi, Ninh Kiều, Cần Thơ",,,,,,,,
2301,ChIJ3fQ7t7SJoDERQMJYgi7tk7c,Quán Cà Phê Vân Thanh,Quán cà phê,0292 3914 458,"Quán Cà Phê Vân Thanh, 168/1A, Quốc Lộ 1A, P. Lê Bình, Quận Cái Răng, Hưng Lợi, Ninh Kiều, Cần Thơ",,,,,,,,
2303,ChIJDwGtTUuIoDERtS0_vSoM_Rk,Quán Cà Phê Cường Đạt,Quán cà phê,0918 103 879,"Quán Cà Phê Cường Đạt, 183/3, Quốc Lộ 1A, Quận Cái Răng, Hưng Lợi, Ninh Kiều, Cần Thơ",,,,,,,,
2306,ChIJo4rQ0bCJoDERdU7t2FIbd8c,Quán Cà Phê Mỹ Nga,Quán cà phê,0292 3844 283,"Quán Cà Phê Mỹ Nga, 566 Nguyễn Trãi, Lê Bình, Cái Răng, Cần Thơ",,,,,,,,
2309,ChIJk8HzT7WJoDERhcFighE-r8s,Quán Cà Phê Thiên Trang,Quán cà phê,0987 250 339,"Quán Cà Phê Thiên Trang, 59 Đ. 30 Tháng 4, Hưng Lợi, Ninh Kiều, Cần Thơ",,,,,,,,
2310,ChIJE4TR0mOJoDERR48z-Q-_10s,Cà Phê Sạch Black Gold - Ami,Quán cà phê,,"2QC4+W6J Cà Phê Sạch Black Gold - Ami, Đ. Nguyễn Hiền, Khu dân cư 91B, Ninh Kiều, Cần Thơ",,,,,,,,
2311,ChIJ0zTfM1WJoDERfyIET1KxBTg,Cà phê điểm tâm A59,Quán cà phê,0939 017 596,"Cà phê điểm tâm A59, 117 Đ. Nguyễn Hiền, Hưng Lợi, Ninh Kiều, Cần Thơ",,,,,,,,
2312,ChIJ10PEgiOIoDERItd13iCRZEo,Bros Coffee,Quán cà phê,,"Bros Coffee, 6 Hẻm 132 Đ. 3 Tháng 2, Hưng Lợi, Ninh Kiều, Cần Thơ",,,,,,,,
2313,ChIJK4jSTTOJoDERD4TZYDUhEYs,Quán Cafe Dâu Tây,Quán cà phê,,"Quán Cafe Dâu Tây, số 66 Đ. B34, Khu dân cư 91B, Ninh Kiều, Cần Thơ",,,,,,,,
2314,ChIJMV2ATLaJoDERQSgZOWyBIpc,Cà phê thanh thảo,Quán cà phê,,"2QC3+9VX Cà phê thanh thảo, Đ. Trần Hoàng Na, Khu dân cư 91B, Ninh Kiều, Cần Thơ",,,,,,,,
2315,ChIJdb_BEASJoDERM0aCme_TLlE,Cà phê Hạt,Quán cà phê,,"Cà phê Hạt, 179 Đ. Nguyễn Hiền, Hưng Lợi, Ninh Kiều, Cần Thơ",,,,,,,,
2316,ChIJQYMmgGeJoDERxxylQpM5lS4,Quán cà phê Mối,Quán cà phê,,"Quán cà phê Mối, 55 Hẻm 132 Đ. 3 Tháng 2, Hưng Lợi, Ninh Kiều, Cần Thơ",,,,,,,,
2326,ChIJHRus5kiIoDERh9At3drAewg,Tiệm Cà Phê Kim Sơn,Quán cà phê,0292 3893 845,"Tiệm Cà Phê Kim Sơn, 32B24, Khu Dân Cư 91B, Quận Ninh Kiều, Tp Cần Thơ, Hưng Lợi, Ninh Kiều, Cần Thơ",,,,,,,,
2327,ChIJ1c_XtzCJoDERJ4NuFoojE5A,Cafe - Điểm Tâm: PHƯƠNG TÂM,Quán cà phê,,"Cafe - Điểm Tâm: PHƯƠNG TÂM, 48 Trần Hoàng Na, An Bình, Ninh Kiều, Cần Thơ",,,,,,,,
2328,ChIJN8NMd76JoDERh_dAS8RhXYw,Cà Phê Anh Thư,Quán cà phê,,"Cà Phê Anh Thư, 99c Trần Hoàng Na, phường, Ninh Kiều, Cần Thơ",,,,,,,,
2329,ChIJj8FlM0aIoDEROBqFUmQzdq8,Cà Phê - Điểm Tâm Chương,Quán cà phê,,"Cà Phê - Điểm Tâm Chương, 42 Đường B22, Hưng Lợi, Ninh Kiều, Cần Thơ 92000",,,,,,,,
2330,ChIJvZNH20eIoDEReEM6uzEsqqY,Cà Phê Thanh Nhã,Quán cà phê,0907 136 614,"Cà Phê Thanh Nhã, 56 Đ. Nguyễn Hiền, Hưng Lợi, Ninh Kiều, Cần Thơ",,,,,,,,
2331,ChIJnUFB7TSIoDERYW7qcoR856k,Cà Phê - Trà Sữa Zest Town,Quán cà phê,0292 6253 070,"Cà Phê - Trà Sữa Zest Town, 151 Đ. Trần Hoàng Na, Hưng Lợi, Ninh Kiều, Cần Thơ",,,,,,,,
2332,ChIJswUpWDCIoDERcUKjgiBCIkM,Quán Cà Phê Thanh Nhã,Quán cà phê,0354 136 369,"Quán Cà Phê Thanh Nhã, Tp, 268/2D, Đ. Nguyễn Văn Linh, Hưng Lợi, Ninh Kiều, Cần Thơ",,,,,,,,
2334,ChIJTy-5VDOIoDERJsDonNNXnRM,Quán Cà Phê Nhớ,Quán cà phê,0779 975 822,"Quán Cà Phê Nhớ, 65 Đ. Trần Hoàng Na, Hưng Lợi, Ninh Kiều, Cần Thơ",,,,,,,,
2346,ChIJ7QKcDzSIoDERARzf7ZdCmy0,Quán Cà Phê Hoài Thu,Quán cà phê,0907 780 625,"Quán Cà Phê Hoài Thu, 245, Đường 30/04, Quận Ninh Kiều, Tp Cần Thơ, Hưng Lợi, Ninh Kiều, Cần Thơ",,,,,,,,
2347,ChIJcyq3rLKJoDERhglBQTIFGj4,Cà Phê 217,Quán cà phê,,"2QG6+8J7 Cà Phê 217, Hưng Lợi, Ninh Kiều, Cần Thơ",,,,,,,,
2348,ChIJx8pUQfaJoDERdDqwyGum_v8,Quán Thốt Nốt Sữa 8 ÔKÊ,Quán cà phê,0913 788 181,"Quán Thốt Nốt Sữa 8 ÔKÊ, Số 5B5 Đường Bờ Hồ Bún Xáng, Tổ 1, Khu Vực 3, P, Ninh Kiều, Cần Thơ",,,,,,,,
2349,ChIJ84MZqI-JoDERsyVgrUZtVKM,1988 coffee,Quán cà phê,,"2QH7+76G 1988 coffee, Hẻm 51, Xuân Khánh, Ninh Kiều, Cần Thơ",,,,,,,,
2353,ChIJgYdJ9aqJoDER4bU-I1ACn7M,Cà phê Thi Thơ,Quán cà phê,,"Cà phê Thi Thơ, 24b Đ. Nguyễn Văn Linh, Hưng Lợi, Ninh Kiều, Cần Thơ",,,,,,,,
2366,ChIJj22Q656JoDERb6mITBecmDs,Cafe Góc Nhỏ,Quán cà phê,,"2QG8+4HV Cafe Góc Nhỏ, Hưng Lợi, Ninh Kiều, Cần Thơ",,,,,,,,
2367,ChIJzRWTe96JoDERD_wY9bOTkbI,Cafe sinh viên,Quán cà phê,,"Cafe sinh viên, 345, Nguyễn Văn Linh, Phường An Khánh, Hưng Lợi, Ninh Kiều, Cần Thơ",,,,,,,,
2368,ChIJj8O5qTGIoDER45URtQuSdQw,Quán Cà Phê 266,Quán cà phê,0292 3739 576,"Quán Cà Phê 266, 266, Đường 30/4, Quận Ninh Kiều, TP Cần Thơ, Hưng Lợi, Ninh Kiều, Cần Thơ",,,,,,,,
2369,ChIJF5zJASWIoDERkOfi66_OJis,Quán Cà Phê - Sinh Tố Sao Mai,Quán cà phê,0292 3755 625,"Quán Cà Phê - Sinh Tố Sao Mai, C142 Hẻm 15, Đường Trần Văn Hoài, Quận Ninh Kiều, TP Cần Thơ, Xuân Khánh, Ninh Kiều, Cần Thơ",,,,,,,,
2370,ChIJCaGCwoeJoDERHJOa6fwrm4w,Cà phê Ngọc Vy,Quán cà phê,,"Cà phê Ngọc Vy, 68/A1, Đường, Đ. 3 Tháng 2, Hưng Lợi, Ninh Kiều, Cần Thơ",,,,,,,,
2387,ChIJ3ViDVSKIoDEResxXmb7Nq9c,Quán Cà Phê Chinh,Quán cà phê,0292 3831 931,"Quán Cà Phê Chinh, 74, Đường 3/2, Quận Ninh Kiều, Tp Cần Thơ, Xuân Khánh, Ninh Kiều, Cần Thơ",,,,,,,,
2389,ChIJQZK_rSSIoDER91xA8z7dOAc,Kim Phuong Coffee Shop,Quán cà phê,0292 6623 151,"Kim Phuong Coffee Shop, 146G Đ. Trần Văn Hoài, Xuân Khánh, Ninh Kiều, Cần Thơ",,,,,,,,
2390,ChIJ02P37zqIoDERVxP7yuCS3Ag,Quán Cà Phê Sương Mai,Quán cà phê,0292 3780 665,"Quán Cà Phê Sương Mai, 6A, Đường Đ. Trần Ngọc Quế, Xuân Khánh, Ninh Kiều, Cần Thơ",,,,,,,,
2392,ChIJV16BYSGIoDERRPKC9a5dUx0,Quán Cà Phê Kiều Ngân,Quán cà phê,0918 392 339,"Quán Cà Phê Kiều Ngân, 84 Đ. Mậu Thân, Xuân Khánh, Ninh Kiều, Cần Thơ",,,,,,,,
2394,ChIJPYJ0ACWIoDERYHUDfakB_uA,Quán Cà Phê Vân Linh,Quán cà phê,0292 3731 515,"Quán Cà Phê Vân Linh, C150B Hẻm 15, Đường Trần Văn Hoài, Quận Ninh Kiều, TP Cần Thơ, Xuân Khánh, Ninh Kiều, Cần Thơ",,,,,,,,
2395,ChIJM_aV_6BioDER4Nywty-vT1Y,Cà Phê Trà Bốn Mùa,Quán cà phê,,"Cà Phê Trà Bốn Mùa, 54 Đ. Ngô Quyền, Tân An, Ninh Kiều, Cần Thơ",,,,,,,,
2398,ChIJ48lhMh6IoDER0-BmaH9j-Wk,Coffee Hương Giang,Quán cà phê,,"Coffee Hương Giang, 249 Huỳnh Cương, An Cư, Ninh Kiều, Cần Thơ",,,,,,,,
2400,ChIJNen-cZ9ioDERSN-_-U6YNuA,Cà Phê Cô Tám,Quán cà phê,,"2QJP+H7H Cà Phê Cô Tám, Đường Châu Văn Liêm, Tân An, Ninh Kiều, Cần Thơ",,,,,,,,
2402,ChIJc6mRCBFjoDERxf0s3biHQ1k,Cà Phê Vợt Vinaphone,Quán cà phê,,"2QPP+3W3 Cà Phê Vợt Vinaphone, Đ. Trần Quốc Toản, Tân An, Ninh Kiều, Cần Thơ",,,,,,,,
2405,ChIJb5F9Tf6JoDERKLTZbFa0GZg,COFFEE MUỐI ( anh Trình),Quán cà phê,,"COFFEE MUỐI ( anh Trình), 10/72a Đ. Nguyễn Văn Cừ, An Hoà, Ninh Kiều, Cần Thơ",,,,,,,,
2413,ChIJ-WnxKyaJoDERR6rIzeW_WdE,Dehavi Coffee,Quán cà phê,,"2P8P+7FM Dehavi Coffee, Nguyễn Văn Cừ Nối Dài, An Bình, Ninh Kiều, Cần Thơ",,,,,,,,
2414,ChIJ5V0eWDdjoDERrTBDf1nIGzY,Take Away Coffee ( HẠ ),Quán cà phê,0942 819 113,"Take Away Coffee ( HẠ ), 46 Đ. Trương Định, Tân An, Ninh Kiều, Cần Thơ",,,,,,,,
2415,ChIJBf8k86BioDERG2hx89DdiJ8,Cà Phê Minh Thanh,Quán cà phê,0292 3821 147,"Cà Phê Minh Thanh, 91 Đ. Ngô Quyền, Tân An, Ninh Kiều, Cần Thơ",,,,,,,,
2416,ChIJaVP7kKBioDERXg7hXg2zXPQ,Cà Phê Mode,Quán cà phê,0292 3819 141,"Cà Phê Mode, 6 Hẻm 22 Đ. Mạc Đĩnh Chi, Tân An, Ninh Kiều, Cần Thơ",,,,,,,,
2417,ChIJoY61iqBioDERcJ0-WKHYKmY,Nguyen Mai Coffee Shop,Quán cà phê,0292 3500 735,"Nguyen Mai Coffee Shop, City, 2 Đ. Nguyễn Khuyến, Street, Ninh Kiều, Cần Thơ",,,,,,,,
2,,,,,,10.83469,106.66717,18C,Đường Phan Văn Trị,Phường 10,Quận Gò Vấp,Hồ Chí Minh,True
3,,,,,,,,,,,,,True
4,,,,,,20.85666,106.66284,,,Phường Trại Chuối,Quận Hồng Bàng,Hải Phòng,True
5,,,,,,10.77385,106.70563,8,Đường Đồng Khởi,Phường Bến Nghé,Quận 1,Hồ Chí Minh,True
6,,,,,,10.7748,106.70441,91,Đường Đồng Khởi,Phường Bến Nghé,Quận 1,Hồ Chí Minh,True
7,,,,,,20.99774,105.79883,,,,Quận Thanh Xuân,Hà Nội,True
8,,,,,,21.02545,105.84518,68,Phố Quán Sứ,Phường Trần Hưng Đạo,Quận Hoàn Kiếm,Hà Nội,True
9,,,,,,16.07417,108.24354,72,Đường Lê Mạnh Trinh,Phường Phước Mỹ,Quận Sơn Trà,Đà Nẵng,True
10,,,,,,10.82361,106.67612,142,Đường Nguyễn Văn Công,Phường 3,Quận Gò Vấp,Hồ Chí Minh,True
11,,,,,,10.8056,106.73587,42,Đường Thảo Điền,Phường Thảo Điền,Thủ Đức,Hồ Chí Minh,True
12,,,,,,10.03444,105.7854,8,Đường Hòa Bình,Phường An Cư,Quận Ninh Kiều,Cần Thơ,True
14,,,,,,10.04421,105.78571,40,Đường Phạm Ngọc Thạch,Phường Cái Khế,Quận Ninh Kiều,Cần Thơ,True
15,,,,,,10.76202,106.69242,,Hẻm 42 Hồ Hảo Hớn,Phường Cô Giang,Quận 1,Hồ Chí Minh,True
16,,,,,,10.0251,105.7594,35,Đường Nguyễn Văn Linh,Phường Hưng Lợi,Quận Ninh Kiều,Cần Thơ,True
17,,,,,,21.01082,105.83792,31,Phố Kim Hoa,Phường Phương Liên,Quận Đống Đa,Hà Nội,True
18,,,,,,10.0357,105.78695,1,Đường Hòa Bình,Phường Tân An,Quận Ninh Kiều,Cần Thơ,True
19,,,,,,10.79622,106.74032,,Đường Vũ Tông Phan,Phường An Phú,Thủ Đức,Hồ Chí Minh,True
20,,,,,,31.54905,-82.84922,,,,,Coffee,True
21,,,,,,21.01511,105.82314,18B,Ngõ 18 Võ Văn Dũng,Phường Ô Chợ Dừa,Quận Đống Đa,Hà Nội,True
22,,,,,,10.05196,105.78942,9C,Đường Trần Phú,Phường Cái Khế,Quận Ninh Kiều,Cần Thơ,True
24,,,,,,21.0203,105.8548,30A,Phố Trần Hưng Đạo,Phường Phan Chu Trinh,Quận Hoàn Kiếm,Hà Nội,True
26,,,,,,21.02531,105.85524,14,Phố Ngô Quyền,Phường Tràng Tiền,Quận Hoàn Kiếm,Hà Nội,True
27,,,,,,10.00203,105.7433,,Đường Tỉnh 923,Phường An Bình,Quận Ninh Kiều,Cần Thơ,True
29,,,,,,10.02539,105.77261,47,Đường Trần Văn Hoài,Phường Xuân Khánh,Quận Ninh Kiều,Cần Thơ,True
30,,,,,,21.01729,105.84179,75,Phố Trần Nhân Tông,Phường Nguyễn Du,Quận Hai Bà Trưng,Hà Nội,True
31,,,,,,10.03214,105.74612,2,Đường Nguyễn Tri Phương,Phường An Khánh,Quận Ninh Kiều,Cần Thơ,True
32,,,,,,10.04156,105.78366,127,Đường Nguyễn Trãi,Phường Tân An,Quận Ninh Kiều,Cần Thơ,True
33,,,,,,10.79564,106.66785,226/36,Hẻm 226 Lê Văn Sỹ,Phường 1,Quận Tân Bình,Hồ Chí Minh,True
34,,,,,,10.03429,105.76465,,Hẻm 51 Nguyễn Văn Cừ,Phường An Khánh,Quận Ninh Kiều,Cần Thơ,True
35,,,,,,10.03122,105.77527,89,Đường Mậu Thân,Phường Xuân Khánh,Quận Ninh Kiều,Cần Thơ,True
36,,,,,,10.04118,105.76263,,Đường Nguyễn Văn Cừ Nối Dài,Phường An Khánh,Quận Ninh Kiều,Cần Thơ,True
37,,,,,,21.01027,105.83256,,Ngõ 4B Đặng Văn Ngữ,Phường Trung Tự,Quận Đống Đa,Hà Nội,True
38,,,,,,10.01405,105.76224,467,Hẻm 91 Đường 30 Tháng 4,Phường Hưng Lợi,Quận Ninh Kiều,Cần Thơ,True
39,,,,,,21.00115,105.84824,,Khu Tập Thể Bách Khoa,Phường Bách Khoa,Quận Hai Bà Trưng,Hà Nội,True
41,,,,,,10.02221,105.76385,18,Đường Nguyễn Văn Linh,Phường Hưng Lợi,Quận Ninh Kiều,Cần Thơ,True
42,,,,,,21.01516,105.85051,26,Phố Tuệ Tĩnh,Phường Nguyễn Du,Quận Hai Bà Trưng,Hà Nội,True
43,,,,,,10.04089,105.7791,79/45A,Hẻm 79 Hùng Vương,Phường Thới Bình,Quận Ninh Kiều,Cần Thơ,True
44,,,,,,10.04882,105.7569,299,Đường Võ Văn Kiệt,Phường An Thới,Quận Bình Thủy,Cần Thơ,True
45,,,,,,10.02313,105.74604,,Đường Xuân Thủy,Phường An Bình,Quận Ninh Kiều,Cần Thơ,True
46,,,,,,10.04553,105.75332,219A,Đường Số 6,Phường An Khánh,Quận Ninh Kiều,Cần Thơ,True
48,,,,,,19.75796,-71.05233,,,Café,Los Hidalgos,Puerto Plata,True
50,,,,,,10.04475,105.76383,24,Đường Võ Văn Kiệt,Phường An Hòa,Quận Ninh Kiều,Cần Thơ,True
52,,,,,,,,,,,,,True
53,,,,,,,,,,,,,True
54,,,,,,10.03635,105.77329,,Đường Nguyễn Văn Trỗi,Phường An Nghiệp,Quận Ninh Kiều,Cần Thơ,True
55,,,,,,10.02356,105.77066,9/97,Khu Dân Cư Số 9,Phường Xuân Khánh,Quận Ninh Kiều,Cần Thơ,True
57,,,,,,10.04095,105.77694,12,Đường Lê Anh Xuân,Phường Thới Bình,Quận Ninh Kiều,Cần Thơ,True
58,,,,,,10.04384,105.77889,55,Đường Hùng Vương,Phường Thới Bình,Quận Ninh Kiều,Cần Thơ,True
59,,,,,,10.04221,105.78769,,Đường Phạm Ngọc Thạch,Phường Cái Khế,Quận Ninh Kiều,Cần Thơ,True
60,,,,,,10.03715,105.78112,171,Đường Huỳnh Cương,Phường An Cư,Quận Ninh Kiều,Cần Thơ,True
61,,,,,,10.04396,105.76662,359/8K,Hẻm 359 Đường Nguyễn Văn Cừ,Phường An Hòa,Quận Ninh Kiều,Cần Thơ,True
62,,,,,,21.01994,105.84179,14,Phố Đỗ Hành,Phường Nguyễn Du,Quận Hai Bà Trưng,Hà Nội,True
63,,,,,,,,,,,,,True
64,,,,,,,,,,,,,True
65,,,,,,10.75543,106.62712,209,Đường Bà Hom,Phường 13,Quận 6,Hồ Chí Minh,True
67,,,,,,10.04553,105.78596,98,Đường Trần Văn Khéo,Phường Cái Khế,Quận Ninh Kiều,Cần Thơ,True
68,,,,,,10.03518,105.77995,200,Đường Huỳnh Cương,Phường An Cư,Quận Ninh Kiều,Cần Thơ,True
69,,,,,,,,,,,,,True
70,,,,,,10.01738,105.70405,,Cầu Bông Vang,Xã Giai Xuân,Huyện Phong Điền,Cần Thơ,True
71,,,,,,10.0129,105.7603,688,Đường 30 Tháng 4,Phường Hưng Lợi,Quận Ninh Kiều,Cần Thơ,True
72,,,,,,10.04928,105.76475,57,Đường Nguyễn Đệ,Phường An Hòa,Quận Ninh Kiều,Cần Thơ,True
73,,,,,,10.05111,105.77312,25,Nguyễn Văn Cừ,Phường An Hòa,Quận Ninh Kiều,Cần Thơ,True
76,,,,,,10.03336,105.78345,6,Đường Đề Thám,Phường An Cư,Quận Ninh Kiều,Cần Thơ,True
77,,,,,,10.0534,105.75672,137,Đường Đồng Văn Cống,Phường An Thới,Quận Bình Thủy,Cần Thơ,True
78,,,,,,10.03802,105.77094,63A,Đường Mậu Thân,Phường Xuân Khánh,Quận Ninh Kiều,Cần Thơ,True
79,,,,,,10.05165,105.77329,,,,Quận Ninh Kiều,Cần Thơ,True
80,,,,,,10.03336,105.78751,24,Đường Tân Trào,Phường Tân An,Quận Ninh Kiều,Cần Thơ,True
81,,,,,,10.04441,105.78543,30,Đường Phạm Ngọc Thạch,Phường Cái Khế,Quận Ninh Kiều,Cần Thơ,True
83,,,,,,10.04423,105.76609,381,Đường Nguyễn Văn Cừ,Phường An Hòa,Quận Ninh Kiều,Cần Thơ,True
84,,,,,,10.03357,105.78679,12,Đường Phan Đình Phùng,Phường Tân An,Quận Ninh Kiều,Cần Thơ,True
86,,,,,,10.84325,106.71573,,Đường Số 1,Phường Hiệp Bình Phước,Thủ Đức,Hồ Chí Minh,True
87,,,,,,10.01213,105.75647,29/2,Hẻm 29 Đường 30 Tháng 4,Phường Hưng Lợi,Quận Ninh Kiều,Cần Thơ,True
88,,,,,,10.01366,105.7507,3,Hẻm 3 Trần Vĩnh Kiết,Phường An Bình,Quận Ninh Kiều,Cần Thơ,True
89,,,,,,38.41868,-122.88721,1995,Coffee Ln,,Sebastopol,Sonoma,True
90,,,,,,10.03623,105.75792,388,Đường Nguyễn Văn Cừ Nối Dài,Phường An Khánh,Quận Ninh Kiều,Cần Thơ,True
91,,,,,,10.03727,105.78092,159,Đường Huỳnh Cương,Phường An Cư,Quận Ninh Kiều,Cần Thơ,True
92,,,,,,10.04416,105.77921,31,Đường Hùng Vương,Phường Thới Bình,Quận Ninh Kiều,Cần Thơ,True
93,,,,,,10.02869,105.77658,62,Đường Mậu Thân,Phường Xuân Khánh,Quận Ninh Kiều,Cần Thơ,True
94,,,,,,10.04037,105.78518,44,Đường Nguyễn Trãi,Phường Tân An,Quận Ninh Kiều,Cần Thơ,True
96,,,,,,10.03795,105.75927,163E,Đường Nguyễn Văn Cừ Nối Dài,Phường An Khánh,Quận Ninh Kiều,Cần Thơ,True
97,,,,,,10.02165,105.76838,3,Đường Lê Bình,Phường Hưng Lợi,Quận Ninh Kiều,Cần Thơ,True
99,,,,,,10.01063,105.76196,24,Đường 30 Tháng 4,Phường Hưng Lợi,Quận Ninh Kiều,Cần Thơ,True
100,,,,,,21.00657,105.82293,298,Phố Tây Sơn,Phường Ngã Tư Sở,Quận Đống Đa,Hà Nội,True
103,,,,,,10.01179,105.75616,,Đường C29 30 Tháng 4,Phường Hưng Lợi,Quận Ninh Kiều,Cần Thơ,True
104,,,,,,10.02463,105.7686,162/20,Đường Trần Ngọc Quế,Phường Xuân Khánh,Quận Ninh Kiều,Cần Thơ,True
105,,,,,,10.04286,105.78278,80,Đường Nguyễn Trãi,Phường Thới Bình,Quận Ninh Kiều,Cần Thơ,True
106,,,,,,10.03431,105.78551,41,Đại Lộ Hòa Bình,Phường An Cư,Quận Ninh Kiều,Cần Thơ,True
107,,,,,,10.05794,105.77469,8,Đường Trần Văn Giàu,Phường Cái Khế,Quận Ninh Kiều,Cần Thơ,True
108,,,,,,10.0201,105.74117,230,Đường Nguyễn Văn Cừ Nối Dài,Phường An Bình,Quận Ninh Kiều,Cần Thơ,True
109,,,,,,10.02364,105.75649,88,Đường Nguyễn Hiền,Phường An Khánh,Quận Ninh Kiều,Cần Thơ,True
110,,,,,,10.02472,105.7682,162C,Đường Trần Ngọc Quế,Phường Xuân Khánh,Quận Ninh Kiều,Cần Thơ,True
111,,,,,,10.02962,105.75074,299,Đường Nguyễn Văn Cừ,Phường An Khánh,Quận Ninh Kiều,Cần Thơ,True
112,,,,,,21.01964,105.84525,70,Phố Nguyễn Du,Phường Trần Hưng Đạo,Quận Hoàn Kiếm,Hà Nội,True
114,,,,,,,,,,,,,True
115,,,,,,10.01769,105.76124,112,Đường 3 Tháng 2,Phường Hưng Lợi,Quận Ninh Kiều,Cần Thơ,True
116,,,,,,10.04647,105.7817,2,Đường Trần Phú,Phường Cái Khế,Quận Ninh Kiều,Cần Thơ,True
117,,,,,,10.0416,105.7667,41,Đường Mậu Thân,Phường An Hòa,Quận Ninh Kiều,Cần Thơ,True
118,,,,,,10.0414,105.75497,152,Đường Nguyễn Tri Phương,Phường An Khánh,Quận Ninh Kiều,Cần Thơ,True
119,,,,,,21.02051,105.83852,78,Ngõ Trung Tiền,Phường Khâm Thiên,Quận Đống Đa,Hà Nội,True
120,,,,,,10.01401,105.76248,1,Đường Trần Hoàng Na,Phường Hưng Lợi,Quận Ninh Kiều,Cần Thơ,True
121,,,,,,10.0216,105.76449,2E,Đường Nguyễn Văn Linh,Phường Hưng Lợi,Quận Ninh Kiều,Cần Thơ,True
130,,,,,,10.04521,105.7623,77-79,Đường Võ Văn Kiệt,Phường An Hòa,Quận Ninh Kiều,Cần Thơ,True
135,,,,,,10.7699,106.67021,16,Hẻm 343 Sư Vạn Hạnh,Phường 12,Quận 10,Hồ Chí Minh,True
136,,,,,,10.03501,105.78239,19/27,Hẻm 19 Trương Định,Phường An Cư,Quận Ninh Kiều,Cần Thơ,True
137,,,,,,10.02972,105.75319,307H,Đường Nguyễn Văn Linh,Phường An Khánh,Quận Ninh Kiều,Cần Thơ,True
138,,,,,,10.02124,105.7546,207,Đường Nguyễn Hiền,Phường An Khánh,Quận Ninh Kiều,Cần Thơ,True
139,,,,,,10.04122,105.77754,124,Đường Lê Anh Xuân,Phường Thới Bình,Quận Ninh Kiều,Cần Thơ,True
140,,,,,,10.02919,105.75064,8,Đường Nguyễn Văn Cừ,Phường An Khánh,Quận Ninh Kiều,Cần Thơ,True
141,,,,,,10.02363,105.76809,,Đường Quản Trọng Hoàng,Phường Hưng Lợi,Quận Ninh Kiều,Cần Thơ,True
142,,,,,,,,,,,,,True
143,,,,,,10.03635,105.78281,12R,Đường Mạc Đĩnh Chi,Phường An Cư,Quận Ninh Kiều,Cần Thơ,True
144,,,,,,10.0117,105.76472,41,Đường Trần Hoàng Na,Phường Hưng Lợi,Quận Ninh Kiều,Cần Thơ,True
145,,,,,,10.05766,105.77964,38D,Đường Nguyễn Văn Cừ,Phường Cái Khế,Quận Ninh Kiều,Cần Thơ,True
146,,,,,,10.02261,105.74624,285,Đường Số 4,Phường An Bình,Quận Ninh Kiều,Cần Thơ,True
147,,,,,,10.02199,105.77067,322,Đường Trần Ngọc Quế,Phường Xuân Khánh,Quận Ninh Kiều,Cần Thơ,True
148,,,,,,,,,,,,,True
149,,,,,,10.02078,105.75366,250,Đường Nguyễn Hiền,Phường An Khánh,Quận Ninh Kiều,Cần Thơ,True
150,,,,,,10.0223,105.7556,145,Đường Nguyễn Hiền,Phường An Khánh,Quận Ninh Kiều,Cần Thơ,True
151,,,,,,10.03501,105.76514,,Hẻm 51 Nguyễn Văn Cừ,Phường An Khánh,Quận Ninh Kiều,Cần Thơ,True
152,,,,,,10.04096,105.76267,131,Đường Nguyễn Văn Cừ Nối Dài,Phường An Khánh,Quận Ninh Kiều,Cần Thơ,True
153,,,,,,10.01736,105.73565,,Đường Tạ Thị Phi,Phường Long Tuyền,Quận Bình Thủy,Cần Thơ,True
154,,,,,,10.05263,105.77466,,Đường Nguyễn Văn Cừ,Phường Cái Khế,Quận Ninh Kiều,Cần Thơ,True
156,,,,,,10.0171,105.759,12G,Đường Trần Hoàng Na,Phường Hưng Lợi,Quận Ninh Kiều,Cần Thơ,True
157,,,,,,10.01173,105.76089,1D,Khu Dân Cư 515,Phường Hưng Lợi,Quận Ninh Kiều,Cần Thơ,True
158,,,,,,10.03662,105.77931,138A,Đường Huỳnh Cương,Phường An Cư,Quận Ninh Kiều,Cần Thơ,True
159,,,,,,10.03551,105.7842,71,Đường Ngô Quyền,Phường An Cư,Quận Ninh Kiều,Cần Thơ,True
160,,,,,,10.01533,105.76099,118,Hẻm 118 Đường Trần Hoàng Na,Phường Hưng Lợi,Quận Ninh Kiều,Cần Thơ,True
161,,,,,,10.0286,105.77171,122/2,Đường Mạc Thiên Tích,Phường Xuân Khánh,Quận Ninh Kiều,Cần Thơ,True
162,,,,,,10.02208,105.76897,310/43,Đường 30 Tháng 4,Phường Hưng Lợi,Quận Ninh Kiều,Cần Thơ,True
163,,,,,,55.30795,10.49181,,,,Sønder Nærå,Faaborg-Midtfyn,True
164,,,,,,10.04194,105.76645,41F,Đường Mậu Thân,Phường An Hòa,Quận Ninh Kiều,Cần Thơ,True
166,,,,,,10.04182,105.76354,1,Đường Nguyễn Văn Cừ Nối Dài,Phường An Khánh,Quận Ninh Kiều,Cần Thơ,True
168,,,,,,10.04035,105.78045,,Đường Hoàng Văn Thụ,Phường An Cư,Quận Ninh Kiều,Cần Thơ,True
173,,,,,,10.04838,105.76603,44,Hẻm 44 Võ Trường Toản,Phường An Hòa,Quận Ninh Kiều,Cần Thơ,True
177,,,,,,10.02397,105.74975,,Đường Số 4,Phường An Bình,Quận Ninh Kiều,Cần Thơ,True
179,,,,,,10.03592,105.75738,,,Phường An Khánh,Quận Ninh Kiều,Cần Thơ,True
180,,,,,,10.04002,105.75689,57,Đường Nguyễn Tri Phương,Phường An Khánh,Quận Ninh Kiều,Cần Thơ,True
181,,,,,,10.02736,105.7637,51/16B/1,Hẻm 51 Đường 3 Tháng 2,Phường An Khánh,Quận Ninh Kiều,Cần Thơ,True
182,,,,,,10.02499,105.76303,30/48K,Quốc Lộ 91B,Phường Hưng Lợi,Quận Ninh Kiều,Cần Thơ,True
184,,,,,,10.03923,105.75128,11,Đường Trần Minh Sơn,Phường An Khánh,Quận Ninh Kiều,Cần Thơ,True
185,,,,,,10.03573,105.75703,161,Đường Nguyễn Văn Cừ Nối Dài,Phường An Khánh,Quận Ninh Kiều,Cần Thơ,True
186,,,,,,10.02169,105.76443,4,Đường Nguyễn Văn Linh,Phường Hưng Lợi,Quận Ninh Kiều,Cần Thơ,True
189,,,,,,10.01248,105.76286,3a,Hẻm 17 Trần Hoàng Na,Phường Hưng Lợi,Quận Ninh Kiều,Cần Thơ,True
191,,,,,,10.0152,105.75041,99,Hẻm 5 Trần Vĩnh Kiết,Phường An Bình,Quận Ninh Kiều,Cần Thơ,True
192,,,,,,10.03272,105.77709,158/70,Hẻm 2 Nguyễn Việt Hồng,Phường An Phú,Quận Ninh Kiều,Cần Thơ,True
193,,,,,,10.05635,105.77817,60,Đường Nguyễn Văn Cừ,Phường Cái Khế,Quận Ninh Kiều,Cần Thơ,True
194,,,,,,10.01901,105.76996,233/2,Đường Nguyễn Văn Linh,Phường Hưng Lợi,Quận Ninh Kiều,Cần Thơ,True
195,,,,,,10.02255,105.7558,133,Đường Nguyễn Hiền,Phường An Khánh,Quận Ninh Kiều,Cần Thơ,True
196,,,,,,10.03352,105.78816,62,Đường Hai Bà Trưng,Phường Tân An,Quận Ninh Kiều,Cần Thơ,True
197,,,,,,,,,,,,,True
198,,,,,,10.03403,105.78525,55,Đường Ngô Văn Sở,Phường Tân An,Quận Ninh Kiều,Cần Thơ,True
199,,,,,,10.04888,105.78483,134,Đường Trần Phú,Phường Cái Khế,Quận Ninh Kiều,Cần Thơ,True
200,,,,,,10.0401,105.76706,31/2,Đường Lê Anh Xuân,Phường An Hòa,Quận Ninh Kiều,Cần Thơ,True
201,,,,,,10.01289,105.74239,,Đường Số 3,Phường An Bình,Quận Ninh Kiều,Cần Thơ,True
202,,,,,,10.01412,105.74636,2,Đường Hoàng Quốc Việt,Phường An Bình,Quận Ninh Kiều,Cần Thơ,True
203,,,,,,10.01516,105.76309,602,Đường 30 Tháng 4,Phường Hưng Lợi,Quận Ninh Kiều,Cần Thơ,True
204,,,,,,10.03049,105.77606,176,Đường Nguyễn Việt Hồng,Phường An Phú,Quận Ninh Kiều,Cần Thơ,True
205,,,,,,10.03021,105.75187,,Đường Nguyễn Văn Cừ,Phường An Khánh,Quận Ninh Kiều,Cần Thơ,True
206,,,,,,10.01339,105.7616,,Đường 30 Tháng 4,Phường Hưng Lợi,Quận Ninh Kiều,Cần Thơ,True
209,,,,,,21.02364,105.84464,86,Phố Quán Sứ,Phường Trần Hưng Đạo,Quận Hoàn Kiếm,Hà Nội,True
210,,,,,,10.03307,105.74904,,QL.91B,Phường An Khánh,Quận Ninh Kiều,Cần Thơ,True
212,,,,,,10.04351,105.79073,45,Đường Lê Lợi,Phường Cái Khế,Quận Ninh Kiều,Cần Thơ,True
213,,,,,,10.03183,105.77527,146,Đường Mậu Thân,Phường Xuân Khánh,Quận Ninh Kiều,Cần Thơ,True
215,,,,,,10.02106,105.754,236,Đường Nguyễn Hiền,Phường An Khánh,Quận Ninh Kiều,Cần Thơ,True
217,,,,,,10.04132,105.78208,47,Đường Hoàng Văn Thụ,Phường Tân An,Quận Ninh Kiều,Cần Thơ,True
222,,,,,,10.01403,105.76297,151,Đường Trần Hoàng Na,Phường Hưng Lợi,Quận Ninh Kiều,Cần Thơ,True
226,,,,,,10.02278,105.76289,,Hẻm 28 Nguyễn Văn Linh,Phường Hưng Lợi,Quận Ninh Kiều,Cần Thơ,True
229,,,,,,10.03226,105.77408,,,Phường Xuân Khánh,Quận Ninh Kiều,Cần Thơ,True
230,,,,,,10.03174,105.78567,,Đường Điện Biên Phủ,Phường Tân An,Quận Ninh Kiều,Cần Thơ,True
235,,,,,,10.04182,105.76354,1,Đường Nguyễn Văn Cừ Nối Dài,Phường An Khánh,Quận Ninh Kiều,Cần Thơ,True
236,,,,,,10.01986,105.75563,27,Đường Trần Hoàng Na,Phường An Khánh,Quận Ninh Kiều,Cần Thơ,True
237,,,,,,10.02821,105.75858,1,Đường Số 6,Phường An Khánh,Quận Ninh Kiều,Cần Thơ,True
238,,,,,,21.02047,105.84601,39A,Phố Liên Trì,Phường Trần Hưng Đạo,Quận Hoàn Kiếm,Hà Nội,True
239,,,,,,10.02356,105.77066,9/97,Khu Dân Cư Số 9,Phường Xuân Khánh,Quận Ninh Kiều,Cần Thơ,True
240,,,,,,10.03329,105.7837,2,Đường Đề Thám,Phường An Cư,Quận Ninh Kiều,Cần Thơ,True
241,,,,,,10.05075,105.76901,13,Đường Nguyễn Đệ,Phường An Hòa,Quận Ninh Kiều,Cần Thơ,True
242,,,,,,10.03685,105.7582,163C/7,Đường Nguyễn Văn Cừ Nối Dài,Phường An Khánh,Quận Ninh Kiều,Cần Thơ,True
243,,,,,,10.03784,105.7597,121,Đường Nguyễn Văn Cừ Nối Dài,Phường An Khánh,Quận Ninh Kiều,Cần Thơ,True
244,,,,,,10.01972,105.77284,,,Phường Hưng Lợi,Quận Ninh Kiều,Cần Thơ,True
245,,,,,,10.01982,105.75593,2,Đường Trần Hoàng Na,Phường An Khánh,Quận Ninh Kiều,Cần Thơ,True
246,,,,,,10.03684,105.78613,6,Đường Ngô Hữu Hạnh,Phường Tân An,Quận Ninh Kiều,Cần Thơ,True
247,,,,,,10.06294,105.68558,,Đường Nguyễn Văn Linh,,Quận Bình Thủy,Cần Thơ,True
248,,,,,,10.02223,105.76335,7,Đường Nguyễn Văn Linh,Phường Hưng Lợi,Quận Ninh Kiều,Cần Thơ,True
249,,,,,,,,,,,,,True
250,,,,,,10.02684,105.7772,66,Đường Mậu Thân,Phường Xuân Khánh,Quận Ninh Kiều,Cần Thơ,True
251,,,,,,10.04921,105.7909,,Đường Sông Hậu,Phường Cái Khế,Quận Ninh Kiều,Cần Thơ,True
252,,,,,,10.04707,105.76905,277,Đường Nguyễn Văn Cừ,Phường An Hòa,Quận Ninh Kiều,Cần Thơ,True
253,,,,,,10.03592,105.75738,,,Phường An Khánh,Quận Ninh Kiều,Cần Thơ,True
254,,,,,,10.00329,105.75114,1,Đường Nguyễn Trãi,Phường Lê Bình,Quận Cái Răng,Cần Thơ,True
255,,,,,,10.0122,105.75349,,Đường 3 Tháng,Phường An Bình,Quận Ninh Kiều,Cần Thơ,True
256,,,,,,43.76052,1.89396,,,La Caïphe,Puybegon,Tarn,True
257,,,,,,10.0331,105.78507,23,Đường Đồng Khởi,Phường Tân An,Quận Ninh Kiều,Cần Thơ,True
258,,,,,,10.03931,105.78626,12,Đường Nguyễn Trãi,Phường Tân An,Quận Ninh Kiều,Cần Thơ,True
259,,,,,,10.00177,105.7736,,Đường Trần Hoàng Na,Phường Hưng Thạnh,Quận Cái Răng,Cần Thơ,True
260,,,,,,10.03492,105.78855,12,Đường Trần Quốc Toản,Phường Tân An,Quận Ninh Kiều,Cần Thơ,True
261,,,,,,,,,,,,,True
264,,,,,,10.01429,105.77144,264A,Đường Tầm Vu,Phường Hưng Lợi,Quận Ninh Kiều,Cần Thơ,True
272,,,,,,10.00429,105.74325,3,Đường B2,Phường An Bình,Quận Ninh Kiều,Cần Thơ,True
273,,,,,,10.01245,105.76391,27,Hẻm 151 Đường Trần Hoàng Na,Phường Hưng Lợi,Quận Ninh Kiều,Cần Thơ,True
274,,,,,,10.01679,105.76107,107,Đường 3 Tháng 2,Phường Hưng Lợi,Quận Ninh Kiều,Cần Thơ,True
275,,,,,,10.01483,105.76184,14,Hẻm 118 Đường Trần Hoàng Na,Phường Hưng Lợi,Quận Ninh Kiều,Cần Thơ,True
276,,,,,,10.01268,105.76151,451,Hẻm 91 Đường 30 Tháng 4,Phường Hưng Lợi,Quận Ninh Kiều,Cần Thơ,True
277,,,,,,,,,,,,,True
278,,,,,,10.03592,105.75738,,,Phường An Khánh,Quận Ninh Kiều,Cần Thơ,True
279,,,,,,10.05287,105.77454,,Đường Nguyễn Văn Cừ,Phường Cái Khế,Quận Ninh Kiều,Cần Thơ,True
280,,,,,,10.03719,105.75892,236,Đường Nguyễn Văn Cừ Nối Dài,Phường An Khánh,Quận Ninh Kiều,Cần Thơ,True
286,,,,,,10.02962,105.7743,35,Đường Mạc Thiên Tích,Phường Xuân Khánh,Quận Ninh Kiều,Cần Thơ,True
287,,,,,,10.03349,105.75999,9,Đường Trần Nam Phú,Phường An Khánh,Quận Ninh Kiều,Cần Thơ,True
288,,,,,,10.0082,105.74878,,Đường Lộ Vòng Cung,Phường An Bình,Quận Ninh Kiều,Cần Thơ,True
289,,,,,,10.02322,105.76614,232,Đường 3 Tháng 2,Phường Hưng Lợi,Quận Ninh Kiều,Cần Thơ,True
290,,,,,,10.02376,105.77093,60,Khu Dân Cư Số 9,Phường Xuân Khánh,Quận Ninh Kiều,Cần Thơ,True
291,,,,,,10.02602,105.75834,410,Đường Nguyễn Văn Linh,Phường An Khánh,Quận Ninh Kiều,Cần Thơ,True
292,,,,,,10.06126,105.7645,3,Đường Cách Mạng Tháng 8,Phường An Thới,Quận Bình Thủy,Cần Thơ,True
293,,,,,,10.03188,105.78136,16,Đường Phan Văn Trị,Phường An Cư,Quận Ninh Kiều,Cần Thơ,True
294,,,,,,10.01344,105.76133,,Đường 30/4,Phường Hưng Lợi,Quận Ninh Kiều,Cần Thơ,True
295,,,,,,21.01419,105.83372,2,Phố Nam Đồng,Phường Nam Đồng,Quận Đống Đa,Hà Nội,True
296,,,,,,10.04212,105.75466,88,Đường Số 2,Phường An Khánh,Quận Ninh Kiều,Cần Thơ,True
299,,,,,,10.04447,105.75276,2,Đường Số 7,Phường An Khánh,Quận Ninh Kiều,Cần Thơ,True
300,,,,,,10.03355,105.7484,337,Đường Nguyễn Văn Linh,Phường An Khánh,Quận Ninh Kiều,Cần Thơ,True
301,,,,,,10.0265,105.74756,40,Đường Nguyễn Văn Cừ,Phường An Bình,Quận Ninh Kiều,Cần Thơ,True
303,,,,,,10.02828,105.74947,10B,Hẻm 10A Nguyễn Văn Cừ,Phường An Bình,Quận Ninh Kiều,Cần Thơ,True
307,,,,,,10.03835,105.77057,2,Đường Mậu Thân,Phường Xuân Khánh,Quận Ninh Kiều,Cần Thơ,True
308,,,,,,10.0268,105.77628,169,Đường 30 Tháng 4,Phường Xuân Khánh,Quận Ninh Kiều,Cần Thơ,True
309,,,,,,10.03284,105.77438,1,Đường Mậu Thân,Phường Xuân Khánh,Quận Ninh Kiều,Cần Thơ,True
310,,,,,,10.0357,105.78695,1,Đường Hòa Bình,Phường Tân An,Quận Ninh Kiều,Cần Thơ,True
311,,,,,,10.02599,105.7804,1A,Đường Quang Trung,Phường Xuân Khánh,Quận Ninh Kiều,Cần Thơ,True
312,,,,,,10.02628,105.77131,77,Đường Trần Văn Hoài,Phường Xuân Khánh,Quận Ninh Kiều,Cần Thơ,True
313,,,,,,10.01148,105.76092,5,Khu Dân Cư 515,Phường Hưng Lợi,Quận Ninh Kiều,Cần Thơ,True
314,,,,,,10.03225,105.75004,3,Đường Nguyễn Văn Linh,Phường An Khánh,Quận Ninh Kiều,Cần Thơ,True
315,,,,,,10.01641,105.76041,95,Đường 3 Tháng 2,Phường Hưng Lợi,Quận Ninh Kiều,Cần Thơ,True
316,,,,,,,,,,,,,True
317,,,,,,10.76914,106.69466,159,Đường Phạm Ngũ Lão,Phường Phạm Ngũ Lão,Quận 1,Hồ Chí Minh,True
318,,,,,,10.05008,105.77201,91,Nguyễn Văn Cừ,Phường An Hòa,Quận Ninh Kiều,Cần Thơ,True
319,,,,,,10.04613,105.78909,3,Đường Lê Lợi,Phường Cái Khế,Quận Ninh Kiều,Cần Thơ,True
320,,,,,,10.05075,105.76901,13,Đường Nguyễn Đệ,Phường An Hòa,Quận Ninh Kiều,Cần Thơ,True
321,,,,,,10.04241,105.77329,,Đường Yết Kiêu,Phường An Hòa,Quận Ninh Kiều,Cần Thơ,True
322,,,,,,10.04755,105.76185,686,Đường Mậu Thân,Phường An Hòa,Quận Ninh Kiều,Cần Thơ,True
323,,,,,,10.04829,105.75871,294,Đường Võ Văn Kiệt,Phường An Thới,Quận Bình Thủy,Cần Thơ,True
325,,,,,,10.03592,105.75738,,,Phường An Khánh,Quận Ninh Kiều,Cần Thơ,True
326,,,,,,10.03332,105.7622,385,Đường Trần Nam Phú,Phường An Khánh,Quận Ninh Kiều,Cần Thơ,True
327,,,,,,10.04958,105.77155,132,Đường Nguyễn Văn Cừ,Phường An Hòa,Quận Ninh Kiều,Cần Thơ,True
328,,,,,,10.03171,105.75036,,Hẻm Tổ 4,Phường An Khánh,Quận Ninh Kiều,Cần Thơ,True
329,,,,,,10.02984,105.75295,,,Phường An Khánh,Quận Ninh Kiều,Cần Thơ,True
333,,,,,,21.01995,105.84211,4,Phố Đỗ Hành,Phường Nguyễn Du,Quận Hai Bà Trưng,Hà Nội,True
334,,,,,,10.00833,105.74935,245,Đường Lộ Vòng Cung,Phường An Bình,Quận Ninh Kiều,Cần Thơ,True
335,,,,,,10.0114,105.7526,105,Đường 3 Tháng 2,Phường An Bình,Quận Ninh Kiều,Cần Thơ,True
336,,,,,,10.01154,105.76477,,Đường Trần Hoàng Na,Phường Hưng Lợi,Quận Ninh Kiều,Cần Thơ,True
337,,,,,,10.01344,105.76133,,Đường 30/4,Phường Hưng Lợi,Quận Ninh Kiều,Cần Thơ,True
338,,,,,,10.021,105.76046,70,Đường Ngô Sĩ Liên,Phường Hưng Lợi,Quận Ninh Kiều,Cần Thơ,True
339,,,,,,10.0258,105.7583,321,Đường Nguyễn Văn Linh,Phường An Khánh,Quận Ninh Kiều,Cần Thơ,True
340,,,,,,10.02668,105.7497,8,Đường Xuân Thủy,Phường An Bình,Quận Ninh Kiều,Cần Thơ,True
341,,,,,,10.02001,105.76343,178,Đường 3 Tháng 2,Phường Hưng Lợi,Quận Ninh Kiều,Cần Thơ,True
342,,,,,,10.01687,105.75963,79,Đường Trần Hoàng Na,Phường Hưng Lợi,Quận Ninh Kiều,Cần Thơ,True
343,,,,,,10.0338,105.78428,32,Đại Lộ Hòa Bình,Phường An Cư,Quận Ninh Kiều,Cần Thơ,True
345,,,,,,,,,,,,,True
346,,,,,,10.04409,105.78354,,Trần Văn Khéo,Phường Cái Khế,Quận Ninh Kiều,Cần Thơ,True
347,,,,,,10.05049,105.7677,27,Đường Nguyễn Đệ,Phường An Hòa,Quận Ninh Kiều,Cần Thơ,True
348,,,,,,10.04796,105.76558,7,Hẻm 65 Võ Trường Toản,Phường An Hòa,Quận Ninh Kiều,Cần Thơ,True
349,,,,,,10.04401,105.75678,57,Đường Số 6,Phường An Khánh,Quận Ninh Kiều,Cần Thơ,True
350,,,,,,10.04958,105.77155,132,Đường Nguyễn Văn Cừ,Phường An Hòa,Quận Ninh Kiều,Cần Thơ,True
351,,,,,,10.03108,105.75126,339,Đường Nguyễn Văn Linh,Phường An Khánh,Quận Ninh Kiều,Cần Thơ,True
352,,,,,,10.04283,105.75969,,Khu Vực 1,Phường An Khánh,Quận Ninh Kiều,Cần Thơ,True
353,,,,,,10.03592,105.75738,,,Phường An Khánh,Quận Ninh Kiều,Cần Thơ,True
355,,,,,,9.99581,105.74925,167/4,Quốc Lộ 1A,Phường Lê Bình,Quận Cái Răng,Cần Thơ,True
360,,,,,,10.0015,105.75706,,Đường Hậu Thạnh Mỹ,Phường Lê Bình,Quận Cái Răng,Cần Thơ,True
361,,,,,,10.02431,105.75416,71,Đường B28,Phường An Khánh,Quận Ninh Kiều,Cần Thơ,True
362,,,,,,10.01403,105.76297,151,Đường Trần Hoàng Na,Phường Hưng Lợi,Quận Ninh Kiều,Cần Thơ,True
363,,,,,,10.03549,105.77102,15,Đường Cao Thắng,Phường Xuân Khánh,Quận Ninh Kiều,Cần Thơ,True
364,,,,,,10.0346,105.78762,19,Đường Thủ Khoa Huân,Phường Tân An,Quận Ninh Kiều,Cần Thơ,True
367,,,,,,10.03678,105.77208,102,Đường Mậu Thân,Phường Xuân Khánh,Quận Ninh Kiều,Cần Thơ,True
368,,,,,,10.02208,105.76897,310/43,Đường 30 Tháng 4,Phường Hưng Lợi,Quận Ninh Kiều,Cần Thơ,True
369,,,,,,10.05652,105.77858,,Đường Nguyễn Văn Cừ,Phường Cái Khế,Quận Ninh Kiều,Cần Thơ,True
376,,,,,,10.0275,105.78035,54,Đường Quang Trung,Phường Xuân Khánh,Quận Ninh Kiều,Cần Thơ,True
377,,,,,,10.02919,105.75064,8,Đường Nguyễn Văn Cừ,Phường An Khánh,Quận Ninh Kiều,Cần Thơ,True
379,,,,,,10.04401,105.7564,2,Đường Tô Hiến Thành,Phường An Khánh,Quận Ninh Kiều,Cần Thơ,True
380,,,,,,10.03958,105.76103,136,Đường Nguyễn Văn Cừ Nối Dài,Phường An Khánh,Quận Ninh Kiều,Cần Thơ,True
381,,,,,,,,,,,,,True
382,,,,,,10.04182,105.76354,1,Đường Nguyễn Văn Cừ Nối Dài,Phường An Khánh,Quận Ninh Kiều,Cần Thơ,True
383,,,,,,10.02153,105.74435,260,Đường Xuân Thủy,Phường An Bình,Quận Ninh Kiều,Cần Thơ,True
384,,,,,,10.02562,105.74881,7,Đường Xuân Thủy,Phường An Bình,Quận Ninh Kiều,Cần Thơ,True
385,,,,,,9.99627,105.72373,,Lộ Vòng Cung,Xã Mỹ Khánh,Huyện Phong Điền,Cần Thơ,True
386,,,,,,9.99698,105.72165,,Đường Lộ Vòng Cung,Xã Mỹ Khánh,Huyện Phong Điền,Cần Thơ,True
387,,,,,,9.99497,105.73795,431,Đường Lộ Vòng Cung,Phường An Bình,Quận Ninh Kiều,Cần Thơ,True
389,,,,,,9.99265,105.74875,169/1A,Quốc Lộ 1A,Phường Lê Bình,Quận Cái Răng,Cần Thơ,True
390,,,,,,10.00849,105.74982,,Cầu Cái Răng,Phường An Bình,Quận Ninh Kiều,Cần Thơ,True
391,,,,,,10.01814,105.75814,,Đường Trần Hoàng Na,Phường Hưng Lợi,Quận Ninh Kiều,Cần Thơ,True
392,,,,,,10.0228,105.75565,138,Đường Nguyễn Hiền,Phường An Khánh,Quận Ninh Kiều,Cần Thơ,True
393,,,,,,10.00911,105.7605,114,Hẻm 91 Đường 30 Tháng 4,Phường Hưng Lợi,Quận Ninh Kiều,Cần Thơ,True
394,,,,,,,,,,,,,True
395,,,,,,10.01789,105.75828,112/92,Đường Trần Hoàng Na,Phường Hưng Lợi,Quận Ninh Kiều,Cần Thơ,True
396,,,,,,10.01296,105.76098,91,Hẻm 91 Đường 30 Tháng 4,Phường Hưng Lợi,Quận Ninh Kiều,Cần Thơ,True
397,,,,,,10.01622,105.76008,86,Đường 3 Tháng 2,Phường Hưng Lợi,Quận Ninh Kiều,Cần Thơ,True
399,,,,,,10.03549,105.77102,15,Đường Cao Thắng,Phường Xuân Khánh,Quận Ninh Kiều,Cần Thơ,True
400,,,,,,10.03199,105.77366,19,Đường 3 Tháng 2,Phường Xuân Khánh,Quận Ninh Kiều,Cần Thơ,True
402,,,,,,10.01376,105.76276,1D,Đường Trần Hoàng Na,Phường Hưng Lợi,Quận Ninh Kiều,Cần Thơ,True
403,,,,,,10.04566,105.77873,18,Hẻm 33 Đường Bà Huyện Thanh Quan,Phường Thới Bình,Quận Ninh Kiều,Cần Thơ,True
408,,,,,,10.05652,105.77858,,Đường Nguyễn Văn Cừ,Phường Cái Khế,Quận Ninh Kiều,Cần Thơ,True
410,,,,,,10.04422,105.78169,2A,Đường Trần Quang Khải,Phường Cái Khế,Quận Ninh Kiều,Cần Thơ,True
412,,,,,,10.02807,105.77078,132A,Đường 3 Tháng 2,Phường Xuân Khánh,Quận Ninh Kiều,Cần Thơ,True
413,,,,,,10.04933,105.76524,49,Đường Nguyễn Đệ,Phường An Hòa,Quận Ninh Kiều,Cần Thơ,True
414,,,,,,10.04311,105.7561,,Đường Tô Hiến Thành,Phường An Khánh,Quận Ninh Kiều,Cần Thơ,True
415,,,,,,10.03615,105.75763,390,Đường Nguyễn Văn Cừ Nối Dài,Phường An Khánh,Quận Ninh Kiều,Cần Thơ,True
416,,,,,,10.03172,105.74861,,Hẻm Tổ 3 Nguyễn Văn Linh,Phường An Khánh,Quận Ninh Kiều,Cần Thơ,True
418,,,,,,10.03226,105.77408,,,Phường Xuân Khánh,Quận Ninh Kiều,Cần Thơ,True
419,,,,,,10.02797,105.76056,,Đường Số 7,Phường An Khánh,Quận Ninh Kiều,Cần Thơ,True
420,,,,,,10.03266,105.75426,372,Đường Nguyễn Văn Cừ Nối Dài,Phường An Khánh,Quận Ninh Kiều,Cần Thơ,True
421,,,,,,10.03835,105.77057,2,Đường Mậu Thân,Phường Xuân Khánh,Quận Ninh Kiều,Cần Thơ,True
422,,,,,,10.03687,105.76249,56E/3,Đường Nguyễn Văn Cừ,Phường An Khánh,Quận Ninh Kiều,Cần Thơ,True
423,,,,,,10.04182,105.76354,1,Đường Nguyễn Văn Cừ Nối Dài,Phường An Khánh,Quận Ninh Kiều,Cần Thơ,True
424,,,,,,10.06847,105.75712,,Đường Cách Mạng Tháng 8,Phường Bùi Hữu Nghĩa,Quận Bình Thủy,Cần Thơ,True
425,,,,,,10.03387,105.74821,345,Đường Nguyễn Văn Linh,Phường An Khánh,Quận Ninh Kiều,Cần Thơ,True
426,,,,,,10.01968,105.74056,,Đường Nguyễn Văn Cừ Nối Dài,Phường An Bình,Quận Ninh Kiều,Cần Thơ,True
427,,,,,,,,,,,,,True
428,,,,,,9.99406,105.74706,,Hẻm 19 Đường Nhật Tảo,Phường Lê Bình,Quận Cái Răng,Cần Thơ,True
429,,,,,,10.01901,105.76996,233/2,Đường Nguyễn Văn Linh,Phường Hưng Lợi,Quận Ninh Kiều,Cần Thơ,True
430,,,,,,12.21887,109.20402,101,Đường Dã Tượng,Phường Vĩnh Nguyên,Nha Trang,Khánh Hòa,True
431,,,,,,10.04171,105.73127,,Khu Vực Bình Phó A,Phường Long Tuyền,Quận Bình Thủy,Cần Thơ,True
432,,,,,,,,,,,,,True
433,,,,,,9.99776,105.74634,,Đường Nguyễn Việt Dũng,Phường Lê Bình,Quận Cái Răng,Cần Thơ,True
434,,,,,,9.99643,105.71882,,Lộ Vòng Cung,Xã Mỹ Khánh,Huyện Phong Điền,Cần Thơ,True
440,,,,,,,,,,,,,True
443,,,,,,10.0172,105.7592,102,Đường Trần Hoàng Na,Phường Hưng Lợi,Quận Ninh Kiều,Cần Thơ,True
444,,,,,,10.01176,105.76184,,Đường 30 Tháng 4,Phường Hưng Lợi,Quận Ninh Kiều,Cần Thơ,True
445,,,,,,10.03499,105.77531,153G,Đường Trần Hưng Đạo,Phường An Nghiệp,Quận Ninh Kiều,Cần Thơ,True
447,,,,,,10.0246,105.77387,1A,Đường Trần Văn Hoài,Phường Xuân Khánh,Quận Ninh Kiều,Cần Thơ,True
448,,,,,,10.02644,105.7716,146H,Đường Trần Văn Hoài,Phường Xuân Khánh,Quận Ninh Kiều,Cần Thơ,True
449,,,,,,10.0312,105.7847,108,Đường Châu Văn Liêm,Phường Tân An,Quận Ninh Kiều,Cần Thơ,True
454,,,,,,10.03766,105.78522,2,Đường Ngô Hữu Hạnh,Phường Tân An,Quận Ninh Kiều,Cần Thơ,True
456,,,,,,,,,,,,,True
457,,,,,,10.02312,105.77165,9/7,Khu Dân Cư Số 9,Phường Xuân Khánh,Quận Ninh Kiều,Cần Thơ,True
459,,,,,,10.01201,105.76431,39B,Đường Trần Hoàng Na,Phường Hưng Lợi,Quận Ninh Kiều,Cần Thơ,True
462,,,,,,9.99338,105.80799,2,Đường C3,Phường Phú Thứ,Quận Cái Răng,Cần Thơ,True
465,,,,,,10.02535,105.7726,43,Đường Trần Văn Hoài,Phường Xuân Khánh,Quận Ninh Kiều,Cần Thơ,True
466,,,,,,10.02247,105.77033,9,Đường Trần Ngọc Quế,Phường Xuân Khánh,Quận Ninh Kiều,Cần Thơ,True
467,,,,,,10.03299,105.75469,,Đường Nguyễn Văn Cừ Nối Dài,Phường An Khánh,Quận Ninh Kiều,Cần Thơ,True
469,,,,,,10.04857,105.77039,179,Đường Nguyễn Văn Cừ,Phường An Hòa,Quận Ninh Kiều,Cần Thơ,True
470,,,,,,43.76052,1.89396,,,La Caïphe,Puybegon,Tarn,True
471,,,,,,10.05652,105.77858,,Đường Nguyễn Văn Cừ,Phường Cái Khế,Quận Ninh Kiều,Cần Thơ,True
472,,,,,,10.05653,105.77873,,Đường Nguyễn Văn Cừ,Phường Cái Khế,Quận Ninh Kiều,Cần Thơ,True
473,,,,,,10.04556,105.77543,79A,Đường Phạm Ngũ Lão,Phường An Hòa,Quận Ninh Kiều,Cần Thơ,True
474,,,,,,10.04758,105.79163,,Đường Sông Hậu,Phường Cái Khế,Quận Ninh Kiều,Cần Thơ,True
475,,,,,,10.0403,105.79347,2A,Đường Sông Hậu,Phường Cái Khế,Quận Ninh Kiều,Cần Thơ,True
476,,,,,,10.04992,105.78703,,Đường Lê Lợi,Phường Cái Khế,Quận Ninh Kiều,Cần Thơ,True
477,,,,,,10.05065,105.7874,79,Đường Trần Phú,Phường Cái Khế,Quận Ninh Kiều,Cần Thơ,True
478,,,,,,,,,,,,,True
479,,,,,,10.04407,105.78019,2,Đường Bùi Thị Xuân,Phường Thới Bình,Quận Ninh Kiều,Cần Thơ,True
480,,,,,,10.04515,105.77925,63,Đường Phan Đăng Lưu,Phường Thới Bình,Quận Ninh Kiều,Cần Thơ,True
481,,,,,,10.04405,105.77763,54/1,Hẻm 54 Hùng Vương,Phường Thới Bình,Quận Ninh Kiều,Cần Thơ,True
482,,,,,,10.03308,105.75544,400,Đường Nguyễn Văn Cừ Nối Dài,Phường An Khánh,Quận Ninh Kiều,Cần Thơ,True
483,,,,,,10.04845,105.77032,189,Đường Nguyễn Văn Cừ,Phường An Hòa,Quận Ninh Kiều,Cần Thơ,True
484,,,,,,10.04481,105.76459,,Đường Mậu Thân,Phường An Hòa,Quận Ninh Kiều,Cần Thơ,True
485,,,,,,10.0472,105.7639,15,Đường Võ Trường Toản,Phường An Hòa,Quận Ninh Kiều,Cần Thơ,True
486,,,,,,10.04733,105.76708,14,Đường Võ Trường Toản,Phường An Hòa,Quận Ninh Kiều,Cần Thơ,True
487,,,,,,10.02906,105.7506,137,Đường Nguyễn Văn Cừ,Phường An Khánh,Quận Ninh Kiều,Cần Thơ,True
488,,,,,,10.04574,105.7676,327,Đường Nguyễn Văn Cừ,Phường An Hòa,Quận Ninh Kiều,Cần Thơ,True
491,,,,,,10.02241,105.75533,162,Đường Nguyễn Hiền,Phường An Khánh,Quận Ninh Kiều,Cần Thơ,True
492,,,,,,10.03797,105.75927,,Đường Nguyễn Văn Cừ Nối Dài,Phường An Khánh,Quận Ninh Kiều,Cần Thơ,True
493,,,,,,10.01839,105.75735,,Hẻm 112 Ba Tháng Hai,Phường Hưng Lợi,Quận Ninh Kiều,Cần Thơ,True
494,,,,,,10.0383,105.76405,132B/5,Đường Nguyễn Văn Cừ,Phường An Khánh,Quận Ninh Kiều,Cần Thơ,True
495,,,,,,10.02585,105.77373,,Hẻm 15 Đường Trần Khánh Dư,Phường Xuân Khánh,Quận Ninh Kiều,Cần Thơ,True
500,,,,,,10.03592,105.75738,,,Phường An Khánh,Quận Ninh Kiều,Cần Thơ,True
501,,,,,,10.0374,105.76,,Đường Số 2,Phường An Khánh,Quận Ninh Kiều,Cần Thơ,True
502,,,,,,10.02947,105.75122,306,Đường Nguyễn Văn Cừ,Phường An Khánh,Quận Ninh Kiều,Cần Thơ,True
503,,,,,,10.03381,105.74695,,Khu Dân Cư Hàng Bàng,Phường An Khánh,Quận Ninh Kiều,Cần Thơ,True
504,,,,,,10.02542,105.75883,333,Quốc Lộ 91B,Phường An Khánh,Quận Ninh Kiều,Cần Thơ,True
505,,,,,,10.03592,105.75738,,,Phường An Khánh,Quận Ninh Kiều,Cần Thơ,True
506,,,,,,10.03592,105.75738,,,Phường An Khánh,Quận Ninh Kiều,Cần Thơ,True
507,,,,,,10.0305,105.75224,,Đường Nguyễn Văn Cừ Nối Dài,Phường An Khánh,Quận Ninh Kiều,Cần Thơ,True
508,,,,,,10.03334,105.78394,40,Đường Hòa Bình,Phường An Cư,Quận Ninh Kiều,Cần Thơ,True
509,,,,,,10.01951,105.73822,44,Đường Số 38,Phường Long Tuyền,Quận Bình Thủy,Cần Thơ,True
510,,,,,,10.02049,105.7415,,Đường Nguyễn Văn Cừ Nối Dài,Phường An Bình,Quận Ninh Kiều,Cần Thơ,True
511,,,,,,10.01044,105.75118,90,Quốc Lộ 1A,Phường An Bình,Quận Ninh Kiều,Cần Thơ,True
512,,,,,,10.01143,105.76938,117,Đường Tầm Vu,Phường Hưng Lợi,Quận Ninh Kiều,Cần Thơ,True
513,,,,,,9.99373,105.74885,,Đường Phạm Hùng,Phường Lê Bình,Quận Cái Răng,Cần Thơ,True
515,,,,,,10.01679,105.76107,107,Đường 3 Tháng 2,Phường Hưng Lợi,Quận Ninh Kiều,Cần Thơ,True
521,,,,,,,,,,,,,True
524,,,,,,10.01695,105.76152,1,Đường 3 Tháng 2,Phường Hưng Lợi,Quận Ninh Kiều,Cần Thơ,True
525,,,,,,10.02226,105.7663,,Hẻm 235 Nguyễn Văn Linh,Phường Hưng Lợi,Quận Ninh Kiều,Cần Thơ,True
526,,,,,,10.01111,105.76393,14,Hẻm 49 Trần Hoàng Na,Phường Hưng Lợi,Quận Ninh Kiều,Cần Thơ,True
527,,,,,,10.01841,105.7621,132,Đường 3 Tháng 2,Phường Hưng Lợi,Quận Ninh Kiều,Cần Thơ,True
528,,,,,,10.01403,105.76297,151,Đường Trần Hoàng Na,Phường Hưng Lợi,Quận Ninh Kiều,Cần Thơ,True
529,,,,,,10.0129,105.7603,688,Đường 30 Tháng 4,Phường Hưng Lợi,Quận Ninh Kiều,Cần Thơ,True
530,,,,,,10.0183,105.76942,,Hẻm 391 30 Tháng 4,Phường Hưng Lợi,Quận Ninh Kiều,Cần Thơ,True
531,,,,,,,,,,,,,True
532,,,,,,10.03623,105.74517,283,Đường Nguyễn Văn Linh,Phường Long Tuyền,Quận Bình Thủy,Cần Thơ,True
533,,,,,,10.03169,105.76741,,Đường Xuân Khánh,Phường Xuân Khánh,Quận Ninh Kiều,Cần Thơ,True
534,,,,,,10.02833,105.77196,10,Đường Mạc Thiên Tích,Phường Xuân Khánh,Quận Ninh Kiều,Cần Thơ,True
535,,,,,,10.03705,105.76974,2A,Đường Nguyễn Văn Trỗi,Phường Xuân Khánh,Quận Ninh Kiều,Cần Thơ,True
536,,,,,,10.01945,105.75047,7,Hẻm Tổ 7,Phường An Bình,Quận Ninh Kiều,Cần Thơ,True
537,,,,,,10.03783,105.77266,93,Đường Nguyễn Cư Trinh,Phường An Nghiệp,Quận Ninh Kiều,Cần Thơ,True
538,,,,,,10.02677,105.77083,146,Đường Trần Văn Hoài,Phường Xuân Khánh,Quận Ninh Kiều,Cần Thơ,True
539,,,,,,10.04915,105.7852,142,Đường Trần Phú,Phường Cái Khế,Quận Ninh Kiều,Cần Thơ,True
540,,,,,,10.02664,105.77123,146T,Đường Trần Văn Hoài,Phường Xuân Khánh,Quận Ninh Kiều,Cần Thơ,True
541,,,,,,10.03694,105.78386,18,Đường Trương Định,Phường An Cư,Quận Ninh Kiều,Cần Thơ,True
542,,,,,,10.03507,105.78056,222,Đường Huỳnh Cương,Phường An Cư,Quận Ninh Kiều,Cần Thơ,True
543,,,,,,10.03278,105.78513,68,Đường Nguyễn Thái Học,Phường Tân An,Quận Ninh Kiều,Cần Thơ,True
544,,,,,,10.03737,105.78013,119,Đường Huỳnh Cương,Phường An Cư,Quận Ninh Kiều,Cần Thơ,True
546,,,,,,10.03584,105.78351,91,Đường Ngô Quyền,Phường An Cư,Quận Ninh Kiều,Cần Thơ,True
550,,,,,,10.03682,105.77308,,,Phường An Nghiệp,Quận Ninh Kiều,Cần Thơ,True
552,,,,,,10.03582,105.77846,96/4,Hẻm 96 Đường Nguyễn Thần Hiến,Phường An Cư,Quận Ninh Kiều,Cần Thơ,True
555,,,,,,10.04111,105.75477,153,Đường Nguyễn Tri Phương,Phường An Khánh,Quận Ninh Kiều,Cần Thơ,True
557,,,,,,10.02601,105.74876,57,Đường Trần Hoàng Na,Phường An Bình,Quận Ninh Kiều,Cần Thơ,True
560,,,,,,10.06681,105.75953,416A,Đường Cách Mạng Tháng Tám,Phường Bùi Hữu Nghĩa,Quận Bình Thủy,Cần Thơ,True
561,,,,,,10.03226,105.77408,,,Phường Xuân Khánh,Quận Ninh Kiều,Cần Thơ,True
562,,,,,,10.03322,105.78128,38,Đường Lý Tự Trọng,Phường An Cư,Quận Ninh Kiều,Cần Thơ,True
563,,,,,,10.03169,105.76741,,Đường Xuân Khánh,Phường Xuân Khánh,Quận Ninh Kiều,Cần Thơ,True
564,,,,,,9.99838,105.75002,313C,Quốc Lộ 1A,Phường Lê Bình,Quận Cái Răng,Cần Thơ,True
570,,,,,,10.83889,106.75293,33,Đường Số 3,Phường Trường Thọ,Thủ Đức,Hồ Chí Minh,True
574,,,,,,10.04798,105.76939,229,Đường Nguyễn Văn Cừ,Phường An Hòa,Quận Ninh Kiều,Cần Thơ,True
578,,,,,,10.0552,105.77273,,Hẻm 84 Cách Mạng Tháng 8,Phường Cái Khế,Quận Ninh Kiều,Cần Thơ,True
581,,,,,,10.03026,105.78797,2,Đường Hai Bà Trưng,Phường Tân An,Quận Ninh Kiều,Cần Thơ,True
582,,,,,,10.04498,105.78585,10,Đường Trần Đại Nghĩa,Phường Cái Khế,Quận Ninh Kiều,Cần Thơ,True
583,,,,,,10.0446,105.78684,52,Đường Lương Định Của,Phường Cái Khế,Quận Ninh Kiều,Cần Thơ,True
584,,,,,,10.03482,105.78153,81,Đường Đề Thám,Phường An Cư,Quận Ninh Kiều,Cần Thơ,True
585,,,,,,10.0403,105.79347,2A,Đường Sông Hậu,Phường Cái Khế,Quận Ninh Kiều,Cần Thơ,True
586,,,,,,10.027,105.7861,1,Đường Hai Bà Trưng,Phường Tân An,Quận Ninh Kiều,Cần Thơ,True
587,,,,,,10.0403,105.79347,2A,Đường Sông Hậu,Phường Cái Khế,Quận Ninh Kiều,Cần Thơ,True
588,,,,,,10.03707,105.78131,22/23/122,Hẻm 22/23 Mạc Đĩnh Chi,Phường An Cư,Quận Ninh Kiều,Cần Thơ,True
589,,,,,,10.04507,105.78402,51,Đường Hồ Tùng Mậu,Phường Cái Khế,Quận Ninh Kiều,Cần Thơ,True
590,,,,,,10.0463,105.78696,143,Đường Trần Văn Khéo,Phường Cái Khế,Quận Ninh Kiều,Cần Thơ,True
591,,,,,,10.04323,105.7867,89,Đường Phạm Ngọc Thạch,Phường Cái Khế,Quận Ninh Kiều,Cần Thơ,True
592,,,,,,10.04403,105.78016,4,Đường Bùi Thị Xuân,Phường Thới Bình,Quận Ninh Kiều,Cần Thơ,True
593,,,,,,10.04521,105.77919,67,Đường Phan Đăng Lưu,Phường Thới Bình,Quận Ninh Kiều,Cần Thơ,True
595,,,,,,10.04003,105.77776,155,Đường Hoàng Văn Thụ,Phường An Cư,Quận Ninh Kiều,Cần Thơ,True
596,,,,,,10.0437,105.77843,58,Hùng Vương,Phường Thới Bình,Quận Ninh Kiều,Cần Thơ,True
597,,,,,,10.04652,105.77714,,Hẻm 35 Phạm Ngũ Lão,Phường Thới Bình,Quận Ninh Kiều,Cần Thơ,True
598,,,,,,10.03897,105.77675,66A,Đường Trần Hưng Đạo,Phường An Nghiệp,Quận Ninh Kiều,Cần Thơ,True
599,,,,,,10.04851,105.77038,187,Đường Nguyễn Văn Cừ,Phường An Hòa,Quận Ninh Kiều,Cần Thơ,True
605,,,,,,10.04733,105.76708,14,Đường Võ Trường Toản,Phường An Hòa,Quận Ninh Kiều,Cần Thơ,True
612,,,,,,10.04643,105.76822,297,Đường Nguyễn Văn Cừ,Phường An Hòa,Quận Ninh Kiều,Cần Thơ,True
615,,,,,,10.0491,105.77112,161,Đường Nguyễn Văn Cừ,Phường An Hòa,Quận Ninh Kiều,Cần Thơ,True
616,,,,,,10.04635,105.76803,,Đường Nguyễn Văn Cừ,Phường An Hòa,Quận Ninh Kiều,Cần Thơ,True
617,,,,,,10.03823,105.75991,141,Đường Nguyễn Văn Cừ Nối Dài,Phường An Khánh,Quận Ninh Kiều,Cần Thơ,True
618,,,,,,10.04857,105.77039,179,Đường Nguyễn Văn Cừ,Phường An Hòa,Quận Ninh Kiều,Cần Thơ,True
619,,,,,,10.05133,105.77279,34,Đường Nguyễn Văn Cừ,Phường An Hòa,Quận Ninh Kiều,Cần Thơ,True
620,,,,,,10.03682,105.76274,388/2,Đường Nguyễn Văn Cừ,Phường An Khánh,Quận Ninh Kiều,Cần Thơ,True
621,,,,,,10.04672,105.76886,279,Đường Nguyễn Văn Cừ,Phường An Hòa,Quận Ninh Kiều,Cần Thơ,True
622,,,,,,10.04506,105.76678,290,Đường Nguyễn Văn Cừ,Phường An Hòa,Quận Ninh Kiều,Cần Thơ,True
623,,,,,,10.04536,105.76721,268,Đường Nguyễn Văn Cừ,Phường An Hòa,Quận Ninh Kiều,Cần Thơ,True
624,,,,,,10.04958,105.77155,132,Đường Nguyễn Văn Cừ,Phường An Hòa,Quận Ninh Kiều,Cần Thơ,True
626,,,,,,10.04559,105.76734,333,Đường Nguyễn Văn Cừ,Phường An Hòa,Quận Ninh Kiều,Cần Thơ,True
627,,,,,,10.04258,105.76652,84,Đường Mậu Thân,Phường An Hòa,Quận Ninh Kiều,Cần Thơ,True
628,,,,,,10.04354,105.75765,,Đường Số 6,Phường An Khánh,Quận Ninh Kiều,Cần Thơ,True
629,,,,,,10.04395,105.75626,10,Đường Tô Hiến Thành,Phường An Khánh,Quận Ninh Kiều,Cần Thơ,True
630,,,,,,10.03985,105.75569,12,Đường Số 20,Phường An Khánh,Quận Ninh Kiều,Cần Thơ,True
631,,,,,,10.04829,105.76284,91B,Đường Nguyễn Đệ,Phường An Hòa,Quận Ninh Kiều,Cần Thơ,True
632,,,,,,10.04244,105.75684,127,Đường Trần Văn Long,Phường An Khánh,Quận Ninh Kiều,Cần Thơ,True
633,,,,,,10.01956,105.74089,10,Đường Nguyễn Văn Cừ Nối Dài,Phường An Bình,Quận Ninh Kiều,Cần Thơ,True
634,,,,,,10.05919,105.75999,553,Đường Trần Quang Diệu,Phường An Thới,Quận Bình Thủy,Cần Thơ,True
635,,,,,,10.0224,105.75701,2,Đường B6,Phường An Khánh,Quận Ninh Kiều,Cần Thơ,True
636,,,,,,10.04189,105.75737,174,Đường Trần Văn Long,Phường An Khánh,Quận Ninh Kiều,Cần Thơ,True
637,,,,,,10.03902,105.75333,61,Đường Số 6A,Phường An Khánh,Quận Ninh Kiều,Cần Thơ,True
639,,,,,,10.04149,105.76321,134,Đường Nguyễn Văn Cừ Nối Dài,Phường An Khánh,Quận Ninh Kiều,Cần Thơ,True
647,,,,,,10.02906,105.7506,137,Đường Nguyễn Văn Cừ,Phường An Khánh,Quận Ninh Kiều,Cần Thơ,True
649,,,,,,10.03682,105.76274,388/2,Đường Nguyễn Văn Cừ,Phường An Khánh,Quận Ninh Kiều,Cần Thơ,True
650,,,,,,10.03289,105.78684,,,Phường Tân An,Quận Ninh Kiều,Cần Thơ,True
655,,,,,,10.02657,105.75744,,Quốc Lộ 91B,Phường An Khánh,Quận Ninh Kiều,Cần Thơ,True
656,,,,,,10.02529,105.76362,2,Hẻm 2 Nguyễn Văn Linh,Phường An Khánh,Quận Ninh Kiều,Cần Thơ,True
657,,,,,,10.03266,105.75426,372,Đường Nguyễn Văn Cừ Nối Dài,Phường An Khánh,Quận Ninh Kiều,Cần Thơ,True
658,,,,,,10.03355,105.7484,337,Đường Nguyễn Văn Linh,Phường An Khánh,Quận Ninh Kiều,Cần Thơ,True
659,,,,,,10.0277,105.7555,326,Quốc Lộ 91B,Phường An Khánh,Quận Ninh Kiều,Cần Thơ,True
662,,,,,,10.03414,105.78757,32,Đường Ngô Quyền,Phường Tân An,Quận Ninh Kiều,Cần Thơ,True
663,,,,,,10.04453,105.76638,377,Đường Nguyễn Văn Cừ,Phường An Hòa,Quận Ninh Kiều,Cần Thơ,True
664,,,,,,10.03736,105.75922,210,Đường Nguyễn Văn Cừ Nối Dài,Phường An Khánh,Quận Ninh Kiều,Cần Thơ,True
665,,,,,,10.04481,105.76608,455,Đường Nguyễn Văn Cừ,Phường An Hòa,Quận Ninh Kiều,Cần Thơ,True
666,,,,,,9.99506,105.75724,,,Phường Thường Thạnh,Quận Cái Răng,Cần Thơ,True
667,,,,,,10.0064,105.7926,,Đường Phạm Văn Nhờ,Phường Phú Thứ,Quận Cái Răng,Cần Thơ,True
668,,,,,,10.02142,105.74252,261A,Đường Nguyễn Văn Cừ,Phường An Bình,Quận Ninh Kiều,Cần Thơ,True
670,,,,,,10.03401,105.78453,24,Đường Hòa Bình,Phường An Cư,Quận Ninh Kiều,Cần Thơ,True
671,,,,,,10.0034,105.80608,H78,Đường Bùi Quang Trinh,Phường Phú Thứ,Quận Cái Răng,Cần Thơ,True
672,,,,,,10.01313,105.75684,3,Đường 3 Tháng 2,Phường Hưng Lợi,Quận Ninh Kiều,Cần Thơ,True
673,,,,,,9.99641,105.72351,,Đường Lộ Vòng Cung,Xã Mỹ Khánh,Huyện Phong Điền,Cần Thơ,True
674,,,,,,9.99554,105.73972,,Đường Lộ Vòng Cung,Phường An Bình,Quận Ninh Kiều,Cần Thơ,True
675,,,,,,9.99518,105.73798,,Đường Lộ Vòng Cung,Phường An Bình,Quận Ninh Kiều,Cần Thơ,True
676,,,,,,10.00563,105.74487,163/4,Đường Lộ Vòng Cung,Phường An Bình,Quận Ninh Kiều,Cần Thơ,True
677,,,,,,10.00849,105.74982,,Cầu Cái Răng,Phường An Bình,Quận Ninh Kiều,Cần Thơ,True
678,,,,,,10.01519,105.74832,94,Hẻm 6 Trần Vĩnh Kiết,Phường An Bình,Quận Ninh Kiều,Cần Thơ,True
679,,,,,,10.0501,105.78701,2,Đường Lê Lợi,Phường Cái Khế,Quận Ninh Kiều,Cần Thơ,True
680,,,,,,10.01019,105.74675,,Đường Hoàng Quốc Việt,Phường An Bình,Quận Ninh Kiều,Cần Thơ,True
681,,,,,,10.02983,105.77221,98,Đường 3 Tháng 2,Phường Xuân Khánh,Quận Ninh Kiều,Cần Thơ,True
682,,,,,,10.01013,105.75073,1,Đường 3 Tháng 2,Phường An Bình,Quận Ninh Kiều,Cần Thơ,True
683,,,,,,10.0244,105.74739,,Đường Xuân Thủy,Phường An Bình,Quận Ninh Kiều,Cần Thơ,True
691,,,,,,9.99265,105.74875,169/1A,Quốc Lộ 1A,Phường Lê Bình,Quận Cái Răng,Cần Thơ,True
693,,,,,,10.0037,105.75216,566,Đường Nguyễn Trãi,Phường Lê Bình,Quận Cái Răng,Cần Thơ,True
695,,,,,,10.02329,105.75639,91,Đường Nguyễn Hiền,Phường An Khánh,Quận Ninh Kiều,Cần Thơ,True
699,,,,,,10.02103,105.75439,91B,Đường Trần Hoàng Na,Phường An Khánh,Quận Ninh Kiều,Cần Thơ,True
700,,,,,,10.02167,105.75494,179,Đường Nguyễn Hiền,Phường An Khánh,Quận Ninh Kiều,Cần Thơ,True
704,,,,,,10.0172,105.7592,102,Đường Trần Hoàng Na,Phường Hưng Lợi,Quận Ninh Kiều,Cần Thơ,True
705,,,,,,,,,,,,,True
706,,,,,,10.02423,105.75706,56,Đường Nguyễn Hiền,Phường An Khánh,Quận Ninh Kiều,Cần Thơ,True
710,,,,,,10.01972,105.77284,,,Phường Hưng Lợi,Quận Ninh Kiều,Cần Thơ,True
711,,,,,,10.01545,105.76365,,Ba Mươi Tháng Tư,Phường Hưng Lợi,Quận Ninh Kiều,Cần Thơ,True
717,,,,,,10.01344,105.76133,,Đường 30/4,Phường Hưng Lợi,Quận Ninh Kiều,Cần Thơ,True
718,,,,,,10.02664,105.77262,C147A,Hẻm 15 Trần Văn Hoài,Phường Xuân Khánh,Quận Ninh Kiều,Cần Thơ,True
719,,,,,,10.0158,105.75866,4,Hẻm 68A Đường 3 Tháng 2,Phường Hưng Lợi,Quận Ninh Kiều,Cần Thơ,True
720,,,,,,10.03169,105.76741,,Đường Xuân Khánh,Phường Xuân Khánh,Quận Ninh Kiều,Cần Thơ,True
721,,,,,,10.02653,105.77142,146G,Đường Trần Văn Hoài,Phường Xuân Khánh,Quận Ninh Kiều,Cần Thơ,True
722,,,,,,10.02313,105.7697,6A,Hẻm 8 Đường Trần Ngọc Quế,Phường Xuân Khánh,Quận Ninh Kiều,Cần Thơ,True
723,,,,,,10.03649,105.77233,84,Đường Mậu Thân,Phường Xuân Khánh,Quận Ninh Kiều,Cần Thơ,True
724,,,,,,10.02628,105.77277,C151,Hẻm 15 Trần Văn Hoài,Phường Xuân Khánh,Quận Ninh Kiều,Cần Thơ,True
725,,,,,,10.03518,105.78532,54A,Đường Ngô Quyền,Phường An Cư,Quận Ninh Kiều,Cần Thơ,True
726,,,,,,10.03555,105.78125,249,Đường Huỳnh Cương,Phường An Cư,Quận Ninh Kiều,Cần Thơ,True
727,,,,,,10.03068,105.78763,1,Đường Châu Văn Liêm,Phường Tân An,Quận Ninh Kiều,Cần Thơ,True
728,,,,,,10.03508,105.78803,3,Đường Trần Quốc Toản,Phường Tân An,Quận Ninh Kiều,Cần Thơ,True
729,,,,,,10.05163,105.77341,,Đường Nguyễn Văn Cừ,Phường An Hòa,Quận Ninh Kiều,Cần Thơ,True
730,,,,,,10.02731,105.74882,7,Đường Nguyễn Văn Cừ,Phường An Bình,Quận Ninh Kiều,Cần Thơ,True
732,,,,,,10.03385,105.78763,29,Đường Lê Thánh Tôn,Phường Tân An,Quận Ninh Kiều,Cần Thơ,True
733,,,,,,10.03657,105.78243,6,Hẻm 22 Mạc Đĩnh Chi,Phường An Cư,Quận Ninh Kiều,Cần Thơ,True
734,,,,,,10.03515,105.78395,2,Đường Nguyễn Khuyến,Phường An Cư,Quận Ninh Kiều,Cần Thơ,True
