,place_id,name,main_category,phone,address,address_ward,address_street,address_city,address_postal_code,address_state,address_country_code,coordinates
0,ChIJUWgrCqZioDERlNGHIYEhr60,Nhà Gỗ Cafe - Wood House Coffee Cần Thơ,Quán cà phê,0899 503 919,"Nhà Gỗ Cafe - Wood House Coffee Cần Thơ, 40 Đ. Phạm Ngọc Thạch, Cái Khế, Ninh Kiều, Cần Thơ 900000","Cái Khế, Ninh Kiều",40 Đ. Phạm Ngọc Thạch,Cần Thơ,900000.0,"Ninh Kiều, Cần Thơ",VN,"10.044213899999999,105.785707"
1,ChIJx_s4ZTiIoDERJhnCubUmeEM,Cà Phê Thời Gian,Quán cà phê,0901 062 020,"Cà Phê Thời Gian, 35 Đ. Nguyễn Văn Linh, Hưng Lợi, Ninh Kiều, Cần Thơ","Hưng Lợi, Ninh Kiều",35 Đ. Nguyễn Văn Linh,Cần Thơ,,"Ninh Kiều, Cần Thơ",VN,"10.0250007,105.75938339999999"
4,ChIJV20keZ9ioDERh1YPJYmAi0c,Cà Phê Phương Vinh,Quán cà phê,0292 3760 789,"Cà Phê Phương Vinh, 30 Đ. Nam Kỳ Khởi Nghĩa, Tân An, Ninh Kiều, Cần Thơ","Tân An, Ninh Kiều",30 Đ. Nam Kỳ Khởi Nghĩa,Cần Thơ,,"Ninh Kiều, Cần Thơ",VN,"10.0320854,105.78504939999999"
5,ChIJC5JFZCGIoDERs9-xioqsHxg,Coffee Fresh,Quán cà phê,0292 3735 245,"Coffee Fresh, Hẻm 15 Đ. Trần Văn Hoài, Xuân Khánh, Ninh Kiều, Cần Thơ 94000","Xuân Khánh, Ninh Kiều",Hẻm 15 Đ. Trần Văn Hoài,Cần Thơ,94000.0,"Ninh Kiều, Cần Thơ",VN,"10.026793699999999,105.77294069999999"
6,ChIJPSJDgCGIoDEROvrrCgGNMGA,CÀ PHÊ MILANO NGỌC THUÝ 1,Quán cà phê,0943 473 309,"CÀ PHÊ MILANO NGỌC THUÝ 1, 81 Đ. Nguyễn Việt Hồng, An Phú, Ninh Kiều, Cần Thơ 92000","An Phú, Ninh Kiều",81 Đ. Nguyễn Việt Hồng,Cần Thơ,92000.0,"Ninh Kiều, Cần Thơ",VN,"10.030854099999999,105.7784284"
9,ChIJz1_Q5lljoDERugYFVbXbnq4,GÓC KAFÉ,Quán cà phê,0907 121 316,"GÓC KAFÉ, 127 Nguyễn Trãi, Tân An, Ninh Kiều, Cần Thơ 900000","Tân An, Ninh Kiều",127 Nguyễn Trãi,Cần Thơ,900000.0,"Ninh Kiều, Cần Thơ",VN,"10.0416892,105.78363569999999"
24,ChIJ0xn0365ioDERTPE7AgJLNOk,Cafe - Điểm tâm Sông Thơ,Quán cà phê,,"Cafe - Điểm tâm Sông Thơ, 3 Lê Lợi, Cái Khế, Ninh Kiều, Cần Thơ","Cái Khế, Ninh Kiều",3 Lê Lợi,Cần Thơ,,"Ninh Kiều, Cần Thơ",VN,"10.0505707,105.79050339999999"
25,ChIJb2bin4eJoDER8NSJU2fUwpM,Cà phê Phương Hân,Quán cà phê,,"Cà phê Phương Hân, 18 Đ. Nguyễn Văn Linh, Hưng Lợi, Ninh Kiều, Cần Thơ","Hưng Lợi, Ninh Kiều",18 Đ. Nguyễn Văn Linh,Cần Thơ,,"Ninh Kiều, Cần Thơ",VN,"10.02018,105.76652209999999"
27,ChIJF4ZpWdyJoDERzRN84j08ma8,Cà phê Sữa Đá,Quán cà phê,0859 995 359,"Cà phê Sữa Đá, 79/21 Hùng Vương, An Cư, Ninh Kiều, Cần Thơ","An Cư, Ninh Kiều",79/21 Hùng Vương,Cần Thơ,,"Ninh Kiều, Cần Thơ",VN,"10.0407785,105.778515"
35,ChIJI2emurKJoDER5uyUUtCX2Mc,Cà phê Black Gold,Quán cà phê,0772 822 546,"Cà phê Black Gold, 299 Võ Văn Kiệt, An Thới, Ninh Kiều, Cần Thơ","An Thới, Ninh Kiều",299 Võ Văn Kiệt,Cần Thơ,,"Ninh Kiều, Cần Thơ",VN,"10.049131299999999,105.75638579999999"
36,ChIJvwKH-CGJoDERV0c_hMgygTw,CÀ PHÊ NHÀ PHẠM,Quán cà phê,0772 170 707,"CÀ PHÊ NHÀ PHẠM, 219 Đường số 3, khu CBGV, Ninh Kiều, Cần Thơ","khu CBGV, Ninh Kiều",219 Đường số 3,Cần Thơ,,"Ninh Kiều, Cần Thơ",VN,"10.0256969,105.7617415"
38,ChIJ95ZVm6VjoDERRs-ls71JwE0,T-COFFEE,Quán cà phê,0907 454 848,"T-COFFEE, 65 Mai Chí Thọ, Phú Thứ, Cái Răng, Cần Thơ 900000","Phú Thứ, Cái Răng",65 Mai Chí Thọ,Cần Thơ,900000.0,"Cái Răng, Cần Thơ",VN,"10.009107499999999,105.8015518"
49,ChIJ-6I1hZmJoDERXIaXaV4hgiI,Coffee & Food Tiếng Xưa - TTTM Cái Khế - Trần Phú,Quán cà phê,0866 719 799,"Coffee & Food Tiếng Xưa - TTTM Cái Khế - Trần Phú, Lô H Trần Phú, Thới Bình, Ninh Kiều, Cần Thơ 94000","Thới Bình, Ninh Kiều",Lô H Trần Phú,Cần Thơ,94000.0,"Ninh Kiều, Cần Thơ",VN,"10.0465249,105.78211879999999"
51,ChIJecnD4D2JoDERXpnttF_lD3c,Tojime cafe,Quán cà phê,0902 754 777,"Tojime cafe, 12A Đ. Lê Anh Xuân, An Cư, Ninh Kiều, Cần Thơ","An Cư, Ninh Kiều",12A Đ. Lê Anh Xuân,Cần Thơ,,"Ninh Kiều, Cần Thơ",VN,"10.0410574,105.77706359999999"
52,ChIJyf68tyBjoDERgOFKPFobSfY,Cafe Thềm Xưa,Quán cà phê,0931 022 424,"Cafe Thềm Xưa, 07 Đ. Phạm Ngọc Thạch, P, Ninh Kiều, Cần Thơ 90000","P, Ninh Kiều",07 Đ. Phạm Ngọc Thạch,Cần Thơ,90000.0,"Ninh Kiều, Cần Thơ",VN,"10.0447624,105.7855005"
54,ChIJ24MMnCFjoDERIZq8jNXWVqQ,Đất cà phê - takeaway & delivery,Quán cà phê,0348 782 788,"Đất cà phê - takeaway & delivery, 28 Đ. Xô Viết Nghệ Tĩnh, An Hội, Ninh Kiều, Cần Thơ 94000","An Hội, Ninh Kiều",28 Đ. Xô Viết Nghệ Tĩnh,Cần Thơ,94000.0,"Ninh Kiều, Cần Thơ",VN,"10.0380823,105.7841548"
57,ChIJWUJYJvSJoDERbGel3eYTEN4,Tiệm cà phê Nhà Có Khách,Quán cà phê,0363 618 128,"Tiệm cà phê Nhà Có Khách, 359/19b Đ. Nguyễn Văn Cừ, An Hoà, Ninh Kiều, Cần Thơ","An Hoà, Ninh Kiều",359/19b Đ. Nguyễn Văn Cừ,Cần Thơ,,"Ninh Kiều, Cần Thơ",VN,"10.0442558,105.7674744"
60,ChIJTaFpXd6JoDERk1j12Kc2h9w,Up Coffee & Bistro,Quán cà phê,0774 451 319,"Up Coffee & Bistro, 35 Hẻm 6 Mậu Thân, An Phú, Ninh Kiều, Cần Thơ","An Phú, Ninh Kiều",35 Hẻm 6 Mậu Thân,Cần Thơ,,"Ninh Kiều, Cần Thơ",VN,"10.0293785,105.77408989999999"
71,ChIJ-3ok4cSJoDERjZQN0AEkq74,Lyon Coffee Cần Thơ (Tổng kho cà phê sạch thương hiệu Lyon Coffee),Quán cà phê,0939 188 968,"Lyon Coffee Cần Thơ (Tổng kho cà phê sạch thương hiệu Lyon Coffee), 278/32/1B, Tầm Vu, Hưng Lợi, Ninh Kiều, Cần Thơ","Hưng Lợi, Ninh Kiều","278/32/1B, Tầm Vu",Cần Thơ,,"Ninh Kiều, Cần Thơ",VN,"10.0161301,105.7697223"
72,ChIJFTKty0iJoDERc1psLbx0Nno,Cà phê Đỉnh,Quán cà phê,0926 616 775,"Cà phê Đỉnh, 57 Đ. Nguyễn Đệ, An Hoà, Ninh Kiều, Cần Thơ 92000","An Hoà, Ninh Kiều",57 Đ. Nguyễn Đệ,Cần Thơ,92000.0,"Ninh Kiều, Cần Thơ",VN,"10.049199,105.7648536"
74,ChIJJb1-72SJoDERh3P6EpoBQqs,By Ken Le - Cafe Sữa Bọt,Quán cà phê,,"By Ken Le - Cafe Sữa Bọt, 65 Đ. Xô Viết Nghệ Tĩnh, Tân An, Ninh Kiều, Cần Thơ 900022","Tân An, Ninh Kiều",65 Đ. Xô Viết Nghệ Tĩnh,Cần Thơ,900022.0,"Ninh Kiều, Cần Thơ",VN,"10.0366583,105.7853203"
75,ChIJr7JyMJGJoDERwvsVHNTPlOQ,Co-Coffee,Quán cà phê,0939 154 202,"Co-Coffee, 202 Đ. Nguyễn Đệ, An Hoà, Ninh Kiều, Cần Thơ","An Hoà, Ninh Kiều",202 Đ. Nguyễn Đệ,Cần Thơ,,"Ninh Kiều, Cần Thơ",VN,"10.0480571,105.76008089999999"
88,ChIJzzvU_mOJoDERK_Lq3Bicjvg,Bán máy pha cà phê Cần Thơ,Quán cà phê,0964 249 914,"Bán máy pha cà phê Cần Thơ, Số 1 Đường 29, Kdc Thới Nhựt 2, Ninh Kiều, Cần Thơ","Kdc Thới Nhựt 2, Ninh Kiều",Số 1 Đường 29,Cần Thơ,,"Ninh Kiều, Cần Thơ",VN,"10.0365667,105.7555198"
89,ChIJ7-U23NxjoDERBFhvVBHj5dw,Cả Nhà Mình Coffee,Quán cà phê,0913 973 360,"Cả Nhà Mình Coffee, 48 Đ. Xô Viết Nghệ Tĩnh, An Hội, Ninh Kiều, Cần Thơ","An Hội, Ninh Kiều",48 Đ. Xô Viết Nghệ Tĩnh,Cần Thơ,,"Ninh Kiều, Cần Thơ",VN,"10.038546199999999,105.783959"
90,ChIJY6sP2OBjoDER72dPs_gLShE,Cà Phê Tình Lai,Quán cà phê,,"Cà Phê Tình Lai, 24 Đ. Tân Trào, Tân An, Ninh Kiều, Cần Thơ","Tân An, Ninh Kiều",24 Đ. Tân Trào,Cần Thơ,,"Ninh Kiều, Cần Thơ",VN,"10.0333396,105.7874748"
91,ChIJ2SjHI65joDERnqDMVplwEpw,Cà phê tình nhân Bi Coffee 2,Quán cà phê,0292 2468 879,"Cà phê tình nhân Bi Coffee 2, 30-32 Đ. Phạm Ngọc Thạch, P, Ninh Kiều, Cần Thơ","P, Ninh Kiều",30-32 Đ. Phạm Ngọc Thạch,Cần Thơ,,"Ninh Kiều, Cần Thơ",VN,"10.0444018,105.7854148"
95,ChIJdYcpvbyJoDER4Iuq7O7kh9E,Chất Cà Phê,Quán cà phê,0939 828 929,"Chất Cà Phê, 381 Đ. Nguyễn Văn Cừ, An Hoà, Ninh Kiều, Cần Thơ","An Hoà, Ninh Kiều",381 Đ. Nguyễn Văn Cừ,Cần Thơ,,"Ninh Kiều, Cần Thơ",VN,"10.0442311,105.7661902"
98,ChIJsVeAxXmJoDER8ozkVC_uJH8,zCat - Tuyệt Đỉnh Tô Tượng - Tiệm trà sữa - cà phê - ăn vặt - tô tượng,Quán cà phê,0969 600 703,"zCat - Tuyệt Đỉnh Tô Tượng - Tiệm trà sữa - cà phê - ăn vặt - tô tượng, 34 Đường Yết Kiêu, An Cư, Ninh Kiều, Cần Thơ 94106","An Cư, Ninh Kiều",34 Đường Yết Kiêu,Cần Thơ,94106.0,"Ninh Kiều, Cần Thơ",VN,"10.0424017,105.77326359999999"
99,ChIJi1pA1IOJoDERts7F7MyS3rM,Võ Café,Quán cà phê,0907 192 730,"Võ Café, 96 Tổ 3, khu vực 12, Ninh Kiều, Cần Thơ 94117","khu vực 12, Ninh Kiều",96 Tổ 3,Cần Thơ,94117.0,"Ninh Kiều, Cần Thơ",VN,"10.0388295,105.76758149999999"
107,ChIJW71BbsaLoDER0y2NrZVTKuA,Cà Phê ĐIỂM HẸN,Quán cà phê,0772 774 216,"XQ55+8J9 Cà Phê ĐIỂM HẸN, Đông Thạnh, Châu Thành, Hậu Giang","Đông Thạnh, Châu Thành",XQ55+8J9,Hậu Giang,,"Châu Thành, Hậu Giang",VN,"9.9582936,105.75910139999999"
118,ChIJbyEsFQCJoDERDTtY53Xr6E8,Tiệm Cà Phê Trang,Quán cà phê,0902 944 466,"Tiệm Cà Phê Trang, 11 Đ. Trần Bình Trọng, An Phú, Ninh Kiều, Cần Thơ","An Phú, Ninh Kiều",11 Đ. Trần Bình Trọng,Cần Thơ,,"Ninh Kiều, Cần Thơ",VN,"10.034742699999999,105.77823599999999"
119,ChIJV4lwhMeJoDERlokURbPiXf8,1995s Coffee & Tea,Quán cà phê,0706 799 379,"1995s Coffee & Tea, 251/32A Đ. Trần Ngọc Quế, Xuân Khánh, Ninh Kiều, Cần Thơ","Xuân Khánh, Ninh Kiều",251/32A Đ. Trần Ngọc Quế,Cần Thơ,,"Ninh Kiều, Cần Thơ",VN,"10.021044,105.77138199999999"
123,ChIJCStwutOJoDERcx0fD3JCxk0,Cà Phê Đồ Nghề Phước Duy,Quán cà phê,0946 377 778,"Cà Phê Đồ Nghề Phước Duy, 159 Huỳnh Cương, An Cư, Ninh Kiều, Cần Thơ","An Cư, Ninh Kiều",159 Huỳnh Cương,Cần Thơ,,"Ninh Kiều, Cần Thơ",VN,"10.0370707,105.780772"
124,ChIJp81wBmxjoDERgBVyiQIuVZ8,Nhà cung cấp cà phê - Thương Hiệu Lyon Coffee Top 1 Việt Nam,Nhà bán buôn cà phê,0909 587 675,"Nhà cung cấp cà phê - Thương Hiệu Lyon Coffee Top 1 Việt Nam, 82 đường Lê Lợi, Cái Khế, Ninh Kiều, Cần Thơ 94107","Cái Khế, Ninh Kiều",82 đường Lê Lợi,Cần Thơ,94107.0,"Ninh Kiều, Cần Thơ",VN,"10.0471214,105.7883533"
139,ChIJJ7NkhWqJoDERXIcM5VRte10,Cà Phê Xe Lam,Quán cà phê,0971 842 135,"Cà Phê Xe Lam, 31 Hùng Vương, An Hội, Ninh Kiều, Cần Thơ","An Hội, Ninh Kiều",31 Hùng Vương,Cần Thơ,,"Ninh Kiều, Cần Thơ",VN,"10.0442117,105.7792678"
141,ChIJXedSC3GJoDERCJ9MsUx8DpI,Cà phê Vợt mang đi,Quán cà phê,0949 127 890,"Cà phê Vợt mang đi, 62 Đ. Mậu Thân, An Nghiệp, Ninh Kiều, Cần Thơ","An Nghiệp, Ninh Kiều",62 Đ. Mậu Thân,Cần Thơ,,"Ninh Kiều, Cần Thơ",VN,"10.0358047,105.77269559999999"
142,ChIJfVs5ApiJoDERNDeCZ8QZGv0,Cà phê Vợt mang đi,Quán cà phê,0949 127 890,"Cà phê Vợt mang đi, 3 Đ. 3 Tháng 2, Xuân Khánh, Ninh Kiều, Cần Thơ 94000","Xuân Khánh, Ninh Kiều",3 Đ. 3 Tháng 2,Cần Thơ,94000.0,"Ninh Kiều, Cần Thơ",VN,"10.032219999999999,105.7743588"
143,ChIJ4RCpJPRjoDER3D0ReG2dKOk,Cà phê Tarot,Quán cà phê,0899 666 788,"Cà phê Tarot, 44 Đ. Nguyễn Khuyến, Tân An, Ninh Kiều, Cần Thơ 900000","Tân An, Ninh Kiều",44 Đ. Nguyễn Khuyến,Cần Thơ,900000.0,"Ninh Kiều, Cần Thơ",VN,"10.0344825,105.7832001"
145,ChIJJY9PuSSIoDER7MHl4OKk4QY,Quán Cà Phê Pha Lê,Quán cà phê,0292 3738 399,"2QGC+JHV Quán Cà Phê Pha Lê, Đ. Trần Văn Hoài, Xuân Khánh, Ninh Kiều, Cần Thơ","Xuân Khánh, Ninh Kiều","2QGC+JHV, Đ. Trần Văn Hoài",Cần Thơ,,"Ninh Kiều, Cần Thơ",VN,"10.0266231,105.7714252"
157,ChIJs5zJYDqIoDERoQ-O7t6vrQY,Quán Cà Phê Lê Bình,Quán cà phê,0989 900 077,"2QF8+FRV Quán Cà Phê Lê Bình, Đ. 3 Tháng 2, Hưng Lợi, Ninh Kiều, Cần Thơ","Hưng Lợi, Ninh Kiều","2QF8+FRV, Đ. 3 Tháng 2",Cần Thơ,,"Ninh Kiều, Cần Thơ",VN,"10.023740499999999,105.76705179999999"
158,ChIJSwzxdMOJoDERFD3n1eV2LDY,Cafe PHỐ 24H,Quán cà phê,0989 900 077,"Cafe PHỐ 24H, 124 Đ. 30 Tháng 4, Hưng Lợi, Ninh Kiều, Cần Thơ","Hưng Lợi, Ninh Kiều",124 Đ. 30 Tháng 4,Cần Thơ,,"Ninh Kiều, Cần Thơ",VN,"10.0141335,105.76247989999999"
159,ChIJiTr5bzSIoDER_7DJCUzeyDg,Aurora Cafe,Quán cà phê,,"Aurora Cafe, 169B Đ. 30 Tháng 4, Hưng Lợi, Ninh Kiều, Cần Thơ","Hưng Lợi, Ninh Kiều",169B Đ. 30 Tháng 4,Cần Thơ,,"Ninh Kiều, Cần Thơ",VN,"10.015246,105.7637206"
161,ChIJfZ7K6zqIoDERr_IzgMQbv7A,Hoa Đô Coffee,Quán cà phê,0939 659 059,"Hoa Đô Coffee, 164/7A Đ. Trần Ngọc Quế, Xuân Khánh, Ninh Kiều, Cần Thơ","Xuân Khánh, Ninh Kiều",164/7A Đ. Trần Ngọc Quế,Cần Thơ,,"Ninh Kiều, Cần Thơ",VN,"10.024035,105.768671"
162,ChIJp7ErsKdioDERvXNzqlN12qE,Quán Cà Phê Đoàn 30,Quán cà phê,0292 3832 574,"Quán Cà Phê Đoàn 30, 80 Nguyễn Trãi, An Hội, Ninh Kiều, Cần Thơ","An Hội, Ninh Kiều",80 Nguyễn Trãi,Cần Thơ,,"Ninh Kiều, Cần Thơ",VN,"10.041995,105.7838211"
166,ChIJ5VqtGaBioDER3NQLlbGoQyA,Quán Cà Phê Phương Mai,Quán cà phê,0949 111 223,"Quán Cà Phê Phương Mai, 42-44 Đại lộ Hoà Bình, Tân An, Ninh Kiều, Cần Thơ","Tân An, Ninh Kiều",42-44 Đại lộ Hoà Bình,Cần Thơ,,"Ninh Kiều, Cần Thơ",VN,"10.033021699999999,105.78343989999999"
168,ChIJD0vcIKBioDERf3Uvau8DP5c,Cafe Tâm,Quán cà phê,0292 3823 722,"Cafe Tâm, 99 Võ Văn Tần, Tân An, Ninh Kiều, Cần Thơ","Tân An, Ninh Kiều",99 Võ Văn Tần,Cần Thơ,,"Ninh Kiều, Cần Thơ",VN,"10.0326244,105.7837771"
169,ChIJLYBYwDqIoDERuElQZO_4-vg,Cà Phê Hoàng Hôn,Quán cà phê,0292 3840 123,"Cà Phê Hoàng Hôn, 162 Đ. Trần Ngọc Quế, Xuân Khánh, Ninh Kiều, Cần Thơ 900000","Xuân Khánh, Ninh Kiều",162 Đ. Trần Ngọc Quế,Cần Thơ,900000.0,"Ninh Kiều, Cần Thơ",VN,"10.0243339,105.7688431"
170,ChIJid_tjESIoDER6a6pRgDP7V8,Cà Phê 338,Quán cà phê,,"Cà Phê 338, 28 Nguyễn Văn Cừ Nối Dài, Phường An Khánh, Ninh Kiều, Cần Thơ","Phường An Khánh, Ninh Kiều",28 Nguyễn Văn Cừ Nối Dài,Cần Thơ,,"Ninh Kiều, Cần Thơ",VN,"10.027114,105.7491793"
172,ChIJ78GcTDJjoDERsnbGDpEmGgs,Yên Garden Coffee & Tea,Quán cà phê,0939 141 177,"Yên Garden Coffee & Tea, 70-72 Lê Lợi, Cái Khế, Ninh Kiều, Cần Thơ 94000","Cái Khế, Ninh Kiều",70-72 Lê Lợi,Cần Thơ,94000.0,"Ninh Kiều, Cần Thơ",VN,"10.0475212,105.7881822"
186,ChIJX5VetDGIoDERCG8HLsda1Xo,Quán Cà Phê Cây Khế,Quán cà phê,0292 3839 336,"2Q99+PFG Quán Cà Phê Cây Khế, Đ. Nguyễn Văn Linh, Hưng Lợi, Ninh Kiều, Cần Thơ","Hưng Lợi, Ninh Kiều","2Q99+PFG, Đ. Nguyễn Văn Linh",Cần Thơ,,"Ninh Kiều, Cần Thơ",VN,"10.0193127,105.7687175"
187,ChIJu3s0ZgBjoDERzqKe3QXYzJM,Cà phê Bưu Điện,Quán cà phê,,"Cà phê Bưu Điện, 29 Ngô Gia Tự, Tân An, Ninh Kiều, Cần Thơ","Tân An, Ninh Kiều",29 Ngô Gia Tự,Cần Thơ,,"Ninh Kiều, Cần Thơ",VN,"10.037120999999999,105.7868074"
192,ChIJpWu3KaBioDERhoYKUtijfrE,Time Cafe,Quán cà phê,,"Time Cafe, 89a Võ Văn Tần, Tân An, Ninh Kiều, Cần Thơ","Tân An, Ninh Kiều",89a Võ Văn Tần,Cần Thơ,,"Ninh Kiều, Cần Thơ",VN,"10.032582099999999,105.7842634"
194,ChIJCSPlLl5joDERaCi3yhpLWG0,Cafe Six Garden,Quán cà phê,,"Cafe Six Garden, 6 Đại lộ Hoà Bình, Tân An, Ninh Kiều, Cần Thơ","Tân An, Ninh Kiều",6 Đại lộ Hoà Bình,Cần Thơ,,"Ninh Kiều, Cần Thơ",VN,"10.035476,105.7858833"
195,ChIJ9bfG6XqJoDERA4zpB_UHJP8,Xóm Cà Phê,Quán cà phê,0292 3818 283,"Xóm Cà Phê, 290 Đường 3-2, An Bình, Ninh Kiều, Cần Thơ","An Bình, Ninh Kiều",290 Đường 3-2,Cần Thơ,,"Ninh Kiều, Cần Thơ",VN,"10.010508,105.7511825"
196,ChIJvTSQdaBioDERxSgHheoEAGU,Cà Phê Cát Tường 1,Quán cà phê,,"Cà Phê Cát Tường 1, 39 Đ. Đề Thám, Tân An, Ninh Kiều, Cần Thơ","Tân An, Ninh Kiều",39 Đ. Đề Thám,Cần Thơ,,"Ninh Kiều, Cần Thơ",VN,"10.0341267,105.78209439999999"
200,ChIJc_aRgw-JoDER_Z_xaAatr4c,Cà phê & Ăn sáng Tiếng Xưa,Quán cà phê,,"Cà phê & Ăn sáng Tiếng Xưa, 68 Đ. 3 Tháng 2, Hưng Lợi, Ninh Kiều, Cần Thơ","Hưng Lợi, Ninh Kiều",68 Đ. 3 Tháng 2,Cần Thơ,,"Ninh Kiều, Cần Thơ",VN,"10.0149226,105.75899349999999"
202,ChIJz2vXItaJoDER5qOCI8WD4Ew,4Cs Cafe,Quán cà phê,0292 3868 000,"4Cs Cafe, 80 Đ. Mậu Thân, An Nghiệp, Ninh Kiều, Cần Thơ","An Nghiệp, Ninh Kiều",80 Đ. Mậu Thân,Cần Thơ,,"Ninh Kiều, Cần Thơ",VN,"10.0365556,105.77225"
203,ChIJ02nyRZGJoDERH7Zx1_Uqfds,Cafe F,Quán cà phê,0939 347 789,"Cafe F, mới, Đ. Trần Hoàng Na, Hưng Lợi, Ninh Kiều, Cần Thơ","Hưng Lợi, Ninh Kiều","mới, Đ. Trần Hoàng Na",Cần Thơ,,"Ninh Kiều, Cần Thơ",VN,"10.0182971,105.7575694"
218,ChIJ7bP-JSSIoDERP05Xr_wjdGM,G-Master Boardgames Coffee,Quán cà phê,0829 990 399,"G-Master Boardgames Coffee, 19/27 Đ. Trương Định, Tân An, Ninh Kiều, Cần Thơ","Tân An, Ninh Kiều",19/27 Đ. Trương Định,Cần Thơ,,"Ninh Kiều, Cần Thơ",VN,"10.0351059,105.7823284"
219,ChIJY7DRVhqIoDER5pFAe4PY9XA,Quán Cà Phê 2.63,Quán cà phê,0292 3768 213,"Quán Cà Phê 2.63, 124 Đ. Lê Anh Xuân, An Nghiệp, Ninh Kiều, Cần Thơ","An Nghiệp, Ninh Kiều",124 Đ. Lê Anh Xuân,Cần Thơ,,"Ninh Kiều, Cần Thơ",VN,"10.0407794,105.7724411"
230,ChIJRff3EP6HoDERlQfjAd6jT0Q,Cà Phê Vườn Tơ Hồng,Quán cà phê,,"Cà Phê Vườn Tơ Hồng, 8 Nguyễn Văn Cừ nối dài, Phường An Khánh, Ninh Kiều, Cần Thơ","Phường An Khánh, Ninh Kiều",8 Nguyễn Văn Cừ nối dài,Cần Thơ,,"Ninh Kiều, Cần Thơ",VN,"10.055381299999999,105.77700349999999"
232,ChIJWRFajTqIoDERaWxGvO5Diyk,Cà Phê Cố Đô,Quán cà phê,0913 312 259,"Cà Phê Cố Đô, 170 Đ. Quản Trọng Hoàng, Xuân Khánh, Ninh Kiều, Cần Thơ","Xuân Khánh, Ninh Kiều",170 Đ. Quản Trọng Hoàng,Cần Thơ,,"Ninh Kiều, Cần Thơ",VN,"10.023628,105.76805689999999"
234,ChIJ8xhaq8yJoDERXCznfeWGeoA,Cà Phê Nhanh,Quán cà phê,0292 2477 998,"Cà Phê Nhanh, 41 Đ. Trần Hoàng Na, Hưng Lợi, Ninh Kiều, Cần Thơ","Hưng Lợi, Ninh Kiều",41 Đ. Trần Hoàng Na,Cần Thơ,,"Ninh Kiều, Cần Thơ",VN,"10.011622,105.7647085"
235,ChIJtdvCIiSIoDERTY6hm-Z4gXE,Cà Phê Bảo Trân 2,Quán cà phê,0292 3827 709,"Cà Phê Bảo Trân 2, 1 Đ. 30 Tháng 4, Xuân Khánh, Ninh Kiều, Cần Thơ","Xuân Khánh, Ninh Kiều",1 Đ. 30 Tháng 4,Cần Thơ,,"Ninh Kiều, Cần Thơ",VN,"10.0260993,105.77549739999999"
236,ChIJy1EwWymHoDERRW2ksUC7hqE,Coffee Trung Đông,Quán cà phê,0292 3832 852,"Coffee Trung Đông, 38 Đ. Nguyễn Văn Cừ, Cái Khế, Ninh Kiều, Cần Thơ","Cái Khế, Ninh Kiều",38 Đ. Nguyễn Văn Cừ,Cần Thơ,,"Ninh Kiều, Cần Thơ",VN,"10.057645899999999,105.77954129999999"
237,ChIJT-CJ-y-IoDERhwhRaNbXtA0,Kaffeine House,Quán cà phê,,"Kaffeine House, 320 Đ. Trần Ngọc Quế, Xuân Khánh, Ninh Kiều, Cần Thơ","Xuân Khánh, Ninh Kiều",320 Đ. Trần Ngọc Quế,Cần Thơ,,"Ninh Kiều, Cần Thơ",VN,"10.021932,105.77078039999999"
250,ChIJUVYgkPCJoDERsJPk0ubc1KY,VOI Coffee,Quán cà phê,0946 144 244,"VOI Coffee, 250 Đ. Nguyễn Hiền, Hưng Lợi, Ninh Kiều, Cần Thơ 94000","Hưng Lợi, Ninh Kiều",250 Đ. Nguyễn Hiền,Cần Thơ,94000.0,"Ninh Kiều, Cần Thơ",VN,"10.0207894,105.75368689999999"
251,ChIJS3Mn4th9oDERiyWynuWd0UA,Cà phê QUYÊN (Cồn Khương),Quán cà phê,,"3Q6M+HP7 Cà phê QUYÊN (Cồn Khương), Đ. Nguyễn Văn Cừ, Cái Khế, Ninh Kiều, Cần Thơ","Cái Khế, Ninh Kiều","3Q6M+HP7, Đ. Nguyễn Văn Cừ",Cần Thơ,,"Ninh Kiều, Cần Thơ",VN,"10.0611929,105.784352"
252,ChIJLYyaS5uJoDERuI8eL7k7d3c,Cà phê Cổ Ngoạn,Quán cà phê,0997 307 979,"Cà phê Cổ Ngoạn, Cà phê Cổ ngoạn, Long Tuyền, Bình Thủy, Cần Thơ","Long Tuyền, Bình Thủy",Cà phê Cổ ngoạn,Cần Thơ,,"Bình Thủy, Cần Thơ",VN,"10.0226467,105.7366409"
253,ChIJo4h67oCJoDERJbZCcefOS0Q,Milano Mr Bảo Trần Hoàng Na,Quán cà phê,,"Milano Mr Bảo Trần Hoàng Na, 151 Đ. Trần Hoàng Na, Hưng Lợi, Ninh Kiều, Cần Thơ","Hưng Lợi, Ninh Kiều",151 Đ. Trần Hoàng Na,Cần Thơ,,"Ninh Kiều, Cần Thơ",VN,"10.013404,105.7630554"
254,ChIJI3B_JkeIoDERYbYcnjzSu-Y,Cà Phê Ngũ Long,Quán cà phê,0788 885 515,"Cà Phê Ngũ Long, 329 QL91B, Phường An Khánh, Ninh Kiều, Cần Thơ","Phường An Khánh, Ninh Kiều",329 QL91B,Cần Thơ,,"Ninh Kiều, Cần Thơ",VN,"10.0276806,105.7560477"
255,ChIJe2FMbCeJoDER9Im_s0N76F8,Quán Cà Phê PHÙ SA,Quán cà phê,,"2QC4+V2G Quán Cà Phê PHÙ SA, Khu dân cư 91B, Ninh Kiều, Cần Thơ","Khu dân cư 91B, Ninh Kiều",2QC4+V2G,Cần Thơ,,"Ninh Kiều, Cần Thơ",VN,"10.0221999,105.7550807"
257,ChIJHcCdGOqJoDERy7S9HK6sYLM,Tiệm cà phê Ông Quan,Quán cà phê,0937 296 565,"Tiệm cà phê Ông Quan, 78 Đ. 30 Tháng 4, Hưng Lợi, Ninh Kiều, Cần Thơ","Hưng Lợi, Ninh Kiều",78 Đ. 30 Tháng 4,Cần Thơ,,"Ninh Kiều, Cần Thơ",VN,"10.0105985,105.75634919999999"
259,ChIJNzSr6g6IoDERRTkH-GLe4ME,Cà Phê Trung Hiếu,Quán cà phê,0904 333 889,"Cà Phê Trung Hiếu, 69 Đ. Võ Trường Toản, An Hoà, Ninh Kiều, Cần Thơ","An Hoà, Ninh Kiều",69 Đ. Võ Trường Toản,Cần Thơ,,"Ninh Kiều, Cần Thơ",VN,"10.0480964,105.765954"
260,ChIJe3X7cp9ioDERaKShaoHDVPk,Cà Phê Song Nghi,Quán cà phê,0292 2480 676,"Cà Phê Song Nghi, 80 Đường Nguyễn An Ninh, Tân An, Ninh Kiều, Cần Thơ","Tân An, Ninh Kiều",80 Đường Nguyễn An Ninh,Cần Thơ,,"Ninh Kiều, Cần Thơ",VN,"10.0312983,105.785782"
261,ChIJpwaCvhmIoDERdpuy-x0MoGo,Quán Cà Phê Tuyết Trắng,Quán cà phê,0918 885 222,"Quán Cà Phê Tuyết Trắng, 41F Đ. Mậu Thân, An Nghiệp, Ninh Kiều, Cần Thơ","An Nghiệp, Ninh Kiều",41F Đ. Mậu Thân,Cần Thơ,,"Ninh Kiều, Cần Thơ",VN,"10.036968,105.7721615"
262,ChIJs0ye6FCIoDERINq9CwbO2E4,Cà Phê Tuyết Nhi,Quán cà phê,,"Cà Phê Tuyết Nhi, 28 Nguyễn Văn Cừ Nối Dài, An Bình, Ninh Kiều, Cần Thơ","An Bình, Ninh Kiều",28 Nguyễn Văn Cừ Nối Dài,Cần Thơ,,"Ninh Kiều, Cần Thơ",VN,"10.0213127,105.74228939999999"
263,ChIJqc_wpDSIoDERmyI3cJeITnQ,Cà Phê Không Gian,Quán cà phê,,"Cà Phê Không Gian, 151 Đ. Trần Hoàng Na, Hưng Lợi, Ninh Kiều, Cần Thơ","Hưng Lợi, Ninh Kiều",151 Đ. Trần Hoàng Na,Cần Thơ,,"Ninh Kiều, Cần Thơ",VN,"10.0130033,105.76384019999999"
264,ChIJFz9Uu86JoDER4TTn4BmGgkw,VIỆT THÁI coffee,Quán cà phê,0877 705 065,"VIỆT THÁI coffee, 117/4A Đ. 3 Tháng 2, Hưng Lợi, Ninh Kiều, Cần Thơ","Hưng Lợi, Ninh Kiều",117/4A Đ. 3 Tháng 2,Cần Thơ,,"Ninh Kiều, Cần Thơ",VN,"10.0167948,105.75933719999999"
265,ChIJR9IbwmiHoDERbMEG_ZHRpYQ,Cà phê - Trà Sữa Thảo Mộc,Quán cà phê,,"Cà phê - Trà Sữa Thảo Mộc, 154 Trần Quang Diệu, An Thới, Bình Thủy, Cần Thơ","An Thới, Bình Thủy",154 Trần Quang Diệu,Cần Thơ,,"Bình Thủy, Cần Thơ",VN,"10.058577999999999,105.7613786"
266,ChIJOyJG10eIoDERdtSeoFmBKYg,Cà Phê Góc Phố,Quán cà phê,0946 401 699,"Cà Phê Góc Phố, 57 Đ. Nguyễn Hiền, Hưng Lợi, Ninh Kiều, Cần Thơ","Hưng Lợi, Ninh Kiều",57 Đ. Nguyễn Hiền,Cần Thơ,,"Ninh Kiều, Cần Thơ",VN,"10.0239713,105.7571935"
267,ChIJk2CCSdWJoDER9j2xRv_Vvbo,Cafe Ngọt,Quán cà phê,0906 822 169,"Cafe Ngọt, 112/58, Cần Thơ","Hưng Lợi, Ninh Kiều",112/58,Cần Thơ,,"Ninh Kiều, Cần Thơ",VN,"10.0180162,105.75793069999999"
268,ChIJi5tBOQCJoDERMF8iP5eeZXY,Coffee & MILK TEA HOA GIẤY,Quán cà phê,0973 793 335,"Coffee & MILK TEA HOA GIẤY, 151/39C Đ. Trần Hoàng Na, Hưng Lợi, Ninh Kiều, Cần Thơ","Hưng Lợi, Ninh Kiều",151/39C Đ. Trần Hoàng Na,Cần Thơ,,"Ninh Kiều, Cần Thơ",VN,"10.0128022,105.76361159999999"
269,ChIJefxlRQSJoDERlAw9SAehmm4,Cà phê Lâm,Quán cà phê,0786 848 333,"Cà phê Lâm, 35 Đường Số 4, KDC, Ninh Kiều, Cần Thơ","KDC, Ninh Kiều",35 Đường Số 4,Cần Thơ,,"Ninh Kiều, Cần Thơ",VN,"10.023934599999999,105.749646"
271,ChIJy_GGSoKJoDERI4FQr6chnio,Rexcoffee,Quán cà phê,0989 900 077,"Rexcoffee, 86 Đ. 3 Tháng 2, Hưng Lợi, Ninh Kiều, Cần Thơ","Hưng Lợi, Ninh Kiều",86 Đ. 3 Tháng 2,Cần Thơ,,"Ninh Kiều, Cần Thơ",VN,"10.0161997,105.7600453"
272,ChIJ9zpP7K2JoDERHNZ7OsSN1mk,Cà phê Quỳnh Anh,Quán cà phê,0934 125 124,"Cà phê Quỳnh Anh, 57 Đ. Nguyễn Tri Phương, Phường An Khánh, Ninh Kiều, Cần Thơ","Phường An Khánh, Ninh Kiều",57 Đ. Nguyễn Tri Phương,Cần Thơ,,"Ninh Kiều, Cần Thơ",VN,"10.0401394,105.7569784"
273,ChIJnWw1DT-JoDERJgj0SZR5HKk,Cà Phê Tia Chớp,Quán cà phê,0939 555 836,"Cà Phê Tia Chớp, 91 Đ. B19, Khu dân cư 91B, Ninh Kiều, Cần Thơ","Khu dân cư 91B, Ninh Kiều",91 Đ. B19,Cần Thơ,,"Ninh Kiều, Cần Thơ",VN,"10.0249556,105.75488639999999"
275,ChIJq0TAtIOJoDER40nrRHE8yfg,Đắng 2 Coffee,Quán cà phê,0376 167 391,"Đắng 2 Coffee, 59/3 đường Bờ Hồ Bún Xáng, Hẻm 51 Đường 3/2, Phường An Khánh, Ninh Kiều, Cần Thơ","Phường An Khánh, Ninh Kiều","59/3 đường Bờ Hồ Bún Xáng, Hẻm 51 Đường 3/2",Cần Thơ,,"Ninh Kiều, Cần Thơ",VN,"10.0346326,105.76491899999999"
276,ChIJT0R-6GuIoDERhEkYoTTmPNg,Cà Phê Thức Tỉnh Đam Mê,Quán cà phê,,"2QQ3+597 Cà Phê Thức Tỉnh Đam Mê, Phường An Khánh, Ninh Kiều, Cần Thơ","Phường An Khánh, Ninh Kiều",2QQ3+597,Cần Thơ,,"Ninh Kiều, Cần Thơ",VN,"10.0379119,105.75343129999999"
277,ChIJdbcxMGKJoDERlad61BfRocg,Cà phê Phúc An,Quán cà phê,0932 967 456,"Cà phê Phúc An, 15 ĐƯỜNG SỐ F, KDC 12ha8, Bình Thủy, Cần Thơ","KDC 12ha8, Bình Thủy",15 ĐƯỜNG SỐ F,Cần Thơ,,"Bình Thủy, Cần Thơ",VN,"10.0514949,105.74921839999999"
278,ChIJq4IjHYWJoDERaQc5qftCbm4,Tiệm cà phê Bá Kiến,Quán cà phê,0977 457 595,"Tiệm cà phê Bá Kiến, 123 Đ. Nguyễn Việt Hồng, An Lạc, Ninh Kiều, Cần Thơ","An Lạc, Ninh Kiều",123 Đ. Nguyễn Việt Hồng,Cần Thơ,,"Ninh Kiều, Cần Thơ",VN,"10.0304848,105.7772921"
280,ChIJYyD-6p1ioDER0LRf7CoC3oY,Cà Phê Ngân,Quán cà phê,0865 134 113,"2QGH+8H4 Cà Phê Ngân, Nguyễn Thị Minh Khai, An Lạc, Ninh Kiều, Cần Thơ","An Lạc, Ninh Kiều","2QGH+8H4, Nguyễn Thị Minh Khai",Cần Thơ,,"Ninh Kiều, Cần Thơ",VN,"10.0257533,105.77895819999999"
281,ChIJt9zbOR2JoDERPS451j_NAGE,Doctor Coffee,Quán cà phê,,"Doctor Coffee, Ngã ba Đường Trần Minh Sơn và Đường Số 11, Phường An Khánh, Ninh Kiều, Cần Thơ","Phường An Khánh, Ninh Kiều",Ngã ba Đường Trần Minh Sơn và Đường Số 11,Cần Thơ,,"Ninh Kiều, Cần Thơ",VN,"10.038482799999999,105.7504515"
292,ChIJ6187T9SJoDERgF-pCBaf1Ac,Cà Phê 263,Quán cà phê,,"2QRC+8XC Cà Phê 263, Đ. Lê Anh Xuân, An Nghiệp, Ninh Kiều, Cần Thơ","An Nghiệp, Ninh Kiều","2QRC+8XC, Đ. Lê Anh Xuân",Cần Thơ,,"Ninh Kiều, Cần Thơ",VN,"10.0408201,105.7724042"
293,ChIJy6UYQp9ioDERL0OSXQRZnY8,Cửa Hàng Cà Phê Xay Nguyên Chất,Cửa hàng cà phê,0292 2480 472,"Cửa Hàng Cà Phê Xay Nguyên Chất, 52 Phan Đình Phùng, Tân An, Ninh Kiều, Cần Thơ","Tân An, Ninh Kiều",52 Phan Đình Phùng,Cần Thơ,,"Ninh Kiều, Cần Thơ",VN,"10.0312448,105.78644949999999"
296,ChIJaT9rxJSJoDERo7QTAZneZX8,Cà Phê Nhà Tôi,Quán cà phê,0779 633 247,"Cà Phê Nhà Tôi, 3A dãy B, 17 Đ. Trần Hoàng Na, Hưng Lợi, Ninh Kiều, Cần Thơ","Hưng Lợi, Ninh Kiều","3A dãy B, 17 Đ. Trần Hoàng Na",Cần Thơ,,"Ninh Kiều, Cần Thơ",VN,"10.0124151,105.76275749999999"
299,ChIJN_BUD2yIoDERa7uGMutPmf8,Cà Phê 79,Quán cà phê,0292 3508 957,"Cà Phê 79, 45-47 Đường số 14, Phường An Khánh, Ninh Kiều, Cần Thơ","Phường An Khánh, Ninh Kiều",45-47 Đường số 14,Cần Thơ,,"Ninh Kiều, Cần Thơ",VN,"10.0397005,105.75352439999999"
300,ChIJr1OrcxeJoDERI8RJc9XjZI0,Cà phê Karaoke Hoàng Vũ,Quán cà phê,0939 466 618,"Cà phê Karaoke Hoàng Vũ, 167 Nguyễn Văn Cừ Nối Dài, Phường An Khánh, Ninh Kiều, Cần Thơ","Phường An Khánh, Ninh Kiều",167 Nguyễn Văn Cừ Nối Dài,Cần Thơ,,"Ninh Kiều, Cần Thơ",VN,"10.0358511,105.7570909"
301,ChIJb2aaddmJoDERSscVJLxAcWo,Cà phê Hoàng Phát 7,Quán cà phê,0906 648 799,"Cà phê Hoàng Phát 7, 22 Nguyễn Văn Cừ Nối Dài, An Bình, Ninh Kiều, Cần Thơ","An Bình, Ninh Kiều",22 Nguyễn Văn Cừ Nối Dài,Cần Thơ,,"Ninh Kiều, Cần Thơ",VN,"10.0268632,105.7479846"
302,ChIJdVhtV0yIoDERk21VSO1aXKo,Cà Phê Bida Ngọc Loan,Quán cà phê,,"Cà Phê Bida Ngọc Loan, 66 Đ. Trần Vĩnh Kiết, An Bình, Ninh Kiều, Cần Thơ","An Bình, Ninh Kiều",66 Đ. Trần Vĩnh Kiết,Cần Thơ,,"Ninh Kiều, Cần Thơ",VN,"10.0151483,105.75047149999999"
305,ChIJx0Xl1cWJoDERrR71rAKAgjA,Forest Coffee,Quán cà phê,,"Forest Coffee, 133 Nguyễn Ngọc Trai, Xuân Khánh, Ninh Kiều, Cần Thơ","Xuân Khánh, Ninh Kiều",133 Nguyễn Ngọc Trai,Cần Thơ,,"Ninh Kiều, Cần Thơ",VN,"10.0337652,105.7719362"
306,ChIJURDz4SGIoDERAdb_YmNxwpI,Cà phê Mười Hai Giờ,Quán cà phê,0916 802 875,"Cà phê Mười Hai Giờ, 158/72, Hẻm 2, Đ. Nguyễn Việt Hồng, An Phú, Ninh Kiều, Cần Thơ","An Phú, Ninh Kiều","158/72, Hẻm 2, Đ. Nguyễn Việt Hồng",Cần Thơ,,"Ninh Kiều, Cần Thơ",VN,"10.032719199999999,105.7773476"
309,ChIJbxgL_FOHoDER9Cyrk8AWrnk,Coffee Thềm Xưa 2,Quán cà phê,,"Coffee Thềm Xưa 2, 60 Đ. Nguyễn Văn Cừ, Cái Khế, Ninh Kiều, Cần Thơ","Cái Khế, Ninh Kiều",60 Đ. Nguyễn Văn Cừ,Cần Thơ,,"Ninh Kiều, Cần Thơ",VN,"10.056380599999999,105.7780583"
310,ChIJiUyU2TmIoDERsD78HZ6XLX8,Quán Cà Phê Ngọc,Quán cà phê,0939 329 817,"Quán Cà Phê Ngọc, 15 QL91B, Hưng Lợi, Ninh Kiều, Cần Thơ","Hưng Lợi, Ninh Kiều",15 QL91B,Cần Thơ,,"Ninh Kiều, Cần Thơ",VN,"10.0229587,105.76233909999999"
311,ChIJTa3dHqJioDERjJ-mp2k3sKg,Chè - cà phê - kem - sinh tố Mỹ Hoá,Quán cà phê,0292 3820 841,"Chè - cà phê - kem - sinh tố Mỹ Hoá, 62 Đường Hai Bà Trưng, Tân An, Ninh Kiều, Cần Thơ","Tân An, Ninh Kiều",62 Đường Hai Bà Trưng,Cần Thơ,,"Ninh Kiều, Cần Thơ",VN,"10.0333749,105.78813559999999"
312,ChIJAf_mNKBioDERt2_3RBXipko,F25 Cafe,Quán cà phê,,"F25 Cafe, 59 Đ. Ngô Văn Sở, Tân An, Ninh Kiều, Cần Thơ","Tân An, Ninh Kiều",59 Đ. Ngô Văn Sở,Cần Thơ,,"Ninh Kiều, Cần Thơ",VN,"10.0337391,105.7850126"
316,ChIJ5b973TWJoDERUduiwmxq2w4,Quán cà phê võng cánh buồm,Quán cà phê,0777 892 606,"2QRC+4Q5 Quán cà phê võng cánh buồm, Đ. Lê Anh Xuân, An Nghiệp, Ninh Kiều, Cần Thơ","An Nghiệp, Ninh Kiều","2QRC+4Q5, Đ. Lê Anh Xuân",Cần Thơ,,"Ninh Kiều, Cần Thơ",VN,"10.040252599999999,105.7719858"
329,ChIJkXBclk6JoDERmPKw7Q6WmrU,Cà phê Nhấp,Quán cà phê espresso,0292 3655 655,"Cà phê Nhấp, 85 Đ. 30 Tháng 4, An Lạc, Ninh Kiều, Cần Thơ","An Lạc, Ninh Kiều",85 Đ. 30 Tháng 4,Cần Thơ,,"Ninh Kiều, Cần Thơ",VN,"10.0288098,105.77932249999999"
331,ChIJu57TJTdjoDERzpzxBtV3bOE,CHẠM CREAM COFFEE,Quán cà phê,0939 373 835,"CHẠM CREAM COFFEE, 134 Trần Phú, Cái Khế, Ninh Kiều, Cần Thơ","Cái Khế, Ninh Kiều",134 Trần Phú,Cần Thơ,,"Ninh Kiều, Cần Thơ",VN,"10.0488894,105.7850366"
333,ChIJEYwU6kyIoDERubJ4lcjDE_U,Coffee Bảy Hạnh,Quán cà phê,,"Coffee Bảy Hạnh, 66 Đ. Trần Vĩnh Kiết, An Bình, Ninh Kiều, Cần Thơ","An Bình, Ninh Kiều",66 Đ. Trần Vĩnh Kiết,Cần Thơ,,"Ninh Kiều, Cần Thơ",VN,"10.013316699999999,105.75125609999999"
334,ChIJ0TvH4TSIoDER-cPFoBAPZgQ,Cà Phê Doggie,Quán cà phê,,"Cà Phê Doggie, 92 Đ. 30 Tháng 4, Hưng Lợi, Ninh Kiều, Cần Thơ","Hưng Lợi, Ninh Kiều",92 Đ. 30 Tháng 4,Cần Thơ,,"Ninh Kiều, Cần Thơ",VN,"10.0135876,105.7616687"
336,ChIJy9ikVDuIoDERHYLRHBXRWfE,Quán Cà Phê - Trà Sữa V2,Quán cà phê,0292 6506 777,"Quán Cà Phê - Trà Sữa V2, 144B Đ. 3 Tháng 2, Xuân Khánh, Ninh Kiều, Cần Thơ","Xuân Khánh, Ninh Kiều",144B Đ. 3 Tháng 2,Cần Thơ,,"Ninh Kiều, Cần Thơ",VN,"10.0275505,105.7703722"
337,ChIJ3Zcm17CJoDER5VxF4GL8ea4,Cà Phê Cây Bả Đậu,Quán cà phê,0292 3832 384,"Cà Phê Cây Bả Đậu, 456 Nguyễn Trãi, Lê Bình, Cái Răng, Cần Thơ","Lê Bình, Cái Răng",456 Nguyễn Trãi,Cần Thơ,,"Cái Răng, Cần Thơ",VN,"10.003978199999999,105.7521522"
338,ChIJp9nUFSKIoDER6F6EsXofdv8,Quán Cà Phê Quang Khánh,Quán cà phê,0292 3508 513,"Quán Cà Phê Quang Khánh, 146 Đ. Mậu Thân, An Phú, Ninh Kiều, Cần Thơ","An Phú, Ninh Kiều",146 Đ. Mậu Thân,Cần Thơ,,"Ninh Kiều, Cần Thơ",VN,"10.0318357,105.7752264"
340,ChIJY6nIPguJoDERfsP5pADMs1I,Cafe Ngọc Yến 7,Quán cà phê,,"2P9V+V7W Cafe Ngọc Yến 7, An Bình, Ninh Kiều, Cần Thơ","An Bình, Ninh Kiều",2P9V+V7W,Cần Thơ,,"Ninh Kiều, Cần Thơ",VN,"10.019736199999999,105.7431945"
341,ChIJL9pwmZOJoDERgGOrF7jlVJk,Cà phê Nguyệt Quế 3,Quán cà phê,0939 037 039,"Cà phê Nguyệt Quế 3, 236 Đ. Nguyễn Hiền, Hưng Lợi, Ninh Kiều, Cần Thơ","Hưng Lợi, Ninh Kiều",236 Đ. Nguyễn Hiền,Cần Thơ,,"Ninh Kiều, Cần Thơ",VN,"10.0210844,105.75396269999999"
342,ChIJN-lhE7eJoDERK2NSAdIn5cg,Tiệm cà phê Leng Keng,Quán cà phê,0939 842 171,"Tiệm cà phê Leng Keng, khu cán bộ giảng viên, đường số 10/Số 1 Đại học, Phường An Khánh, Ninh Kiều, Cần Thơ","Phường An Khánh, Ninh Kiều","khu cán bộ giảng viên, đường số 10/Số 1 Đại học",Cần Thơ,,"Ninh Kiều, Cần Thơ",VN,"10.025860699999999,105.7604403"
348,ChIJaSgmYTGJoDER_ekr-IZthwo,Cà Phê Muối Chú Long,Quán cà phê,0563 132 251,"Cà Phê Muối Chú Long, 108 Đ. Trần Hưng Đạo, An Nghiệp, Ninh Kiều, Cần Thơ 94000","An Nghiệp, Ninh Kiều",108 Đ. Trần Hưng Đạo,Cần Thơ,94000.0,"Ninh Kiều, Cần Thơ",VN,"10.0377431,105.77625669999999"
349,ChIJu9kPkaBioDER8ZfQUSIp-mk,CAFE 50,Quán cà phê,0974 133 330,"CAFE 50, 50 Hẻm 1 Đ. Hoàng Văn Thụ, Tân An, Ninh Kiều, Cần Thơ","Tân An, Ninh Kiều",50 Hẻm 1 Đ. Hoàng Văn Thụ,Cần Thơ,,"Ninh Kiều, Cần Thơ",VN,"10.0362265,105.7831004"
350,ChIJB7XkcZmJoDERZDAudTx1G_A,Milano LEO Coffee,Quán cà phê,,"Milano LEO Coffee, 152 Đ. Nguyễn Văn Cừ, Phường An Khánh, Ninh Kiều, Cần Thơ","Phường An Khánh, Ninh Kiều",152 Đ. Nguyễn Văn Cừ,Cần Thơ,,"Ninh Kiều, Cần Thơ",VN,"10.0428669,105.7613897"
351,ChIJkbMXSYiJoDERCLimjKenzWo,Quán Cà Phê Lụa Coffe,Quán cà phê,,"Quán Cà Phê Lụa Coffe, 118 Đ. Tô Hiến Thành, Phường An Khánh, Ninh Kiều, Cần Thơ","Phường An Khánh, Ninh Kiều",118 Đ. Tô Hiến Thành,Cần Thơ,,"Ninh Kiều, Cần Thơ",VN,"10.038178799999999,105.753405"
352,ChIJzSqqcgaJoDERm20rDcWjPQk,Cafe Nhà Gỗ 91B,Quán cà phê,0914 844 799,"Cafe Nhà Gỗ 91B, 10 Đ. B23, Khu dân cư 91B, Ninh Kiều, Cần Thơ","Khu dân cư 91B, Ninh Kiều",10 Đ. B23,Cần Thơ,,"Ninh Kiều, Cần Thơ",VN,"10.0226004,105.7547738"
354,ChIJT36z-CmJoDERyb4QOP2E6RM,Tự Cà Phê,Quán cà phê,0907 434 597,"Tự Cà Phê, 78 Đ. Cách Mạng Tháng 8, Cái Khế, Ninh Kiều, Cần Thơ","Cái Khế, Ninh Kiều",78 Đ. Cách Mạng Tháng 8,Cần Thơ,,"Ninh Kiều, Cần Thơ",VN,"10.053780999999999,105.7717917"
356,ChIJh9MQcd-JoDERB4-JMm2hAss,COFEE Thuỳ Dương,Quán cà phê,0702 552 666,"COFEE Thuỳ Dương, 15 Ngô Sĩ Liên, Hưng Lợi, Ninh Kiều, Cần Thơ","Hưng Lợi, Ninh Kiều",15 Ngô Sĩ Liên,Cần Thơ,,"Ninh Kiều, Cần Thơ",VN,"10.0216839,105.7607893"
358,ChIJBZEppjGJoDERSLSCcfhv4DA,Ai Cà Phê,Quán cà phê,,"Ai Cà Phê, 57a Hẻm 51, Phường An Khánh, Ninh Kiều, Cần Thơ","Phường An Khánh, Ninh Kiều",57a Hẻm 51,Cần Thơ,,"Ninh Kiều, Cần Thơ",VN,"10.0350977,105.76524669999999"
361,ChIJ2ROLle-JoDERThreM_PgDvM,Tiệm cà phê The The,Quán cà phê,,"Tiệm cà phê The The, 9c Đ. Nguyễn Văn Linh, Hưng Lợi, Ninh Kiều, Cần Thơ","Hưng Lợi, Ninh Kiều",9c Đ. Nguyễn Văn Linh,Cần Thơ,,"Ninh Kiều, Cần Thơ",VN,"10.0226283,105.7628311"
362,ChIJnwUczzmIoDERcLdWSqqMOQE,quán cafe,Quán cà phê,0908 458 052,"quán cafe, 29 p tp, Đ. Nguyễn Văn Linh, Hưng Lợi, Ninh Kiều, Cần Thơ","Hưng Lợi, Ninh Kiều","29 p tp, Đ. Nguyễn Văn Linh",Cần Thơ,,"Ninh Kiều, Cần Thơ",VN,"10.023651599999999,105.7620962"
376,ChIJbUbCcQqJoDERYC0VOXwCuCI,Quán Cà Phê Vườn Mận,Quán cà phê,0292 3849 982,"Quán Cà Phê Vườn Mận, 351 Ấp Mỹ Phước, Huyện Phong Điền, An Bình, Ninh Kiều, Cần Thơ","An Bình, Ninh Kiều","351 Ấp Mỹ Phước, Huyện Phong Điền",Cần Thơ,,"Ninh Kiều, Cần Thơ",VN,"9.995218,105.7343568"
383,ChIJUXi3LkWIoDERmJgFeMxVg_E,Cà Phê võng Bích Trăm,Quán cà phê,0984 584 838,"Cà Phê võng Bích Trăm, 58 Nguyễn Văn Cừ Nối Dài, Phường An Khánh, Ninh Kiều, Cần Thơ","Phường An Khánh, Ninh Kiều",58 Nguyễn Văn Cừ Nối Dài,Cần Thơ,,"Ninh Kiều, Cần Thơ",VN,"10.0257104,105.7467626"
384,ChIJ7wZxYT2JoDERt-L17wd1hrw,Tiệm cà phê bèo,Quán cà phê espresso,0907 946 094,"Tiệm cà phê bèo, 27 Đ. Trần Hoàng Na, Phường An Khánh, Ninh Kiều, Cần Thơ 700000","Phường An Khánh, Ninh Kiều",27 Đ. Trần Hoàng Na,Cần Thơ,700000.0,"Ninh Kiều, Cần Thơ",VN,"10.0264438,105.7488271"
387,ChIJX_Qae0eIoDERHRkG_c2WphM,Cà Phê Khánh Đoan,Quán cà phê,,"Cà Phê Khánh Đoan, 410 Đ. Nguyễn Văn Linh, Hưng Lợi, Ninh Kiều, Cần Thơ","Hưng Lợi, Ninh Kiều",410 Đ. Nguyễn Văn Linh,Cần Thơ,,"Ninh Kiều, Cần Thơ",VN,"10.0260477,105.7584613"
388,ChIJJ95tcJWJoDERk-iK0m5gXW0,CÀ PHÊ GREEN PARK,Quán cà phê,0917 432 442,"CÀ PHÊ GREEN PARK, 1 Đường số 6, Phường An Khánh, Ninh Kiều, Cần Thơ","Phường An Khánh, Ninh Kiều",1 Đường số 6,Cần Thơ,,"Ninh Kiều, Cần Thơ",VN,"10.043479999999999,105.7578422"
389,ChIJU3vcjLCJoDER4elkKVuHk8w,Nhà Phân Phối Cà Phê Tây Long,Quán cà phê,0365 173 973,"Nhà Phân Phối Cà Phê Tây Long, 151 Nguyễn Trãi, Lê Bình, Cái Răng, Cần Thơ","Lê Bình, Cái Răng",151 Nguyễn Trãi,Cần Thơ,,"Cái Răng, Cần Thơ",VN,"10.003276999999999,105.750413"
390,ChIJKc144niJoDERiJJ6ePYdL9k,Cà Phê Mộc,Quán cà phê,0985 126 711,"2QF4+JWM Cà Phê Mộc, Khu dân cư 91B, Ninh Kiều, Cần Thơ 900000","Khu dân cư 91B, Ninh Kiều",2QF4+JWM,Cần Thơ,900000.0,"Ninh Kiều, Cần Thơ",VN,"10.0240827,105.75730349999999"
391,ChIJSQOoM8GJoDERp2bzOAj0524,CÀ PHÊ MILANO - NGUYỄN ĐỆ,Quán cà phê,0919 520 179,"CÀ PHÊ MILANO - NGUYỄN ĐỆ, 13 Đ. Nguyễn Đệ, An Hoà, Ninh Kiều, Cần Thơ","An Hoà, Ninh Kiều",13 Đ. Nguyễn Đệ,Cần Thơ,,"Ninh Kiều, Cần Thơ",VN,"10.0507463,105.7690099"
392,ChIJP2IHp_BjoDERtcXxrfl3XDg,Cà Phê Chất,Quán cà phê,0939 828 929,"Cà Phê Chất, 6B Đ. Ng. Hữu Hạnh, Tân An, Ninh Kiều, Cần Thơ","Tân An, Ninh Kiều",6B Đ. Ng. Hữu Hạnh,Cần Thơ,,"Ninh Kiều, Cần Thơ",VN,"10.0369645,105.7862555"
393,ChIJu1giQaljoDERCQGfVuXwOLQ,Tiệm Cà Phê Vợt - Bánh Mì Da Beo,Quán cà phê,,"Tiệm Cà Phê Vợt - Bánh Mì Da Beo, 19 Đ. Hải Thượng Lãn Ông, Tân An, Ninh Kiều, Cần Thơ","Tân An, Ninh Kiều",19 Đ. Hải Thượng Lãn Ông,Cần Thơ,,"Ninh Kiều, Cần Thơ",VN,"10.030264599999999,105.7867631"
397,ChIJx2iMZBGIoDERm-sijgZIjks,Cà Phê Cây Khế,Quán cà phê,0903 368 226,"Cà Phê Cây Khế, 121 Đ. Nguyễn Văn Cừ, Phường An Khánh, Ninh Kiều, Cần Thơ","Phường An Khánh, Ninh Kiều",121 Đ. Nguyễn Văn Cừ,Cần Thơ,,"Ninh Kiều, Cần Thơ",VN,"10.0407794,105.7649304"
399,ChIJo2-qlGqIoDERDtu1BxMVWJ4,Cà Phê Meo Happy,Quán cà phê,0987 563 969,"Cà Phê Meo Happy, 163c/7 Đ. Nguyễn Văn Cừ, Phường An Khánh, Ninh Kiều, Cần Thơ","Phường An Khánh, Ninh Kiều",163c/7 Đ. Nguyễn Văn Cừ,Cần Thơ,,"Ninh Kiều, Cần Thơ",VN,"10.0351041,105.7567638"
400,ChIJzUuHd56JoDERp4eZ6aw_rhM,Cà Phê Ý Thơ,Quán cà phê,,"2Q92+87R Cà Phê Ý Thơ, An Bình, Ninh Kiều, Cần Thơ","An Bình, Ninh Kiều",2Q92+87R,Cần Thơ,,"Ninh Kiều, Cần Thơ",VN,"10.0183599,105.7506294"
401,ChIJWb77MEuIoDEROBzJ6IOWOD8,Quán Cà Phê Minh Thư,Quán cà phê,0292 3838 694,"Quán Cà Phê Minh Thư, 10, Đường 3/2, Quận Ninh Kiều, TP Cần Thơ, Hưng Lợi, Ninh Kiều, Cần Thơ","Hưng Lợi, Ninh Kiều","10, Đường 3/2, Quận Ninh Kiều, TP Cần Thơ",Cần Thơ,,"Ninh Kiều, Cần Thơ",VN,"10.0129652,105.7552126"
405,ChIJk1NsXiGIoDERk_pKg5g0sCE,Quán Cà Phê Xin Chào,Quán cà phê,,"Quán Cà Phê Xin Chào, 66 Đ. Mậu Thân, Xuân Khánh, Ninh Kiều, Cần Thơ","Xuân Khánh, Ninh Kiều",66 Đ. Mậu Thân,Cần Thơ,,"Ninh Kiều, Cần Thơ",VN,"10.0287816,105.7766451"
412,ChIJkYb1p7SJoDER2k049TfhY8I,Cà phê Hồng My,Quán cà phê,,"2Q63+J47 Cà phê Hồng My, An Bình, Ninh Kiều, Cần Thơ","An Bình, Ninh Kiều",2Q63+J47,Cần Thơ,,"Ninh Kiều, Cần Thơ",VN,"10.011541099999999,105.752788"
413,ChIJMaNQiDiIoDERAQOglmEsERs,Quán Cà Phê 24h,Quán cà phê,0939 440 487,"2QG5+7RJ Quán Cà Phê 24h, Nguyễn Văn Linh, Phường Hưng Lợi, Quận Ninh Kiều, Hưng Lợi, Ninh Kiều, Cần Thơ","Hưng Lợi, Ninh Kiều","2QG5+7RJ, Nguyễn Văn Linh, Phường Hưng Lợi, Quận Ninh Kiều",Cần Thơ,,"Ninh Kiều, Cần Thơ",VN,"10.0257183,105.75951429999999"
415,ChIJpUW_ziSJoDERDgGh1FxUTck,Cà Phê KIM,Quán cà phê,0937 237 001,"Cà Phê KIM, 164 Đ. Lê Anh Xuân, An Nghiệp, Ninh Kiều, Cần Thơ","An Nghiệp, Ninh Kiều",164 Đ. Lê Anh Xuân,Cần Thơ,,"Ninh Kiều, Cần Thơ",VN,"10.039638499999999,105.7717807"
416,ChIJ0_XJMPJjoDERAc21mg9LnFw,Cafe 1998,Quán cà phê,0799 636 063,"Cafe 1998, Sông Hậu, Cái Khế, Ninh Kiều, Cần Thơ","Cái Khế, Ninh Kiều",Sông Hậu,Cần Thơ,,"Ninh Kiều, Cần Thơ",VN,"10.0459445,105.79252579999999"
420,ChIJ5RhUyj2JoDERebWwA9iH4TQ,Cà Phê Hoàng Anh,Quán cà phê,,"2QQC+V3F Cà Phê Hoàng Anh, Hẻm 132 Hùng Vương, An Nghiệp, Ninh Kiều, Cần Thơ","An Nghiệp, Ninh Kiều","2QQC+V3F, Hẻm 132 Hùng Vương",Cần Thơ,,"Ninh Kiều, Cần Thơ",VN,"10.0397085,105.7701767"
423,ChIJO9A4uk2JoDER0ppy_nn-HgI,Tiệm cà phê Phúc 1975,Quán cà phê,0333 032 939,"2QQ8+WHV Tiệm cà phê Phúc 1975, Hẻm 51, Xuân Khánh, Ninh Kiều, Cần Thơ","Xuân Khánh, Ninh Kiều","2QQ8+WHV, Hẻm 51",Cần Thơ,,"Ninh Kiều, Cần Thơ",VN,"10.0394399,105.7663192"
429,ChIJ0SyE0bCJoDERYShCSQpIY_4,Quán Cà Phê Ven Sông,Quán cà phê,0939 692 944,"Quán Cà Phê Ven Sông, 1A Nguyễn Trãi, Lê Bình, Cái Răng, Cần Thơ","Lê Bình, Cái Răng",1A Nguyễn Trãi,Cần Thơ,,"Cái Răng, Cần Thơ",VN,"10.0037106,105.7523303"
430,ChIJpyVzCLOJoDERR5fbAEbSXtA,Cà Phê Diệu Ngân,Quán cà phê,0994 513 979,"2Q52+X67 Cà Phê Diệu Ngân, 98 Đ. 3 Tháng 2, An Bình, Ninh Kiều, Cần Thơ","An Bình, Ninh Kiều","2Q52+X67, 98 Đ. 3 Tháng 2",Cần Thơ,,"Ninh Kiều, Cần Thơ",VN,"10.0099117,105.7505429"
432,ChIJ28Dw1G6JoDER9qOZy9K7tZg,Cà Phê & Bida Duy Khôi,Quán cà phê,0908 723 457,"Cà Phê & Bida Duy Khôi, 30/28 KDC 30, Hưng Lợi, Ninh Kiều, Cần Thơ","Hưng Lợi, Ninh Kiều",30/28 KDC 30,Cần Thơ,,"Ninh Kiều, Cần Thơ",VN,"10.0240793,105.7633474"
438,ChIJbZnWIr9joDERggQNHbP76kI,CÀ PHÊ K30,Quán cà phê,0292 2222 245,"CÀ PHÊ K30, LÔ K30, KHU DÂN CƯ NÔNG THỔ SẢN, Q, P, Cái Răng, Cần Thơ","P, Cái Răng","LÔ K30, KHU DÂN CƯ NÔNG THỔ SẢN, Q",Cần Thơ,,"Cái Răng, Cần Thơ",VN,"9.9938726,105.7997492"
443,ChIJkUnWnC2IoDERqRrK65LPH3o,Quán Café 262A,Quán cà phê,0292 3840 217,"Quán Café 262A, 262A Tầm Vu, Hưng Lợi, Ninh Kiều, Cần Thơ","Hưng Lợi, Ninh Kiều",262A Tầm Vu,Cần Thơ,,"Ninh Kiều, Cần Thơ",VN,"10.0142172,105.7713811"
444,ChIJ7RN9UxOIoDEROwgTI0aLWP0,Cà Phê Căn Tin,Quán cà phê,,"2QR5+28M Cà Phê Căn Tin, Đ. Nguyễn Tri Phương, Phường An Khánh, Ninh Kiều, Cần Thơ","Phường An Khánh, Ninh Kiều","2QR5+28M, Đ. Nguyễn Tri Phương",Cần Thơ,,"Ninh Kiều, Cần Thơ",VN,"10.0400885,105.7582872"
445,ChIJXywOt1WIoDERipcV1RgenoI,Cà Phê Phương Mai,Quán cà phê,,"2P8Q+Q2R Cà Phê Phương Mai, An Bình, Bình Thủy, Cần Thơ","An Bình, Bình Thủy",2P8Q+Q2R,Cần Thơ,,"Bình Thủy, Cần Thơ",VN,"10.0169927,105.7375273"
451,ChIJGSEGQzeJoDERZ6zag3HYwjA,Cà Phê Đại Phát,Quán cà phê,0907 291 074,"Cà Phê Đại Phát, 21 Đ. A3, Hưng Lợi, Ninh Kiều, Cần Thơ","Hưng Lợi, Ninh Kiều",21 Đ. A3,Cần Thơ,,"Ninh Kiều, Cần Thơ",VN,"10.0197573,105.7557061"
452,ChIJmehy5jaIoDERg-h8wIwtdag,Quán Cà Phê Cối Xay Gió,Quán cà phê,0292 2210 789,"Quán Cà Phê Cối Xay Gió, Tp, 151 Hẻm 132 Đ. 3 Tháng 2, Hưng Lợi, Ninh Kiều, Cần Thơ 900000","Hưng Lợi, Ninh Kiều","Tp, 151 Hẻm 132 Đ. 3 Tháng 2",Cần Thơ,900000.0,"Ninh Kiều, Cần Thơ",VN,"10.0189314,105.7629192"
455,ChIJMdHBfqFioDER6inmeF47sSg,Quán Cà Phê Hồng,Quán cà phê,0292 3827 628,"Quán Cà Phê Hồng, 12 Đường Đ. Trần Quốc Toản, Tân An, Ninh Kiều, Cần Thơ","Tân An, Ninh Kiều",12 Đường Đ. Trần Quốc Toản,Cần Thơ,,"Ninh Kiều, Cần Thơ",VN,"10.0348949,105.7878843"
457,ChIJkfWWRv-HoDER79EIPMz915k,Cafe Bảy Cây Sưa,Quán cà phê,,"3Q5J+9CV Cafe Bảy Cây Sưa, Đ. Nguyễn Văn Cừ, Cái Khế, Ninh Kiều, Cần Thơ","Cái Khế, Ninh Kiều","3Q5J+9CV, Đ. Nguyễn Văn Cừ",Cần Thơ,,"Ninh Kiều, Cần Thơ",VN,"10.0584854,105.7810318"
458,ChIJl4djVv-HoDERc5_2E3bgQ28,Cà phê Số Đỏ,Quán cà phê,0292 3855 685,"Cà phê Số Đỏ, 6/138c Đ. Nguyễn Văn Cừ, Cái Khế, Ninh Kiều, Cần Thơ","Cái Khế, Ninh Kiều",6/138c Đ. Nguyễn Văn Cừ,Cần Thơ,,"Ninh Kiều, Cần Thơ",VN,"10.0593302,105.7819066"
459,ChIJz7ahNw-JoDERZ8WMz1HZt4M,Cafe Thảo,Quán cà phê,,"Cafe Thảo, Phường An Khánh, Ninh Kiều, Cần Thơ","Phường An Khánh, Ninh Kiều",,Cần Thơ,,"Ninh Kiều, Cần Thơ",VN,"10.0343416,105.74743529999999"
460,ChIJMcOb1N1joDERlRLWPMXwwWo,CÀ PHÊ TOMMY,Quán cà phê,,"CÀ PHÊ TOMMY, 11-6 Trần Quang Khải, Cái Khế, Ninh Kiều, Cần Thơ","Cái Khế, Ninh Kiều",11-6 Trần Quang Khải,Cần Thơ,,"Ninh Kiều, Cần Thơ",VN,"10.0479921,105.7861233"
466,ChIJt0CsbzqIoDERLeFKl3uo5p8,Pha Lê Cafe,Quán cà phê,,"Pha Lê Cafe, 232 Đ. 3 Tháng 2, An Bình, Ninh Kiều, Cần Thơ","An Bình, Ninh Kiều",232 Đ. 3 Tháng 2,Cần Thơ,,"Ninh Kiều, Cần Thơ",VN,"10.0101836,105.7511799"
467,ChIJxw8ZGASIoDERHxp6vxbUpe4,Quán Cà Phê Bằng Lăng,Quán cà phê,0292 3832 471,"Quán Cà Phê Bằng Lăng, 24/44A, Trần Việt Châu, Quận Ninh Kiều, Tp Cần Thơ","Thới Bình, Ninh Kiều","24/44A, Trần Việt Châu, Quận Ninh Kiều, Tp Cần Thơ",Cần Thơ,,"Ninh Kiều, Cần Thơ",VN,"10.0485791,105.7748075"
469,ChIJ4YKobB6JoDER6LXMAYrZXmg,coffee A3 Khía,Quán cà phê,0939 555 165,"coffee A3 Khía, 130P/5 KV2 p. An Khánh, q, Ninh Kiều, Cần Thơ","Phường An Khánh, Ninh Kiều","130P/5 KV2 p. An Khánh, q",Cần Thơ,,"Ninh Kiều, Cần Thơ",VN,"10.0415827,105.7641335"
470,ChIJBbayGsaJoDERr-G3TelqZ-Y,Cà phê tình nhân Bi Coffee 3,Quán cà phê,0789 687 968,"Cà phê tình nhân Bi Coffee 3, 236 Nguyễn Văn Cừ Nối Dài, Phường An Khánh, Ninh Kiều, Cần Thơ","Phường An Khánh, Ninh Kiều",236 Nguyễn Văn Cừ Nối Dài,Cần Thơ,,"Ninh Kiều, Cần Thơ",VN,"10.0372027,105.7589799"
471,ChIJR81FQEOJoDERt_mAM_gJby4,Cà phê bánh Muồng Hoa Đào,Quán cà phê,,"Cà phê bánh Muồng Hoa Đào, Hem 9, Đ. Trần Nam Phú, Phường An Khánh, Ninh Kiều, Cần Thơ","Phường An Khánh, Ninh Kiều","Hem 9, Đ. Trần Nam Phú",Cần Thơ,,"Ninh Kiều, Cần Thơ",VN,"10.0337372,105.75887019999999"
475,ChIJp9AXZv6JoDER4RlF2oj9evw,Cafe 12A,Quán cà phê,0346 226 072,"XQV4+WX5 Cafe 12A, Đ. Trương Vĩnh Nguyên, Thường Thạnh, Cái Răng, Cần Thơ","Thường Thạnh, Cái Răng","XQV4+WX5, Đ. Trương Vĩnh Nguyên",Cần Thơ,,"Cái Răng, Cần Thơ",VN,"9.9947669,105.7574942"
479,ChIJc7pgObKJoDERa62pEit39Mo,Coffee Tường Vy,Quán cà phê,0766 958 921,"Coffee Tường Vy, 4 Lộ Vòng Cung, An Bình, Ninh Kiều, Cần Thơ","An Bình, Ninh Kiều",4 Lộ Vòng Cung,Cần Thơ,,"Ninh Kiều, Cần Thơ",VN,"10.008192099999999,105.7486965"
481,ChIJG62j02yJoDER-3EQC0U0gX4,Cà Phê Võng Bảy Trường,Quán cà phê,,"Cà Phê Võng Bảy Trường, 410 Đ. Nguyễn Văn Linh, Hưng Lợi, Ninh Kiều, Cần Thơ","Hưng Lợi, Ninh Kiều",410 Đ. Nguyễn Văn Linh,Cần Thơ,,"Ninh Kiều, Cần Thơ",VN,"10.0260477,105.7584613"
492,ChIJORSgbTyHoDERKEdbPCEcvBc,Cafe Sóc Cần Thơ,Quán cà phê,,"3Q65+XMF Cafe Sóc Cần Thơ, Hẻm 91 Cách Mạng Tháng Tám, An Thới, Bình Thủy, Cần Thơ","An Thới, Bình Thủy","3Q65+XMF, Hẻm 91 Cách Mạng Tháng Tám",Cần Thơ,,"Bình Thủy, Cần Thơ",VN,"10.062443199999999,105.75917439999999"
493,ChIJTyymWkZjoDERVVqeXnmkpaI,Cà phê bảo tàng,Quán cà phê,,"Cà phê bảo tàng, 1 Đại lộ Hoà Bình, Tân An, Ninh Kiều, Cần Thơ","Tân An, Ninh Kiều",1 Đại lộ Hoà Bình,Cần Thơ,,"Ninh Kiều, Cần Thơ",VN,"10.035245,105.7865393"
497,ChIJ5dcsjTCJoDERR1zkHtdpbtQ,Cà Phê Mộc Lan,Quán cà phê,,"Cà Phê Mộc Lan, 188 Đ. Lê Anh Xuân, An Nghiệp, Ninh Kiều, Cần Thơ","An Nghiệp, Ninh Kiều",188 Đ. Lê Anh Xuân,Cần Thơ,,"Ninh Kiều, Cần Thơ",VN,"10.0399893,105.7708418"
499,ChIJQc-jkwmJoDERIC5HuJiAYcY,Cà phê rang mộc 1 & 2,Quán cà phê,,"Cà phê rang mộc 1 & 2, 134 Đ. Nguyễn Văn Cừ, Phường An Khánh, Ninh Kiều, Cần Thơ","Phường An Khánh, Ninh Kiều",134 Đ. Nguyễn Văn Cừ,Cần Thơ,,"Ninh Kiều, Cần Thơ",VN,"10.0379544,105.76131129999999"
501,ChIJrVQorW2IoDERD9TuU4X530Q,Cà Phê Lý Tưởng,Quán cà phê,0909 957 555,"Cà Phê Lý Tưởng, 95 Đ. Số 2, Phường An Khánh, Ninh Kiều, Cần Thơ","Phường An Khánh, Ninh Kiều",95 Đ. Số 2,Cần Thơ,,"Ninh Kiều, Cần Thơ",VN,"10.042133699999999,105.7551264"
503,ChIJn8yyzXeJoDER-R3O5K3ZgIU,Cà Phê 39,Quán cà phê,0949 535 468,"Cà Phê 39, 39 Đ. Tô Hiến Thành, Phường An Khánh, Ninh Kiều, Cần Thơ","Phường An Khánh, Ninh Kiều",39 Đ. Tô Hiến Thành,Cần Thơ,,"Ninh Kiều, Cần Thơ",VN,"10.039389,105.7543481"
505,ChIJJXqsIFGIoDER7r9p9PvoOk0,Cà Phê Ngọc Xoan,Quán cà phê,0786 644 468,"Cà Phê Ngọc Xoan, 261 Nguyễn Văn Cừ Nối Dài, An Bình, Ninh Kiều, Cần Thơ","An Bình, Ninh Kiều",261 Nguyễn Văn Cừ Nối Dài,Cần Thơ,,"Ninh Kiều, Cần Thơ",VN,"10.0210195,105.74204549999999"
506,ChIJb1iWkFqIoDERugofUOymMEY,Tiệm Cà Phê Ngọc Giàu,Quán cà phê,0292 3502 337,"Tiệm Cà Phê Ngọc Giàu, 10K4, Đường Nguyễn Văn Cừ, Quận Ninh Kiều, An Bình, Ninh Kiều, Cần Thơ","An Bình, Ninh Kiều","10K4, Đường Nguyễn Văn Cừ, Quận Ninh Kiều",Cần Thơ,,"Ninh Kiều, Cần Thơ",VN,"10.0243221,105.7449664"
507,ChIJ11oL10SIoDER16QqXs2zWLY,Quán Cafe BiBi,Quán cà phê,0913 784 646,"Quán Cafe BiBi, 40 Nguyễn Văn Cừ Nối Dài, An Bình, Ninh Kiều, Cần Thơ","An Bình, Ninh Kiều",40 Nguyễn Văn Cừ Nối Dài,Cần Thơ,,"Ninh Kiều, Cần Thơ",VN,"10.0263403,105.74736399999999"
508,ChIJQe8BfImJoDERwxxSuerT9Sk,Cafe Phin,Quán cà phê,,"Cafe Phin, 140 Huỳnh Cương, An Cư, Ninh Kiều, Cần Thơ","An Cư, Ninh Kiều",140 Huỳnh Cương,Cần Thơ,,"Ninh Kiều, Cần Thơ",VN,"10.036560099999999,105.77956929999999"
510,ChIJh61H6USIoDERFO5pby2KeBM,Cà Phê Quỳnh,Quán cà phê,0939 576 433,"Cà Phê Quỳnh, 28 Nguyễn Văn Cừ Nối Dài, An Bình, Ninh Kiều, Cần Thơ","An Bình, Ninh Kiều",28 Nguyễn Văn Cừ Nối Dài,Cần Thơ,,"Ninh Kiều, Cần Thơ",VN,"10.026997,105.7485842"
515,ChIJkYZupkuIoDERtYjdoFjG_LI,Cà Phê Thanh Mai,Quán cà phê,,"Cà Phê Thanh Mai, Hẽm12/38 Ba Thàng 2. TP, Hưng Lợi, Ninh Kiều, Cần Thơ","Hưng Lợi, Ninh Kiều",Hẽm12/38 Ba Thàng 2. TP,Cần Thơ,,"Ninh Kiều, Cần Thơ",VN,"10.0149467,105.7549353"
517,ChIJNZt9Ya2JoDERfh9HlL2b7pk,Quán Cà Phê Thanh Trúc,Quán cà phê,0939 957 678,"Quán Cà Phê Thanh Trúc, 247E, Đường Cái Sơn Hàng Bàng, Quận Cái Răng, An Bình, Ninh Kiều, Cần Thơ","An Bình, Ninh Kiều","247E, Đường Cái Sơn Hàng Bàng, Quận Cái Răng",Cần Thơ,,"Ninh Kiều, Cần Thơ",VN,"10.0109576,105.74664179999999"
518,ChIJ9YWlsFiJoDERflFVaiW7RM8,Quán Cà Phê MU ( MU COFFEE SPORT),Quán cà phê,0939 133 357,"Quán Cà Phê MU ( MU COFFEE SPORT), Góc số 7 và, Đ. Số 2, khu CBĐHCT, Ninh Kiều, Cần Thơ","khu CBĐHCT, Ninh Kiều","Góc số 7 và, Đ. Số 2",Cần Thơ,,"Ninh Kiều, Cần Thơ",VN,"10.0275771,105.7601571"
520,ChIJ9bDyHvKJoDERUtGE2FryoTw,Tiệm Cà Phê KÀ KÊ,Quán cà phê,0974 974 813,"Tiệm Cà Phê KÀ KÊ, Đ. Nguyễn Văn Linh, Hưng Lợi, Ninh Kiều, Cần Thơ 900000","Hưng Lợi, Ninh Kiều",Đ. Nguyễn Văn Linh,Cần Thơ,900000.0,"Ninh Kiều, Cần Thơ",VN,"10.0193414,105.76898639999999"
522,ChIJoT6GjDaIoDERndTNfnwwyUw,Quán Cà Phê 119,Quán cà phê,0292 3830 458,"Quán Cà Phê 119, 119, Đường 3/2, Quận Ninh Kiều, Hưng Lợi, Ninh Kiều, Cần Thơ","Hưng Lợi, Ninh Kiều","119, Đường 3/2, Quận Ninh Kiều",Cần Thơ,,"Ninh Kiều, Cần Thơ",VN,"10.0176518,105.7612145"
528,ChIJDaX6PyeIoDER--Dv9lfv2KU,Coffee MINH ( cà phê ) nguyên chất,Quán cà phê,,"Coffee MINH ( cà phê ) nguyên chất, 1a Quang Trung, An Lạc, Ninh Kiều, Cần Thơ","An Lạc, Ninh Kiều",1a Quang Trung,Cần Thơ,,"Ninh Kiều, Cần Thơ",VN,"10.0262729,105.78032209999999"
529,ChIJozwNBDeJoDERXM60BsfTaBw,Tiệm cà phê 1990s,Quán cà phê,0907 383 665,"Tiệm cà phê 1990s, 77 Đ. Trần Văn Hoài, Xuân Khánh, Ninh Kiều, Cần Thơ","Xuân Khánh, Ninh Kiều",77 Đ. Trần Văn Hoài,Cần Thơ,,"Ninh Kiều, Cần Thơ",VN,"10.026128,105.7713642"
530,ChIJ7XhicgGJoDERmwJMZOxD-lA,A Coffee,Quán cà phê,0971 189 518,"A Coffee, 6 Đường B39, Khu dân cư 91B, Ninh Kiều, Cần Thơ 90000","Khu dân cư 91B, Ninh Kiều",6 Đường B39,Cần Thơ,90000.0,"Ninh Kiều, Cần Thơ",VN,"10.0200782,105.75385"
531,ChIJZeK2tEqJoDERuLemeQZfiMQ,Cà phê Trung Nguyên,Quán cà phê,,"Cà phê Trung Nguyên, 27 duong Hùng Vương, An Hội, Ninh Kiều, Cần Thơ","An Hội, Ninh Kiều",27 duong Hùng Vương,Cần Thơ,,"Ninh Kiều, Cần Thơ",VN,"10.0443166,105.779444"
533,ChIJOXfXnDaJoDERaX2c6uUdJ7Q,An Cà Phê,Quán cà phê,0779 002 196,"An Cà Phê, 269A Nguyễn Thị Minh Khai, Xuân Khánh, Ninh Kiều, Cần Thơ","Xuân Khánh, Ninh Kiều",269A Nguyễn Thị Minh Khai,Cần Thơ,,"Ninh Kiều, Cần Thơ",VN,"10.025483999999999,105.7780229"
536,ChIJb83HPqFioDERYXp6-GF4pe8,Cà Phê Cây Bàng,Quán cà phê,0292 3825 970,"Cà Phê Cây Bàng, 6 Đ. Ng. Hữu Hạnh, Tân An, Ninh Kiều, Cần Thơ","Tân An, Ninh Kiều",6 Đ. Ng. Hữu Hạnh,Cần Thơ,,"Ninh Kiều, Cần Thơ",VN,"10.0369745,105.7862578"
542,ChIJ_ZeIN2WJoDERNAc7kcobMX0,Cà phê sân vườn,Quán cà phê,,"Cà phê sân vườn, 15 Đường Yết Kiêu, An Nghiệp, Ninh Kiều, Cần Thơ","An Nghiệp, Ninh Kiều",15 Đường Yết Kiêu,Cần Thơ,,"Ninh Kiều, Cần Thơ",VN,"10.0415915,105.7727323"
548,ChIJ6ewbWTRjoDERkTRoOor1cCk,Golden Coffee,Quán cà phê,,"Golden Coffee, 13 Nguyễn Trãi, An Hội, Ninh Kiều, Cần Thơ","An Hội, Ninh Kiều",13 Nguyễn Trãi,Cần Thơ,,"Ninh Kiều, Cần Thơ",VN,"10.0420257,105.7821381"
553,ChIJc6h8PsiJoDERrrOiJOqZPy8,Cà Phê Ngọc Nhớ,Quán cà phê,0939 220 102,"Cà Phê Ngọc Nhớ, 686 Đ. Mậu Thân, An Hoà, Ninh Kiều, Cần Thơ","An Hoà, Ninh Kiều",686 Đ. Mậu Thân,Cần Thơ,,"Ninh Kiều, Cần Thơ",VN,"10.0475808,105.7619125"
554,ChIJwfEq7ECJoDERfYv8D9-3nD4,Cà Phê Cát Tường,Quán cà phê,,"Cà Phê Cát Tường, 294 Võ Văn Kiệt, An Thới, Bình Thủy, Cần Thơ","An Thới, Bình Thủy",294 Võ Văn Kiệt,Cần Thơ,,"Bình Thủy, Cần Thơ",VN,"10.0483127,105.7586231"
556,ChIJFQUvWAWHoDERUj1FT2kt9G8,Cà Phê Thềm Xưa,Quán cà phê,,"Cà Phê Thềm Xưa, 323 Đ. Đồng Văn Cống, An Thới, Bình Thủy, Cần Thơ","An Thới, Bình Thủy",323 Đ. Đồng Văn Cống,Cần Thơ,,"Bình Thủy, Cần Thơ",VN,"10.0570504,105.7618869"
562,ChIJhRFuy4aJoDERjHgMPeV02qo,Tiệm Cà phê - Xíu mại Ông Bành,Quán cà phê,0949 260 785,"Tiệm Cà phê - Xíu mại Ông Bành, 43 đường 20, Công viên, KDC, Ninh Kiều, Cần Thơ 902072","KDC, Ninh Kiều","43 đường 20, Công viên",Cần Thơ,902072.0,"Ninh Kiều, Cần Thơ",VN,"10.038037,105.7551311"
563,ChIJ0ZappTKJoDER_HoDEjICiXo,Cửa Hàng Cà Phê 65,Quán cà phê,,"Cửa Hàng Cà Phê 65, Cầu 3, Đ. Nguyễn Văn Linh, Phường An Khánh, Ninh Kiều, Cần Thơ","Phường An Khánh, Ninh Kiều","Cầu 3, Đ. Nguyễn Văn Linh",Cần Thơ,,"Ninh Kiều, Cần Thơ",VN,"10.0274258,105.7564203"
568,ChIJga_WxTWIoDERY9VUyW72qVI,Cà Phê 93,Quán cà phê,,"Cà Phê 93, 95 Đ. 3 Tháng 2, Hưng Lợi, Ninh Kiều, Cần Thơ","Hưng Lợi, Ninh Kiều",95 Đ. 3 Tháng 2,Cần Thơ,,"Ninh Kiều, Cần Thơ",VN,"10.016408,105.7606871"
569,ChIJRQH3EUCJoDERaeU6RkfSnus,Cà phê Balli,Quán cà phê,,"Cà phê Balli, 350D Đ. Trần Hoàng Na, KV6, Ninh Kiều, Cần Thơ","KV6, Ninh Kiều",350D Đ. Trần Hoàng Na,Cần Thơ,,"Ninh Kiều, Cần Thơ",VN,"10.0225955,105.75312319999999"
571,ChIJeXhBkdyJoDERXNDDVZFBIvo,Cà Phê 69,Quán cà phê,0909 903 813,"XQV5+W36 Cà Phê 69, Đ. Trương Vĩnh Nguyên, Thường Thạnh, Cái Răng, Cần Thơ","Thường Thạnh, Cái Răng","XQV5+W36, Đ. Trương Vĩnh Nguyên",Cần Thơ,,"Cái Răng, Cần Thơ",VN,"9.994791,105.75765249999999"
579,ChIJX8FmTbKJoDERX3zckTJVxQ0,Ca phe cay cau 1,Quán cà phê,0919 418 329,"Ca phe cay cau 1, 1B/1, Quốc Lộ 1A, Phương An Bình, Quận Ninh Kiều, An Bình, Ninh Kiều, Cần Thơ","An Bình, Ninh Kiều","1B/1, Quốc Lộ 1A, Phương An Bình, Quận Ninh Kiều",Cần Thơ,,"Ninh Kiều, Cần Thơ",VN,"10.0090826,105.7479188"
580,ChIJM6T5DrKJoDERoK0ny_JI4Gg,Cafe Anh Khoa,Quán cà phê,0292 3914 738,"Cafe Anh Khoa, 226 Lộ Vòng Cung, An Bình, Ninh Kiều, Cần Thơ","An Bình, Ninh Kiều",226 Lộ Vòng Cung,Cần Thơ,,"Ninh Kiều, Cần Thơ",VN,"10.0071575,105.74600369999999"
584,ChIJcSDjXrOJoDERC6zzWL8jOsY,Quán Cà Phê KAFFA ( hồng thủy cũ),Quán cà phê,,"Quán Cà Phê KAFFA ( hồng thủy cũ), 107 Đ. 3 Tháng 2, An Bình, Ninh Kiều, Cần Thơ","An Bình, Ninh Kiều",107 Đ. 3 Tháng 2,Cần Thơ,,"Ninh Kiều, Cần Thơ",VN,"10.011221599999999,105.7525139"
591,ChIJFZ0O1DSIoDERcgnF2q391M0,Quán Cà Phê Duy,Quán cà phê,0292 3840 883,"Quán Cà Phê Duy, 91/37, Đường 30/4, Quận Ninh Kiều, Tp Cần Thơ, Hưng Lợi, Ninh Kiều, Cần Thơ","Hưng Lợi, Ninh Kiều","91/37, Đường 30/4, Quận Ninh Kiều, Tp Cần Thơ",Cần Thơ,,"Ninh Kiều, Cần Thơ",VN,"10.013338,105.76149009999999"
593,ChIJh-AivtSJoDERDGMrzX0Le94,Cà Phê Trà Sữa,Quán cà phê,,"2Q9G+H49 Cà Phê Trà Sữa, Hưng Lợi, Cái Răng, Cần Thơ","Hưng Lợi, Cái Răng",2Q9G+H49,Cần Thơ,,"Cái Răng, Cần Thơ",VN,"10.0147491,105.77188819999999"
597,ChIJk2dIDzOJoDERPO6CqpzHr-w,Cà Phê Sạch Black Gold - MiO,Quán cà phê,,"Cà Phê Sạch Black Gold - MiO, 385 Đ. Trần Nam Phú, Xuân Khánh, Ninh Kiều, Cần Thơ 900000","Xuân Khánh, Ninh Kiều",385 Đ. Trần Nam Phú,Cần Thơ,900000.0,"Ninh Kiều, Cần Thơ",VN,"10.0333875,105.76182689999999"
603,ChIJwy14N6BioDERuWNwQGdDrN0,Cà Phê Mỹ Phương,Quán cà phê,0292 3828 300,"Cà Phê Mỹ Phương, 32 Đại lộ Hoà Bình, Tân An, Ninh Kiều, Cần Thơ","Tân An, Ninh Kiều",32 Đại lộ Hoà Bình,Cần Thơ,,"Ninh Kiều, Cần Thơ",VN,"10.0337944,105.7842867"
608,ChIJL0reZe2JoDERFtFhX88Gywg,Cafe Góc Phố,Quán cà phê,,"Cafe Góc Phố, 156 Đ. Mậu Thân, An Phú, Ninh Kiều, Cần Thơ","An Phú, Ninh Kiều",156 Đ. Mậu Thân,Cần Thơ,,"Ninh Kiều, Cần Thơ",VN,"10.0326655,105.7747473"
609,ChIJnax0TSaJoDER-8MN6NiNOeE,Quán coffee gin 108,Quán cà phê,0796 901 579,"Quán coffee gin 108, 10 Đ. 30 Tháng 4, An Lạc, Ninh Kiều, Cần Thơ","An Lạc, Ninh Kiều",10 Đ. 30 Tháng 4,Cần Thơ,,"Ninh Kiều, Cần Thơ",VN,"10.0295281,105.7790579"
610,ChIJi6MpLjiIoDERfhvmWJneMzU,K Coffee Cần Thơ,Quán cà phê,0292 3508 941,"2QC6+M99 K Coffee Cần Thơ, Metro, Đường Ra ST, Hưng Lợi, Ninh Kiều, Cần Thơ","Hưng Lợi, Ninh Kiều","2QC6+M99 Metro, Đường Ra ST",Cần Thơ,,"Ninh Kiều, Cần Thơ",VN,"10.021668199999999,105.7609987"
611,ChIJ35-Zd8pjoDERQ_iXskCoZ7s,Cà phê bình dân,Quán cà phê,,"Cà phê bình dân, 19-21 Đ. Thủ Khoa Huân, Tân An, Ninh Kiều, Cần Thơ","Tân An, Ninh Kiều",19-21 Đ. Thủ Khoa Huân,Cần Thơ,,"Ninh Kiều, Cần Thơ",VN,"10.0345993,105.7876198"
614,ChIJs_oNAalioDERnLnPn-oD-38,Quán Cà Phê Bích Phượng,Quán cà phê,0292 3761 666,"2QWM+5X2 Quán Cà Phê Bích Phượng, Lô J, Trần Văn Khéo, Quận Ninh Kiều, Tp Cần Thơ, Cái Khế, Ninh Kiều, Cần Thơ","Cái Khế, Ninh Kiều","2QWM+5X2, Lô J, Trần Văn Khéo, Quận Ninh Kiều, Tp Cần Thơ",Cần Thơ,,"Ninh Kiều, Cần Thơ",VN,"10.0453909,105.7848995"
627,ChIJmxBqax2JoDERl6eUuz8UUJ4,Cà Phê Sạch Black Gold - Khánh Linh,Quán cà phê,,"Cà Phê Sạch Black Gold - Khánh Linh, 29 31 Đ. Đồng Văn Cống, An Thới, Bình Thủy, Cần Thơ","An Thới, Bình Thủy",29 31 Đ. Đồng Văn Cống,Cần Thơ,,"Bình Thủy, Cần Thơ",VN,"10.050793599999999,105.7562744"
630,ChIJsXWysuOJoDERVLy7X0uxyH4,Cà phê Anh Thư,Quán cà phê,,"Cà phê Anh Thư, 132 Đ. Nguyễn Văn Cừ, p, Ninh Kiều, Cần Thơ","p, Ninh Kiều",132 Đ. Nguyễn Văn Cừ,Cần Thơ,,"Ninh Kiều, Cần Thơ",VN,"10.039882799999999,105.7616345"
631,ChIJr8OuhKGJoDERd5dadur1ADE,Cà phê 57,Quán cà phê,0854 504 961,"Cà phê 57, 57 Đường số 6, Phường An Khánh, Ninh Kiều, Cần Thơ","Phường An Khánh, Ninh Kiều",57 Đường số 6,Cần Thơ,,"Ninh Kiều, Cần Thơ",VN,"10.0440188,105.7567526"
632,ChIJjx6kfIWJoDER5yBorhR6G5M,Cà Phê Cờ Tướng,Quán cà phê,,"2QQ4+7MQ Cà Phê Cờ Tướng, Phường An Khánh, Ninh Kiều, Cần Thơ","Phường An Khánh, Ninh Kiều",2QQ4+7MQ,Cần Thơ,,"Ninh Kiều, Cần Thơ",VN,"10.0382039,105.7567236"
637,ChIJeXXMCeyJoDERHYL5eKF0UCs,Cà phê Ngân CT,Quán cà phê,,"Cà phê Ngân CT, Đường Đ.Xuân Thủy, An Bình, Ninh Kiều, Cần Thơ","An Bình, Ninh Kiều",Đường Đ.Xuân Thủy,Cần Thơ,,"Ninh Kiều, Cần Thơ",VN,"10.024464,105.7476257"
640,ChIJc0IlzlOIoDERm_eIhxU-Hpw,Cà Phê Ngọc Trâm,Quán cà phê,,"Cà Phê Ngọc Trâm, 313 Đ. Hoàng Quốc Việt, An Bình, Ninh Kiều, Cần Thơ","An Bình, Ninh Kiều",313 Đ. Hoàng Quốc Việt,Cần Thơ,,"Ninh Kiều, Cần Thơ",VN,"10.017348499999999,105.74337039999999"
650,ChIJuffRW7OJoDERnljHHZPIYyg,Cà Phê KIM PHÁT,Quán cà phê,0913 973 797,"2Q62+GRP Cà Phê KIM PHÁT, An Bình, Ninh Kiều, Cần Thơ","An Bình, Ninh Kiều",2Q62+GRP,Cần Thơ,,"Ninh Kiều, Cần Thơ",VN,"10.0113335,105.75208549999999"
651,ChIJ4bOeuxeJoDER2w4OT6nU-7I,Cà phê Lê Thông,Quán cà phê,0939 117 156,"Cà phê Lê Thông, 71 Đường B28, Phường An Khánh, Ninh Kiều, Cần Thơ","Phường An Khánh, Ninh Kiều",71 Đường B28,Cần Thơ,,"Ninh Kiều, Cần Thơ",VN,"10.0244568,105.75447229999999"
652,ChIJ98KNRkCJoDERNIk2ar7Mdoc,Cà Phê Thảo Điền 24H,Quán cà phê,0589 309 691,"Cà Phê Thảo Điền 24H, 192 Hẻm 132 Đ. 3 Tháng 2, Hưng Lợi, Ninh Kiều, Cần Thơ","Hưng Lợi, Ninh Kiều",192 Hẻm 132 Đ. 3 Tháng 2,Cần Thơ,,"Ninh Kiều, Cần Thơ",VN,"10.021015,105.7641878"
655,ChIJsUmbvASJoDERZMWEN68GPa4,Cofee Chim Cảnh Đức Trí,Quán cà phê,0949 590 979,"2Q96+3XR Cofee Chim Cảnh Đức Trí, Hẻm 117 Đ. 3 Tháng 2, Hưng Lợi, Ninh Kiều, Cần Thơ","Hưng Lợi, Ninh Kiều","2Q96+3XR, Hẻm 117 Đ. 3 Tháng 2",Cần Thơ,,"Ninh Kiều, Cần Thơ",VN,"10.0177284,105.76238459999999"
662,ChIJ_06fNJ9ioDER9MmM0zvAzpk,Cà Phê Trinh,Quán cà phê,0292 3812 877,"Cà Phê Trinh, 2 Đường Hai Bà Trưng, Tân An, Ninh Kiều, Cần Thơ","Tân An, Ninh Kiều",2 Đường Hai Bà Trưng,Cần Thơ,,"Ninh Kiều, Cần Thơ",VN,"10.030509,105.787942"
664,ChIJqa9LT_-HoDER6M1-4zM57VE,Quán Cà Phê Hoàng Phú,Quán cà phê,0939 656 957,"3Q5J+M99 Quán Cà Phê Hoàng Phú, Nguyễn Văn Cừ nối dài, Cồn Khương, Ninh Kiều, Cần Thơ","Cồn Khương, Ninh Kiều","3Q5J+M99, Nguyễn Văn Cừ nối dài",Cần Thơ,,"Ninh Kiều, Cần Thơ",VN,"10.0591635,105.78098059999999"
665,ChIJiw9OMQeIoDERLmchPQjmA04,Cơ Sở Chế Biến Cà Phê Tiến Thắng,Quán cà phê,0292 3811 118,"Cơ Sở Chế Biến Cà Phê Tiến Thắng, 36 Đoàn Thị Điểm, Cái Khế, Ninh Kiều, Cần Thơ","Cái Khế, Ninh Kiều",36 Đoàn Thị Điểm,Cần Thơ,,"Ninh Kiều, Cần Thơ",VN,"10.0527763,105.77587299999999"
666,ChIJkQSkhVSJoDERMvqjsPnFiYY,đi cà phê.,Quán cà phê,,"đi cà phê., 86 Đ. Lê Lai, An Lạc, Ninh Kiều, Cần Thơ","An Lạc, Ninh Kiều",86 Đ. Lê Lai,Cần Thơ,,"Ninh Kiều, Cần Thơ",VN,"10.032305,105.779511"
667,ChIJ-SqthZ9ioDERWXJ9cK2PLdo,Quán Cà Phê 44,Quán cà phê,0292 3821 056,"Quán Cà Phê 44, 44 Đ. Nam Kỳ Khởi Nghĩa, Tân An, Ninh Kiều, Cần Thơ","Tân An, Ninh Kiều",44 Đ. Nam Kỳ Khởi Nghĩa,Cần Thơ,,"Ninh Kiều, Cần Thơ",VN,"10.032164999999999,105.78447899999999"
668,ChIJj0cWRTWJoDERxKw3cRUxUhk,216 COFFEE,Quán cà phê,,"216 COFFEE, 216/40e Hẻm 216, Hưng Lợi, Ninh Kiều, Cần Thơ","Hưng Lợi, Ninh Kiều",216/40e Hẻm 216,Cần Thơ,,"Ninh Kiều, Cần Thơ",VN,"10.0143854,105.7661722"
669,ChIJp82NfiGIoDERFIw2t02Pmig,Quán Cà Phê Mậu Thân,Quán cà phê,0292 3899 160,"Quán Cà Phê Mậu Thân, 102 Đ. Mậu Thân, Xuân Khánh, Ninh Kiều, Cần Thơ","Xuân Khánh, Ninh Kiều",102 Đ. Mậu Thân,Cần Thơ,,"Ninh Kiều, Cần Thơ",VN,"10.0296243,105.77636629999999"
670,ChIJb7_pNzWIoDERXoBsLXVjun0,Quán Cà Phê 50,Quán cà phê,0292 3837 954,"Quán Cà Phê 50, 50 Đ. 30 Tháng 4, Hưng Lợi, Ninh Kiều, Cần Thơ","Hưng Lợi, Ninh Kiều",50 Đ. 30 Tháng 4,Cần Thơ,,"Ninh Kiều, Cần Thơ",VN,"10.012636299999999,105.7600951"
671,ChIJ8bu2c2JjoDERJB6QmglZkfk,Cà phê võng Bờ Kè,Quán cà phê,,"2QWR+VP6 Cà phê võng Bờ Kè, Cái Khế, Ninh Kiều, Cần Thơ","Cái Khế, Ninh Kiều",2QWR+VP6,Cần Thơ,,"Ninh Kiều, Cần Thơ",VN,"10.04707,105.7918177"
672,ChIJWR8_4oGJoDERpKVFfcoB1tE,Cà phê Chốn Cũ Cần Thơ,Quán cà phê,,"2QRH+9V5 Cà phê Chốn Cũ Cần Thơ, An Cư, Ninh Kiều, Cần Thơ","An Cư, Ninh Kiều",2QRH+9V5,Cần Thơ,,"Ninh Kiều, Cần Thơ",VN,"10.0408817,105.7797848"
675,ChIJx3y4ma9ioDERhLvT09Xeni8,Cafe Ngọc Xuân,Quán cà phê,,"2QVR+MJ2 Cafe Ngọc Xuân, Cái Khế, Ninh Kiều, Cần Thơ","Cái Khế, Ninh Kiều",2QVR+MJ2,Cần Thơ,,"Ninh Kiều, Cần Thơ",VN,"10.0441297,105.7915113"
680,ChIJD78wxDaJoDERb9H9EZUK47o,Cà phê Cốc,Quán cà phê,,"Cà phê Cốc, 149B Hoàng Văn Thụ, An Cư, Ninh Kiều, Cần Thơ","An Cư, Ninh Kiều",149B Hoàng Văn Thụ,Cần Thơ,,"Ninh Kiều, Cần Thơ",VN,"10.039986299999999,105.7784003"
700,ChIJ2TNgc16JoDERfjCUGCRfow8,Quán Cà Phê Duy Tâm,Quán cà phê,,"2QR6+8VM Quán Cà Phê Duy Tâm, Nguyễn Văn Cừ Nối Dài, Phường An Khánh, Ninh Kiều, Cần Thơ","Phường An Khánh, Ninh Kiều","2QR6+8VM, Nguyễn Văn Cừ Nối Dài",Cần Thơ,,"Ninh Kiều, Cần Thơ",VN,"10.040837999999999,105.76218259999999"
706,ChIJ2Xhs-oGJoDERlOcAPoYqjIo,Cà Phê sạch Black Gold - Lụa Coffee,Quán cà phê,,"2QR4+C2P Cà Phê sạch Black Gold - Lụa Coffee, Đ. Tô Hiến Thành, Phường An Khánh, Ninh Kiều, Cần Thơ","Phường An Khánh, Ninh Kiều","2QR4+C2P, Đ. Tô Hiến Thành",Cần Thơ,,"Ninh Kiều, Cần Thơ",VN,"10.0410975,105.7550916"
707,ChIJ1XZOcM-JoDERhP5uJTC1pdM,Cà Phê Xanh Coffee,Quán cà phê,0783 878 979,"Cà Phê Xanh Coffee, 132D Đ. Nguyễn Văn Cừ, Phường An Khánh, Ninh Kiều, Cần Thơ 900000","Phường An Khánh, Ninh Kiều",132D Đ. Nguyễn Văn Cừ,Cần Thơ,900000.0,"Ninh Kiều, Cần Thơ",VN,"10.0396358,105.7614277"
708,ChIJqdNwfBOIoDERN_1IF7XJT90,Cà Phê Win,Quán cà phê,,"Cà Phê Win, 136 Đ. Nguyễn Văn Cừ, Phường An Khánh, Ninh Kiều, Cần Thơ","Phường An Khánh, Ninh Kiều",136 Đ. Nguyễn Văn Cừ,Cần Thơ,,"Ninh Kiều, Cần Thơ",VN,"10.0393476,105.7610967"
709,ChIJfQ-5crqJoDERrcYsCB0Nc4o,Cà phê Thanh Trà,Quán cà phê,0366 497 096,"Cà phê Thanh Trà, 19 Đ. Tô Hiến Thành, Phường An Khánh, Ninh Kiều, Cần Thơ","Phường An Khánh, Ninh Kiều",19 Đ. Tô Hiến Thành,Cần Thơ,,"Ninh Kiều, Cần Thơ",VN,"10.0399231,105.7546821"
712,ChIJTQu4ARWJoDERjvTSaaUeaDg,XÓM CÀ PHÊ- HỒNG PHÁT,Quán cà phê,,"XÓM CÀ PHÊ- HỒNG PHÁT, 260 Đ.Xuân Thủy, An Bình, Ninh Kiều, Cần Thơ","An Bình, Ninh Kiều",260 Đ.Xuân Thủy,Cần Thơ,,"Ninh Kiều, Cần Thơ",VN,"10.021754999999999,105.74443219999999"
713,ChIJV_igLFSIoDERhmvYCDiqhnk,CA PHÊ - GIẶT SẤY Nhà Tâm,Quán cà phê,0932 994 699,"CA PHÊ - GIẶT SẤY Nhà Tâm, Đ. Xuân Hồng, An Bình, Bình Thủy, Cần Thơ","An Bình, Bình Thủy",Đ. Xuân Hồng,Cần Thơ,,"Bình Thủy, Cần Thơ",VN,"10.018135299999999,105.7381308"
714,ChIJTWEVPbKJoDERxW4b2AV9Sv0,Quán Cà Phê Thủy,Quán cà phê,,"2P5X+7JJ Quán Cà Phê Thủy, An Bình, Ninh Kiều, Cần Thơ","An Bình, Ninh Kiều",2P5X+7JJ,Cần Thơ,,"Ninh Kiều, Cần Thơ",VN,"10.008208699999999,105.7490303"
718,ChIJhXDsLEWIoDERyMgodAgNGRo,Cà Phê Anh Thơ,Quán cà phê,0907 215 929,"Cà Phê Anh Thơ, 58 Nguyễn Văn Cừ Nối Dài, An Bình, Ninh Kiều, Cần Thơ","An Bình, Ninh Kiều",58 Nguyễn Văn Cừ Nối Dài,Cần Thơ,,"Ninh Kiều, Cần Thơ",VN,"10.025808999999999,105.7468894"
730,ChIJqWoGIqGJoDERSEOUPnGM6jo,Quán Cà Phê 365,Quán cà phê,0292 3706 007,"Quán Cà Phê 365, 365, Đường Lộ Vòng Cung, Quận Ninh Kiều, An Bình, Ninh Kiều, Cần Thơ","An Bình, Ninh Kiều","365, Đường Lộ Vòng Cung, Quận Ninh Kiều",Cần Thơ,,"Ninh Kiều, Cần Thơ",VN,"9.9978877,105.74194179999999"
734,ChIJxZOPV76JoDERos20b6U2ZGA,Cà phê Gia Hân,Quán cà phê,0389 291 746,"Cà phê Gia Hân, Hưng Lợi, Ninh Kiều, Cần Thơ","Hưng Lợi, Ninh Kiều",,Cần Thơ,,"Ninh Kiều, Cần Thơ",VN,"10.0183358,105.7582022"
735,ChIJF-og6--JoDERcpaaAQiImqY,Quán cà phê Bảy Bé,Quán cà phê,0919 119 323,"Quán cà phê Bảy Bé, 35/1b Lý Thường Kiệt, Lê Bình, Cái Răng, Cần Thơ","Lê Bình, Cái Răng",35/1b Lý Thường Kiệt,Cần Thơ,,"Cái Răng, Cần Thơ",VN,"10.0057862,105.75038479999999"
740,ChIJtwiKTUuIoDER5nicJHI91UE,Quán Cà Phê Tấn Thủy,Quán cà phê,0837 189 899,"Quán Cà Phê Tấn Thủy, 167/1A, Quốc Lộ 1A, P. Lê Bình, Quận Cái Răng, Hưng Lợi, Ninh Kiều, Cần Thơ","Hưng Lợi, Ninh Kiều","167/1A, Quốc Lộ 1A, P. Lê Bình, Quận Cái Răng",Cần Thơ,,"Ninh Kiều, Cần Thơ",VN,"10.0125558,105.7534403"
742,ChIJXS09wkeIoDERQXIBCAUC-og,Cà Phê 138,Quán cà phê,0292 3781 358,"Cà Phê 138, 138 Đ. Nguyễn Hiền, Hưng Lợi, Ninh Kiều, Cần Thơ","Hưng Lợi, Ninh Kiều",138 Đ. Nguyễn Hiền,Cần Thơ,,"Ninh Kiều, Cần Thơ",VN,"10.0240606,105.7568811"
743,ChIJBYIZdzKJoDERZEJ5xvaMUgk,Cà phê Hạt mang về,Quán cà phê,0388 880 340,"2QH2+XJG Cà phê Hạt mang về, Nguyễn Văn Cừ Nối Dài, Phường An Khánh, Ninh Kiều, Cần Thơ","Phường An Khánh, Ninh Kiều","2QH2+XJG, Nguyễn Văn Cừ Nối Dài",Cần Thơ,,"Ninh Kiều, Cần Thơ",VN,"10.029935199999999,105.7515758"
744,ChIJHQme9zSIoDERv-vQnibt_4o,Cà Phê Phố Đêm,Quán cà phê,0292 3838 476,"Cà Phê Phố Đêm, 124 Đ. 30 Tháng 4, Hưng Lợi, Ninh Kiều, Cần Thơ","Hưng Lợi, Ninh Kiều",124 Đ. 30 Tháng 4,Cần Thơ,,"Ninh Kiều, Cần Thơ",VN,"10.0144855,105.7622628"
745,ChIJqY4-QAGJoDERTUQfHcsbRqQ,Cà phê Sake 86,Quán cà phê,,"Cà phê Sake 86, 86 Đ. 3 Tháng 2, Hưng Lợi, Ninh Kiều, Cần Thơ","Hưng Lợi, Ninh Kiều",86 Đ. 3 Tháng 2,Cần Thơ,,"Ninh Kiều, Cần Thơ",VN,"10.01601,105.7599051"
750,ChIJC0TV3UeJoDERWc7f04QC70U,Cà Phê Sạch Black Gold - Kim Châu,Quán cà phê,,"Cà Phê Sạch Black Gold - Kim Châu, 586 Hẻm 553, Hưng Lợi, Ninh Kiều, Cần Thơ","Hưng Lợi, Ninh Kiều",586 Hẻm 553,Cần Thơ,,"Ninh Kiều, Cần Thơ",VN,"10.0158522,105.7638389"
751,ChIJXwCYWIWJoDERISgBmAUg8Kw,Cà Phê Sạch Black Gold - Ngọc Bích,Quán cà phê,,"Cà Phê Sạch Black Gold - Ngọc Bích, 118 Đ. Trần Hoàng Na, Hưng Lợi, Ninh Kiều, Cần Thơ","Hưng Lợi, Ninh Kiều",118 Đ. Trần Hoàng Na,Cần Thơ,,"Ninh Kiều, Cần Thơ",VN,"10.015141999999999,105.7617224"
754,ChIJQcWIJDWIoDERlfYw09Deobs,Cà Phê Hồng Nghi,Quán cà phê,0947 707 431,"Cà Phê Hồng Nghi, 91 Đ. 30 Tháng 4, Hưng Lợi, Ninh Kiều, Cần Thơ","Hưng Lợi, Ninh Kiều",91 Đ. 30 Tháng 4,Cần Thơ,,"Ninh Kiều, Cần Thơ",VN,"10.0130182,105.76111639999999"
768,ChIJl3Xk3HdjoDERiEAitZzddzo,Cà Phê Chợ,Quán cà phê,0939 991 678,"Cà Phê Chợ, 97 Phan Đình Phùng, Tân An, Ninh Kiều, Cần Thơ","Tân An, Ninh Kiều",97 Phan Đình Phùng,Cần Thơ,,"Ninh Kiều, Cần Thơ",VN,"10.030015299999999,105.7865719"
769,ChIJrVgA_1V9oDERpNvGARxPJKU,Cafe Thảo Vân,Quán cà phê,0939 417 319,"3Q5J+RV9 Cafe Thảo Vân, Đ. Nguyễn Văn Cừ, Cái Khế, Ninh Kiều, Cần Thơ","Cái Khế, Ninh Kiều","3Q5J+RV9, Đ. Nguyễn Văn Cừ",Cần Thơ,,"Ninh Kiều, Cần Thơ",VN,"10.0595319,105.78223949999999"
770,ChIJ-5unJoiJoDER8WbbPvk7Yag,Caffe Tĩnh,Quán cà phê,,"Caffe Tĩnh, 1d Dãy A Trần Hoàng Na, Hưng Lợi, Ninh Kiều, Cần Thơ","Hưng Lợi, Ninh Kiều",1d Dãy A Trần Hoàng Na,Cần Thơ,,"Ninh Kiều, Cần Thơ",VN,"10.0123524,105.76348"
771,ChIJgUooPgeIoDERCEUbafdgna8,Cà Phê Cội Nguồn,Quán cà phê,0914 391 111,"Cà Phê Cội Nguồn, 2 Đ. Nguyễn Văn Cừ, Cái Khế, Ninh Kiều, Cần Thơ","Cái Khế, Ninh Kiều",2 Đ. Nguyễn Văn Cừ,Cần Thơ,,"Ninh Kiều, Cần Thơ",VN,"10.053190299999999,105.7745703"
772,ChIJ-QCHcgOIoDERDhRAyHM6z4M,Quán Cafe 18,Quán cà phê,0292 3761 107,"Quán Cafe 18, 18, Bà Huyện Thanh Quan, Phường Thới Bình, Quận Ninh Kiều, Thành Phố Cần Thơ, Thới Bình, Ninh Kiều, Cần Thơ","Thới Bình, Ninh Kiều","18, Bà Huyện Thanh Quan, Phường Thới Bình, Quận Ninh Kiều, Thành Phố Cần Thơ",Cần Thơ,,"Ninh Kiều, Cần Thơ",VN,"10.0457404,105.7774926"
773,ChIJ9eRWmGuJoDER0nVNBshPDsQ,Coffee Thu 1984,Quán cà phê,0829 910 182,"Coffee Thu 1984, 184 Đ. Nguyễn Văn Cừ, Phường An Khánh, Ninh Kiều, Cần Thơ","Phường An Khánh, Ninh Kiều",184 Đ. Nguyễn Văn Cừ,Cần Thơ,,"Ninh Kiều, Cần Thơ",VN,"10.0380211,105.75985179999999"
774,ChIJJ7CJ-i-IoDER0eOC1oNy6HM,TN Coffee,Quán cà phê,,"TN Coffee, 259 Đ. 30 Tháng 4, Xuân Khánh, Ninh Kiều, Cần Thơ","Xuân Khánh, Ninh Kiều",259 Đ. 30 Tháng 4,Cần Thơ,,"Ninh Kiều, Cần Thơ",VN,"10.0223336,105.77179869999999"
775,ChIJVbO2wK5joDERR_FHdjhwWBw,Nước Mía Cà Phê,Quán cà phê,0944 014 894,"Nước Mía Cà Phê, 5 Đ. Ng. Hữu Hạnh, Tân An, Ninh Kiều, Cần Thơ","Tân An, Ninh Kiều",5 Đ. Ng. Hữu Hạnh,Cần Thơ,,"Ninh Kiều, Cần Thơ",VN,"10.0379201,105.7852581"
776,ChIJ8em5yaNioDERnEvzvbIVh-k,Cà Phê Alibaba,Quán cà phê,,"Cà Phê Alibaba, 2 Đường Hai Bà Trưng, Tân An, Ninh Kiều, Cần Thơ","Tân An, Ninh Kiều",2 Đường Hai Bà Trưng,Cần Thơ,,"Ninh Kiều, Cần Thơ",VN,"10.0355051,105.7892325"
777,ChIJtxjPNRNjoDERMA-tfh4Xxf8,Cà Phê Lâm Bách Phú,Quán cà phê,0907 666 792,"Cà Phê Lâm Bách Phú, Trần Văn Khải, An Hội, Ninh Kiều, Cần Thơ","An Hội, Ninh Kiều",Trần Văn Khải,Cần Thơ,,"Ninh Kiều, Cần Thơ",VN,"10.0440344,105.7828579"
796,ChIJEdgvxRiIoDERaAcYhF_4ORA,Cà Phê Lạc Hồng,Quán cà phê,0292 2213 468,"Cà Phê Lạc Hồng, 153g Đ. Trần Hưng Đạo, An Phú, Ninh Kiều, Cần Thơ","An Phú, Ninh Kiều",153g Đ. Trần Hưng Đạo,Cần Thơ,,"Ninh Kiều, Cần Thơ",VN,"10.0349456,105.7755504"
800,ChIJZXnWRQOIoDERwSafVluhcDY,Tran Thi Kim Tham Coffee Shop,Quán cà phê,0938 682 904,"Tran Thi Kim Tham Coffee Shop, 43B1/1/57, Tran Hung Dao Street, An Cu Ward, Ninh Kieu District, Thới Bình, Ninh Kiều, Cần Thơ","Thới Bình, Ninh Kiều","43B1/1/57, Tran Hung Dao Street, An Cu Ward, Ninh Kieu District",Cần Thơ,,"Ninh Kiều, Cần Thơ",VN,"10.044511,105.777289"
801,ChIJXbQNhNaJoDERUIo12FTuXGk,Quán cà phê Anh Tài,Quán cà phê,,"Quán cà phê Anh Tài, 49 Đ. Nguyễn Đệ, An Hoà, Ninh Kiều, Cần Thơ","An Hoà, Ninh Kiều",49 Đ. Nguyễn Đệ,Cần Thơ,,"Ninh Kiều, Cần Thơ",VN,"10.049332,105.76501309999999"
802,ChIJwQIltBOIoDERQCnMCXpmVrM,Cà Phê Phúc Lợi Võng,Quán cà phê,,"Cà Phê Phúc Lợi Võng, An Khánh, Ninh Kiều, Cần Thơ","An Khánh, Ninh Kiều",,Cần Thơ,,"Ninh Kiều, Cần Thơ",VN,"10.0414262,105.7626986"
807,ChIJwSHh92yIoDERCTK_psh9qzk,Cà phê Vạn Xuân,Quán cà phê,,"2QR4+G73 Cà phê Vạn Xuân, Phường An Khánh, Ninh Kiều, Cần Thơ","Phường An Khánh, Ninh Kiều",2QR4+G73,Cần Thơ,,"Ninh Kiều, Cần Thơ",VN,"10.041251599999999,105.75566289999999"
810,ChIJ92NO3FiJoDERyBfMUbhHhkc,Cà phê An Khánh,Quán cà phê espresso,0909 149 299,"Cà phê An Khánh, 184 Đường Trần Văn Long, khu dân cư, Ninh Kiều, Cần Thơ","khu dân cư, Ninh Kiều",184 Đường Trần Văn Long,Cần Thơ,,"Ninh Kiều, Cần Thơ",VN,"10.040616199999999,105.75329219999999"
811,ChIJiSKPopqJoDER2JrV7DgSWps,Cà Phê Trung Tín,Quán cà phê,,"Cà Phê Trung Tín, 36 Trần Bạch Đằng, Phường An Khánh, Ninh Kiều, Cần Thơ","Phường An Khánh, Ninh Kiều",36 Trần Bạch Đằng,Cần Thơ,,"Ninh Kiều, Cần Thơ",VN,"10.0366815,105.7545935"
812,ChIJGcfKlEOIoDERrDemSM_vZFs,Quán Cà Phê Ngộ Viện,Quán cà phê,0917 696 566,"2QH2+VFP Quán Cà Phê Ngộ Viện, Nguyễn Văn Cừ Nối Dài, Phường An Khánh, Ninh Kiều, Cần Thơ","Phường An Khánh, Ninh Kiều","2QH2+VFP, Nguyễn Văn Cừ Nối Dài",Cần Thơ,,"Ninh Kiều, Cần Thơ",VN,"10.029703399999999,105.7511985"
816,ChIJpaCTNFGIoDER_hIkVAXhrtY,Cà Phê Mến Thương,Quán cà phê,0987 003 018,"2P9R+X9V Cà Phê Mến Thương, Nguyễn Văn Cừ Nối Dài, An Bình, Ninh Kiều, Cần Thơ","An Bình, Ninh Kiều","2P9R+X9V, Nguyễn Văn Cừ Nối Dài",Cần Thơ,,"Ninh Kiều, Cần Thơ",VN,"10.0199783,105.7409375"
817,ChIJc4rGdwqJoDERS3IaqR9eeFM,Cà Phê Sạch Black Gold - Ngọc Hân,Quán cà phê,,"Cà Phê Sạch Black Gold - Ngọc Hân, Lô B1-43, Khu TĐC Thới Nhựt, Nguyễn Văn Cừ Nối Dài, Phường An Khánh, An Bình, Ninh Kiều, Cần Thơ","An Bình, Ninh Kiều","Lô B1-43, Khu TĐC Thới Nhựt, Nguyễn Văn Cừ Nối Dài, Phường An Khánh",Cần Thơ,,"Ninh Kiều, Cần Thơ",VN,"10.017769999999999,105.73639399999999"
819,ChIJ9y8HvfyJoDERaVnQpG22dGo,Cà Phê Và Giặt Sấy Nhà Tâm,Quán cà phê,0706 824 824,"Cà Phê Và Giặt Sấy Nhà Tâm, 11 Đ. Xuân Hồng, An Bình, Bình Thủy, Cần Thơ","An Bình, Bình Thủy",11 Đ. Xuân Hồng,Cần Thơ,,"Bình Thủy, Cần Thơ",VN,"10.0181411,105.7381159"
825,ChIJVzkKTvyIoDERBut4otuFm-c,Quán Cà Phê Phương Đại,Quán cà phê,0919 444 339,"Quán Cà Phê Phương Đại, 271/91B, Khu Vực Bình Phó B, Phường Long Tuyền, Quận Bình Thủy, Long Tuyền, Bình Thủy, Cần Thơ","Long Tuyền, Bình Thủy","271/91B, Khu Vực Bình Phó B, Phường Long Tuyền, Quận Bình Thủy",Cần Thơ,,"Bình Thủy, Cần Thơ",VN,"10.0166788,105.7271847"
831,ChIJtdgnnKCJoDERfJSKbI_uwPg,Quán Cà Phê K+ - Bida - Nhạc Sống Kiều Vy,Quán cà phê,0292 3844 928,"Quán Cà Phê K+ - Bida - Nhạc Sống Kiều Vy, 255 Ấp Mỹ Phước, Huyện Phong Điền, An Bình, Ninh Kiều, Cần Thơ","An Bình, Ninh Kiều","255 Ấp Mỹ Phước, Huyện Phong Điền",Cần Thơ,,"Ninh Kiều, Cần Thơ",VN,"9.995270399999999,105.7353971"
832,ChIJLR_KkKCJoDERkU8VSNqkysU,Quán Cà Phê Kim Yến,Quán cà phê,0292 3928 732,"Quán Cà Phê Kim Yến, 333 Ấp Mỹ Nhơn, Huyện Phong Điền, An Bình, Ninh Kiều, Cần Thơ","An Bình, Ninh Kiều","333 Ấp Mỹ Nhơn, Huyện Phong Điền",Cần Thơ,,"Ninh Kiều, Cần Thơ",VN,"9.995242,105.7359467"
835,ChIJm4sV66CJoDERzK5zIWlyJjw,Quán Cà Phê Bảo Ngọc,Quán cà phê,0292 3849 981,"Quán Cà Phê Bảo Ngọc, 251 Ấp Mỹ Phước, Huyện Phong Điền, An Bình, Ninh Kiều, Cần Thơ","An Bình, Ninh Kiều","251 Ấp Mỹ Phước, Huyện Phong Điền",Cần Thơ,,"Ninh Kiều, Cần Thơ",VN,"9.9952727,105.73667859999999"
836,ChIJ76WVAq-JoDERYbyZWcwDG-Y,Quán Cà Phê Diễm Châu,Quán cà phê,0292 3097 977,"Quán Cà Phê Diễm Châu, 431, Lộ Vòng Cung, Quận Ninh Kiều, An Bình, Ninh Kiều, Cần Thơ","An Bình, Ninh Kiều","431, Lộ Vòng Cung, Quận Ninh Kiều",Cần Thơ,,"Ninh Kiều, Cần Thơ",VN,"10.004613899999999,105.74328589999999"
840,ChIJuc43TLKJoDERf3LoM9PJRZc,Quán Cà Phê Hoàng Ngân,Quán cà phê,0292 3532 102,"Quán Cà Phê Hoàng Ngân, 7, Quốc Lộ 1A, Quận Cái Răng, An Bình, Ninh Kiều, Cần Thơ","An Bình, Ninh Kiều","7, Quốc Lộ 1A, Quận Cái Răng",Cần Thơ,,"Ninh Kiều, Cần Thơ",VN,"10.0089247,105.7495086"
841,ChIJV64EgDeJoDER2y1vUkvIY-c,Son Cà Phê,Quán cà phê,0706 646 006,"Son Cà Phê, 9 Trần Chiên, Lê Bình, Cái Răng, Cần Thơ 900000","Lê Bình, Cái Răng",9 Trần Chiên,Cần Thơ,900000.0,"Cái Răng, Cần Thơ",VN,"10.0034338,105.75549989999999"
842,ChIJYV1CBWOJoDERQIZTjO-ZQR8,Cà Phê Lộc Vừng,Quán cà phê,0907 367 186,"Cà Phê Lộc Vừng, 47 Trần Chiên, Lê Bình, Cái Răng, Cần Thơ","Lê Bình, Cái Răng",47 Trần Chiên,Cần Thơ,,"Cái Răng, Cần Thơ",VN,"10.0039442,105.75494289999999"
846,ChIJcffcyHyJoDERPS-AenEHx_4,Cà phê Bồ Công Anh,Quán cà phê,,"Cà phê Bồ Công Anh, 96 Đ. Nam Cao, Khu dân cư 91B, Ninh Kiều, Cần Thơ","Khu dân cư 91B, Ninh Kiều",96 Đ. Nam Cao,Cần Thơ,,"Ninh Kiều, Cần Thơ",VN,"10.019952499999999,105.75586849999999"
847,ChIJWQgQV9uJoDERMmgUnMTQn3I,Cà phê Phố 91B,Quán cà phê,,"Cà phê Phố 91B, 330 Đ. Nguyễn Văn Linh, Phường An Khánh, Ninh Kiều, Cần Thơ","Phường An Khánh, Ninh Kiều",330 Đ. Nguyễn Văn Linh,Cần Thơ,,"Ninh Kiều, Cần Thơ",VN,"10.025482499999999,105.7587678"
848,ChIJ6Suf9VmJoDERWoQWlNk7YNM,Cà phê Phương Vinh,Quán cà phê,,"Cà phê Phương Vinh, 151 Đ. Trần Hoàng Na, Hưng Lợi, Ninh Kiều, Cần Thơ","Hưng Lợi, Ninh Kiều",151 Đ. Trần Hoàng Na,Cần Thơ,,"Ninh Kiều, Cần Thơ",VN,"10.0138769,105.7626434"
849,ChIJyW-AuAqJoDERJ9WjOmJxmuo,Cà Phê Sala,Quán cà phê,0943 587 412,"2QJ2+3PC Cà Phê Sala, Nguyễn Văn Cừ Nối Dài, Phường An Khánh, Ninh Kiều, Cần Thơ","Phường An Khánh, Ninh Kiều","2QJ2+3PC, Nguyễn Văn Cừ Nối Dài",Cần Thơ,,"Ninh Kiều, Cần Thơ",VN,"10.0302463,105.75192679999999"
850,ChIJ5aC8KQaJoDER3l9JUkeDQeY,Tiệm Cà Phê,Quán cà phê,0907 946 094,"Tiệm Cà Phê, tp, 27 Đ. Trần Hoàng Na, mới p, Ninh Kiều, Cần Thơ 700000","mới p, Ninh Kiều","tp, 27 Đ. Trần Hoàng Na",Cần Thơ,700000.0,"Ninh Kiều, Cần Thơ",VN,"10.0130426,105.76332479999999"
851,ChIJn5-1C42JoDERJd0AxOuuTk4,Quán cà phê Bằng Lăng Tím,Quán cà phê,,"2QH6+664 Quán cà phê Bằng Lăng Tím, Đ. Số 7, Phường An Khánh, Ninh Kiều, Cần Thơ","Phường An Khánh, Ninh Kiều","2QH6+664, Đ. Số 7",Cần Thơ,,"Ninh Kiều, Cần Thơ",VN,"10.028003799999999,105.76058809999999"
853,ChIJc_lAC8CJoDER-V9Om9KMA50,Coffee Số,Quán cà phê,0901 576 679,"Coffee Số, 213d Nguyễn Thị Minh Khai, Xuân Khánh, Ninh Kiều, Cần Thơ","Xuân Khánh, Ninh Kiều",213d Nguyễn Thị Minh Khai,Cần Thơ,,"Ninh Kiều, Cần Thơ",VN,"10.025654399999999,105.7793078"
857,ChIJe-QpvMmJoDERCqIg9UTjQgY,Nhà 102 Coffee,Quán cà phê,0939 258 384,"2Q85+RMV Nhà 102 Coffee, Đ. Trần Hoàng Na, Hưng Lợi, Ninh Kiều, Cần Thơ","Hưng Lợi, Ninh Kiều","2Q85+RMV, Đ. Trần Hoàng Na",Cần Thơ,,"Ninh Kiều, Cần Thơ",VN,"10.0171154,105.7591705"
860,ChIJDxlfEXuJoDERo2Sz_qwPjvE,Cà Phê Sạch Black Gold - Căn tin TTHL ĐHCT,Quán cà phê,,"Cà Phê Sạch Black Gold - Căn tin TTHL ĐHCT, Cổng A, Khu II, ĐHCT Đ. 3 Tháng 2, Xuân Khánh, Ninh Kiều, Cần Thơ","Xuân Khánh, Ninh Kiều","Cổng A, Khu II, ĐHCT Đ. 3 Tháng 2",Cần Thơ,,"Ninh Kiều, Cần Thơ",VN,"10.030424,105.771875"
861,ChIJverWm92JoDERICxzJzfVkIk,Cà phê pha máy an phat coffee,Quán cà phê,0939 195 049,"Cà phê pha máy an phat coffee, 14b Đ. Trần Nam Phú, Phường An Khánh, Ninh Kiều, Cần Thơ","Phường An Khánh, Ninh Kiều",14b Đ. Trần Nam Phú,Cần Thơ,,"Ninh Kiều, Cần Thơ",VN,"10.0334354,105.7616955"
862,ChIJ-e3RZJqJoDERXyzKV006sA0,Cà phê mang đi Stix,Quán cà phê,0939 159 486,"Cà phê mang đi Stix, Đ. 3 Tháng 2, Xuân Khánh, Ninh Kiều, Cần Thơ 900959","Xuân Khánh, Ninh Kiều",Đ. 3 Tháng 2,Cần Thơ,900959.0,"Ninh Kiều, Cần Thơ",VN,"10.0274928,105.77034789999999"
865,ChIJQ1_pVF2JoDERNEyr7tpGx8U,Cà phê Tâm,Quán cà phê,,"Cà phê Tâm, 322 Đ. 30 Tháng 4, Xuân Khánh, Ninh Kiều, Cần Thơ","Xuân Khánh, Ninh Kiều",322 Đ. 30 Tháng 4,Cần Thơ,,"Ninh Kiều, Cần Thơ",VN,"10.0233902,105.7723352"
866,ChIJl4DqVvGJoDERP29Mb3UOWQI,Cà phê Carrot,Quán cà phê,0899 165 999,"Cà phê Carrot, 19 Đ. Trần Nam Phú, Phường An Khánh, Ninh Kiều, Cần Thơ 94000","Phường An Khánh, Ninh Kiều",19 Đ. Trần Nam Phú,Cần Thơ,94000.0,"Ninh Kiều, Cần Thơ",VN,"10.0323525,105.76301679999999"
870,ChIJSVRJmp9ioDERJFd01xU9J9s,Xua Nay Coffee Shop,Quán cà phê,0292 3821 454,"Xua Nay Coffee Shop, 108 Đường Châu Văn Liêm, Tân An, Ninh Kiều, Cần Thơ","Tân An, Ninh Kiều",108 Đường Châu Văn Liêm,Cần Thơ,,"Ninh Kiều, Cần Thơ",VN,"10.0314485,105.78450439999999"
874,ChIJAz8S8M2JoDERkRf38YBGoyg,Cà phê cá viên chiên xù góc nhỏ,Quán cà phê,0939 345 494,"Cà phê cá viên chiên xù góc nhỏ, 108/49 hẻm tài xỉu, Đ. 30/4, An Phú, Ninh Kiều, Cần Thơ","An Phú, Ninh Kiều","108/49 hẻm tài xỉu, Đ. 30/4",Cần Thơ,,"Ninh Kiều, Cần Thơ",VN,"10.0300484,105.7787037"
876,ChIJybw6o799oDERqhOJszqgGqo,"Cà phê AE (võng, sân vườn thoáng mát)",Quán cà phê,,"3Q5J+WX7 Cà phê AE (võng, sân vườn thoáng mát), Đ. Nguyễn Văn Cừ, Cái Khế, Ninh Kiều, Cần Thơ","Cái Khế, Ninh Kiều","3Q5J+WX7, Đ. Nguyễn Văn Cừ",Cần Thơ,,"Ninh Kiều, Cần Thơ",VN,"10.0597769,105.7824097"
877,ChIJvWNXcwaHoDERkTB-H5ILuMY,Cà Phê & Nước Ép 30/20,Quán cà phê,0393 475 065,"Cà Phê & Nước Ép 30/20, 30/20 Hẻm Số Đỏ, Cái Khế, Ninh Kiều, Cần Thơ","Cái Khế, Ninh Kiều",30/20 Hẻm Số Đỏ,Cần Thơ,,"Ninh Kiều, Cần Thơ",VN,"10.0580562,105.7812735"
878,ChIJhemAjzaJoDERJlseRBoQd6c,Cafe Phố,Quán cà phê,,"Cafe Phố, 256/3B Đ. Nguyễn Văn Cừ, An Hoà, Ninh Kiều, Cần Thơ","An Hoà, Ninh Kiều",256/3B Đ. Nguyễn Văn Cừ,Cần Thơ,,"Ninh Kiều, Cần Thơ",VN,"10.0478159,105.76618289999999"
879,ChIJyeYSnO6JoDER_xFj5eTUjmk,Piggee Kafe II,Quán cà phê,0795 916 075,"Piggee Kafe II, 100 Đường Đồng Văn Cống, An Thới, Bình Thủy, Cần Thơ, Vietnam Cần Thơ Can Tho City, 940000","An Thới, Bình Thủy","100 Đường Đồng Văn Cống, An Thới, Bình Thủy, Cần Thơ, Vietnam Cần Thơ Can Tho City",Cần Thơ,940000.0,"Bình Thủy, Cần Thơ",VN,"10.0527038,105.75672689999999"
880,ChIJQagxi-pjoDERbdUfJ_mopcY,Quán cà phê 002,Quán cà phê,0933 424 002,"Quán cà phê 002, 2 Đ. Ng. Hữu Hạnh, Tân An, Ninh Kiều, Cần Thơ","Tân An, Ninh Kiều",2 Đ. Ng. Hữu Hạnh,Cần Thơ,,"Ninh Kiều, Cần Thơ",VN,"10.037787699999999,105.7854035"
881,ChIJP0eIZ6BioDERgSSvIilKOIk,Cà Phê 26,Quán cà phê,,"Cà Phê 26, 26 Đ. Nguyễn Khuyến, Tân An, Ninh Kiều, Cần Thơ","Tân An, Ninh Kiều",26 Đ. Nguyễn Khuyến,Cần Thơ,,"Ninh Kiều, Cần Thơ",VN,"10.0347751,105.7833442"
882,ChIJ551McmWJoDERXxqBN5Im5UY,Cafe,Quán cà phê,,"Cafe, 10 Đ. Lê Bình, Xuân Khánh, Ninh Kiều, Cần Thơ","Xuân Khánh, Ninh Kiều",10 Đ. Lê Bình,Cần Thơ,,"Ninh Kiều, Cần Thơ",VN,"10.0247478,105.7679591"
883,ChIJmX5x30iJoDERllXN5-Rwt4k,Quán Cafe Rang Xây Copha,Quán cà phê,,"Quán Cafe Rang Xây Copha, 204 Đ. Nguyễn Văn Cừ, Phường An Khánh, Ninh Kiều, Cần Thơ","Phường An Khánh, Ninh Kiều",204 Đ. Nguyễn Văn Cừ,Cần Thơ,,"Ninh Kiều, Cần Thơ",VN,"10.0327491,105.7545643"
884,ChIJZbI41FKJoDER2WLAlhOCUFw,Cà phê Trái tim,Quán cà phê,0932 848 383,"2QH6+QPM Cà phê Trái tim, Hồ Búng Xáng, Cần Thơ 900000","Phường An Khánh, Ninh Kiều","2QH6+QPM, Hồ Búng Xáng",Cần Thơ,900000.0,"Ninh Kiều, Cần Thơ",VN,"10.029463999999999,105.7618043"
885,ChIJ0WpuE5-JoDERPJKDMH-g_rw,Cà phê Đà Lạt,Quán cà phê,,"2PGX+GF8 Cà phê Đà Lạt, Đầu, Đường Số 4, Khu dân cư Hồng Phát, Ninh Kiều, Cần Thơ","Khu dân cư Hồng Phát, Ninh Kiều","2PGX+GF8, Đầu, Đường Số 4",Cần Thơ,,"Ninh Kiều, Cần Thơ",VN,"10.0262958,105.7486895"
886,ChIJPeevj66JoDERyZsUCPU4NVA,Cà phê 679.,Quán cà phê,,"2QG6+83H Cà phê 679., Hưng Lợi, Ninh Kiều, Cần Thơ","Hưng Lợi, Ninh Kiều",2QG6+83H,Cần Thơ,,"Ninh Kiều, Cần Thơ",VN,"10.0258135,105.7602283"
887,ChIJa1RSRdZjoDERyoPWmFozlp0,Café,Quán cà phê,,"2RC3+98H Café, Khu Vực I, Phú Thứ, Cái Răng, Cần Thơ","Phú Thứ, Cái Răng","2RC3+98H, Khu Vực I",Cần Thơ,,"Cái Răng, Cần Thơ",VN,"10.020938899999999,105.8033684"
888,ChIJx1mbuqSJoDERlsErf06f8uU,Cafe 385,Quán cà phê,0772 546 755,"Cafe 385, 145f Đ. Trần Văn Hoài, Xuân Khánh, Ninh Kiều, Cần Thơ","Xuân Khánh, Ninh Kiều",145f Đ. Trần Văn Hoài,Cần Thơ,,"Ninh Kiều, Cần Thơ",VN,"10.027249,105.770012"
889,ChIJSTt1UVaJoDERXLpAXRiAJgU,Pha cà phê,Quán cà phê,,"Pha cà phê, 660 Đ. 30 Tháng 4, Hưng Lợi, Ninh Kiều, Cần Thơ 90000","Hưng Lợi, Ninh Kiều",660 Đ. 30 Tháng 4,Cần Thơ,90000.0,"Ninh Kiều, Cần Thơ",VN,"10.0136073,105.7611445"
890,ChIJD0GNczSIoDERIOAj7GlLnyo,Cà Phê 379,Quán cà phê,,"Cà Phê 379, 175B Đ. 30 Tháng 4, Hưng Lợi, Ninh Kiều, Cần Thơ","Hưng Lợi, Ninh Kiều",175B Đ. 30 Tháng 4,Cần Thơ,,"Ninh Kiều, Cần Thơ",VN,"10.015626,105.76405179999999"
891,ChIJT0qPzqSJoDERzpwaLFnw8H8,Cà phê 90,Quán cà phê,,"Cà phê 90, 90 Đ. Trần Hoàng Na, Khu dân cư 91B, Ninh Kiều, Cần Thơ","Khu dân cư 91B, Ninh Kiều",90 Đ. Trần Hoàng Na,Cần Thơ,,"Ninh Kiều, Cần Thơ",VN,"10.021679299999999,105.75388389999999"
892,ChIJZdV3Bv-HoDER91LazV-r9yo,Cà Phê Ngân Thành,Quán cà phê,,"3Q4H+XWC Cà Phê Ngân Thành, Đ. Nguyễn Văn Cừ, Cái Khế, Ninh Kiều, Cần Thơ","Cái Khế, Ninh Kiều","3Q4H+XWC, Đ. Nguyễn Văn Cừ",Cần Thơ,,"Ninh Kiều, Cần Thơ",VN,"10.0574321,105.7797545"
893,ChIJfSVqDe6JoDERb8xJwAXFXPM,Quán Cà Phê 179,Quán cà phê,0902 295 201,"Quán Cà Phê 179, 179 Đ. Nguyễn Văn Cừ, Cái Khế, Ninh Kiều, Cần Thơ","Cái Khế, Ninh Kiều",179 Đ. Nguyễn Văn Cừ,Cần Thơ,,"Ninh Kiều, Cần Thơ",VN,"10.053104,105.775306"
894,ChIJm3MhASWJoDERp5a6iI11Blw,CAFEIN 1987,Quán cà phê,,"CAFEIN 1987, 426 Nguyễn Văn Cừ Nối Dài, An Bình, Ninh Kiều, Cần Thơ","An Bình, Ninh Kiều",426 Nguyễn Văn Cừ Nối Dài,Cần Thơ,,"Ninh Kiều, Cần Thơ",VN,"10.015943799999999,105.73642749999999"
895,ChIJZQbw-YSJoDERi31qetJNyxM,Cà phê,Quán cà phê,,"Cà phê, 43-24 Đ. Trần Văn Hoài, Xuân Khánh, Ninh Kiều, Cần Thơ","Xuân Khánh, Ninh Kiều",43-24 Đ. Trần Văn Hoài,Cần Thơ,,"Ninh Kiều, Cần Thơ",VN,"10.0253486,105.772622"
896,ChIJh1PKwTqIoDERg7IFhTYLOhU,Cafe Pi,Quán cà phê,,"Cafe Pi, 9 Đ. Trần Ngọc Quế, Xuân Khánh, Ninh Kiều, Cần Thơ","Xuân Khánh, Ninh Kiều",9 Đ. Trần Ngọc Quế,Cần Thơ,,"Ninh Kiều, Cần Thơ",VN,"10.023856799999999,105.76890829999999"
902,ChIJ8QTT6gOJoDERnEWH0D7VAC4,Cafe Bàn,Quán cà phê,,"Cafe Bàn, 13 Đ. Võ Trường Toản, An Hoà, Ninh Kiều, Cần Thơ","An Hoà, Ninh Kiều",13 Đ. Võ Trường Toản,Cần Thơ,,"Ninh Kiều, Cần Thơ",VN,"10.0466462,105.7673677"
912,ChIJv3rixaRioDER4wAfOpnt1OQ,Cà phê sân vườn Hoa Sứ,Quán cà phê,,"Cà phê sân vườn Hoa Sứ, B1 Trần Phú, Cái Khế, Ninh Kiều, Cần Thơ","Cái Khế, Ninh Kiều",B1 Trần Phú,Cần Thơ,,"Ninh Kiều, Cần Thơ",VN,"10.0391994,105.7930133"
916,ChIJ672Xd31joDERyTB9oQwpbXs,Ca phe võng Sơn Tuyền,Quán cà phê,,"Ca phe võng Sơn Tuyền, 118/49G Sông Hậu, Cái Khế, Ninh Kiều, Cần Thơ","Cái Khế, Ninh Kiều",118/49G Sông Hậu,Cần Thơ,,"Ninh Kiều, Cần Thơ",VN,"10.0467816,105.7920225"
935,ChIJqwPwE32JoDER9y_EqJ_wELw,"Cà Phê Gỗ Mộc (ăn sáng, trưa)",Quán cà phê,,"Cà Phê Gỗ Mộc (ăn sáng, trưa), 59 Đ. Cách Mạng Tháng 8, Thới Bình, Ninh Kiều, Cần Thơ","Thới Bình, Ninh Kiều",59 Đ. Cách Mạng Tháng 8,Cần Thơ,,"Ninh Kiều, Cần Thơ",VN,"10.0491078,105.77585649999999"
954,ChIJLeUZoTKJoDERpmTpaDODsKs,Tiệm Cà phê Túi Ba Gang,Quán cà phê,,"Tiệm Cà phê Túi Ba Gang, 54/6/14, 54/6A Hùng Vương, Thới Bình, Ninh Kiều, Cần Thơ","Thới Bình, Ninh Kiều","54/6/14, 54/6A Hùng Vương",Cần Thơ,,"Ninh Kiều, Cần Thơ",VN,"10.043659199999999,105.77741309999999"
955,ChIJY9QsRxuIoDERcIbwufZ1aPI,Cà Phê Loan,Quán cà phê,,"Cà Phê Loan, Thới Binh, Ninh Kiều, Cần Thơ","Thới Binh, Ninh Kiều",,Cần Thơ,,"Ninh Kiều, Cần Thơ",VN,"10.042787599999999,105.7748809"
957,ChIJm_cH10qJoDERVTF29QzWCXI,Cà phê Huỳnh Như,Quán cà phê,,"Cà phê Huỳnh Như, 2 Đ. Mậu Thân, An Phú, Ninh Kiều, Cần Thơ","An Phú, Ninh Kiều",2 Đ. Mậu Thân,Cần Thơ,,"Ninh Kiều, Cần Thơ",VN,"10.0338117,105.7739752"
959,ChIJ77ac6X5joDERGSlFHhAzdaY,Cà phê Tơ Hồng,Quán cà phê,,"Cà phê Tơ Hồng, 18 Đ. Trương Định, Tân An, Ninh Kiều, Cần Thơ","Tân An, Ninh Kiều",18 Đ. Trương Định,Cần Thơ,,"Ninh Kiều, Cần Thơ",VN,"10.0369403,105.7838584"
960,ChIJ8fFiCYeJoDEREsMx8sBpD0E,Cà Phê Ngày Đó,Quán cà phê,,"Cà Phê Ngày Đó, 189 Đ. Nguyễn Văn Cừ, An Hoà, Ninh Kiều, Cần Thơ","An Hoà, Ninh Kiều",189 Đ. Nguyễn Văn Cừ,Cần Thơ,,"Ninh Kiều, Cần Thơ",VN,"10.0482731,105.77020309999999"
967,ChIJhYs4wEOIoDERCvfGJq1VgKU,Cà Phê Hè Phố,Quán cà phê,0292 3601 234,"Cà Phê Hè Phố, 300 Nguyễn Văn Cừ Nối Dài, Phường An Khánh, Ninh Kiều, Cần Thơ","Phường An Khánh, Ninh Kiều",300 Nguyễn Văn Cừ Nối Dài,Cần Thơ,,"Ninh Kiều, Cần Thơ",VN,"10.030116699999999,105.7513797"
969,ChIJVad_lwSIoDERFiH3IEsbU28,Quán Cà Phê Mỹ Toàn,Quán cà phê,0939 466 070,"Quán Cà Phê Mỹ Toàn, 79 Đ. Phạm Ngũ Lão, Thới Bình, Ninh Kiều, Cần Thơ","Thới Bình, Ninh Kiều",79 Đ. Phạm Ngũ Lão,Cần Thơ,,"Ninh Kiều, Cần Thơ",VN,"10.045295999999999,105.775528"
974,ChIJq6qqBw-IoDER1aWSQSl7qps,Quán Cà Phê Ngọc Hân,Quán cà phê,0947 819 770,"Quán Cà Phê Ngọc Hân, 327, Nguyễn Văn Cừ, Quận Ninh Kiều, Tp Cần Thơ, An Hoà, Ninh Kiều, Cần Thơ","An Hoà, Ninh Kiều","327, Nguyễn Văn Cừ, Quận Ninh Kiều, Tp Cần Thơ",Cần Thơ,,"Ninh Kiều, Cần Thơ",VN,"10.047019299999999,105.76794439999999"
985,ChIJn2jduDuJoDERHi1bLXbEmpU,cafe 505,Quán cà phê,,"cafe 505, 497 Hẻm 553, Hưng Lợi, Ninh Kiều, Cần Thơ","Hưng Lợi, Ninh Kiều",497 Hẻm 553,Cần Thơ,,"Ninh Kiều, Cần Thơ",VN,"10.0130261,105.76112669999999"
987,ChIJSeWgLmeJoDERgbJtuMQw0zo,Tiệm cà phê Cá Hồi,Quán cà phê,0907 890 013,"Tiệm cà phê Cá Hồi, Chung cư A4, Mậu Thân, Đ. Mậu Thân, cũ, Ninh Kiều, Cần Thơ","cũ, Ninh Kiều","Chung cư A4, Mậu Thân, Đ. Mậu Thân",Cần Thơ,,"Ninh Kiều, Cần Thơ",VN,"10.0452246,105.76489889999999"
989,ChIJM9gdnp5ioDERKL7fQBGqwG8,Cà Phê 119,Quán cà phê,,"2QGP+QFP Cà Phê 119, Đường Hai Bà Trưng, Tân An, Ninh Kiều, Cần Thơ","Tân An, Ninh Kiều","2QGP+QFP, Đường Hai Bà Trưng",Cần Thơ,,"Ninh Kiều, Cần Thơ",VN,"10.0269698,105.7862184"
990,ChIJi46CrvuJoDERJ200D1_Q8pk,Cà Phê Sạch Black Gold - Têka Coffee,Quán cà phê,,"Cà Phê Sạch Black Gold - Têka Coffee, 36 Đường số 12, Phường An Khánh, Ninh Kiều, Cần Thơ","Phường An Khánh, Ninh Kiều",36 Đường số 12,Cần Thơ,,"Ninh Kiều, Cần Thơ",VN,"10.0416937,105.75677669999999"
991,ChIJ_ze_UGyIoDERvXw2SMoSVag,Quán Cà Phê Vy Nguyễn,Quán cà phê,0918 830 535,"Quán Cà Phê Vy Nguyễn, 162 Đường B1, Phường An Khánh, Ninh Kiều, Cần Thơ","Phường An Khánh, Ninh Kiều",162 Đường B1,Cần Thơ,,"Ninh Kiều, Cần Thơ",VN,"10.0415964,105.75519399999999"
992,ChIJKQDjwk-JoDERhlPdcNRXMyE,Cà phê Muối Chú Rắc - CN Nguyễn Văn Cừ,Quán cà phê,,"Cà phê Muối Chú Rắc - CN Nguyễn Văn Cừ, 138/B8, Nguyễn Văn Cừ Nối Dài, Phường An Khánh, Ninh Kiều, Cần Thơ","Phường An Khánh, Ninh Kiều","138/B8, Nguyễn Văn Cừ Nối Dài",Cần Thơ,,"Ninh Kiều, Cần Thơ",VN,"10.0391931,105.7605217"
994,ChIJD5ekdDyJoDERB-i-tUjjNd8,Cà phê võng 9 Tỷ,Quán cà phê,,"Cà phê võng 9 Tỷ, 110 Đường số 22, Phường An Khánh, Ninh Kiều, Cần Thơ","Phường An Khánh, Ninh Kiều",110 Đường số 22,Cần Thơ,,"Ninh Kiều, Cần Thơ",VN,"10.0376165,105.7556589"
1003,ChIJm6wzdxKJoDERAaVk4Oh0hbk,Cafe 5Thiên,Quán cà phê,0399 060 704,"Cafe 5Thiên, 117 Tầm Vu, Hưng Lợi, Ninh Kiều, Cần Thơ","Hưng Lợi, Ninh Kiều",117 Tầm Vu,Cần Thơ,,"Ninh Kiều, Cần Thơ",VN,"10.0101446,105.7681918"
1006,ChIJP-0_5pCJoDERwKKpF-duyd0,Cà Phê Song Khánh,Quán cà phê,0906 717 417,"Cà Phê Song Khánh, 443 Nguyễn Văn Cừ Nối Dài, An Bình, Ninh Kiều, Cần Thơ 90000","An Bình, Ninh Kiều",443 Nguyễn Văn Cừ Nối Dài,Cần Thơ,90000.0,"Ninh Kiều, Cần Thơ",VN,"10.0205365,105.7420892"
1007,ChIJY9pStViJoDERx3xfsE1JPRA,Cà phê Hùng Phú,Quán cà phê,0928 720 720,"2PCQ+44G Cà phê Hùng Phú, Đường Số 38, An Bình, Bình Thủy, Cần Thơ","An Bình, Bình Thủy","2PCQ+44G, Đường Số 38",Cần Thơ,,"Bình Thủy, Cần Thơ",VN,"10.0203195,105.7378342"
1008,ChIJjUarUWuJoDERCvwbRSzyr2Y,Cà Phê Bida Lan Anh,Quán cà phê,0932 840 006,"2P9Q+39C Cà Phê Bida Lan Anh, An Bình, Ninh Kiều, Cần Thơ","An Bình, Ninh Kiều",2P9Q+39C,Cần Thơ,,"Ninh Kiều, Cần Thơ",VN,"10.0177696,105.7383263"
1009,ChIJRavzDIaJoDERd4fWv2yhMZ0,cà phê 79,Quán cà phê,,"2P8P+R33 cà phê 79, An Bình, Ninh Kiều, Cần Thơ","An Bình, Ninh Kiều",2P8P+R33,Cần Thơ,,"Ninh Kiều, Cần Thơ",VN,"10.0171841,105.7355285"
1011,ChIJ9SA2agiJoDERmHzpTeUPKnA,Cà phê sữa bọt tuyết Black Gold,Quán cà phê,,"Cà phê sữa bọt tuyết Black Gold, 165 Đ. Nguyễn Văn Cừ, An Bình, Ninh Kiều, Cần Thơ","An Bình, Ninh Kiều",165 Đ. Nguyễn Văn Cừ,Cần Thơ,,"Ninh Kiều, Cần Thơ",VN,"10.0247367,105.74619799999999"
1012,ChIJ8zQz1zSJoDERe1W805Gm8Ow,Quán cà phê Kim Phượng,Quán cà phê,,"Quán cà phê Kim Phượng, SỐ 2 KDC HỒNG PHÁT, Phường An Khánh, Ninh Kiều, Cần Thơ","Phường An Khánh, Ninh Kiều",SỐ 2 KDC HỒNG PHÁT,Cần Thơ,,"Ninh Kiều, Cần Thơ",VN,"10.0250992,105.75012"
1015,ChIJ10mFZVWJoDERiQ_LBYaHAPU,Cà phê Triệu,Quán cà phê,0969 699 534,"Cà phê Triệu, 107 Đ. 3 Tháng 2, An Bình, Ninh Kiều, Cần Thơ","An Bình, Ninh Kiều",107 Đ. 3 Tháng 2,Cần Thơ,,"Ninh Kiều, Cần Thơ",VN,"10.0112164,105.75251779999999"
1027,ChIJy1CWoO2JoDERSqwpYRcZGzk,CÀ PHÊ THIỀN SALATO,Quán cà phê,0982 892 054,"2PFP+3M7 CÀ PHÊ THIỀN SALATO, Bình Thuỷ, Bình Thủy, Cần Thơ","Bình Thuỷ, Bình Thủy",2PFP+3M7,Cần Thơ,,"Bình Thủy, Cần Thơ",VN,"10.0226622,105.7366775"
1045,ChIJB_ICrguJoDERQ02ntES13Wg,Cà Phê Cô Út,Quán cà phê,,"Cà Phê Cô Út, Mỹ Khánh, Ninh Kiều, Cần Thơ","Mỹ Khánh, Ninh Kiều",,Cần Thơ,,"Ninh Kiều, Cần Thơ",VN,"9.9950753,105.73177919999999"
1046,ChIJBaCjBqSJoDERpbampqywcHo,Cà Phê Ngọc Dung,Quán cà phê,,"Cà Phê Ngọc Dung, An Bình, Ninh Kiều, Cần Thơ","An Bình, Ninh Kiều",,Cần Thơ,,"Ninh Kiều, Cần Thơ",VN,"9.9968791,105.7414742"
1047,ChIJn8C6eQqJoDERFi5D6tKCiOw,Cà Phê Võng Thùy Trang,Quán cà phê,,"Cà Phê Võng Thùy Trang, An Bình, Ninh Kiều, Cần Thơ","An Bình, Ninh Kiều",,Cần Thơ,,"Ninh Kiều, Cần Thơ",VN,"9.994809799999999,105.7348821"
1048,ChIJzcEVerqJoDERVcXN7Y3rqGY,Cà Phê Hòa,Quán cà phê,0292 3846 381,"Cà Phê Hòa, 164 Quốc lộ 1A, Lê Bình, Cái Răng, Cần Thơ","Lê Bình, Cái Răng",164 Quốc lộ 1A,Cần Thơ,,"Cái Răng, Cần Thơ",VN,"10.0012258,105.75043559999999"
1062,ChIJAQep36CJoDERAKcxUht8CMU,Quán Cà Phê Sơ Ri,Quán cà phê,0292 3847 878,"Quán Cà Phê Sơ Ri, 243 Ấp Mỹ Ái, Huyện Phong Điền, An Bình, Ninh Kiều, Cần Thơ","An Bình, Ninh Kiều","243 Ấp Mỹ Ái, Huyện Phong Điền",Cần Thơ,,"Ninh Kiều, Cần Thơ",VN,"9.995618799999999,105.7379785"
1063,ChIJ-dgB26WJoDERoM0vIPbd-h4,Cà Phê Yến 9.2.3,Quán cà phê,,"2P2R+3JC Cà Phê Yến 9.2.3, Đường Số 3, An Bình, Ninh Kiều, Cần Thơ","An Bình, Ninh Kiều","2P2R+3JC, Đường Số 3",Cần Thơ,,"Ninh Kiều, Cần Thơ",VN,"10.000193999999999,105.741512"
1066,ChIJsfD-JECJoDER6HeProTPPbg,Cafe 4U - Cà phê sạch mang đi,Quán cà phê,0367 479 669,"Cafe 4U - Cà phê sạch mang đi, 1 Đ. 3 Tháng 2, An Bình, Ninh Kiều, Cần Thơ","An Bình, Ninh Kiều",1 Đ. 3 Tháng 2,Cần Thơ,,"Ninh Kiều, Cần Thơ",VN,"10.0107461,105.75105579999999"
1067,ChIJ0YdHrbSJoDERFRFl8xzAZF4,Cà Phê Thiên Quỳnh,Quán cà phê,,"Cà Phê Thiên Quỳnh, 126 Đ. 3 Tháng 2, Hưng Lợi, Ninh Kiều, Cần Thơ","Hưng Lợi, Ninh Kiều",126 Đ. 3 Tháng 2,Cần Thơ,,"Ninh Kiều, Cần Thơ",VN,"10.0123345,105.7533495"
1070,ChIJrfvW4rCJoDERij5vVhEl45A,Cà Phê Việt Trí,Quán cà phê,,"Cà Phê Việt Trí, 86 QL1A, Lê Bình, Cái Răng, Cần Thơ","Lê Bình, Cái Răng",86 QL1A,Cần Thơ,,"Cái Răng, Cần Thơ",VN,"10.0044408,105.7506817"
1085,ChIJXwI2orOJoDERZsRdW4KHykk,Huynh Nhi Coffee Shop,Quán cà phê,0292 3924 837,"Huynh Nhi Coffee Shop, 92A Area 2, Highway 1A, Cai Rang District, Can Tho City, An Bình, Ninh Kiều, Cần Thơ","An Bình, Ninh Kiều","92A Area 2, Highway 1A, Cai Rang District, Can Tho City",Cần Thơ,,"Ninh Kiều, Cần Thơ",VN,"10.009264199999999,105.7510729"
1086,ChIJBSgwP7KJoDERIxRi3fbVnFQ,Quán Cà Phê Hương Lan,Quán cà phê,0292 2460 587,"Quán Cà Phê Hương Lan, 158/4, Đường Lộ Vòng Cung, Quận Ninh Kiều, An Bình, Ninh Kiều, Cần Thơ","An Bình, Ninh Kiều","158/4, Đường Lộ Vòng Cung, Quận Ninh Kiều",Cần Thơ,,"Ninh Kiều, Cần Thơ",VN,"10.0083594,105.748622"
1087,ChIJl32GRLOJoDERdRkSFjpEq6I,Quán Cà Phê Khả Phương,Quán cà phê,0292 3894 837,"Quán Cà Phê Khả Phương, 90A, Quốc Lộ 1A, P. An Bình, Quận Ninh Kiều, An Bình, Ninh Kiều, Cần Thơ","An Bình, Ninh Kiều","90A, Quốc Lộ 1A, P. An Bình, Quận Ninh Kiều",Cần Thơ,,"Ninh Kiều, Cần Thơ",VN,"10.0114182,105.75182609999999"
1088,ChIJRckksLSJoDER_4kKHavsz2c,Quán Cà Phê Anh Đào,Quán cà phê,0292 2474 394,"Quán Cà Phê Anh Đào, 152/3, Quốc Lộ 1A, P. Lê Bình, Quận Cái Răng, Hưng Lợi, Ninh Kiều, Cần Thơ","Hưng Lợi, Ninh Kiều","152/3, Quốc Lộ 1A, P. Lê Bình, Quận Cái Răng",Cần Thơ,,"Ninh Kiều, Cần Thơ",VN,"10.0120196,105.75356289999999"
1089,ChIJnShEWrOJoDERLtMDsG2sn3o,Cà Phê Tố Linh,Quán cà phê,,"2Q62+JVX Cà Phê Tố Linh, An Bình, Ninh Kiều, Cần Thơ","An Bình, Ninh Kiều",2Q62+JVX,Cần Thơ,,"Ninh Kiều, Cần Thơ",VN,"10.0116056,105.7522262"
1090,ChIJV9z3BrGJoDERdUBdB7qmfJM,Phuoc Loc Tho Coffee Shop,Quán cà phê,0292 3094 862,"Phuoc Loc Tho Coffee Shop, 121, Area No 1, 3/2 Street, Ninh Kieu District, Can Tho City, Lê Bình, Cái Răng, Cần Thơ","Lê Bình, Cái Răng","121, Area No 1, 3/2 Street, Ninh Kieu District, Can Tho City",Cần Thơ,,"Cái Răng, Cần Thơ",VN,"10.0048675,105.75002359999999"
1091,ChIJyxO_RLOJoDERBv2H6nd2Pm4,Quán Cà Phê Hồng,Quán cà phê,0292 3850 518,"Quán Cà Phê Hồng, 117, Quốc Lộ 1A, P. Lê Bình, Quận Cái Răng, An Bình, Ninh Kiều, Cần Thơ","An Bình, Ninh Kiều","117, Quốc Lộ 1A, P. Lê Bình, Quận Cái Răng",Cần Thơ,,"Ninh Kiều, Cần Thơ",VN,"10.011460399999999,105.7519119"
1093,ChIJZSRn3_qJoDERJRK0VPuyVvY,Cà phê sạch Black Gold - A Lùn,Quán cà phê,,"Cà phê sạch Black Gold - A Lùn, 283k Đ. Nguyễn Văn Linh, Phường An Khánh, Bình Thủy, Cần Thơ","Phường An Khánh, Bình Thủy",283k Đ. Nguyễn Văn Linh,Cần Thơ,,"Bình Thủy, Cần Thơ",VN,"10.0248127,105.76020969999999"
1095,ChIJV0vVkzWIoDERjdvgZFS3gYs,Quán Cà Phê Mỹ Tiên,Quán cà phê,0292 6350 181,"Quán Cà Phê Mỹ Tiên, 73, Đường 3/2, Quận Ninh Kiều, Tp Cần Thơ, Hưng Lợi, Ninh Kiều, Cần Thơ","Hưng Lợi, Ninh Kiều","73, Đường 3/2, Quận Ninh Kiều, Tp Cần Thơ",Cần Thơ,,"Ninh Kiều, Cần Thơ",VN,"10.015760499999999,105.75950789999999"
1096,ChIJffbbksCJoDERq0hF84kqzOA,QUÁN CÀ PHÊ 1 MÌNH,Quán cà phê,0377 019 269,"QUÁN CÀ PHÊ 1 MÌNH, 133d Hẻm 132 Đ. 3 Tháng 2, Hưng Lợi, Ninh Kiều, Cần Thơ","Hưng Lợi, Ninh Kiều",133d Hẻm 132 Đ. 3 Tháng 2,Cần Thơ,,"Ninh Kiều, Cần Thơ",VN,"10.0180749,105.76211459999999"
1101,ChIJ_WiTluCJoDERbY22Z9rB_vw,Cà phê - Giặt sấy MWT,Quán cà phê,0939 110 157,"Cà phê - Giặt sấy MWT, 68 Hẻm 132 Đ. 3 Tháng 2, Hưng Lợi, Ninh Kiều, Cần Thơ","Hưng Lợi, Ninh Kiều",68 Hẻm 132 Đ. 3 Tháng 2,Cần Thơ,,"Ninh Kiều, Cần Thơ",VN,"10.016503,105.75860569999999"
1112,ChIJ02WNITWIoDER0xKqmuSk33M,Cà Phê Hội Ngộ,Quán cà phê,,"Cà Phê Hội Ngộ, 501 Đ. 30 Tháng 4, Hưng Lợi, Ninh Kiều, Cần Thơ","Hưng Lợi, Ninh Kiều",501 Đ. 30 Tháng 4,Cần Thơ,,"Ninh Kiều, Cần Thơ",VN,"10.0131885,105.76133019999999"
1116,ChIJN_oc8-uJoDER2UGNcdlvg6U,Tiệm cà phê cô Thy 2,Quán cà phê,0588 959 595,"Tiệm cà phê cô Thy 2, 30/4 Hẻm 391, Hưng Lợi, Ninh Kiều, Cần Thơ","Hưng Lợi, Ninh Kiều",30/4 Hẻm 391,Cần Thơ,,"Ninh Kiều, Cần Thơ",VN,"10.0183998,105.7694118"
1117,ChIJG0LA-XmJoDERcvBABXgTp2o,MINGAO cà phê và kem tự chọn,Quán cà phê,0707 189 736,"MINGAO cà phê và kem tự chọn, 609 Đ. 30 Tháng 4, Hưng Lợi, Ninh Kiều, Cần Thơ","Hưng Lợi, Ninh Kiều",609 Đ. 30 Tháng 4,Cần Thơ,,"Ninh Kiều, Cần Thơ",VN,"10.0116509,105.75794379999999"
1132,ChIJ49ZKHgeJoDERjBj19K8LrXU,SẠP CÀ PHÊ,Quán cà phê,0704 997 701,"SẠP CÀ PHÊ, 87 Đ. 3 Tháng 2, Hưng Lợi, Ninh Kiều, Cần Thơ","Hưng Lợi, Ninh Kiều",87 Đ. 3 Tháng 2,Cần Thơ,,"Ninh Kiều, Cần Thơ",VN,"10.0162541,105.7601037"
1133,ChIJBR6P6zSIoDERm7GmwThgrig,Cơ Sở Xay Cà Phê Nguyễn Thị Mỹ Dung,Quán cà phê,0817 296 202,"Cơ Sở Xay Cà Phê Nguyễn Thị Mỹ Dung, 13B/B, Trần Hoàng Na, Phường Hưng Lợi, Quận Ninh Kiều, Thành Phố Cần Thơ, Hưng Lợi, Ninh Kiều, Cần Thơ","Hưng Lợi, Ninh Kiều","13B/B, Trần Hoàng Na, Phường Hưng Lợi, Quận Ninh Kiều, Thành Phố Cần Thơ",Cần Thơ,,"Ninh Kiều, Cần Thơ",VN,"10.013539999999999,105.76275179999999"
1134,ChIJyegsQjSIoDERrpzdefDMdeI,Quán Cà Phê Khôi Nguyên,Quán cà phê,0292 3738 951,"Quán Cà Phê Khôi Nguyên, 237, Đường 30/04, Quận Ninh Kiều, Tp Cần Thơ, Hưng Lợi, Ninh Kiều, Cần Thơ","Hưng Lợi, Ninh Kiều","237, Đường 30/04, Quận Ninh Kiều, Tp Cần Thơ",Cần Thơ,,"Ninh Kiều, Cần Thơ",VN,"10.0155678,105.762816"
1135,ChIJa_ojDYuJoDERNv8nKVko92E,Tiệm cà phê Thiên Phúc,Quán cà phê,,"2QM7+49J Tiệm cà phê Thiên Phúc, Hẻm 51, Xuân Khánh, Ninh Kiều, Cần Thơ","Xuân Khánh, Ninh Kiều","2QM7+49J, Hẻm 51",Cần Thơ,,"Ninh Kiều, Cần Thơ",VN,"10.032828,105.7633858"
1150,ChIJR1oCNmmJoDERS2BAVccG6Ac,Cà Phê Sinh tố Hoa Hồng 2,Quán cà phê,,"2QM7+JRV Cà Phê Sinh tố Hoa Hồng 2, Hẻm 9, An Bình, Ninh Kiều, Cần Thơ","An Bình, Ninh Kiều","2QM7+JRV, Hẻm 9",Cần Thơ,,"Ninh Kiều, Cần Thơ",VN,"10.034108699999999,105.7645337"
1153,ChIJ79HLNSWJoDERc4rqKQDQUq8,Cà Phê Sạch Black Gold - Bình Râu,Quán cà phê,,"Cà Phê Sạch Black Gold - Bình Râu, 223 Huỳnh Cương, An Cư, Ninh Kiều, Cần Thơ","An Cư, Ninh Kiều",223 Huỳnh Cương,Cần Thơ,,"Ninh Kiều, Cần Thơ",VN,"10.0362423,105.7816924"
1155,ChIJnVRo06FioDERE-0ix_kOD2s,Coffee 68,Quán cà phê,,"Coffee 68, 68 Nguyễn Thái Học, Tân An, Ninh Kiều, Cần Thơ","Tân An, Ninh Kiều",68 Nguyễn Thái Học,Cần Thơ,,"Ninh Kiều, Cần Thơ",VN,"10.032859,105.78510399999999"
1156,ChIJTa23ZiCIoDERB-G9VmaZ_TI,Cà Phê Phi Nhung,Quán cà phê,,"2QJJ+39J Cà Phê Phi Nhung, Đ. 30 Tháng 4, An Lạc, Ninh Kiều, Cần Thơ","An Lạc, Ninh Kiều","2QJJ+39J, Đ. 30 Tháng 4",Cần Thơ,,"Ninh Kiều, Cần Thơ",VN,"10.0302213,105.7808974"
1169,ChIJYYdHIgOJoDERCprsp8qH8Yw,To.khec coffee store,Quán cà phê,,"To.khec coffee store, 114b/3 Đ. Trần Vĩnh Kiết, An Bình, Ninh Kiều, Cần Thơ","An Bình, Ninh Kiều",114b/3 Đ. Trần Vĩnh Kiết,Cần Thơ,,"Ninh Kiều, Cần Thơ",VN,"10.0113649,105.7514786"
1170,ChIJDbTpdFSJoDER1y2F3dAJvv0,Cà phê Phượng lê,Quán cà phê,,"Cà phê Phượng lê, 171A Huỳnh Cương, An Cư, Ninh Kiều, Cần Thơ","An Cư, Ninh Kiều",171A Huỳnh Cương,Cần Thơ,,"Ninh Kiều, Cần Thơ",VN,"10.037182099999999,105.78112929999999"
1171,ChIJZThBJP-HoDERUB5RIq3vH4A,Cà Phê Ăn Sáng Quỳnh Ku,Quán cà phê,,"3Q5H+HRC Cà Phê Ăn Sáng Quỳnh Ku, Phạm Công Trứ, Cái Khế, Ninh Kiều, Cần Thơ","Cái Khế, Ninh Kiều","3Q5H+HRC, Phạm Công Trứ",Cần Thơ,,"Ninh Kiều, Cần Thơ",VN,"10.0589441,105.779511"
1172,ChIJwZ_t3aaJoDERoyrlV6Y25cc,Cà Phê Sạch Black Gold - Mai Anh,Quán cà phê,,"3Q3C+7WX Cà Phê Sạch Black Gold - Mai Anh, Cái Khế, Bình Thủy, Cần Thơ","Cái Khế, Bình Thủy",3Q3C+7WX,Cần Thơ,,"Bình Thủy, Cần Thơ",VN,"10.053238799999999,105.7723628"
1173,ChIJszGpO5RjoDEReZMiVb6FSo0,Coffee 19,Quán cà phê,,"Coffee 19, Bai cat, Trần Văn Khéo, Cái Khế, Ninh Kiều, Cần Thơ","Cái Khế, Ninh Kiều","Bai cat, Trần Văn Khéo",Cần Thơ,,"Ninh Kiều, Cần Thơ",VN,"10.0505316,105.790004"
1174,ChIJP8nfSd-HoDERInFufG3HZWA,Coffee 1968,Quán cà phê,0945 309 178,"Coffee 1968, 55B Đ. Cách Mạng Tháng 8, An Thới, Bình Thủy, Cần Thơ","An Thới, Bình Thủy",55B Đ. Cách Mạng Tháng 8,Cần Thơ,,"Bình Thủy, Cần Thơ",VN,"10.0616217,105.76333629999999"
1175,ChIJW-H68H2JoDERADHD4leiZ68,Cà Phê 279,Quán cà phê,0799 624 683,"Cà Phê 279, 2/79 Đường Yết Kiêu, An Nghiệp, Ninh Kiều, Cần Thơ","An Nghiệp, Ninh Kiều",2/79 Đường Yết Kiêu,Cần Thơ,,"Ninh Kiều, Cần Thơ",VN,"10.0416134,105.7729394"
1176,ChIJA2vwEceHoDER-gnvWX7V4oc,Cà Phê 1976,Quán cà phê,0907 221 976,"Cà Phê 1976, 36b Đ. Nguyễn Thông, An Thới, Bình Thủy, Cần Thơ","An Thới, Bình Thủy",36b Đ. Nguyễn Thông,Cần Thơ,,"Bình Thủy, Cần Thơ",VN,"10.0667952,105.7560907"
1177,ChIJ337JTxWJoDERs-InxOMYK24,Quán cà phê,Quán cà phê,,"Quán cà phê, 43 Đường số 14, Phường An Khánh, Ninh Kiều, Cần Thơ","Phường An Khánh, Ninh Kiều",43 Đường số 14,Cần Thơ,,"Ninh Kiều, Cần Thơ",VN,"10.0398447,105.7535578"
1178,ChIJe6JTwoqJoDERXmK6j54rrqs,Phi Coffee,Quán cà phê,,"2QM6+3XX Phi Coffee, Đ. Trần Nam Phú, Xuân Khánh, Ninh Kiều, Cần Thơ","Xuân Khánh, Ninh Kiều","2QM6+3XX, Đ. Trần Nam Phú",Cần Thơ,,"Ninh Kiều, Cần Thơ",VN,"10.03271,105.7624489"
1179,ChIJffIGfwmJoDER02khvK5GT9A,Cafe phố,Quán cà phê,,"Cafe phố, 57b Đ. Trần Hoàng Na, An Bình, Ninh Kiều, Cần Thơ","An Bình, Ninh Kiều",57b Đ. Trần Hoàng Na,Cần Thơ,,"Ninh Kiều, Cần Thơ",VN,"10.024754699999999,105.75048989999999"
1180,ChIJXdjleCqJoDERCOnqCWIv7-g,Cà Phê 153,Quán cà phê,0939 706 443,"Cà Phê 153, 153 Tầm Vu, Hưng Lợi, Ninh Kiều, Cần Thơ","Hưng Lợi, Ninh Kiều",153 Tầm Vu,Cần Thơ,,"Ninh Kiều, Cần Thơ",VN,"10.0135451,105.77109039999999"
1181,ChIJ-WnxKyaJoDERR6rIzeW_WdE,Dehavi Coffee,Quán cà phê,,"2P8P+7FM Dehavi Coffee, Nguyễn Văn Cừ Nối Dài, An Bình, Ninh Kiều, Cần Thơ","An Bình, Ninh Kiều","2P8P+7FM, Nguyễn Văn Cừ Nối Dài",Cần Thơ,,"Ninh Kiều, Cần Thơ",VN,"10.0157436,105.73607709999999"
1182,ChIJnyhpHyGIoDERxhsAK7negZo,Cà Phê Hè Phố,Quán cà phê,,"Cà Phê Hè Phố, 85 Đ. 30 Tháng 4, An Lạc, Ninh Kiều, Cần Thơ","An Lạc, Ninh Kiều",85 Đ. 30 Tháng 4,Cần Thơ,,"Ninh Kiều, Cần Thơ",VN,"10.0288098,105.77932249999999"
1183,ChIJm36rWSOIoDERr17wTUQWdeE,Quán Cà Phê 116,Quán cà phê,0292 3832 310,"Quán Cà Phê 116, 116, Đường 3/2, Quận Ninh Kiều, Tp Cần Thơ, Xuân Khánh, Ninh Kiều, Cần Thơ","Xuân Khánh, Ninh Kiều","116, Đường 3/2, Quận Ninh Kiều, Tp Cần Thơ",Cần Thơ,,"Ninh Kiều, Cần Thơ",VN,"10.027915499999999,105.7712634"
1184,ChIJWU3blVaJoDERjW-4D7kM9TQ,Coffee Cần Thơ 1975,Quán cà phê,0376 424 113,"Coffee Cần Thơ 1975, 229 Đ. 3 Tháng 2, Hưng Lợi, Ninh Kiều, Cần Thơ","Hưng Lợi, Ninh Kiều",229 Đ. 3 Tháng 2,Cần Thơ,,"Ninh Kiều, Cần Thơ",VN,"10.0209832,105.7623081"
1185,ChIJ0_fVjhuJoDERgtMlvUsu-pI,Ca Phe Vong HIEN,Quán cà phê,,"2P8P+25V Ca Phe Vong HIEN, An Bình, Ninh Kiều, Cần Thơ","An Bình, Ninh Kiều",2P8P+25V,Cần Thơ,,"Ninh Kiều, Cần Thơ",VN,"10.0151225,105.7354259"
1186,ChIJsY35ZyOIoDER9LNqCIU1YAs,Cafe Ô Chi,Quán cà phê internet,0898 012 017,"Cafe Ô Chi, 40/2 Đường 3/2, Xuân Khánh, Ninh Kiều, Cần Thơ","Xuân Khánh, Ninh Kiều",40/2 Đường 3/2,Cần Thơ,,"Ninh Kiều, Cần Thơ",VN,"10.0282983,105.77180779999999"
1187,ChIJqXf5LoRjoDERTKEkUfhZvt4,Quán Cà Phê Ga Cần Thơ,Quán cà phê,,"Quán Cà Phê Ga Cần Thơ, 10 Đ. Trần Đại Nghĩa, Cái Khế, Ninh Kiều, Cần Thơ","Cái Khế, Ninh Kiều",10 Đ. Trần Đại Nghĩa,Cần Thơ,,"Ninh Kiều, Cần Thơ",VN,"10.0449179,105.7857245"
1188,ChIJCUkywKhioDERElJEzwZWmvU,Cà Phê 47,Quán cà phê,,"Cà Phê 47, Cái Khế, Ninh Kiều, Cần Thơ","Cái Khế, Ninh Kiều",,Cần Thơ,,"Ninh Kiều, Cần Thơ",VN,"10.0447473,105.786525"
1189,ChIJS7yF4t1joDER7BjfX7_mCTA,Cà phê bích trâm,Quán cà phê,,"Cà phê bích trâm, 52 Đ. Lương Định Của, Cái Khế, Ninh Kiều, Cần Thơ","Cái Khế, Ninh Kiều",52 Đ. Lương Định Của,Cần Thơ,,"Ninh Kiều, Cần Thơ",VN,"10.0443947,105.78672499999999"
1190,ChIJR_HDtalioDERkNtfpZnEJQc,Minh Nguyen Coffee Shop,Quán cà phê,0292 2477 777,"Minh Nguyen Coffee Shop, 37-39 Lý Hồng Thanh, Cái Khế, Ninh Kiều, Cần Thơ","Cái Khế, Ninh Kiều",37-39 Lý Hồng Thanh,Cần Thơ,,"Ninh Kiều, Cần Thơ",VN,"10.0457623,105.78390929999999"
1191,ChIJfU3VR5VjoDERoDqmlFp3DqU,Quán cà phê.Điểm tâm Sáng(Hủ tiếu Xương🦴🦴.Hủ tiếu Hải sản 🦐🦐🦑🦑🐙🐙),Quán cà phê,,"Quán cà phê.Điểm tâm Sáng(Hủ tiếu Xương🦴🦴.Hủ tiếu Hải sản 🦐🦐🦑🦑🐙🐙), 1A Trần Quang Khải, Cái Khế, Ninh Kiều, Cần Thơ","Cái Khế, Ninh Kiều",1A Trần Quang Khải,Cần Thơ,,"Ninh Kiều, Cần Thơ",VN,"10.047957799999999,105.7859079"
1192,ChIJ8aRt_YNjoDERTJZeoTIFTC0,Cà phê Hội Ngộ,Quán cà phê,,"Cà phê Hội Ngộ, Đ. Hồ Tùng Mậu/51 A1, Cái Khế, Ninh Kiều, Cần Thơ","Cái Khế, Ninh Kiều",Đ. Hồ Tùng Mậu/51 A1,Cần Thơ,,"Ninh Kiều, Cần Thơ",VN,"10.045923,105.78329079999999"
1193,ChIJE_NILqJioDERbcsASsfrKs4,Quán Cà Phê - Sinh Tố,Quán cà phê,0292 3821 852,"Quán Cà Phê - Sinh Tố, Tp, 18 Đường Hai Bà Trưng, Tân An, Ninh Kiều, Cần Thơ","Tân An, Ninh Kiều","Tp, 18 Đường Hai Bà Trưng",Cần Thơ,,"Ninh Kiều, Cần Thơ",VN,"10.0344502,105.7886577"
1194,ChIJc6mRCBFjoDERxf0s3biHQ1k,Cà Phê Vợt Vinaphone,Quán cà phê,,"2QPP+3W3 Cà Phê Vợt Vinaphone, Đ. Trần Quốc Toản, Tân An, Ninh Kiều, Cần Thơ","Tân An, Ninh Kiều","2QPP+3W3, Đ. Trần Quốc Toản",Cần Thơ,,"Ninh Kiều, Cần Thơ",VN,"10.0351454,105.7872391"
1195,ChIJS2ZOdNpjoDERlFsaUlrjPbE,Cà phê Trà sữa Cô Ba Co Tư,Quán cà phê,,"Cà phê Trà sữa Cô Ba Co Tư, 21A Ngô Gia Tự, Tân An, Ninh Kiều, Cần Thơ","Tân An, Ninh Kiều",21A Ngô Gia Tự,Cần Thơ,,"Ninh Kiều, Cần Thơ",VN,"10.035627999999999,105.78833759999999"
1199,ChIJNyZpIDeJoDERi-8LLpVqksY,Phong Cafe,Quán cà phê,,"Phong Cafe, 188 Bế Văn Đàn, An Hoà, Ninh Kiều, Cần Thơ","An Hoà, Ninh Kiều",188 Bế Văn Đàn,Cần Thơ,,"Ninh Kiều, Cần Thơ",VN,"10.049674,105.7680017"
1202,ChIJ6Y05ODuHoDERxnuf8SJ87us,Cà phê 98,Quán cà phê,,"3Q56+6J2 Cà phê 98, An Thới, Bình Thủy, Cần Thơ","An Thới, Bình Thủy",3Q56+6J2,Cần Thơ,,"Bình Thủy, Cần Thơ",VN,"10.0580035,105.7615252"
1205,ChIJjTVPL6VioDERr5OZQKTUKM4,Cà Phê Chú Long,Quán cà phê,,"2QRV+67R Cà Phê Chú Long, Sông Hậu, Ninh Kiều, Cần Thơ","Sông Hậu, Ninh Kiều",2QRV+67R,Cần Thơ,,"Ninh Kiều, Cần Thơ",VN,"10.040622299999999,105.7931438"
1207,ChIJgS0SlqBioDERP5leZOi4alA,Quán Cà Phê Lâm,Quán cà phê,0292 3823 659,"Quán Cà Phê Lâm, 22/23/110 Hẻm 22 Đ. Mạc Đĩnh Chi, Tân An, Ninh Kiều, Cần Thơ","Tân An, Ninh Kiều",22/23/110 Hẻm 22 Đ. Mạc Đĩnh Chi,Cần Thơ,,"Ninh Kiều, Cần Thơ",VN,"10.036550799999999,105.78312079999999"
1208,ChIJVYzqdLZjoDERocpwkXvJJMU,Cà phê Tuyết Nhi,Quán cà phê,,"Cà phê Tuyết Nhi, 89 Phạm Ngọc Thạch, Cái Khế, Ninh Kiều, Cần Thơ","Cái Khế, Ninh Kiều",89 Phạm Ngọc Thạch,Cần Thơ,,"Ninh Kiều, Cần Thơ",VN,"10.0433772,105.7866366"
1214,ChIJsdVVrHljoDERsZv1AS77py4,Cà phê Hương Quê,Quán cà phê,,"Cà phê Hương Quê, 118/15B Trần Văn Khéo, Cái Khế, Ninh Kiều, Cần Thơ","Cái Khế, Ninh Kiều",118/15B Trần Văn Khéo,Cần Thơ,,"Ninh Kiều, Cần Thơ",VN,"10.045252,105.7856271"
1219,ChIJE0t-uwGIoDERkF2H4Hy2iyM,Cà Phê An Khang,Quán cà phê,,"Cà Phê An Khang, Cái Khế, Ninh Kiều, Cần Thơ","Cái Khế, Ninh Kiều",,Cần Thơ,,"Ninh Kiều, Cần Thơ",VN,"10.0506735,105.7800379"
1220,ChIJw40MbTSJoDERB_yS78mBKBQ,Cà Phê Thanh Giang,Quán cà phê,0905 520 925,"Cà Phê Thanh Giang, 4/6/64, 4 Đ. Bùi Thị Xuân, An Hội, Ninh Kiều, Cần Thơ","An Hội, Ninh Kiều","4/6/64, 4 Đ. Bùi Thị Xuân",Cần Thơ,,"Ninh Kiều, Cần Thơ",VN,"10.0423368,105.780451"
1224,ChIJdd2JMqlioDERPC_j_Swj_Gs,Cà Phê Quỳnh,Quán cà phê,,"Cà Phê Quỳnh, 169 Trần Văn Khéo, Cái Khế, Ninh Kiều, Cần Thơ","Cái Khế, Ninh Kiều",169 Trần Văn Khéo,Cần Thơ,,"Ninh Kiều, Cần Thơ",VN,"10.0466986,105.7877469"
1225,ChIJc-YUNqxioDERCcKgk1RAgJI,Cà Phê Giai Điệu Xanh,Quán cà phê,,"Cà Phê Giai Điệu Xanh, 3 Lê Lợi, Cái Khế, Ninh Kiều, Cần Thơ","Cái Khế, Ninh Kiều",3 Lê Lợi,Cần Thơ,,"Ninh Kiều, Cần Thơ",VN,"10.0497456,105.79042729999999"
1249,ChIJQ6CwxIyJoDER0W8P5DtJmgQ,Cà Phê Vợt hẻm 67,Quán cà phê,,"Cà Phê Vợt hẻm 67, 67 Đ. Phan Đăng Lưu, Thới Bình, Ninh Kiều, Cần Thơ","Thới Bình, Ninh Kiều",67 Đ. Phan Đăng Lưu,Cần Thơ,,"Ninh Kiều, Cần Thơ",VN,"10.045302,105.77919829999999"
1250,ChIJa8uw_eCJoDEROJJknneetps,Cà Phê Ngọc Giàu,Quán cà phê,,"Cà Phê Ngọc Giàu, 94 Hùng Vương, An Cư, Ninh Kiều, Cần Thơ","An Cư, Ninh Kiều",94 Hùng Vương,Cần Thơ,,"Ninh Kiều, Cần Thơ",VN,"10.042451,105.7780717"
1251,ChIJ5eAxZCWJoDERgE2lNxgtjVw,TÁM cà phê,Quán cà phê,,"TÁM cà phê, 70 Đ. Cách Mạng Tháng 8, Cái Khế, Ninh Kiều, Cần Thơ","Cái Khế, Ninh Kiều",70 Đ. Cách Mạng Tháng 8,Cần Thơ,,"Ninh Kiều, Cần Thơ",VN,"10.048281399999999,105.77750859999999"
1263,ChIJgUwuoAOIoDERttpm9y-aroI,Quán Cà Phê Hồng Phượng,Quán cà phê,0292 2461 613,"Quán Cà Phê Hồng Phượng, 25, Đường Cách Mạng Tháng 8, Quận Ninh Kiều, TP.Cần Thơ","Thới Bình, Ninh Kiều","25, Đường Cách Mạng Tháng 8, Quận Ninh Kiều, TP.Cần Thơ",Cần Thơ,,"Ninh Kiều, Cần Thơ",VN,"10.0465147,105.777704"
1267,ChIJoZdADQOIoDER16Ns37KdyrA,Cà Phê Minh Vy,Quán cà phê,0292 3766 292,"Cà Phê Minh Vy, 35 Đ. Phạm Ngũ Lão, Thới Bình, Ninh Kiều, Cần Thơ","Thới Bình, Ninh Kiều",35 Đ. Phạm Ngũ Lão,Cần Thơ,,"Ninh Kiều, Cần Thơ",VN,"10.0457606,105.7777598"
1268,ChIJU7XiLAOIoDERB8JnrSoqJ5c,Cà Phê - Bida Hoàn Vũ,Quán cà phê,0292 3845 858,"Cà Phê - Bida Hoàn Vũ, 58 Hùng Vương, An Hội, Ninh Kiều, Cần Thơ 90000","An Hội, Ninh Kiều",58 Hùng Vương,Cần Thơ,90000.0,"Ninh Kiều, Cần Thơ",VN,"10.043770199999999,105.7784519"
1281,ChIJ4Vd2RASIoDERMV2BzkenyL0,Cà Phê Wifi Tâm,Quán cà phê,,"Cà Phê Wifi Tâm, An Hòa, Ninh Kiều, Cần Thơ","An Hòa, Ninh Kiều",,Cần Thơ,,"Ninh Kiều, Cần Thơ",VN,"10.0474532,105.77433819999999"
1283,ChIJC3ICD8OJoDER8g7JObdu0Tg,Cà phê cây khế A sến,Quán cà phê,0292 3822 282,"2QWF+4PQ Cà phê cây khế A sến, Hẻm 108, Thới Bình, Ninh Kiều, Cần Thơ","Thới Bình, Ninh Kiều","2QWF+4PQ, Hẻm 108",Cần Thơ,,"Ninh Kiều, Cần Thơ",VN,"10.0453415,105.77436"
1288,ChIJEeN5vDGJoDERZshrBx7Qb9I,Cà phê sạch,Quán cà phê,0848 170 268,"Cà phê sạch, 21 Đ. Nguyễn Văn Cừ, An Hoà, Ninh Kiều, Cần Thơ 900000","An Hoà, Ninh Kiều",21 Đ. Nguyễn Văn Cừ,Cần Thơ,900000.0,"Ninh Kiều, Cần Thơ",VN,"10.0483683,105.77203589999999"
1289,ChIJG1lVWhqIoDERFw6quiA5K68,Cà Phê Bida 89,Quán cà phê,,"2QRC+7WW Cà Phê Bida 89, Đ. Lê Anh Xuân, An Nghiệp, Ninh Kiều, Cần Thơ","An Nghiệp, Ninh Kiều","2QRC+7WW, Đ. Lê Anh Xuân",Cần Thơ,,"Ninh Kiều, Cần Thơ",VN,"10.0407418,105.77233179999999"
1290,ChIJXZu1eACJoDER2VVW-9Fuv98,Cà phê Ngọc Yến 134,Quán cà phê,,"Cà phê Ngọc Yến 134, 134 Đ. Phạm Ngũ Lão, Thới Bình, Ninh Kiều, Cần Thơ","Thới Bình, Ninh Kiều",134 Đ. Phạm Ngũ Lão,Cần Thơ,,"Ninh Kiều, Cần Thơ",VN,"10.044452399999999,105.7741575"
1291,ChIJbzAGCACJoDEREhrKtOpVXjU,Tiệm cà phê Cậu Út,Quán cà phê,,"Tiệm cà phê Cậu Út, 122 Huỳnh Cương, An Cư, Ninh Kiều, Cần Thơ","An Cư, Ninh Kiều",122 Huỳnh Cương,Cần Thơ,,"Ninh Kiều, Cần Thơ",VN,"10.037051499999999,105.77952979999999"
1296,ChIJwfyx5BiJoDERbw9JtBRvaEc,Cà Phê Cô Phương,Quán cà phê,,"Cà Phê Cô Phương, 5/17 Khu dân cư số 5, Xuân Khánh, Ninh Kiều, Cần Thơ","Xuân Khánh, Ninh Kiều",5/17 Khu dân cư số 5,Cần Thơ,,"Ninh Kiều, Cần Thơ",VN,"10.0243998,105.77145159999999"
1298,ChIJB_mzZS2IoDER0h6vhPh5jBA,Coffee Phin,Quán cà phê,,"2Q7C+896 Coffee Phin, Tầm Vu, Hưng Lợi, Ninh Kiều, Cần Thơ","Hưng Lợi, Ninh Kiều","2Q7C+896, Tầm Vu",Cần Thơ,,"Ninh Kiều, Cần Thơ",VN,"10.0132804,105.7708998"
1300,ChIJ08eX9CaHoDERs7abBQyG-E0,Cafe T80,Quán cà phê,,"Cafe T80, 553 Trần Quang Diệu, An Thới, Bình Thủy, Cần Thơ","An Thới, Bình Thủy",553 Trần Quang Diệu,Cần Thơ,,"Bình Thủy, Cần Thơ",VN,"10.0588628,105.75971799999999"
1305,ChIJg8sYGASIoDERPulHdW3IKaU,Quán Cà Phê Thu Sương,Quán cà phê,0292 6268 379,"Quán Cà Phê Thu Sương, 24/5B, Trần Việt Châu, Quận Ninh Kiều, TP Cần Thơ","Thới Bình, Ninh Kiều","24/5B, Trần Việt Châu, Quận Ninh Kiều, TP Cần Thơ",Cần Thơ,,"Ninh Kiều, Cần Thơ",VN,"10.0485712,105.7748153"
1307,ChIJDTmZDxyIoDERuJuGfOJOrCE,Cà Phê Phương Dung,Quán cà phê,,"Cà Phê Phương Dung, 46 Đ. Trần Hưng Đạo, An Cư, Ninh Kiều, Cần Thơ","An Cư, Ninh Kiều",46 Đ. Trần Hưng Đạo,Cần Thơ,,"Ninh Kiều, Cần Thơ",VN,"10.0390614,105.7767164"
1308,ChIJE67FAx-IoDERiJOZnT-Meog,Cà Phê Hà,Quán cà phê,0292 2460 519,"Cà Phê Hà, 78 Đ. Lý Tự Trọng, An Cư, Ninh Kiều, Cần Thơ","An Cư, Ninh Kiều",78 Đ. Lý Tự Trọng,Cần Thơ,,"Ninh Kiều, Cần Thơ",VN,"10.0353937,105.7788537"
1309,ChIJsS7MBhyIoDERKa6-jKENpz8,Quán Cà Phê Anh Thư,Quán cà phê,7103833056,"Quán Cà Phê Anh Thư, 68 Đ. Trần Hưng Đạo, An Cư, Ninh Kiều, Cần Thơ","An Cư, Ninh Kiều",68 Đ. Trần Hưng Đạo,Cần Thơ,,"Ninh Kiều, Cần Thơ",VN,"10.0387042,105.776868"
1310,ChIJq6qqBw-IoDERl5EtDANGrrw,Quán Cà Phê 187,Quán cà phê,0292 3787 823,"Quán Cà Phê 187, 187, 30/04, Quận Ninh Kiều, TP. Cần Thơ, Đ. Nguyễn Văn Cừ, An Hoà, Ninh Kiều, Cần Thơ","An Hoà, Ninh Kiều","187, 30/04, Quận Ninh Kiều, TP. Cần Thơ, Đ. Nguyễn Văn Cừ",Cần Thơ,,"Ninh Kiều, Cần Thơ",VN,"10.0466278,105.7685333"
1311,ChIJaVP7kKBioDERXg7hXg2zXPQ,Cà Phê Mode,Quán cà phê,0292 3819 141,"Cà Phê Mode, 6 Hẻm 22 Đ. Mạc Đĩnh Chi, Tân An, Ninh Kiều, Cần Thơ","Tân An, Ninh Kiều",6 Hẻm 22 Đ. Mạc Đĩnh Chi,Cần Thơ,,"Ninh Kiều, Cần Thơ",VN,"10.0363852,105.7825625"
1312,ChIJGSNDugaIoDER9XQLf3dYWZE,Cà Phê Bin Bin,Quán cà phê,,"Cà Phê Bin Bin, 110 Đ. Cách Mạng Tháng 8, Cái Khế, Ninh Kiều, Cần Thơ","Cái Khế, Ninh Kiều",110 Đ. Cách Mạng Tháng 8,Cần Thơ,,"Ninh Kiều, Cần Thơ",VN,"10.0501796,105.7756177"
1313,ChIJXwj5ph-IoDERUezka_QgTVU,Quán Cafe 38,Quán cà phê,0292 3831 342,"Quán Cafe 38, 38 Đ. Lý Tự Trọng, An Cư, Ninh Kiều, Cần Thơ","An Cư, Ninh Kiều",38 Đ. Lý Tự Trọng,Cần Thơ,,"Ninh Kiều, Cần Thơ",VN,"10.034913099999999,105.77934979999999"
1315,ChIJBWuN1BOIoDER4VK9FyN3Yt4,Mái Lá Cà Phê Võng,Quán cà phê,,"Mái Lá Cà Phê Võng, An Khánh, Ninh Kiều, Cần Thơ","An Khánh, Ninh Kiều",,Cần Thơ,,"Ninh Kiều, Cần Thơ",VN,"10.0414803,105.76417789999999"
1316,ChIJZVHxrQ6IoDER0sOduls147M,Quận Cà Phê Huy Hoàng,Quán cà phê,,"Quận Cà Phê Huy Hoàng, 47A Đ. Nguyễn Đệ, An Hoà, Ninh Kiều, Cần Thơ","An Hoà, Ninh Kiều",47A Đ. Nguyễn Đệ,Cần Thơ,,"Ninh Kiều, Cần Thơ",VN,"10.049425099999999,105.76520119999999"
1317,ChIJq6qqBw-IoDERw1EHhcBqHew,Quán Cà Phê Vân Linh,Quán cà phê,0292 3894 635,"Quán Cà Phê Vân Linh, 271, Nguyễn Văn Cừ, Quận Ninh Kiều, Tp Cần Thơ, An Hoà, Ninh Kiều, Cần Thơ","An Hoà, Ninh Kiều","271, Nguyễn Văn Cừ, Quận Ninh Kiều, Tp Cần Thơ",Cần Thơ,,"Ninh Kiều, Cần Thơ",VN,"10.047019299999999,105.76794439999999"
1318,ChIJq6qqBw-IoDER3u9NnMQd814,Quán Cà Phê Kim Phượng,Quán cà phê,0292 3895 835,"Quán Cà Phê Kim Phượng, 77 A5 D2, Nguyễn Văn Cừ, Quận Ninh Kiều, Tp Cần Thơ, An Hoà, Ninh Kiều, Cần Thơ","An Hoà, Ninh Kiều","77 A5 D2, Nguyễn Văn Cừ, Quận Ninh Kiều, Tp Cần Thơ",Cần Thơ,,"Ninh Kiều, Cần Thơ",VN,"10.047019299999999,105.76794439999999"
1319,ChIJq6qqBw-IoDERrU04QLzdFKY,Quán Cà Phê 229,Quán cà phê,0292 3894 758,"Quán Cà Phê 229, 229, Nguyễn Văn Cừ, Quận Ninh Kiều, Tp Cần Thơ, An Hoà, Ninh Kiều, Cần Thơ","An Hoà, Ninh Kiều","229, Nguyễn Văn Cừ, Quận Ninh Kiều, Tp Cần Thơ",Cần Thơ,,"Ninh Kiều, Cần Thơ",VN,"10.047019299999999,105.76794439999999"
1320,ChIJq6qqBw-IoDERlTexTOr42jk,Quán Cà Phê Phúc Nguyên,Quán cà phê,0292 6291 102,"Quán Cà Phê Phúc Nguyên, 297 D7 Đ. Nguyễn Văn Cừ, An Hoà, Ninh Kiều, Cần Thơ","An Hoà, Ninh Kiều",297 D7 Đ. Nguyễn Văn Cừ,Cần Thơ,,"Ninh Kiều, Cần Thơ",VN,"10.047019299999999,105.76794439999999"
1321,ChIJq6qqBw-IoDERQnkkRGB7jB0,Quán Cà Phê Mây Trắng,Quán cà phê,0988 232 459,"Quán Cà Phê Mây Trắng, 161A Đ. Nguyễn Văn Cừ, An Hoà, Ninh Kiều, Cần Thơ","An Hoà, Ninh Kiều",161A Đ. Nguyễn Văn Cừ,Cần Thơ,,"Ninh Kiều, Cần Thơ",VN,"10.047019299999999,105.76794439999999"
1323,ChIJ-3CARX-JoDERJgljy0M1GZc,Cà phê Nhật Quỳnh,Quán cà phê,,"Cà phê Nhật Quỳnh, 12 Đường Số 20, Phường An Khánh, Ninh Kiều, Cần Thơ","Phường An Khánh, Ninh Kiều",12 Đường Số 20,Cần Thơ,,"Ninh Kiều, Cần Thơ",VN,"10.044399799999999,105.7620579"
1324,ChIJfYMORm2IoDERr2Rd4ZVuf8I,Cà Phê Ven Sông,Quán cà phê,,"Cà Phê Ven Sông, 3 Đường số 6, Phường An Khánh, Ninh Kiều, Cần Thơ","Phường An Khánh, Ninh Kiều",3 Đường số 6,Cần Thơ,,"Ninh Kiều, Cần Thơ",VN,"10.043543099999999,105.75778779999999"
1325,ChIJQ-O_M6uJoDERjHANmckCisQ,Cà Phê Tuyết Trinh,Quán cà phê,,"Cà Phê Tuyết Trinh, 185 Đ. Đồng Văn Cống, An Thới, ThớiBình Thủy, Cần Thơ","An Thới, ThớiBình Thủy",185 Đ. Đồng Văn Cống,Cần Thơ,,"ThớiBình Thủy, Cần Thơ",VN,"10.0540107,105.75831679999999"
1334,ChIJFc3SE6BioDERpr-ZnoRcMAk,Quán Cà Phê Giải Khát 81,Quán cà phê,0292 3813 692,"Quán Cà Phê Giải Khát 81, 81 Đ. Đề Thám, An Cư, Ninh Kiều, Cần Thơ","An Cư, Ninh Kiều",81 Đ. Đề Thám,Cần Thơ,,"Ninh Kiều, Cần Thơ",VN,"10.034538,105.7816672"
1336,ChIJuQFkOCiJoDERfqnfGuhPNMk,Cà Phê 96,Quán cà phê,,"Cà Phê 96, 96/4 Đ. Nguyễn Thần Hiến, An Cư, Ninh Kiều, Cần Thơ","An Cư, Ninh Kiều",96/4 Đ. Nguyễn Thần Hiến,Cần Thơ,,"Ninh Kiều, Cần Thơ",VN,"10.0365498,105.7793136"
1337,ChIJ6zJHdKGJoDERhZ69fEg2cek,Cafe trung nguyên (quán bà ba),Quán cà phê,,"Cafe trung nguyên (quán bà ba), 16 Đ. Võ Trường Toản, An Hoà, Ninh Kiều, Cần Thơ","An Hoà, Ninh Kiều",16 Đ. Võ Trường Toản,Cần Thơ,,"Ninh Kiều, Cần Thơ",VN,"10.0474427,105.7669121"
1339,ChIJq6qqBw-IoDERVwFlogY5vKg,Quán Cà Phê Anh Thư,Quán cà phê,0916 269 552,"Quán Cà Phê Anh Thư, 85A C2 K2, Nguyễn Văn Cừ, Quận Ninh Kiều, Tp Cần Thơ, An Hoà, Ninh Kiều, Cần Thơ","An Hoà, Ninh Kiều","85A C2 K2, Nguyễn Văn Cừ, Quận Ninh Kiều, Tp Cần Thơ",Cần Thơ,,"Ninh Kiều, Cần Thơ",VN,"10.047019299999999,105.76794439999999"
1340,ChIJq6qqBw-IoDERgo29QxdijuU,Quán Cà Phê Wifi Góc Phố,Quán cà phê,0939 557 169,"Quán Cà Phê Wifi Góc Phố, 313, Nguyễn Văn Cừ, Quận Ninh Kiều, Tp Cần Thơ, An Hoà, Ninh Kiều, Cần Thơ","An Hoà, Ninh Kiều","313, Nguyễn Văn Cừ, Quận Ninh Kiều, Tp Cần Thơ",Cần Thơ,,"Ninh Kiều, Cần Thơ",VN,"10.047019299999999,105.76794439999999"
1342,ChIJq6qqBw-IoDER13mc_R3Qhr8,Quán Cà Phê Bằng Lăng,Quán cà phê,0906 699 624,"Quán Cà Phê Bằng Lăng, 279, Nguyễn Văn Cừ, Quận Ninh Kiều, Tp Cần Thơ, An Hoà, Ninh Kiều, Cần Thơ","An Hoà, Ninh Kiều","279, Nguyễn Văn Cừ, Quận Ninh Kiều, Tp Cần Thơ",Cần Thơ,,"Ninh Kiều, Cần Thơ",VN,"10.047019299999999,105.76794439999999"
1343,ChIJq6qqBw-IoDER4-MDQ42f7E4,Tiệm Cà Phê Bida Ngọc,Quán cà phê,0292 2222 633,"Tiệm Cà Phê Bida Ngọc, 34 Đ. Nguyễn Văn Cừ, An Hoà, Ninh Kiều, Cần Thơ","An Hoà, Ninh Kiều",34 Đ. Nguyễn Văn Cừ,Cần Thơ,,"Ninh Kiều, Cần Thơ",VN,"10.047019299999999,105.76794439999999"
1344,ChIJq6qqBw-IoDERCaoOYXP76IA,Quán Cà Phê Phương Trang,Quán cà phê,0939 111 507,"Quán Cà Phê Phương Trang, 389, Nguyễn Văn Cừ, Quận Ninh Kiều, Tp Cần Thơ, An Hoà, Ninh Kiều, Cần Thơ","An Hoà, Ninh Kiều","389, Nguyễn Văn Cừ, Quận Ninh Kiều, Tp Cần Thơ",Cần Thơ,,"Ninh Kiều, Cần Thơ",VN,"10.047019299999999,105.76794439999999"
1345,ChIJq6qqBw-IoDERXBYKQwFvZgQ,Quán Cà Phê Anh Minh,Quán cà phê,0909 165 887,"Quán Cà Phê Anh Minh, 10 Đ. Nguyễn Văn Cừ, An Hoà, Ninh Kiều, Cần Thơ","An Hoà, Ninh Kiều",10 Đ. Nguyễn Văn Cừ,Cần Thơ,,"Ninh Kiều, Cần Thơ",VN,"10.047019299999999,105.76794439999999"
1346,ChIJq6qqBw-IoDER7Eb7Fpcb1f8,Quán Cà Phê Tâm 2,Quán cà phê,0292 3892 658,"Quán Cà Phê Tâm 2, 341 Đ. Nguyễn Văn Cừ, An Hoà, Ninh Kiều, Cần Thơ","An Hoà, Ninh Kiều",341 Đ. Nguyễn Văn Cừ,Cần Thơ,,"Ninh Kiều, Cần Thơ",VN,"10.046551899999999,105.76849469999999"
1347,ChIJq6qqBw-IoDERiqVN3MHHvsc,Quán Cà Phê Cao Nguyên,Quán cà phê,0292 3893 924,"Quán Cà Phê Cao Nguyên, 268, Đường Nguyễn Văn Cừ, Quận Ninh Kiều, Tp Cần Thơ, An Hoà, Ninh Kiều, Cần Thơ","An Hoà, Ninh Kiều","268, Đường Nguyễn Văn Cừ, Quận Ninh Kiều, Tp Cần Thơ",Cần Thơ,,"Ninh Kiều, Cần Thơ",VN,"10.046549899999999,105.7684927"
1348,ChIJq6qqBw-IoDER_RSe2u8XB1A,Quán Cà Phê Trinh,Quán cà phê,0292 6235 448,"Quán Cà Phê Trinh, 631, Đường Nguyễn Văn Cừ, Quận Ninh Kiều, Tp Cần Thơ, An Hoà, Ninh Kiều, Cần Thơ","An Hoà, Ninh Kiều","631, Đường Nguyễn Văn Cừ, Quận Ninh Kiều, Tp Cần Thơ",Cần Thơ,,"Ninh Kiều, Cần Thơ",VN,"10.047019299999999,105.76794439999999"
1349,ChIJq6qqBw-IoDER6-igIXag3ZM,Cửa Hàng Trà Cà Phê,Quán cà phê,0292 3835 668,"Cửa Hàng Trà Cà Phê, 291E Đ. Nguyễn Văn Cừ, An Hoà, Ninh Kiều, Cần Thơ","An Hoà, Ninh Kiều",291E Đ. Nguyễn Văn Cừ,Cần Thơ,,"Ninh Kiều, Cần Thơ",VN,"10.047019299999999,105.76794439999999"
1350,ChIJq6qqBw-IoDERRvUMPflddmU,Quán Cà Phê Green,Quán cà phê,0903 987 656,"Quán Cà Phê Green, 179, Đường Nguyễn Văn Cừ, Quận Ninh Kiều, Tp Cần Thơ, An Hoà, Ninh Kiều, Cần Thơ","An Hoà, Ninh Kiều","179, Đường Nguyễn Văn Cừ, Quận Ninh Kiều, Tp Cần Thơ",Cần Thơ,,"Ninh Kiều, Cần Thơ",VN,"10.047019299999999,105.76794439999999"
1351,ChIJq6qqBw-IoDERQVVAq0B3RpY,Quán Cà Phê Thu Nga,Quán cà phê,0292 6546 784,"Quán Cà Phê Thu Nga, 388/14, Nguyễn Văn Cừ, Quận Ninh Kiều, Tp Cần Thơ, An Hoà, Ninh Kiều, Cần Thơ","An Hoà, Ninh Kiều","388/14, Nguyễn Văn Cừ, Quận Ninh Kiều, Tp Cần Thơ",Cần Thơ,,"Ninh Kiều, Cần Thơ",VN,"10.047019299999999,105.76794439999999"
1352,ChIJq6qqBw-IoDERqdMT7rldKk4,Tiệm Cà Phê Sinh Tố Thảo Trang,Quán cà phê,0903 111 991,"Tiệm Cà Phê Sinh Tố Thảo Trang, 132D Đ. Nguyễn Văn Cừ, An Hoà, Ninh Kiều, Cần Thơ","An Hoà, Ninh Kiều",132D Đ. Nguyễn Văn Cừ,Cần Thơ,,"Ninh Kiều, Cần Thơ",VN,"10.047019299999999,105.76794439999999"
1353,ChIJq6qqBw-IoDERDcmagz6OO6I,Quán Cà Phê Cây Bàng,Quán cà phê,0292 3890 735,"Quán Cà Phê Cây Bàng, 141/7, Nguyễn Văn Cừ, Quận Ninh Kiều, Tp Cần Thơ, An Hoà, Ninh Kiều, Cần Thơ","An Hoà, Ninh Kiều","141/7, Nguyễn Văn Cừ, Quận Ninh Kiều, Tp Cần Thơ",Cần Thơ,,"Ninh Kiều, Cần Thơ",VN,"10.047019299999999,105.76794439999999"
1354,ChIJ7zPGSg6IoDERGasbXoy3px0,Cà Phê Tâm 2,Quán cà phê,0292 3893 678,"Cà Phê Tâm 2, 333 Đ. Nguyễn Văn Cừ, An Hoà, Ninh Kiều, Cần Thơ","An Hoà, Ninh Kiều",333 Đ. Nguyễn Văn Cừ,Cần Thơ,,"Ninh Kiều, Cần Thơ",VN,"10.045537999999999,105.7674442"
1355,ChIJOT7Jr9WJoDER1K_bl-hI3zY,Cà phê Gum,Quán cà phê,,"2QV6+C42 Cà phê Gum, Phường An Khánh, Ninh Kiều, Cần Thơ","Phường An Khánh, Ninh Kiều",2QV6+C42,Cần Thơ,,"Ninh Kiều, Cần Thơ",VN,"10.0434881,105.76026619999999"
1356,ChIJgRWLKuyJoDERsMxD4uGDYdM,Cà phê điểm tâm 68,Quán cà phê,0961 799 365,"Cà phê điểm tâm 68, Dd 68 đường 24, kv4, Ninh Kiều, Cần Thơ","kv4, Ninh Kiều",Dd 68 đường 24,Cần Thơ,,"Ninh Kiều, Cần Thơ",VN,"10.0496184,105.75925799999999"
1358,ChIJU48yZW2IoDERRVAnB1VWFXo,Cà Phê Trọng Nhân,Quán cà phê,,"Cà Phê Trọng Nhân, An Khánh, Ninh Kiều, Cần Thơ","An Khánh, Ninh Kiều",,Cần Thơ,,"Ninh Kiều, Cần Thơ",VN,"10.044146,105.75639989999999"
1361,ChIJRegHsC6JoDERcTvG3E4I8fQ,Cà phê An Vy,Quán cà phê,,"Cà phê An Vy, 10 Đ. Tô Hiến Thành, Phường An Khánh, Ninh Kiều, Cần Thơ","Phường An Khánh, Ninh Kiều",10 Đ. Tô Hiến Thành,Cần Thơ,,"Ninh Kiều, Cần Thơ",VN,"10.043696599999999,105.75615909999999"
1364,ChIJlcV-pTKJoDERIhmmS3KMCD4,Cà phê cây bàng,Quán cà phê,,"2QQ5+6WW Cà phê cây bàng, Nguyễn Văn Cừ Nối Dài, Phường An Khánh, Ninh Kiều, Cần Thơ","Phường An Khánh, Ninh Kiều","2QQ5+6WW, Nguyễn Văn Cừ Nối Dài",Cần Thơ,,"Ninh Kiều, Cần Thơ",VN,"10.038121199999999,105.75983719999999"
1365,ChIJtWRYhziJoDERN_9YyZuIlw0,Cà phê 153,Quán cà phê,,"Cà phê 153, 153 Đ. Nguyễn Tri Phương, Phường An Khánh, Ninh Kiều, Cần Thơ","Phường An Khánh, Ninh Kiều",153 Đ. Nguyễn Tri Phương,Cần Thơ,,"Ninh Kiều, Cần Thơ",VN,"10.041110399999999,105.75476719999999"
1366,ChIJ-5O7NeSJoDERM4v-ezvyAMw,"CŨ MÈM - Ở đây có bán cà phê, trà , sữa hạt và bánh ăn sáng",Quán cà phê,0977 636 201,"CŨ MÈM - Ở đây có bán cà phê, trà , sữa hạt và bánh ăn sáng, 171 Đ. Nguyễn Tri Phương, Phường An Khánh, Ninh Kiều, Cần Thơ","Phường An Khánh, Ninh Kiều",171 Đ. Nguyễn Tri Phương,Cần Thơ,,"Ninh Kiều, Cần Thơ",VN,"10.038903,105.7594203"
1367,ChIJSd8RUOGJoDERCtqP8bw3J1I,Cà phê Nước ép - Sinh tố Minh Huy 165,Quán cà phê,,"Cà phê Nước ép - Sinh tố Minh Huy 165, 165 Đ. Nguyễn Văn Cừ, Phường An Khánh, Ninh Kiều, Cần Thơ","Phường An Khánh, Ninh Kiều",165 Đ. Nguyễn Văn Cừ,Cần Thơ,,"Ninh Kiều, Cần Thơ",VN,"10.0373783,105.75867699999999"
1368,ChIJC8Vl3OGJoDERwcMUgCRH96I,Cà Phê Gốc Phố,Quán cà phê,0815 168 188,"2QQ3+QQ6 Cà Phê Gốc Phố, Phường An Khánh, Ninh Kiều, Cần Thơ","Phường An Khánh, Ninh Kiều",2QQ3+QQ6,Cần Thơ,,"Ninh Kiều, Cần Thơ",VN,"10.0394177,105.7543982"
1370,ChIJM06SKceJoDERyH9UFFsE3k0,Cà phê võng 10 Đúng,Quán cà phê,,"Cà phê võng 10 Đúng, 109 Đường số 21, Phường An Khánh, Ninh Kiều, Cần Thơ","Phường An Khánh, Ninh Kiều",109 Đường số 21,Cần Thơ,,"Ninh Kiều, Cần Thơ",VN,"10.037654999999999,105.7555335"
1373,ChIJdb_BEASJoDERM0aCme_TLlE,Cà phê Hạt,Quán cà phê,,"Cà phê Hạt, 179 Đ. Nguyễn Hiền, Hưng Lợi, Ninh Kiều, Cần Thơ","Hưng Lợi, Ninh Kiều",179 Đ. Nguyễn Hiền,Cần Thơ,,"Ninh Kiều, Cần Thơ",VN,"10.021777199999999,105.7550916"
1377,ChIJRaki4SuHoDERLLvmWYZ9RFM,Caffe Nguyễn phúc,Quán cà phê,,"Caffe Nguyễn phúc, 58 Đường Nguyễn Truyền Thanh, Bình Thuỷ, Bình Thủy, Cần Thơ","Bình Thuỷ, Bình Thủy",58 Đường Nguyễn Truyền Thanh,Cần Thơ,,"Bình Thủy, Cần Thơ",VN,"10.0720637,105.7480685"
1378,ChIJJY4TDmqJoDERNyZ7N2U56dM,Cà Phê SK,Quán cà phê,0939 393 609,"Cà Phê SK, 455 Nguyễn Văn Cừ Nối Dài, An Bình, Ninh Kiều, Cần Thơ","An Bình, Ninh Kiều",455 Nguyễn Văn Cừ Nối Dài,Cần Thơ,,"Ninh Kiều, Cần Thơ",VN,"10.0152837,105.7356172"
1381,ChIJA_d3tEiJoDERLBBlA5moGNE,Cà phê 39,Quán cà phê,,"Cà phê 39, 397 Nguyễn Văn Cừ Nối Dài, An Bình, Ninh Kiều, Cần Thơ","An Bình, Ninh Kiều",397 Nguyễn Văn Cừ Nối Dài,Cần Thơ,,"Ninh Kiều, Cần Thơ",VN,"10.0146964,105.73839629999999"
1383,ChIJNaYZXICJoDERxu11dG13Ab8,Cà phê Thanh Tuyền,Quán cà phê,,"Cà phê Thanh Tuyền, 61 Đường số 6, KV2, Ninh Kiều, Cần Thơ","KV2, Ninh Kiều",61 Đường số 6,Cần Thơ,,"Ninh Kiều, Cần Thơ",VN,"10.044018999999999,105.7567522"
1385,ChIJbZlVMxKIoDERHDCVDTGATKI,Cà Phê Hoàng Nam,Quán cà phê,0908 481 590,"Cà Phê Hoàng Nam, 134 Đ. Nguyễn Văn Cừ, Phường An Khánh, Ninh Kiều, Cần Thơ","Phường An Khánh, Ninh Kiều",134 Đ. Nguyễn Văn Cừ,Cần Thơ,,"Ninh Kiều, Cần Thơ",VN,"10.041197799999999,105.762998"
1386,ChIJmUvqVmyIoDERIHzanzB9NUY,Cà Phê Phương Quyên,Quán cà phê,,"2QR4+J5M Cà Phê Phương Quyên, Đ. Tô Hiến Thành, Phường An Khánh, Ninh Kiều, Cần Thơ","Phường An Khánh, Ninh Kiều","2QR4+J5M, Đ. Tô Hiến Thành",Cần Thơ,,"Ninh Kiều, Cần Thơ",VN,"10.0415793,105.7554365"
1387,ChIJpduLMxKIoDER-1MlZRCRGFg,Cà Phê Phượng,Quán cà phê,0909 254 838,"Cà Phê Phượng, 138 Đ. Nguyễn Văn Cừ, Phường An Khánh, Ninh Kiều, Cần Thơ","Phường An Khánh, Ninh Kiều",138 Đ. Nguyễn Văn Cừ,Cần Thơ,,"Ninh Kiều, Cần Thơ",VN,"10.0417467,105.76312"
1388,ChIJraFbQ0KJoDER9rOcsWRLgiU,Cà Phê Sạch Black Gold - Zone,Quán cà phê,,"Cà Phê Sạch Black Gold - Zone, 210 Nguyễn Văn Cừ Nối Dài, Phường An Khánh, Ninh Kiều, Cần Thơ","Phường An Khánh, Ninh Kiều",210 Nguyễn Văn Cừ Nối Dài,Cần Thơ,,"Ninh Kiều, Cần Thơ",VN,"10.021982,105.743302"
1389,ChIJhTcnJ7uJoDERoVyQfufaqXk,CÀ PHÊ AN NHIÊN ( nuôi on ),Quán cà phê,0901 687 576,"CÀ PHÊ AN NHIÊN ( nuôi on ), 379 Đ. Nguyễn Văn Cừ, An Bình, Ninh Kiều, Cần Thơ 94000","An Bình, Ninh Kiều",379 Đ. Nguyễn Văn Cừ,Cần Thơ,94000.0,"Ninh Kiều, Cần Thơ",VN,"10.021110799999999,105.74288779999999"
1390,ChIJYQ_ckFaIoDER7QHFL4b2_Rw,Cà Phê Yến Oanh,Quán cà phê,,"Cà Phê Yến Oanh, Long Tuyền, Ninh Kiều, Cần Thơ","Long Tuyền, Ninh Kiều",,Cần Thơ,,"Ninh Kiều, Cần Thơ",VN,"10.0192596,105.7390808"
1391,ChIJpa7a3lKIoDERnybils5n5qI,Cà Phê-Giải Khát Ngọc Phụng,Quán cà phê,,"Cà Phê-Giải Khát Ngọc Phụng, An Bình, Ninh Kiều, Cần Thơ","An Bình, Ninh Kiều",,Cần Thơ,,"Ninh Kiều, Cần Thơ",VN,"10.0138313,105.74411789999999"
1399,ChIJO_fHPttjoDERnzcPtnRaSn0,Cafee Asin,Quán cà phê,,"2Q6R+VMR Cafee Asin, Phạm Văn Nhờ, KHU DÂN CƯ ĐÔ THỊ MỚI HƯNG PHÚ, Cái Răng, Cần Thơ","KHU DÂN CƯ ĐÔ THỊ MỚI HƯNG PHÚ, Cái Răng","2Q6R+VMR, Phạm Văn Nhờ",Cần Thơ,,"Cái Răng, Cần Thơ",VN,"10.0122289,105.7916259"
1403,ChIJSxZoCneJoDERrojQb8yoGyk,Quán Cafe Hoàng Phụng,Quán cà phê,,"XPJW+5W6 Quán Cafe Hoàng Phụng, Thường Thạnh, Cái Răng, Cần Thơ","Thường Thạnh, Cái Răng",XPJW+5W6,Cần Thơ,,"Cái Răng, Cần Thơ",VN,"9.9804247,105.7472573"
1405,ChIJC6tu-VaIoDEREsJto9w3ARs,Cà Phê Dạ Thảo,Quán cà phê,,"Cà Phê Dạ Thảo, Long Tuyền, Ninh Kiều, Cần Thơ","Long Tuyền, Ninh Kiều",,Cần Thơ,,"Ninh Kiều, Cần Thơ",VN,"10.020778199999999,105.73836949999999"
1406,ChIJuS-vdCaJoDERZ5_MykJTf0Y,Ca phe Lê Huy,Quán cà phê,,"Ca phe Lê Huy, 345 Nguyễn Văn Cừ Nối Dài, An Bình, Ninh Kiều, Cần Thơ","An Bình, Ninh Kiều",345 Nguyễn Văn Cừ Nối Dài,Cần Thơ,,"Ninh Kiều, Cần Thơ",VN,"10.017870499999999,105.7388529"
1410,ChIJdTwNxh2JoDERii5lQKVLILU,Cà Phê Ngọc,Quán cà phê,0949 987 005,"Cà Phê Ngọc, 36 Nguyễn Văn Cừ Nối Dài, An Bình, Ninh Kiều, Cần Thơ","An Bình, Ninh Kiều",36 Nguyễn Văn Cừ Nối Dài,Cần Thơ,,"Ninh Kiều, Cần Thơ",VN,"10.0267131,105.74777669999999"
1411,ChIJ3XKxcFWIoDERLftGv7HHadY,Cà Phê Võng Nhân Toàn,Quán cà phê,,"2P8P+693 Cà Phê Võng Nhân Toàn, Nguyễn Văn Cừ Nối Dài, An Bình, Ninh Kiều, Cần Thơ","An Bình, Ninh Kiều","2P8P+693, Nguyễn Văn Cừ Nối Dài",Cần Thơ,,"Ninh Kiều, Cần Thơ",VN,"10.0155152,105.7359101"
1413,ChIJyc_MqbOJoDERw5CnmjIzorg,Kiều Trang Cà Phê Hạt Nguyên Chất,Quán cà phê,,"2Q52+V4W Kiều Trang Cà Phê Hạt Nguyên Chất, ĐT923, An Bình, Ninh Kiều, Cần Thơ","An Bình, Ninh Kiều","2Q52+V4W, ĐT923",Cần Thơ,,"Ninh Kiều, Cần Thơ",VN,"10.0097274,105.750318"
1414,ChIJ_zRs4KSJoDERpZUVihP8xjE,Chè - Cà Phê Thùy Vân,Quán cà phê,0906 745 333,"Chè - Cà Phê Thùy Vân, 42 Đ. Nguyễn Văn Cừ, Phường An Khánh, Ninh Kiều, Cần Thơ","Phường An Khánh, Ninh Kiều",42 Đ. Nguyễn Văn Cừ,Cần Thơ,,"Ninh Kiều, Cần Thơ",VN,"10.026479,105.7476069"
1415,ChIJX4tcNrWJoDERVfBCaJD72d8,Quán Cà Phê Wifi Thanh,Quán cà phê,0938 516 055,"Quán Cà Phê Wifi Thanh, 310A, Quốc Lộ 1A, Quận Cái Răng, Hưng Lợi, Ninh Kiều, Cần Thơ","Hưng Lợi, Ninh Kiều","310A, Quốc Lộ 1A, Quận Cái Răng",Cần Thơ,,"Ninh Kiều, Cần Thơ",VN,"10.011721099999999,105.756987"
1416,ChIJ9YGZuZeJoDER8H0UzKjtcCw,Cà phê - cháo vịt Quỳnh Anh,Quán ăn nhỏ,,"2PCR+3FP Cà phê - cháo vịt Quỳnh Anh, Nguyễn Văn Cừ nối dài, An Bình, Ninh Kiều, Cần Thơ","An Bình, Ninh Kiều","2PCR+3FP, Nguyễn Văn Cừ nối dài",Cần Thơ,,"Ninh Kiều, Cần Thơ",VN,"10.020215,105.74121559999999"
1436,ChIJX5dsDWVjoDERgBFUvDeN3g8,Cà Phê Mi,Quán cà phê,,"Cà Phê Mi, H161 Đ. Bùi Quang Trinh, Phú Thứ, Cái Răng, Cần Thơ","Phú Thứ, Cái Răng",H161 Đ. Bùi Quang Trinh,Cần Thơ,,"Cái Răng, Cần Thơ",VN,"10.0053821,105.80818149999999"
1438,ChIJ_Z0bLCeJoDERdHivqYoJjSM,"COFFEE 35 (Cà phê, Trà sữa, Sinh tố)",Quán cà phê,,"COFFEE 35 (Cà phê, Trà sữa, Sinh tố), Nguyễn Văn Trường, An Bình, Ninh Kiều, Cần Thơ","An Bình, Ninh Kiều",Nguyễn Văn Trường,Cần Thơ,,"Ninh Kiều, Cần Thơ",VN,"10.0085252,105.7306318"
1439,ChIJtWWKfK-JoDERsuKbSuc3Ecc,Cà Phê Võng 365,Quán cà phê,,"Cà Phê Võng 365, 365 ĐT923, An Bình, Ninh Kiều, Cần Thơ","An Bình, Ninh Kiều",365 ĐT923,Cần Thơ,,"Ninh Kiều, Cần Thơ",VN,"10.002239699999999,105.74336799999999"
1454,ChIJwU2__a6JoDERl05WdN6HaYE,Quán Cà Phê Như Huỳnh,Quán cà phê,0292 3575 603,"Quán Cà Phê Như Huỳnh, 61/4, Lộ Vòng Cung, Quận Ninh Kiều, An Bình, Ninh Kiều, Cần Thơ","An Bình, Ninh Kiều","61/4, Lộ Vòng Cung, Quận Ninh Kiều",Cần Thơ,,"Ninh Kiều, Cần Thơ",VN,"10.0048052,105.7434327"
1462,ChIJwbjrrLOJoDER8EXZ-fKVpeU,Hong Minh Coffee Shop,Quán cà phê,0292 3986 543,"Hong Minh Coffee Shop, 116, Highway 1A, Cai Rang District, Can Tho City, An Bình, Ninh Kiều, Cần Thơ","An Bình, Ninh Kiều","116, Highway 1A, Cai Rang District, Can Tho City",Cần Thơ,,"Ninh Kiều, Cần Thơ",VN,"10.0093473,105.7498949"
1463,ChIJnU-2gbKJoDERECilHAHQgto,Cà Phê Sửa Xe Quang Trung,Quán cà phê,,"Cà Phê Sửa Xe Quang Trung, An Bình, Ninh Kiều, Cần Thơ","An Bình, Ninh Kiều",,Cần Thơ,,"Ninh Kiều, Cần Thơ",VN,"10.0101716,105.74702769999999"
1465,ChIJ57VG7kyIoDERiSkb1H2KSdY,Cà Phê Võng 94,Quán cà phê,,"2Q72+Q82 Cà Phê Võng 94, Đ. Trần Vĩnh Kiết, An Bình, Ninh Kiều, Cần Thơ","An Bình, Ninh Kiều","2Q72+Q82, Đ. Trần Vĩnh Kiết",Cần Thơ,,"Ninh Kiều, Cần Thơ",VN,"10.0143843,105.7507722"
1466,ChIJNY1pCbOJoDER-A1MxW5dN1E,Cà Phê Khả Phương,Quán cà phê,,"2Q52+X67 Cà Phê Khả Phương, 98 Đ. 3 Tháng 2, An Bình, Ninh Kiều, Cần Thơ","An Bình, Ninh Kiều","2Q52+X67, 98 Đ. 3 Tháng 2",Cần Thơ,,"Ninh Kiều, Cần Thơ",VN,"10.0099117,105.7505429"
1468,ChIJHQP9BbGJoDERPkqK_gA-XrM,Cà Phê 138,Quán cà phê,,"Cà Phê 138, Lê Bình, Cái Răng, Cần Thơ","Lê Bình, Cái Răng",,Cần Thơ,,"Cái Răng, Cần Thơ",VN,"10.004997999999999,105.75016529999999"
1469,ChIJ0YUBELGJoDERnyKmo4PiKzg,Cà Phê Cát Tường,Quán cà phê,,"Cà Phê Cát Tường, Lê Bình, Cái Răng, Cần Thơ","Lê Bình, Cái Răng",,Cần Thơ,,"Cái Răng, Cần Thơ",VN,"10.005034,105.7505305"
1470,ChIJkeVxLzCJoDERMoua6y0jD2Y,Cà phê Thắng Ngân,Quán cà phê,0708 726 843,"Cà phê Thắng Ngân, 24/4 Ngô Quyền, Lê Bình, Cái Răng, Cần Thơ","Lê Bình, Cái Răng",24/4 Ngô Quyền,Cần Thơ,,"Cái Răng, Cần Thơ",VN,"10.0052386,105.7518298"
1472,ChIJ1T9GZgCJoDERw1xUZFBOIDI,Cà phê ăn sáng Yến Nhi,Quán cà phê,,"Cà phê ăn sáng Yến Nhi, 201 Đ. Nguyễn Hiền, Khu dân cư 91B, Ninh Kiều, Cần Thơ","Khu dân cư 91B, Ninh Kiều",201 Đ. Nguyễn Hiền,Cần Thơ,,"Ninh Kiều, Cần Thơ",VN,"10.0176933,105.754988"
1482,ChIJd7cLgbKJoDERFG84hvkyyYY,Cà Phê Hồng Nhi,Quán cà phê,,"2P6W+3R3 Cà Phê Hồng Nhi, An Bình, Ninh Kiều, Cần Thơ","An Bình, Ninh Kiều",2P6W+3R3,Cần Thơ,,"Ninh Kiều, Cần Thơ",VN,"10.0101169,105.74708919999999"
1487,ChIJzcpnMq2JoDER1Qrs8FsTTb4,Rửa Xe - Cà Phê - Tạp Hóa Linh,Quán cà phê,,"Rửa Xe - Cà Phê - Tạp Hóa Linh, 125 Đ. Hoàng Quốc Việt, An Bình, Ninh Kiều, Cần Thơ","An Bình, Ninh Kiều",125 Đ. Hoàng Quốc Việt,Cần Thơ,,"Ninh Kiều, Cần Thơ",VN,"10.0126027,105.7448087"
1488,ChIJ37EIS7KJoDERwtFLCpoYAmY,Cà Phê Thiện Ngân,Quán cà phê,0984 278 729,"Cà Phê Thiện Ngân, 134 Đ. 3 Tháng 2, An Bình, Ninh Kiều, Cần Thơ","An Bình, Ninh Kiều",134 Đ. 3 Tháng 2,Cần Thơ,,"Ninh Kiều, Cần Thơ",VN,"10.0086885,105.7495896"
1489,ChIJyUUVZbOJoDERQvm0h3WEWcE,Quán Cà Phê 110,Quán cà phê,0292 3915 331,"Quán Cà Phê 110, 110/3, Quốc Lộ 1A, P. An Bình, Quận Ninh Kiều, An Bình, Ninh Kiều, Cần Thơ","An Bình, Ninh Kiều","110/3, Quốc Lộ 1A, P. An Bình, Quận Ninh Kiều",Cần Thơ,,"Ninh Kiều, Cần Thơ",VN,"10.0113112,105.7520335"
1490,ChIJDVzJC7OJoDER-GKxpgnE0Vg,Cà Phê Dota,Quán cà phê,0292 3512 072,"Cà Phê Dota, 1 Đ. 3 Tháng 2, An Bình, Ninh Kiều, Cần Thơ","An Bình, Ninh Kiều",1 Đ. 3 Tháng 2,Cần Thơ,,"Ninh Kiều, Cần Thơ",VN,"10.0106054,105.75122379999999"
1491,ChIJdXIbDK6JoDERQlyr-n3gy4g,Quán Cà Phê Giải Khát Ngọc Ngân,Quán cà phê,0854 304 319,"Quán Cà Phê Giải Khát Ngọc Ngân, 163/4, Đường Lộ Vòng Cung, Phường An Bình, Quận Ninh Kiều, An Bình, Ninh Kiều, Cần Thơ","An Bình, Ninh Kiều","163/4, Đường Lộ Vòng Cung, Phường An Bình, Quận Ninh Kiều",Cần Thơ,,"Ninh Kiều, Cần Thơ",VN,"10.0082303,105.7489382"
1492,ChIJhYpHW7OJoDERhTXrixHptJA,Quán Cà Phê Như,Quán cà phê,0292 3846 011,"Quán Cà Phê Như, 105/3, Đường 3/2, Phường An Bình, Quận Ninh Kiều, An Bình, Ninh Kiều, Cần Thơ","An Bình, Ninh Kiều","105/3, Đường 3/2, Phường An Bình, Quận Ninh Kiều",Cần Thơ,,"Ninh Kiều, Cần Thơ",VN,"10.0114507,105.7520296"
1493,ChIJe4bPAa6JoDERBw12YlpJk24,Quán Cà Phê Giải Khát Phạm Quốc Huy,Quán cà phê,0854 419 422,"Quán Cà Phê Giải Khát Phạm Quốc Huy, 54/2, Đường Lộ Vòng Cung, An Bình, Ninh Kiều, Cần Thơ","An Bình, Ninh Kiều","54/2, Đường Lộ Vòng Cung",Cần Thơ,,"Ninh Kiều, Cần Thơ",VN,"10.007012099999999,105.7467879"
1494,ChIJC87x_7GJoDERhRSipU0vSdY,Quán Cà Phê Minh Thư,Quán cà phê,0292 3815 252,"Quán Cà Phê Minh Thư, 183/4, Đường Lộ Vòng Cung, An Bình, Ninh Kiều, Cần Thơ","An Bình, Ninh Kiều","183/4, Đường Lộ Vòng Cung",Cần Thơ,,"Ninh Kiều, Cần Thơ",VN,"10.007137,105.74692309999999"
1495,ChIJ6bYfQLGJoDERwWjdYJ_4ZrE,Cà Phê Thành,Quán cà phê,0292 3910 696,"Cà Phê Thành, 57/2, Đường Đinh Tiên Hoàng, Lê Bình, Cái Răng, Cần Thơ","Lê Bình, Cái Răng","57/2, Đường Đinh Tiên Hoàng",Cần Thơ,,"Cái Răng, Cần Thơ",VN,"10.0054847,105.75097079999999"
1496,ChIJj1mHTUuIoDERRzCyTEWFvRg,Quán Cà Phê Quế Hương,Quán cà phê,0292 3502 214,"Quán Cà Phê Quế Hương, 146/2, Quốc Lộ 1A, Quận Cái Răng, Hưng Lợi, Ninh Kiều, Cần Thơ","Hưng Lợi, Ninh Kiều","146/2, Quốc Lộ 1A, Quận Cái Răng",Cần Thơ,,"Ninh Kiều, Cần Thơ",VN,"10.012516999999999,105.75345689999999"
1497,ChIJ3fQ7t7SJoDERQMJYgi7tk7c,Quán Cà Phê Vân Thanh,Quán cà phê,0292 3914 458,"Quán Cà Phê Vân Thanh, 168/1A, Quốc Lộ 1A, P. Lê Bình, Quận Cái Răng, Hưng Lợi, Ninh Kiều, Cần Thơ","Hưng Lợi, Ninh Kiều","168/1A, Quốc Lộ 1A, P. Lê Bình, Quận Cái Răng",Cần Thơ,,"Ninh Kiều, Cần Thơ",VN,"10.0117544,105.7538793"
1498,ChIJq8EUsbSJoDERjT7n4sdef3M,Quán Cà Phê Hoàng,Quán cà phê,0776 174 702,"Quán Cà Phê Hoàng, 166/1B, Quốc Lộ 1A, Quận Cái Răng, Hưng Lợi, Ninh Kiều, Cần Thơ","Hưng Lợi, Ninh Kiều","166/1B, Quốc Lộ 1A, Quận Cái Răng",Cần Thơ,,"Ninh Kiều, Cần Thơ",VN,"10.011883,105.7537143"
1499,ChIJMV2ATLaJoDERQSgZOWyBIpc,Cà phê thanh thảo,Quán cà phê,,"2QC3+9VX Cà phê thanh thảo, Đ. Trần Hoàng Na, Khu dân cư 91B, Ninh Kiều, Cần Thơ","Khu dân cư 91B, Ninh Kiều","2QC3+9VX, Đ. Trần Hoàng Na",Cần Thơ,,"Ninh Kiều, Cần Thơ",VN,"10.0209987,105.7547299"
1500,ChIJ0zTfM1WJoDERfyIET1KxBTg,Cà phê điểm tâm A59,Quán cà phê,0939 017 596,"Cà phê điểm tâm A59, 117 Đ. Nguyễn Hiền, Hưng Lợi, Ninh Kiều, Cần Thơ","Hưng Lợi, Ninh Kiều",117 Đ. Nguyễn Hiền,Cần Thơ,,"Ninh Kiều, Cần Thơ",VN,"10.0227952,105.75601089999999"
1502,ChIJE4TR0mOJoDERR48z-Q-_10s,Cà Phê Sạch Black Gold - Ami,Quán cà phê,,"2QC4+W6J Cà Phê Sạch Black Gold - Ami, Đ. Nguyễn Hiền, Khu dân cư 91B, Ninh Kiều, Cần Thơ","Khu dân cư 91B, Ninh Kiều","2QC4+W6J, Đ. Nguyễn Hiền",Cần Thơ,,"Ninh Kiều, Cần Thơ",VN,"10.0223403,105.75551639999999"
1503,ChIJhTFDOrmJoDERPvfCZ-Lf4E0,Cà Phê- Điểm Tâm HUY PHÚC,Quán cà phê,0918 594 384,"Cà Phê- Điểm Tâm HUY PHÚC, Đường số 1, KDC Ngân Thuận, Bình Thủy, Cần Thơ 94000","KDC Ngân Thuận, Bình Thủy",Đường số 1,Cần Thơ,94000.0,"Bình Thủy, Cần Thơ",VN,"10.0223269,105.7600915"
1504,ChIJv2u0fziIoDERqr0vLEbNWQE,Phương Nghi Cà Phê Xay Nguyên Chất,Quán cà phê,,"Phương Nghi Cà Phê Xay Nguyên Chất, An Khánh, Ninh Kiều, Cần Thơ","An Khánh, Ninh Kiều",,Cần Thơ,,"Ninh Kiều, Cần Thơ",VN,"10.0255133,105.758758"
1505,ChIJOy9CWJCJoDERTZI6DXn7c94,Cà phê Núi,Quán cà phê,,"2Q95+847 Cà phê Núi, Đ. Trần Hoàng Na, Hưng Lợi, Ninh Kiều, Cần Thơ","Hưng Lợi, Ninh Kiều","2Q95+847, Đ. Trần Hoàng Na",Cần Thơ,,"Ninh Kiều, Cần Thơ",VN,"10.018426,105.7578449"
1506,ChIJQYMmgGeJoDERxxylQpM5lS4,Quán cà phê Mối,Quán cà phê,,"Quán cà phê Mối, 55 Hẻm 132 Đ. 3 Tháng 2, Hưng Lợi, Ninh Kiều, Cần Thơ","Hưng Lợi, Ninh Kiều",55 Hẻm 132 Đ. 3 Tháng 2,Cần Thơ,,"Ninh Kiều, Cần Thơ",VN,"10.0180028,105.75838739999999"
1508,ChIJY94-DQCJoDERLInCnc0cmm4,Cà phê Hưng Thạnh,Quán cà phê,,"Cà phê Hưng Thạnh, 25-26 Đường số 1, khu văn hoá, Cái Răng, Cần Thơ","khu văn hoá, Cái Răng",25-26 Đường số 1,Cần Thơ,,"Cái Răng, Cần Thơ",VN,"10.0223934,105.76036739999999"
1510,ChIJNaSsTAWJoDERuYsobLlkH-w,Cà phê võng BI BI,Quán cà phê,,"Cà phê võng BI BI, 261c/8, Đ. Trần Vĩnh Kiết, An Bình, Ninh Kiều, Cần Thơ","An Bình, Ninh Kiều","261c/8, Đ. Trần Vĩnh Kiết",Cần Thơ,,"Ninh Kiều, Cần Thơ",VN,"10.0218671,105.75191249999999"
1511,ChIJow_n2TmIoDERRPUOXY6mPeU,Cà Phê Song Nhạc,Quán cà phê,,"2QF6+6V5 Cà Phê Song Nhạc, Đ. Nguyễn Văn Linh, Hưng Lợi, Ninh Kiều, Cần Thơ","Hưng Lợi, Ninh Kiều","2QF6+6V5, Đ. Nguyễn Văn Linh",Cần Thơ,,"Ninh Kiều, Cần Thơ",VN,"10.0230105,105.7622401"
1512,ChIJgYdJ9aqJoDER4bU-I1ACn7M,Cà phê Thi Thơ,Quán cà phê,,"Cà phê Thi Thơ, 24b Đ. Nguyễn Văn Linh, Hưng Lợi, Ninh Kiều, Cần Thơ","Hưng Lợi, Ninh Kiều",24b Đ. Nguyễn Văn Linh,Cần Thơ,,"Ninh Kiều, Cần Thơ",VN,"10.0225479,105.76352709999999"
1513,ChIJF23Wv9qJoDERKlqsMRFANvM,Quán cà phê Đăng,Quán cà phê,,"2QH6+22F Quán cà phê Đăng, Đ. Số 2, Hưng Lợi, Ninh Kiều, Cần Thơ","Hưng Lợi, Ninh Kiều","2QH6+22F, Đ. Số 2",Cần Thơ,,"Ninh Kiều, Cần Thơ",VN,"10.0275392,105.7600348"
1514,ChIJkY5mzECIoDER5wCQDHkNbd0,Cà Phê Võng Sân Vườn Thư Hiền,Quán cà phê,,"Cà Phê Võng Sân Vườn Thư Hiền, 17 Đường số 3, Hưng Lợi, Ninh Kiều, Cần Thơ","Hưng Lợi, Ninh Kiều",17 Đường số 3,Cần Thơ,,"Ninh Kiều, Cần Thơ",VN,"10.028624299999999,105.7566839"
1517,ChIJnUFB7TSIoDERYW7qcoR856k,Cà Phê - Trà Sữa Zest Town,Quán cà phê,0292 6253 070,"Cà Phê - Trà Sữa Zest Town, 151 Đ. Trần Hoàng Na, Hưng Lợi, Ninh Kiều, Cần Thơ","Hưng Lợi, Ninh Kiều",151 Đ. Trần Hoàng Na,Cần Thơ,,"Ninh Kiều, Cần Thơ",VN,"10.0138769,105.7626434"
1521,ChIJLxdxRVCJoDERtNUb6CNkMsE,1997 Coffee Take away,Quán cà phê,0388 599 847,"1997 Coffee Take away, 132/22 Đ. 3 Tháng 2, Xuân Khánh, Ninh Kiều, Cần Thơ 90000","Xuân Khánh, Ninh Kiều",132/22 Đ. 3 Tháng 2,Cần Thơ,90000.0,"Ninh Kiều, Cần Thơ",VN,"10.0283077,105.7710551"
1525,ChIJJ9_rsDSJoDERsPYoASzmDq0,Cà Phê Sạch Black Gold - 195,Quán cà phê,,"2Q98+W27 Cà Phê Sạch Black Gold - 195, Hẻm 195 Đ. 3 Tháng 2, Hưng Lợi, Ninh Kiều, Cần Thơ","Hưng Lợi, Ninh Kiều","2Q98+W27, Hẻm 195 Đ. 3 Tháng 2",Cần Thơ,,"Ninh Kiều, Cần Thơ",VN,"10.0197802,105.76504089999999"
1527,ChIJzU-k9QGJoDEREQNopU9fZDQ,Cà phê Át cơ,Quán cà phê,,"Cà phê Át cơ, 49 Đ. Trần Hoàng Na, Hưng Lợi, Ninh Kiều, Cần Thơ","Hưng Lợi, Ninh Kiều",49 Đ. Trần Hoàng Na,Cần Thơ,,"Ninh Kiều, Cần Thơ",VN,"10.0113988,105.7646967"
1529,ChIJTy-5VDOIoDERJsDonNNXnRM,Quán Cà Phê Nhớ,Quán cà phê,0779 975 822,"Quán Cà Phê Nhớ, 65 Đ. Trần Hoàng Na, Hưng Lợi, Ninh Kiều, Cần Thơ","Hưng Lợi, Ninh Kiều",65 Đ. Trần Hoàng Na,Cần Thơ,,"Ninh Kiều, Cần Thơ",VN,"10.0115588,105.7647604"
1531,ChIJSbhcIi6IoDERTIs8-qSwbAU,Cà Phê Sông Quê,Quán cà phê,,"Cà Phê Sông Quê, 268 Đ. Nguyễn Văn Linh, Hưng Lợi, Ninh Kiều, Cần Thơ","Hưng Lợi, Ninh Kiều",268 Đ. Nguyễn Văn Linh,Cần Thơ,,"Ninh Kiều, Cần Thơ",VN,"10.0184423,105.7705199"
1532,ChIJswUpWDCIoDERcUKjgiBCIkM,Quán Cà Phê Thanh Nhã,Quán cà phê,0354 136 369,"Quán Cà Phê Thanh Nhã, Tp, 268/2D, Đ. Nguyễn Văn Linh, Hưng Lợi, Ninh Kiều, Cần Thơ","Hưng Lợi, Ninh Kiều","Tp, 268/2D, Đ. Nguyễn Văn Linh",Cần Thơ,,"Ninh Kiều, Cần Thơ",VN,"10.0197989,105.7677765"
1535,ChIJjzt5YzmJoDERiYKm6QRKCEo,CÀ PHÊ PHƯỚC LỘC - NGÃ TƯ NGUYỄN VĂN LINH,Quán cà phê,,"CÀ PHÊ PHƯỚC LỘC - NGÃ TƯ NGUYỄN VĂN LINH, 233 Đ. Nguyễn Văn Linh, Hưng Lợi, Ninh Kiều, Cần Thơ","Hưng Lợi, Ninh Kiều",233 Đ. Nguyễn Văn Linh,Cần Thơ,,"Ninh Kiều, Cần Thơ",VN,"10.019543599999999,105.7689944"
1537,ChIJbwS3DYKJoDER5D8grGqVSmM,GẠO coffee & Tea,Quán cà phê,0356 784 455,"GẠO coffee & Tea, 314 Đ. 30 Tháng 4, Xuân Khánh, Ninh Kiều, Cần Thơ","Xuân Khánh, Ninh Kiều",314 Đ. 30 Tháng 4,Cần Thơ,,"Ninh Kiều, Cần Thơ",VN,"10.0235865,105.7726304"
1546,ChIJQ2o6gfZhoDERIpCe9oB4okw,Thanh Cà Phê,Quán cà phê,,"Thanh Cà Phê, 114 Kv.Khánh Hưng, P, Cái Răng, Cần Thơ","P, Cái Răng",114 Kv.Khánh Hưng,Cần Thơ,,"Cái Răng, Cần Thơ",VN,"9.966335899999999,105.7859768"
1547,ChIJPcGBDDSIoDERO5tvFCU3uII,Cà Phê Hè Phố,Quán cà phê,,"Cà Phê Hè Phố, 576 Đ. 30 Tháng 4, Hưng Lợi, Ninh Kiều, Cần Thơ","Hưng Lợi, Ninh Kiều",576 Đ. 30 Tháng 4,Cần Thơ,,"Ninh Kiều, Cần Thơ",VN,"10.0160282,105.764088"
1548,ChIJNZig9zOIoDERqBQOOb_W2sE,Cà Phê Đồng Dao,Quán cà phê,0292 3740 711,"Cà Phê Đồng Dao, 168 Đ. 30 Tháng 4, Hưng Lợi, Ninh Kiều, Cần Thơ","Hưng Lợi, Ninh Kiều",168 Đ. 30 Tháng 4,Cần Thơ,,"Ninh Kiều, Cần Thơ",VN,"10.016434199999999,105.76446209999999"
1551,ChIJa4TSuriJoDERdh4DDIbz-_A,Cà Phê Sạch Black Gold - Mộc Lan,Quán cà phê,,"Cà Phê Sạch Black Gold - Mộc Lan, 2/57B Đ. Mậu Thân, An Nghiệp, Ninh Kiều, Cần Thơ","An Nghiệp, Ninh Kiều",2/57B Đ. Mậu Thân,Cần Thơ,,"Ninh Kiều, Cần Thơ",VN,"10.039852,105.77063899999999"
1553,ChIJK86ImaqJoDERGkH_w8AkvOc,Cà phê PHƯƠNG LINH,Quán cà phê,0913 870 034,"Cà phê PHƯƠNG LINH, 91 Đ. 3 Tháng 2, Hưng Lợi, Ninh Kiều, Cần Thơ","Hưng Lợi, Ninh Kiều",91 Đ. 3 Tháng 2,Cần Thơ,,"Ninh Kiều, Cần Thơ",VN,"10.032708399999999,105.7746856"
1554,ChIJKwM5eDqJoDERzZE-JqujvvM,Tiệm Cà Phê Anh Bốn,Quán cà phê,,"Tiệm Cà Phê Anh Bốn, 105 Đ. Trần Hưng Đạo, An Phú, Ninh Kiều, Cần Thơ","An Phú, Ninh Kiều",105 Đ. Trần Hưng Đạo,Cần Thơ,,"Ninh Kiều, Cần Thơ",VN,"10.0361013,105.77597899999999"
1555,ChIJs_Uo6-qJoDERqzEqCT0I-ns,Cà phê POD,Quán cà phê,,"2QHF+RR7 Cà phê POD, Đ. Mạc Thiên Tích Đ. Mậu Thân, Xuân Khánh, Ninh Kiều, Cần Thơ","Xuân Khánh, Ninh Kiều","2QHF+RR7, Đ. Mạc Thiên Tích Đ. Mậu Thân",Cần Thơ,,"Ninh Kiều, Cần Thơ",VN,"10.0295407,105.77454209999999"
1558,ChIJmWeOVDuIoDERHaWdpm_kQG4,Cà Phê Ngân Nhi,Quán cà phê,0835 689 841,"Cà Phê Ngân Nhi, 144 Đ. 3 Tháng 2, Xuân Khánh, Ninh Kiều, Cần Thơ","Xuân Khánh, Ninh Kiều",144 Đ. 3 Tháng 2,Cần Thơ,,"Ninh Kiều, Cần Thơ",VN,"10.027396999999999,105.7702217"
1561,ChIJUYBWIM2JoDER3B8icbjt-rY,Cà phê - Trà sữa PANDA,Quán cà phê,,"Cà phê - Trà sữa PANDA, Đ. Trần Hưng Đạo, An Phú, Ninh Kiều, Cần Thơ","An Phú, Ninh Kiều",Đ. Trần Hưng Đạo,Cần Thơ,,"Ninh Kiều, Cần Thơ",VN,"10.0352869,105.773681"
1571,ChIJuzdB-SKIoDER3rtTgwefuYU,Cà Phê Nghĩa,Quán cà phê,0292 3835 561,"Cà Phê Nghĩa, 70 Đ. 3 Tháng 2, Xuân Khánh, Ninh Kiều, Cần Thơ","Xuân Khánh, Ninh Kiều",70 Đ. 3 Tháng 2,Cần Thơ,,"Ninh Kiều, Cần Thơ",VN,"10.0308432,105.7732602"
1573,ChIJM_aV_6BioDER4Nywty-vT1Y,Cà Phê Trà Bốn Mùa,Quán cà phê,,"Cà Phê Trà Bốn Mùa, 54 Đ. Ngô Quyền, Tân An, Ninh Kiều, Cần Thơ","Tân An, Ninh Kiều",54 Đ. Ngô Quyền,Cần Thơ,,"Ninh Kiều, Cần Thơ",VN,"10.035340399999999,105.78493909999999"
1574,ChIJ_RL5ItiJoDERa2aJGU6ZouI,Cà Phê Sạch Black Gold- Up,Quán cà phê,,"Cà Phê Sạch Black Gold- Up, 196 Huỳnh Cương, An Cư, Ninh Kiều, Cần Thơ","An Cư, Ninh Kiều",196 Huỳnh Cương,Cần Thơ,,"Ninh Kiều, Cần Thơ",VN,"10.035018299999999,105.7799972"
1575,ChIJw1OYop9ioDERPqfUe_96F-s,Cà Phê Vân Phương,Quán cà phê,,"Cà Phê Vân Phương, An Lạc, Ninh Kiều, Cần Thơ","An Lạc, Ninh Kiều",,Cần Thơ,,"Ninh Kiều, Cần Thơ",VN,"10.0311152,105.7843705"
1576,ChIJW-34ZZ9ioDERk7gPjNAZX64,Cà Phê Bích Thủy,Quán cà phê,0292 3829 779,"Cà Phê Bích Thủy, 14 Đ. Nam Kỳ Khởi Nghĩa, Tân An, Ninh Kiều, Cần Thơ","Tân An, Ninh Kiều",14 Đ. Nam Kỳ Khởi Nghĩa,Cần Thơ,,"Ninh Kiều, Cần Thơ",VN,"10.0318502,105.7862834"
1577,ChIJNen-cZ9ioDERSN-_-U6YNuA,Cà Phê Cô Tám,Quán cà phê,,"2QJP+H7H Cà Phê Cô Tám, Đường Châu Văn Liêm, Tân An, Ninh Kiều, Cần Thơ","Tân An, Ninh Kiều","2QJP+H7H, Đường Châu Văn Liêm",Cần Thơ,,"Ninh Kiều, Cần Thơ",VN,"10.031436,105.78572009999999"
1579,ChIJK8BjFmZjoDER0oeOfyjsRFY,"CÀ PHÊ BÀ NGOẠI, CHÚ DƯƠNG, DÌ HẠNH, DÌ HOA",Quán cà phê,,"2QMQ+R5P CÀ PHÊ BÀ NGOẠI, CHÚ DƯƠNG, DÌ HẠNH, DÌ HOA, Đ. Thủ Khoa Huân, Tân An, Ninh Kiều, Cần Thơ","Tân An, Ninh Kiều","2QMQ+R5P, Đ. Thủ Khoa Huân",Cần Thơ,,"Ninh Kiều, Cần Thơ",VN,"10.0345771,105.7879646"
1587,ChIJb5F9Tf6JoDERKLTZbFa0GZg,COFFEE MUỐI ( anh Trình),Quán cà phê,,"COFFEE MUỐI ( anh Trình), 10/72a Đ. Nguyễn Văn Cừ, An Hoà, Ninh Kiều, Cần Thơ","An Hoà, Ninh Kiều",10/72a Đ. Nguyễn Văn Cừ,Cần Thơ,,"Ninh Kiều, Cần Thơ",VN,"10.0504824,105.77190139999999"
