,place_id,name,main_category,phone,address,address_ward,address_street,address_city,address_postal_code,address_state,address_country_code,coordinates
0,ChIJyShuuTCIoDERJ0vRVxlMw3U,Siêu thị Thế Giới Di Động,Cửa hàng điện thoại di động,1900 232460,"Siêu thị Thế Giới Di Động, 217 Hẻm 132 Đ. 3 Tháng 2, P, Ninh Kiều, Cần Thơ 94000","P, Ninh Kiều",217 Hẻm 132 Đ. 3 Tháng 2,Cần Thơ,94000.0,"Ninh Kiều, Cần Thơ",VN,"10.0215374,105.7653174"
2,ChIJnw6pkmasNTERb00ZMgyVeW4,Cửa hàng AZ Mobile,Cửa hàng điện thoại di động,0846 955 555,"Cửa hàng AZ Mobile, 176 P. Xã Đàn, Phương Liên, Đống Đa, Hà Nội","Phương Liên, Đống Đa",176 P. Xã Đàn,Hà Nội,,"Đống Đa, Hà Nội",VN,"21.0108994,105.8375087"
3,ChIJAY_5_qdioDERjNlipdVq6r8,Hong Duc Head Honda,Cửa hàng xe máy,1800 545434,"Hong Duc Head Honda, 10-10E Nguyễn Trãi, An Hội, Ninh Kiều, Cần Thơ","An Hội, Ninh Kiều",10-10E Nguyễn Trãi,Cần Thơ,,"Ninh Kiều, Cần Thơ",VN,"10.043393499999999,105.7822803"
7,ChIJuZq9bfSJoDERUOR0Juaq8yI,CỬA HÀNG NGUYÊN LIỆU PHA CHẾ & BÁNH BẾP BAR CẦN THƠ,Cửa hàng,0397 959 143,"CỬA HÀNG NGUYÊN LIỆU PHA CHẾ & BÁNH BẾP BAR CẦN THƠ, 379 Đ. 30 Tháng 4, Hưng Lợi, Ninh Kiều, Cần Thơ","Hưng Lợi, Ninh Kiều",379 Đ. 30 Tháng 4,Cần Thơ,,"Ninh Kiều, Cần Thơ",VN,"10.0198231,105.7689475"
8,ChIJPSKWaDGIoDER06ZOxW7v-aE,Nhạc Cụ Trường Sa Cần Thơ,Cửa hàng nhạc cụ,0973 065 994,"Nhạc Cụ Trường Sa Cần Thơ, 512 Đ. 30 Tháng 4, Hưng Lợi, Ninh Kiều, Cần Thơ 900000","Hưng Lợi, Ninh Kiều",512 Đ. 30 Tháng 4,Cần Thơ,900000.0,"Ninh Kiều, Cần Thơ",VN,"10.017942999999999,105.7662113"
9,ChIJGTn7huKJoDER5OlkYTitiPM,Đồ Nghề Tự Chọn,Cửa hàng dụng cụ tự sửa chữa,0292 3666 888,"Đồ Nghề Tự Chọn, 239 Đ. Trần Hoàng Na, Hưng Lợi, Ninh Kiều, Cần Thơ 94116","Hưng Lợi, Ninh Kiều",239 Đ. Trần Hoàng Na,Cần Thơ,94116.0,"Ninh Kiều, Cần Thơ",VN,"10.0148707,105.76158489999999"
10,ChIJ8auZwjWIoDERCc9X7oc8bDk,Thiên Phúc Suzuki,Đại lý xe Suzuki,0292 3731 919,"Thiên Phúc Suzuki, 94-96-98 Đ. 3 Tháng 2, Hưng Lợi, Ninh Kiều, Cần Thơ 90000","Hưng Lợi, Ninh Kiều",94-96-98 Đ. 3 Tháng 2,Cần Thơ,90000.0,"Ninh Kiều, Cần Thơ",VN,"10.0165708,105.7602979"
11,ChIJV5IfL6lioDERqRBqd3ttzgI,Siêu Thị Điện Máy Nội Thất Chợ Lớn,Cửa hàng bán đồ điện tử,028 3856 3388,"Siêu Thị Điện Máy Nội Thất Chợ Lớn, 112 Trần Phú, Cái Khế, Ninh Kiều, Cần Thơ 90000","Cái Khế, Ninh Kiều",112 Trần Phú,Cần Thơ,90000.0,"Ninh Kiều, Cần Thơ",VN,"10.0474979,105.7830188"
12,ChIJF9R5Lo6rNTERP6IEIsGRWQU,Thực Dưỡng Homefood,Cửa hàng thực phẩm thiên nhiên,024 3972 9038,"Thực Dưỡng Homefood, 26 P. Trần Bình Trọng, Nguyễn Du, Hai Bà Trưng, Hà Nội 100000","Nguyễn Du, Hai Bà Trưng",26 P. Trần Bình Trọng,Hà Nội,100000.0,"Hai Bà Trưng, Hà Nội",VN,"21.0185319,105.84380069999999"
13,ChIJryMggh2IoDER8s2MYHn5x5c,Showroom iTamLoan,Cửa hàng điện thoại di động,1900 6459,"Showroom iTamLoan, 46-48 Trần Văn Khéo, An Hội, Ninh Kiều, Cần Thơ 900000","An Hội, Ninh Kiều",46-48 Trần Văn Khéo,Cần Thơ,900000.0,"Ninh Kiều, Cần Thơ",VN,"10.0448598,105.7846984"
15,ChIJZ5rnyduJoDERNrDpBsAX1kY,Tiệm Bạc Thanh Như - Bạc Cao Cấp Cần Thơ,Cửa hàng trang sức,0939 397 786,"Tiệm Bạc Thanh Như - Bạc Cao Cấp Cần Thơ, 51 Bế Văn Đàn, An Hoà, Ninh Kiều, Cần Thơ 90000","An Hoà, Ninh Kiều",51 Bế Văn Đàn,Cần Thơ,90000.0,"Ninh Kiều, Cần Thơ",VN,"10.0493201,105.7684603"
16,ChIJyTaV0qtioDERW0qqDYQIDCw,Moon Pet Shop,Cửa hàng vật nuôi,0902 530 200,"Moon Pet Shop, 10 Hùng Vương, Thới Bình, Ninh Kiều, Cần Thơ","Thới Bình, Ninh Kiều",10 Hùng Vương,Cần Thơ,,"Ninh Kiều, Cần Thơ",VN,"10.044869199999999,105.77934809999999"
17,ChIJMYULxWRjoDERmVir8gtFsVw,KLC - Cửa Hàng Ghế Massage Chính Hãng,Cửa hàng bán dụng cụ xoa bóp,0833 783 946,"KLC - Cửa Hàng Ghế Massage Chính Hãng, 100 Nguyễn Thái Học, Tân An, Ninh Kiều, Cần Thơ 94100","Tân An, Ninh Kiều",100 Nguyễn Thái Học,Cần Thơ,94100.0,"Ninh Kiều, Cần Thơ",VN,"10.0329949,105.7844234"
19,ChIJgV46dJ9ioDERnpzaZMG8U9A,Cửa hàng Honda Á Châu,Đại lý xe Honda,0292 3820 819,"Cửa hàng Honda Á Châu, 96-98 Đường Nguyễn An Ninh, Tân An, Ninh Kiều, Cần Thơ","Tân An, Ninh Kiều",96-98 Đường Nguyễn An Ninh,Cần Thơ,,"Ninh Kiều, Cần Thơ",VN,"10.0313953,105.7852094"
20,ChIJT8byj0WJoDERXX86J7NCn_k,YODY Nguyễn Trãi - Cần Thơ 2,Cửa hàng quần áo,0888 064 258,"YODY Nguyễn Trãi - Cần Thơ 2, 90-92 Nguyễn Trãi, An Hội, Ninh Kiều, Cần Thơ 94107","An Hội, Ninh Kiều",90-92 Nguyễn Trãi,Cần Thơ,94107.0,"Ninh Kiều, Cần Thơ",VN,"10.0429952,105.78261169999999"
22,ChIJYYvNCz2JoDERIkD_ETEpRb4,"Hoàng Anh Mobile - Cửa hàng bán lẻ điện thoại di động, smartphone, phụ kiện chính hãng Cần Thơ.",Cửa hàng điện thoại di động,0941 944 448,"Hoàng Anh Mobile - Cửa hàng bán lẻ điện thoại di động, smartphone, phụ kiện chính hãng Cần Thơ., 73 Đ. Cách Mạng Tháng 8, An Hoà, Ninh Kiều, Cần Thơ","An Hoà, Ninh Kiều",73 Đ. Cách Mạng Tháng 8,Cần Thơ,,"Ninh Kiều, Cần Thơ",VN,"10.0500803,105.7751681"
23,ChIJyfqRv1qJoDERghW7jkhSGU8,"Mũ Bảo Hiểm, Phụ Kiện Phượt Hebi.vn",Cửa hàng mũ,0399 999 344,"Mũ Bảo Hiểm, Phụ Kiện Phượt Hebi.vn, 455 Đ. 30 Tháng 4, Hưng Lợi, Ninh Kiều, Cần Thơ 94000","Hưng Lợi, Ninh Kiều",455 Đ. 30 Tháng 4,Cần Thơ,94000.0,"Ninh Kiều, Cần Thơ",VN,"10.014387,105.76272739999999"
25,ChIJCZBBJ1uJoDERfrbhsrSvgS8,Bella Shop,Cửa hàng quà tặng,0987 459 939,"Bella Shop, Liên Tổ 4-5/405D Đ. Nguyễn Văn Linh, Phường An Khánh, Ninh Kiều, Cần Thơ 900000","Phường An Khánh, Ninh Kiều",Liên Tổ 4-5/405D Đ. Nguyễn Văn Linh,Cần Thơ,900000.0,"Ninh Kiều, Cần Thơ",VN,"10.0239826,105.7587695"
27,ChIJ_5RN2xiIoDERSHyRhWbV1gY,Cửa Hàng Trang Sức PNJ Cần Thơ - 178 Trần Hưng Đạo,Cửa hàng trang sức,1800 545457,"Cửa Hàng Trang Sức PNJ Cần Thơ - 178 Trần Hưng Đạo, 178 Đ. Trần Hưng Đạo, P, Ninh Kiều, Cần Thơ 900000","P, Ninh Kiều",178 Đ. Trần Hưng Đạo,Cần Thơ,900000.0,"Ninh Kiều, Cần Thơ",VN,"10.0359822,105.77555869999999"
29,ChIJ9VamcM9joDEREXRv2g2n81I,Cửa hàng xe nhập khẩu Hồng Phúc,Đại lý xe gắn máy,0292 3822 919,"Cửa hàng xe nhập khẩu Hồng Phúc, 71 Nguyễn Trãi, An Hội, Ninh Kiều, Cần Thơ 90000","An Hội, Ninh Kiều",71 Nguyễn Trãi,Cần Thơ,90000.0,"Ninh Kiều, Cần Thơ",VN,"10.0405359,105.785043"
34,ChIJa1XpIZ9ioDERCTD1W1o1aB4,Cửa hàng Biti's - CH Phan Đình Phùng,Cửa hàng giày dép,0292 3827 014,"Cửa hàng Biti's - CH Phan Đình Phùng, 100 Phan Đình Phùng, Tân An, Ninh Kiều, Cần Thơ","Tân An, Ninh Kiều",100 Phan Đình Phùng,Cần Thơ,,"Ninh Kiều, Cần Thơ",VN,"10.029746399999999,105.7865514"
35,ChIJ2XpKGxSJoDERvRkzqeb4rHs,Siêu thị Bách hoá XANH 48 Nguyễn Đệ,Siêu thị,1900 1908,"Siêu thị Bách hoá XANH 48 Nguyễn Đệ, 48A Nguyễn Đệ, Khu Vực IV, P, Bình Thủy, Cần Thơ","P, Bình Thủy","48A Nguyễn Đệ, Khu Vực IV",Cần Thơ,,"Bình Thủy, Cần Thơ",VN,"10.049447599999999,105.7647545"
36,ChIJZyb86DqIoDERwALH1ZCSSVw,Cửa Hàng Satrafoods 101 (Cần Thơ),Siêu thị,0292 3822 743,"Cửa Hàng Satrafoods 101 (Cần Thơ), 162/6 Đ. Trần Ngọc Quế, Xuân Khánh, Ninh Kiều, Cần Thơ","Xuân Khánh, Ninh Kiều",162/6 Đ. Trần Ngọc Quế,Cần Thơ,,"Ninh Kiều, Cần Thơ",VN,"10.0244673,105.7686834"
37,ChIJjw9VUJ6JoDERbjlLZsobbe4,Nội Thất HomeOffice Cần Thơ,Cửa hàng nội thất,0906 897 138,"Nội Thất HomeOffice Cần Thơ, 311C/9, Đ. Hoàng Quốc Việt, Khu Vực 4, Ninh Kiều, Cần Thơ 900000","Khu Vực 4, Ninh Kiều","311C/9, Đ. Hoàng Quốc Việt",Cần Thơ,900000.0,"Ninh Kiều, Cần Thơ",VN,"10.0192031,105.7422804"
38,ChIJvxc2B1OJoDERB-ymIKta8UM,HƯỚNG DƯƠNG STORE - Chuyên Hàng Thanh Lý Giá Rẻ Cần Thơ,Cửa hàng quần áo nữ,0975 574 594,"HƯỚNG DƯƠNG STORE - Chuyên Hàng Thanh Lý Giá Rẻ Cần Thơ, 394/5 Hẻm Liên Tổ 4-5, Phường An Khánh, Ninh Kiều, Cần Thơ","Phường An Khánh, Ninh Kiều",394/5 Hẻm Liên Tổ 4-5,Cần Thơ,,"Ninh Kiều, Cần Thơ",VN,"10.021321,105.757722"
39,ChIJnUOpVISrNTERCa8ZdxBmKtE,Cửa hàng Mẹ Yêu Con,Cửa hàng,0916 827 455,"Cửa hàng Mẹ Yêu Con, số nhà 11, ngách 42, ngõ 29, P. Xã Đàn, Phương Liên, Đống Đa, Hà Nội","Phương Liên, Đống Đa","số nhà 11, ngách 42, ngõ 29, P. Xã Đàn",Hà Nội,,"Đống Đa, Hà Nội",VN,"21.011686899999997,105.83512309999999"
40,ChIJJ3IFYtSJoDERGBGDpkF7Ztk,Nam Anh PC,Cửa hàng máy tính,0947 201 751,"Nam Anh PC, 133 Đ.Xô Viết Nghệ Tĩnh, An Cư, Ninh Kiều, Cần Thơ 900000","An Cư, Ninh Kiều",133 Đ.Xô Viết Nghệ Tĩnh,Cần Thơ,900000.0,"Ninh Kiều, Cần Thơ",VN,"10.0409221,105.7813475"
41,ChIJA-AYGb2sNTER096Qs4MmsDY,NoLi Handmade Shop,Cửa hàng len,0988 979 251,"NoLi Handmade Shop, Ng. 63 P. Ô Đồng Lầm, Phương Liên, Đống Đa, Hà Nội 100000","Phương Liên, Đống Đa",Ng. 63 P. Ô Đồng Lầm,Hà Nội,100000.0,"Đống Đa, Hà Nội",VN,"21.0130573,105.8385059"
42,ChIJ5YkpCZyrNTERtorcAJ3VsAs,Cửa hàng quà tặng Pandagift,Cửa hàng quà tặng,0976 517 628,"Cửa hàng quà tặng Pandagift, 28 Ng. Thông Phong, Quốc Tử Giám, Đống Đa, Hà Nội 100000","Quốc Tử Giám, Đống Đa",28 Ng. Thông Phong,Hà Nội,100000.0,"Đống Đa, Hà Nội",VN,"21.0254618,105.8345543"
43,ChIJu6L6sQWIoDERHJBWXHwShGA,Cửa hàng đặc sản khô mắm An Giang tại Cần Thơ,Cửa hàng tạp phẩm,0966 111 156,"Cửa hàng đặc sản khô mắm An Giang tại Cần Thơ, Hẻm 77C Đ. Phạm Ngũ Lão, Thới Bình, Ninh Kiều, Cần Thơ","Thới Bình, Ninh Kiều",Hẻm 77C Đ. Phạm Ngũ Lão,Cần Thơ,,"Ninh Kiều, Cần Thơ",VN,"10.045294799999999,105.7757948"
44,ChIJ28skeBSJoDERZ_hxVN31Yow,Di Động Việt,Cửa hàng điện thoại di động,1800 6018,"Di Động Việt, 24B Nguyễn Trãi, Thới Bình, Ninh Kiều, Cần Thơ 900000","Thới Bình, Ninh Kiều",24B Nguyễn Trãi,Cần Thơ,900000.0,"Ninh Kiều, Cần Thơ",VN,"10.045194799999999,105.7804748"
45,ChIJddwY9YGJoDERthmbXWw-tYk,CƯỜNG MOBILE CẦN THƠ,Cửa hàng điện thoại di động,0911 774 444,"CƯỜNG MOBILE CẦN THƠ, 119 Xô Viết Nghĩa Tĩnh, P, Ninh Kiều, Cần Thơ 900000","P, Ninh Kiều",119 Xô Viết Nghĩa Tĩnh,Cần Thơ,900000.0,"Ninh Kiều, Cần Thơ",VN,"10.0407406,105.7815342"
47,ChIJSd48Cw-IoDERQ8iEZT9sAc4,"PNJ Cần Thơ - Cửa hàng Trang sức PNJ - 208 Nguyễn Văn Cừ, Cần Thơ",Cửa hàng trang sức,1800 545457,"PNJ Cần Thơ - Cửa hàng Trang sức PNJ - 208 Nguyễn Văn Cừ, Cần Thơ, Q, 208 Đ. Nguyễn Văn Cừ, P, Ninh Kiều, Cần Thơ 900000","P, Ninh Kiều","Q, 208 Đ. Nguyễn Văn Cừ",Cần Thơ,900000.0,"Ninh Kiều, Cần Thơ",VN,"10.0516016,105.77304939999999"
49,ChIJdwejQI2rNTERl7OejlESydQ,Cửa Hàng Thái Tuấn,Cửa hàng quần áo,024 3943 9097,"Cửa Hàng Thái Tuấn, Quận, 74 P. Huế, Bùi Thị Xuân, Hai Bà Trưng, Hà Nội 11650","Bùi Thị Xuân, Hai Bà Trưng","Quận, 74 P. Huế",Hà Nội,11650.0,"Hai Bà Trưng, Hà Nội",VN,"21.0175368,105.85124239999999"
50,ChIJqxOAC-qrNTERDHKTSN0Vwmw,SURI STORE,Cửa hàng đồ trẻ em,0981 228 666,"SURI STORE, 152 Đ. Lê Duẩn, Khâm Thiên, Đống Đa, Hà Nội","Khâm Thiên, Đống Đa",152 Đ. Lê Duẩn,Hà Nội,,"Đống Đa, Hà Nội",VN,"21.0177369,105.84129569999999"
51,ChIJKTm9rLyJoDERSnE3kpx03qk,COMI · Thanh Lý Ký Gửi,Cửa hàng quần áo nữ,0907 901 685,"COMI · Thanh Lý Ký Gửi, 52/2B Hùng Vương, An Cư, Ninh Kiều, Cần Thơ 900000","An Cư, Ninh Kiều",52/2B Hùng Vương,Cần Thơ,900000.0,"Ninh Kiều, Cần Thơ",VN,"10.0445563,105.7781648"
52,ChIJIXHU-qdioDERj6Nv8a3e2Z4,Cửa Hàng Biti's Nguyễn Trãi,Cửa hàng giày dép,0292 3769 027,"Cửa Hàng Biti's Nguyễn Trãi, 02A Nguyễn Trãi, An Hội, Ninh Kiều, Cần Thơ","An Hội, Ninh Kiều",02A Nguyễn Trãi,Cần Thơ,,"Ninh Kiều, Cần Thơ",VN,"10.0428141,105.78289799999999"
56,ChIJ04NRVIyrNTERj5GWLodXewU,Tingoan Store,Cửa hàng quần áo,0984 054 291,"Tingoan Store, 100 P. Bà Triệu, Nguyễn Du, Hai Bà Trưng, Hà Nội","Nguyễn Du, Hai Bà Trưng",100 P. Bà Triệu,Hà Nội,,"Hai Bà Trưng, Hà Nội",VN,"21.0184096,105.8490813"
57,ChIJzXQBsKFioDER5TNfnz2usPY,Cửa Hàng Trang Sức PNJ Sense City Cần Thơ,Cửa hàng trang sức,1800 545457,"Cửa Hàng Trang Sức PNJ Sense City Cần Thơ, 01 Đại lộ Hoà Bình, P, Ninh Kiều, Cần Thơ 94000","P, Ninh Kiều",01 Đại lộ Hoà Bình,Cần Thơ,94000.0,"Ninh Kiều, Cần Thơ",VN,"10.0354662,105.7865447"
58,ChIJXxOhcg-IoDERmB1nVuYmXQg,LEE&TEE,Cửa hàng túi xách,0919 002 236,"LEE&TEE, 243 Đ. Nguyễn Văn Cừ, An Hoà, Ninh Kiều, Cần Thơ 94000","An Hoà, Ninh Kiều",243 Đ. Nguyễn Văn Cừ,Cần Thơ,94000.0,"Ninh Kiều, Cần Thơ",VN,"10.0475216,105.76888609999999"
59,ChIJp-yVh5OJoDERqWH-2YxBhiM,Shop Cầu Lông Tyn Sport,Cửa hàng quần áo thể thao,0932 777 808,"Shop Cầu Lông Tyn Sport, 134A Nguyễn Văn Cừ Nối Dài, Phường An Khánh, Ninh Kiều, Cần Thơ 900000","Phường An Khánh, Ninh Kiều",134A Nguyễn Văn Cừ Nối Dài,Cần Thơ,900000.0,"Ninh Kiều, Cần Thơ",VN,"10.041699,105.7635645"
61,ChIJWVToY4yrNTERPNognO0eEn0,Cửa Hàng Ô Mai Chanh - OMAI BA THU,Cửa hàng,024 3992 3699,"Cửa Hàng Ô Mai Chanh - OMAI BA THU, 147 P. Bà Triệu, Bùi Thị Xuân, Hai Bà Trưng, Hà Nội 100000","Bùi Thị Xuân, Hai Bà Trưng",147 P. Bà Triệu,Hà Nội,100000.0,"Hai Bà Trưng, Hà Nội",VN,"21.0144253,105.8493273"
62,ChIJgT87YJGrNTERGfkIG5rSfmw,Cửa hàng rượu vang 10 Dã Tượng - Wine shop,Cửa hàng rượu,024 3943 7226,"Cửa hàng rượu vang 10 Dã Tượng - Wine shop, 10 P. Dã Tượng, Trần Hưng Đạo, Hoàn Kiếm, Hà Nội","Trần Hưng Đạo, Hoàn Kiếm",10 P. Dã Tượng,Hà Nội,,"Hoàn Kiếm, Hà Nội",VN,"21.023577799999998,105.84647079999999"
63,ChIJn766hwWJoDERJpKFGOqEu3o,Đèn Trang Trí LED.160,Cửa hàng bán đồ điện tử,0903 920 047,"Đèn Trang Trí LED.160, 709 Đ. Nguyễn Văn Cừ, Phường An Khánh, Ninh Kiều, Cần Thơ 94117","Phường An Khánh, Ninh Kiều",709 Đ. Nguyễn Văn Cừ,Cần Thơ,94117.0,"Ninh Kiều, Cần Thơ",VN,"10.0417334,105.7635624"
64,ChIJdVbnsn6rNTERY5kXSTQU530,"Cửa Hàng Yến Sào Quang Lâm - 332 P. Xã Đàn, Đống Đa.",Cửa hàng bán thực phẩm sạch,0907 266 999,"Cửa Hàng Yến Sào Quang Lâm - 332 P. Xã Đàn, Đống Đa., 332 P. Xã Đàn, Phương Liên, Đống Đa, Hà Nội 11557","Phương Liên, Đống Đa",332 P. Xã Đàn,Hà Nội,11557.0,"Đống Đa, Hà Nội",VN,"21.013728399999998,105.834991"
65,ChIJfZeSQrOJoDERD4-DlrDzgVQ,WinMart+,Cửa hàng tạp phẩm,1800 6968,"2Q62+CPX WinMart+, An Bình, Ninh Kiều, Cần Thơ","An Bình, Ninh Kiều",2Q62+CPX,Cần Thơ,,"Ninh Kiều, Cần Thơ",VN,"10.0111248,105.75185379999999"
66,ChIJS9ygWvmJoDER3A98dE6ZqfA,Giấy Dán Tường Cần Thơ - Thành Nhân,Cửa hàng giấy dán tường,0901 099 441,"Giấy Dán Tường Cần Thơ - Thành Nhân, 321 Đ. Nguyễn Đệ, An Hoà, Ninh Kiều, Cần Thơ 94108","An Hoà, Ninh Kiều",321 Đ. Nguyễn Đệ,Cần Thơ,94108.0,"Ninh Kiều, Cần Thơ",VN,"10.0486261,105.76366039999999"
67,ChIJHQC5jomJoDERlthyjY1GBgI,Cửa Hàng Văn Phúc KSTtool - Đồ Nghề và Dụng Cụ Cầm Tay,Cửa hàng dụng cụ,0768 889 970,"Cửa Hàng Văn Phúc KSTtool - Đồ Nghề và Dụng Cụ Cầm Tay, 116A2 Mậu Thân Nối Dài, Ninh Kiều, Cần Thơ 94000","An Hoà, Ninh Kiều",116A2 Mậu Thân Nối Dài,Cần Thơ,94000.0,"Ninh Kiều, Cần Thơ",VN,"10.044838799999999,105.7642305"
68,ChIJW6Il4pOrNTERm_eXZBwO8-A,Cửa hàng in và văn phòng phẩm Thanh Nga,Cửa hàng in ấn,024 3942 8048,"Cửa hàng in và văn phòng phẩm Thanh Nga, 2 P. Dã Tượng, Trần Hưng Đạo, Hoàn Kiếm, Hà Nội","Trần Hưng Đạo, Hoàn Kiếm",2 P. Dã Tượng,Hà Nội,,"Hoàn Kiếm, Hà Nội",VN,"21.0241154,105.8466653"
69,ChIJH2vuFoerNTERgbdDilyaDlc,May 10 HÀ NỘI - Cửa Hàng May 10 Phạm Ngọc Thạch,Cửa hàng phụ kiện thời trang,0978 602 306,"May 10 HÀ NỘI - Cửa Hàng May 10 Phạm Ngọc Thạch, 22 P.Phạm Ngọc Thạch, Kim Liên, Đống Đa, Hà Nội","Kim Liên, Đống Đa",22 P.Phạm Ngọc Thạch,Hà Nội,,"Đống Đa, Hà Nội",VN,"21.0094137,105.83543399999999"
70,ChIJFdZDyiWIoDERRa-XFKKSKEc,Cửa hàng Mắt Kính AN GIA OPTIC,Cửa hàng kính mát,0888 199 991,"Cửa hàng Mắt Kính AN GIA OPTIC, Xuân Khánh, Ninh Kiều, Cần Thơ","Xuân Khánh, Ninh Kiều",,Cần Thơ,,"Ninh Kiều, Cần Thơ",VN,"10.0251855,105.7743035"
71,ChIJF8xUHKpioDEROtlsI9Xe9aM,Cửa Hàng Phụ Liệu Tóc Nail Toàn Mỹ,Cửa hàng mỹ phẩm,0292 3769 954,"Cửa Hàng Phụ Liệu Tóc Nail Toàn Mỹ, 07 Đ. Hồ Tùng Mậu, Thới Bình, Ninh Kiều, Cần Thơ","Thới Bình, Ninh Kiều",07 Đ. Hồ Tùng Mậu,Cần Thơ,,"Ninh Kiều, Cần Thơ",VN,"10.0467982,105.7825927"
75,ChIJt-WIoAKIoDER6N_sUMw2_HY,Mỹ Phẩm Phượng Cần Thơ,Cửa hàng mỹ phẩm,0918 363 774,"Mỹ Phẩm Phượng Cần Thơ, 16 Trần Quang Khải, Cái Khế, Ninh Kiều, Cần Thơ 940000","Cái Khế, Ninh Kiều",16 Trần Quang Khải,Cần Thơ,940000.0,"Ninh Kiều, Cần Thơ",VN,"10.0447486,105.78185959999999"
76,ChIJ8UYHox-IoDERAJnuRoAqOjQ,Cửa Hàng Máy May Nguyệt Trung,Cửa hàng máy khâu,0292 3833 758,"Cửa Hàng Máy May Nguyệt Trung, 18 Đ. Lý Tự Trọng, P, Ninh Kiều, Cần Thơ 901745","P, Ninh Kiều",18 Đ. Lý Tự Trọng,Cần Thơ,901745.0,"Ninh Kiều, Cần Thơ",VN,"10.0343708,105.77975649999999"
77,ChIJE3Zmm4yrNTERgO2MnjHx9BI,Elegante Shop,Cửa hàng quần áo nữ,0372 437 262,"Elegante Shop, 152E P. Triệu Việt Vương, Bùi Thị Xuân, Hai Bà Trưng, Hà Nội 112300","Bùi Thị Xuân, Hai Bà Trưng",152E P. Triệu Việt Vương,Hà Nội,112300.0,"Hai Bà Trưng, Hà Nội",VN,"21.0135969,105.8503583"
78,ChIJVwd7xTWIoDERNxjubbVquwM,Đồ gỗ Sơn Đông - Chi Nhánh Cần Thơ,Cửa hàng nội thất,0934 174 886,"Đồ gỗ Sơn Đông - Chi Nhánh Cần Thơ, 99b Đ. 3 Tháng 2, Hưng Lợi, Ninh Kiều, Cần Thơ","Hưng Lợi, Ninh Kiều",99b Đ. 3 Tháng 2,Cần Thơ,,"Ninh Kiều, Cần Thơ",VN,"10.016565499999999,105.7608411"
80,ChIJYYTDZ4KrNTERNeC6pPy_BX4,Bubble store,Cửa hàng quần áo,0967 408 333,"Bubble store, 269 P. Xã Đàn, Nam Đồng, Đống Đa, Hà Nội 100000","Nam Đồng, Đống Đa",269 P. Xã Đàn,Hà Nội,100000.0,"Đống Đa, Hà Nội",VN,"21.0173457,105.83043479999999"
81,ChIJo-WfvsyJoDERxh2gnM0q-aA,"Cửa hàng Gas4.0 &more P. Hưng Lợi, Q. Ninh Kiều",Cửa hàng ga,1900 1740,"Cửa hàng Gas4.0 &more P. Hưng Lợi, Q. Ninh Kiều, 55 Đ. Trần Hoàng Na, Hưng Lợi, Ninh Kiều, Cần Thơ 94000","Hưng Lợi, Ninh Kiều",55 Đ. Trần Hoàng Na,Cần Thơ,94000.0,"Ninh Kiều, Cần Thơ",VN,"10.0106345,105.7655625"
82,ChIJb_3bKaBioDERK0_UFr-jABM,Cửa hàng điện tử & Điện Gia Dụng Trần Phát,Cửa hàng bán đồ điện tử,0292 3827 287,"Cửa hàng điện tử & Điện Gia Dụng Trần Phát, 83 Võ Văn Tần, Tân An, Ninh Kiều, Cần Thơ","Tân An, Ninh Kiều",83 Võ Văn Tần,Cần Thơ,,"Ninh Kiều, Cần Thơ",VN,"10.0325227,105.7844825"
83,ChIJl6oGu6FioDERRXFENifMRL0,Cửa Hàng PNJ Co.op Cần Thơ,Cửa hàng bán buôn trang sức,0292 3815 305,"Cửa Hàng PNJ Co.op Cần Thơ, 01 Đại lộ Hoà Bình, P, Ninh Kiều, Cần Thơ","P, Ninh Kiều",01 Đại lộ Hoà Bình,Cần Thơ,,"Ninh Kiều, Cần Thơ",VN,"10.0341908,105.785592"
84,ChIJHYKLaJKrNTERd_o4lukLM2s,Cửa Hàng Chả Mực Thoan,Cửa hàng thực phẩm,0904 058 866,"Cửa Hàng Chả Mực Thoan, 1 P. Trương Hán Siêu, Trần Hưng Đạo, Hoàn Kiếm, Hà Nội","Trần Hưng Đạo, Hoàn Kiếm",1 P. Trương Hán Siêu,Hà Nội,,"Hoàn Kiếm, Hà Nội",VN,"21.020510899999998,105.8491943"
85,ChIJZeEutABjoDERKI6iNaiX9uQ,Miniso,Cửa hàng tạp phẩm,,"Miniso, 01 Đại lộ Hoà Bình, Tân An, Ninh Kiều, Cần Thơ","Tân An, Ninh Kiều",01 Đại lộ Hoà Bình,Cần Thơ,,"Ninh Kiều, Cần Thơ",VN,"10.0342149,105.78563559999999"
87,ChIJk0IFl8mJoDERC_cUesv6w4g,Cửa Hàng Trang Sức PNJ Lotte Mart Cần Thơ,Cửa hàng trang sức,1800 545457,"Cửa Hàng Trang Sức PNJ Lotte Mart Cần Thơ, Kiosk 1F15-A +1F16, Tầng trệt siêu thị Lotte, 84 Đ. Mậu Thân, P, Ninh Kiều, Cần Thơ","P, Ninh Kiều","Kiosk 1F15-A +1F16, Tầng trệt siêu thị Lotte, 84 Đ. Mậu Thân",Cần Thơ,,"Ninh Kiều, Cần Thơ",VN,"10.0417755,105.76718"
89,ChIJ6YfULpCrNTER-Q5OR4a_9WQ,Cửa Hàng Bohemia,Cửa hàng,024 3942 6707,"Cửa Hàng Bohemia, 88A, Nguyễn Du, Quận Hai Bà Trưng, Thành Phố Hà Nội, Nguyễn Du, Hai Bà Trưng, Hà Nội 100000","Nguyễn Du, Hai Bà Trưng","88A, Nguyễn Du, Quận Hai Bà Trưng, Thành Phố Hà Nội",Hà Nội,100000.0,"Hai Bà Trưng, Hà Nội",VN,"21.0202956,105.84303229999999"
90,ChIJMzMccjSIoDEReJZPN8Q7Pr8,Cửa hàng nệm Cần Thơ - Showroom Liên Á,Cửa hàng bán đệm,1800 9003,"Cửa hàng nệm Cần Thơ - Showroom Liên Á, 427 Đ. 30 Tháng 4, Hưng Lợi, Ninh Kiều, Cần Thơ 94000","Hưng Lợi, Ninh Kiều",427 Đ. 30 Tháng 4,Cần Thơ,94000.0,"Ninh Kiều, Cần Thơ",VN,"10.014985,105.7635631"
92,ChIJ11S3uzqIoDERwYf18W1S6XY,Cửa Hàng Nhân Sâm Thảo Lâm,Siêu thị,0916 176 464,"Cửa Hàng Nhân Sâm Thảo Lâm, 5A Đ. Trần Ngọc Quế, Xuân Khánh, Ninh Kiều, Cần Thơ","Xuân Khánh, Ninh Kiều",5A Đ. Trần Ngọc Quế,Cần Thơ,,"Ninh Kiều, Cần Thơ",VN,"10.0233125,105.7691904"
95,ChIJDWMBzY1joDER4f4ghVVaav0,Circle K Viet Nam,Cửa hàng tiện lợi,0292 3780 129,"Circle K Viet Nam, 129 Trần Văn Khéo, Cái Khế, Ninh Kiều, Cần Thơ","Cái Khế, Ninh Kiều",129 Trần Văn Khéo,Cần Thơ,,"Ninh Kiều, Cần Thơ",VN,"10.0460504,105.7863567"
97,ChIJ4yaWoo-rNTERAldP0SEk3F4,Cửa Hàng Anh Duy Audio,Cửa hàng bán đồ điện tử,024 3972 5014,"Cửa Hàng Anh Duy Audio, 70 P. Trần Nhân Tông, Nguyễn Du, Hai Bà Trưng, Hà Nội","Nguyễn Du, Hai Bà Trưng",70 P. Trần Nhân Tông,Hà Nội,,"Hai Bà Trưng, Hà Nội",VN,"21.0176068,105.8425869"
98,ChIJ7ZuhOsWrNTER2lFsO3MlwLQ,Cửa Hàng Đồ lót đồ ngủ Mialala Phạm Ngọc Thạch,Cửa hàng đồ lót,0379 455 365,"Cửa Hàng Đồ lót đồ ngủ Mialala Phạm Ngọc Thạch, 105B6 P.Phạm Ngọc Thạch, Trung Tự, Đống Đa, Hà Nội 10000","Trung Tự, Đống Đa",105B6 P.Phạm Ngọc Thạch,Hà Nội,10000.0,"Đống Đa, Hà Nội",VN,"21.0099542,105.83550389999999"
99,ChIJu3JecC2IoDERtN3ONlKk6zk,Cửa Hàng trà thảo dược An Khang,Cửa hàng trà,0939 889 262,"Cửa Hàng trà thảo dược An Khang, 246/8/9, Tầm Vu, Hưng Lợi, Ninh Kiều, Cần Thơ 94100","Hưng Lợi, Ninh Kiều","246/8/9, Tầm Vu",Cần Thơ,94100.0,"Ninh Kiều, Cần Thơ",VN,"10.0142334,105.76983779999999"
100,ChIJ3dtQsOeHoDERo2gjHHvUGBM,Chi nhánh Cần Thơ - Tổng công ty 28 và Cửa hàng Belluni Công ty kinh doanh thời trang 28,Doanh nghiệp bán vé sự kiện,0962 730 930,"Chi nhánh Cần Thơ - Tổng công ty 28 và Cửa hàng Belluni Công ty kinh doanh thời trang 28, 234 Võ Văn Kiệt, An Thới, Ninh Kiều, Cần Thơ 92000","An Thới, Ninh Kiều",234 Võ Văn Kiệt,Cần Thơ,92000.0,"Ninh Kiều, Cần Thơ",VN,"10.049421299999999,105.7571289"
102,ChIJL62wiEOIoDERwcNX8sZpbiM,NỘI THẤT NGỌC TÂN,Cửa hàng nội thất,0907 467 666,"NỘI THẤT NGỌC TÂN, 386 Đ. Nguyễn Văn Cừ, Phường An Khánh, Ninh Kiều, Cần Thơ","Phường An Khánh, Ninh Kiều",386 Đ. Nguyễn Văn Cừ,Cần Thơ,,"Ninh Kiều, Cần Thơ",VN,"10.0365826,105.7584193"
103,ChIJR3TZaRGJoDERwjXFF4dP7Mw,Cửa Hàng Mắt Kính Mắt Việt,Cửa hàng phụ kiện thời trang,1900 6081,"Cửa Hàng Mắt Kính Mắt Việt, PG 102 Trung tâm thương mại Vincom, 209 Hẻm 553, Xuân Khánh, Ninh Kiều, Cần Thơ 900000","Xuân Khánh, Ninh Kiều","PG 102 Trung tâm thương mại Vincom, 209 Hẻm 553",Cần Thơ,900000.0,"Ninh Kiều, Cần Thơ",VN,"10.0114454,105.7602246"
105,ChIJA-NAy6eHoDERu7sHC9d3gO0,Cửa Hàng LED Hiệp Tân Cần Thơ,Cửa hàng bán đồ điện tử,0292 7300 990,"Cửa Hàng LED Hiệp Tân Cần Thơ, 158 Đ. Cách Mạng Tháng 8, Cái Khế, Ninh Kiều, Cần Thơ","Cái Khế, Ninh Kiều",158 Đ. Cách Mạng Tháng 8,Cần Thơ,,"Ninh Kiều, Cần Thơ",VN,"10.0516592,105.77395899999999"
108,ChIJtbm1GIuJoDERAK_IKO2gt3I,Hưng Phát Sài Gòn Tại Cần Thơ Cửa Hàng Nội Thất Bàn Ghế Sofa,Cửa hàng nội thất,0898 655 119,"Hưng Phát Sài Gòn Tại Cần Thơ Cửa Hàng Nội Thất Bàn Ghế Sofa, 391 Đ. Nguyễn Văn Cừ, An Hoà, Ninh Kiều, Cần Thơ 900000","An Hoà, Ninh Kiều",391 Đ. Nguyễn Văn Cừ,Cần Thơ,900000.0,"Ninh Kiều, Cần Thơ",VN,"10.043996,105.76596099999999"
111,ChIJcXFGG72rNTERNb7uuVMDh7M,Siêu thị TopZone - Hệ thống cửa hàng Apple chính hãng 100%,Cửa hàng điện thoại di động,1900 969642,"Siêu thị TopZone - Hệ thống cửa hàng Apple chính hãng 100%, 498 P. Xã Đàn, P, Đống Đa, Hà Nội 10000","P, Đống Đa",498 P. Xã Đàn,Hà Nội,10000.0,"Đống Đa, Hà Nội",VN,"21.0173182,105.83122999999999"
112,ChIJKU-jbJqrNTER4Jc93v3NC_8,Cửa hàng TN,Cửa hàng túi xách,024 2211 7697,"Cửa hàng TN, 109B Ng. Văn Chương 2, Văn Chương, Đống Đa, Hà Nội","Văn Chương, Đống Đa",109B Ng. Văn Chương 2,Hà Nội,,"Đống Đa, Hà Nội",VN,"21.0207418,105.83767909999999"
113,ChIJS3a0OTiJoDERDLCQlYCeLvM,Nguyên Liệu và Dụng cụ Pha Chế Cần Thơ,Siêu thị,0939 193 999,"Nguyên Liệu và Dụng cụ Pha Chế Cần Thơ, 22 Đ. Nguyễn Văn Cừ, Cái Khế, Ninh Kiều, Cần Thơ 94107","Cái Khế, Ninh Kiều",22 Đ. Nguyễn Văn Cừ,Cần Thơ,94107.0,"Ninh Kiều, Cần Thơ",VN,"10.0596367,105.7817297"
114,ChIJyZS9Bc1joDERxBGsUVsVH4U,NHÀ PHÂN PHỐI VĂN PHÒNG PHẨM - CÔNG TY TNHH HƯNG THANH ĐẠT,Cửa hàng văn phòng phẩm,0292 3762 754,"NHÀ PHÂN PHỐI VĂN PHÒNG PHẨM - CÔNG TY TNHH HƯNG THANH ĐẠT, TTTM, 10B2 Đường, Lý Hồng Thanh, Cái Khế, Ninh Kiều, Cần Thơ","Cái Khế, Ninh Kiều","TTTM, 10B2 Đường, Lý Hồng Thanh",Cần Thơ,,"Ninh Kiều, Cần Thơ",VN,"10.0465264,105.7832073"
115,ChIJD1Pwp42rNTERq-1u3QfJsr4,Cửa Hàng Kính Mắt Hàn Quốc,Cửa hàng kính,0989 655 292,"Cửa Hàng Kính Mắt Hàn Quốc, 49 P. Trần Nhân Tông, Bùi Thị Xuân, Hai Bà Trưng, Hà Nội","Bùi Thị Xuân, Hai Bà Trưng",49 P. Trần Nhân Tông,Hà Nội,,"Hai Bà Trưng, Hà Nội",VN,"21.0170749,105.8494736"
116,ChIJvTEIISGIoDERPf8VRCMOUXE,Cửa Hàng Huỳnh Hải Đăng,Cửa hàng,0292 3824 013,"Cửa Hàng Huỳnh Hải Đăng, 101 Đ. 30 Tháng 4, Xuân Khánh, Ninh Kiều, Cần Thơ 900000","Xuân Khánh, Ninh Kiều",101 Đ. 30 Tháng 4,Cần Thơ,900000.0,"Ninh Kiều, Cần Thơ",VN,"10.028469,105.77896039999999"
117,ChIJBUAga_irNTERhVTTOsbm8ds,Cửa hàng Thương hiệu Garmin,Cửa hàng đồng hồ,1900 3416,"Cửa hàng Thương hiệu Garmin, 422 P. Xã Đàn, Nam Đồng, Đống Đa, Hà Nội 11557","Nam Đồng, Đống Đa",422 P. Xã Đàn,Hà Nội,11557.0,"Đống Đa, Hà Nội",VN,"21.015683799999998,105.8330922"
118,ChIJrwPUQAmsNTERCQNVUdbiq1Y,Cửa Hàng Giao Dịch Viettel,Cửa hàng điện thoại di động,0961 178 668,"Cửa Hàng Giao Dịch Viettel, 42 P.Phạm Ngọc Thạch, Phương Liên, Đống Đa, Hà Nội","Phương Liên, Đống Đa",42 P.Phạm Ngọc Thạch,Hà Nội,,"Đống Đa, Hà Nội",VN,"21.0106555,105.83637619999999"
119,ChIJsck8_bCJoDER5Jcp8fPOU-4,Cửa Hàng Nội Thất Cần Thơ - Nội Thất Bảo Nhi,Cửa hàng nội thất,0939 323 285,"Cửa Hàng Nội Thất Cần Thơ - Nội Thất Bảo Nhi, 5 & 146/3, 145, Đ. Phạm Hùng, Khu vực, Cái Răng, Cần Thơ","Khu vực, Cái Răng","5 & 146/3, 145, Đ. Phạm Hùng",Cần Thơ,,"Cái Răng, Cần Thơ",VN,"10.0040217,105.75029939999999"
120,ChIJQ3nSKweJoDER_C7A7yy3c0E,Trang Trí Nội Thất SGCI,Cửa hàng nội thất,0292 2222 882,"Trang Trí Nội Thất SGCI, 35 Đ. Lê Chân, Khu dân cư 91B, Ninh Kiều, Cần Thơ","Khu dân cư 91B, Ninh Kiều",35 Đ. Lê Chân,Cần Thơ,,"Ninh Kiều, Cần Thơ",VN,"10.0230274,105.7566234"
121,ChIJx-e8tfWHoDERyKf_fYXMGL0,Tổng kho Nệm Giá Kho Cần Thơ,Cửa hàng chăn đệm,0947 957 768,"Tổng kho Nệm Giá Kho Cần Thơ, 59 Đ. Nguyễn Văn Cừ, Cái Khế, Ninh Kiều, Cần Thơ 900000","Cái Khế, Ninh Kiều",59 Đ. Nguyễn Văn Cừ,Cần Thơ,900000.0,"Ninh Kiều, Cần Thơ",VN,"10.0586871,105.7811371"
122,ChIJZxJjF7eJoDER0Dd1WPuGWDk,Cửa hàng VNPT Vinaphone Võ Phi Điệp đường 30/04,Cửa hàng phụ tùng xe ô tô,0917 091 797,"Cửa hàng VNPT Vinaphone Võ Phi Điệp đường 30/04, 534 Đ. 30 Tháng 4, Hưng Lợi, Ninh Kiều, Cần Thơ","Hưng Lợi, Ninh Kiều",534 Đ. 30 Tháng 4,Cần Thơ,,"Ninh Kiều, Cần Thơ",VN,"10.017705,105.76514999999999"
123,ChIJNbBkfLGJoDERCMd9JGct8hE,Saffron Việt Nam - Nhà PP tại Cần Thơ,Cửa hàng chăm sóc sức khỏe và làm đẹp,0902 939 668,"Saffron Việt Nam - Nhà PP tại Cần Thơ, KDC Van Phát, 195 Đường 14, Cồn Khương, Ninh Kiều, Cần Thơ 901150","Cồn Khương, Ninh Kiều","KDC Van Phát, 195 Đường 14",Cần Thơ,901150.0,"Ninh Kiều, Cần Thơ",VN,"10.0595655,105.776305"
124,ChIJhS2t3g6JoDERc49zljfqsdw,Cửa hàng máy tính MKlaptop,Cửa hàng máy tính,0919 755 866,"Cửa hàng máy tính MKlaptop, 187 Nguyễn Văn Cừ Nối Dài, An Bình, Ninh Kiều, Cần Thơ","An Bình, Ninh Kiều",187 Nguyễn Văn Cừ Nối Dài,Cần Thơ,,"Ninh Kiều, Cần Thơ",VN,"10.0243442,105.745999"
125,ChIJ12njq42rNTERPROqq8neWW8,Cửa Hàng Đồ Gốm Quang,Cửa hàng đồ gốm,,"Cửa Hàng Đồ Gốm Quang, 95 P. Bà Triệu, Bùi Thị Xuân, Hai Bà Trưng, Hà Nội","Bùi Thị Xuân, Hai Bà Trưng",95 P. Bà Triệu,Hà Nội,,"Hai Bà Trưng, Hà Nội",VN,"21.0166459,105.84935689999999"
126,ChIJf9LCO6qJoDERcNZjYiF773g,Cửa hàng Saigondoor,Cửa hàng vật liệu xây dựng,0849 600 600,"Cửa hàng Saigondoor, 94C Đ. 3 Tháng 2, Hưng Lợi, Ninh Kiều, Cần Thơ 900000","Hưng Lợi, Ninh Kiều",94C Đ. 3 Tháng 2,Cần Thơ,900000.0,"Ninh Kiều, Cần Thơ",VN,"10.016511099999999,105.7602787"
128,ChIJJ4TJu6FioDERutBoAqBHCBU,Cửa hàng Gas Bình Minh - Cần Thơ 1,Cửa hàng,0292 3735 735,"Cửa hàng Gas Bình Minh - Cần Thơ 1, 151/51A Đ. Trần Hoàng Na, Hưng Lợi, Ninh Kiều, Cần Thơ 900000","Hưng Lợi, Ninh Kiều",151/51A Đ. Trần Hoàng Na,Cần Thơ,900000.0,"Ninh Kiều, Cần Thơ",VN,"10.0124991,105.76390699999999"
129,ChIJ5cXBigaIoDERWuwSs8mzKlg,Cửa hàng Nệm Ngọc Ánh,Cửa hàng chăn đệm,0939 129 329,"Cửa hàng Nệm Ngọc Ánh, 143 Đ. Cách Mạng Tháng 8, P, Ninh Kiều, Cần Thơ","P, Ninh Kiều",143 Đ. Cách Mạng Tháng 8,Cần Thơ,,"Ninh Kiều, Cần Thơ",VN,"10.051370499999999,105.77388619999999"
130,ChIJx4v8alyJoDERr83Ud5Q9djA,Siêu thị TopZone - Hệ thống cửa hàng Apple chính hãng 100%,Cửa hàng điện thoại di động,1900 969642,"Siêu thị TopZone - Hệ thống cửa hàng Apple chính hãng 100%, Số 08 Hoà Bình, P, Ninh Kiều, Cần Thơ 94000","P, Ninh Kiều",Số 08 Hoà Bình,Cần Thơ,94000.0,"Ninh Kiều, Cần Thơ",VN,"10.0348448,105.78539459999999"
132,ChIJg6rIbWKJoDERBmpY2Ga5DY4,JAN SHOP - HÀNG HIỆU XUẤT KHẨU,Cửa hàng quần áo nam,0393 474 590,"JAN SHOP - HÀNG HIỆU XUẤT KHẨU, 195 Nguyễn Trãi, An Hội, Ninh Kiều, Cần Thơ","An Hội, Ninh Kiều",195 Nguyễn Trãi,Cần Thơ,,"Ninh Kiều, Cần Thơ",VN,"10.043436699999999,105.78156299999999"
133,ChIJwSpqLQ6JoDERUyhBrYwsTMY,ELLY Cần Thơ,Cửa hàng túi xách,0906 636 000,"ELLY Cần Thơ, 169 Nguyễn Trãi, An Hội, Ninh Kiều, Cần Thơ 100000","An Hội, Ninh Kiều",169 Nguyễn Trãi,Cần Thơ,100000.0,"Ninh Kiều, Cần Thơ",VN,"10.0427964,105.782473"
136,ChIJvRImK2GJoDER0GjRVpUrLm4,Showroom nội thất Tiến Khôi,Cửa hàng nội thất,0936 565 654,"Showroom nội thất Tiến Khôi, 91 Đ. Nguyễn Đệ, An Hoà, Ninh Kiều, Cần Thơ","An Hoà, Ninh Kiều",91 Đ. Nguyễn Đệ,Cần Thơ,,"Ninh Kiều, Cần Thơ",VN,"10.0481945,105.7628197"
138,ChIJ2TSE9KSJoDERDo_ipe6ph-U,Cửa Hàng Thông Thành Đạt,Cửa hàng nội thất,0949 543 884,"Cửa Hàng Thông Thành Đạt, 70B Đường số 3, KDC, Ninh Kiều, Cần Thơ","KDC, Ninh Kiều",70B Đường số 3,Cần Thơ,,"Ninh Kiều, Cần Thơ",VN,"10.0227972,105.74897569999999"
139,ChIJO7Hcq42rNTER4gljVu3ur40,Cửa hàng thời trang Elise,Cửa hàng quần áo,024 3227 2938,"Cửa hàng thời trang Elise, 162 P. Bà Triệu, Nguyễn Du, Hai Bà Trưng, Hà Nội","Nguyễn Du, Hai Bà Trưng",162 P. Bà Triệu,Hà Nội,,"Hai Bà Trưng, Hà Nội",VN,"21.0165963,105.8491468"
140,ChIJDS0QQa6JoDERdq7W3vuPKa4,Cửa Hàng Bách Hóa 175A,Cửa hàng bách hóa,0292 3913 086,"Cửa Hàng Bách Hóa 175A, 175 ĐT923, An Bình, Ninh Kiều, Cần Thơ","An Bình, Ninh Kiều",175 ĐT923,Cần Thơ,,"Ninh Kiều, Cần Thơ",VN,"10.0057628,105.74505959999999"
141,ChIJx_o6pDuJoDERWaCM7ytNY2U,Cửa Hàng Thực Phẩm Heo Sạch Trung Phong,Cửa hàng bán thực phẩm sạch,0971 952 993,"Cửa Hàng Thực Phẩm Heo Sạch Trung Phong, 44 Đ. Nguyễn Hiền, Hưng Lợi, Ninh Kiều, Cần Thơ","Hưng Lợi, Ninh Kiều",44 Đ. Nguyễn Hiền,Cần Thơ,,"Ninh Kiều, Cần Thơ",VN,"10.0243669,105.7571789"
143,ChIJr-6c4w2JoDERyGMn_BvV7eM,Cửa Hàng Zelda Phone,Cửa hàng bán đồ điện tử,0824 821 821,"Cửa Hàng Zelda Phone, 151/73A Đ. Trần Hoàng Na, Hưng Lợi, Ninh Kiều, Cần Thơ 94116","Hưng Lợi, Ninh Kiều",151/73A Đ. Trần Hoàng Na,Cần Thơ,94116.0,"Ninh Kiều, Cần Thơ",VN,"10.0094464,105.76669799999999"
144,ChIJO9Cu5WOJoDER2yEww2tHQxE,Cửa Hàng Đồng Hồ PNJ Watch,Cửa hàng đồng hồ,1800 757575,"Cửa Hàng Đồng Hồ PNJ Watch, 209 Đ. 30 Tháng 4, Xuân Khánh, Ninh Kiều, Cần Thơ 94000","Xuân Khánh, Ninh Kiều",209 Đ. 30 Tháng 4,Cần Thơ,94000.0,"Ninh Kiều, Cần Thơ",VN,"10.0248534,105.7748027"
146,ChIJeXvror2HoDERIAz0pjuuVX4,Simili Trải Sàn Cần Thơ,Thợ trải thảm,0907 002 985,"Simili Trải Sàn Cần Thơ, 5 Phạm Công Trứ, Cái Khế, Ninh Kiều, Cần Thơ 94107","Cái Khế, Ninh Kiều",5 Phạm Công Trứ,Cần Thơ,94107.0,"Ninh Kiều, Cần Thơ",VN,"10.058641399999999,105.77968919999999"
147,ChIJXdHItJCJoDEREfC4qjxv3To,Cửa hàng phụ tùng xe máy HP,Cửa hàng phụ tùng xe máy,,"Cửa hàng phụ tùng xe máy HP, 149 Đ. Phạm Ngũ Lão, Thới Bình, Ninh Kiều, Cần Thơ 900000","Thới Bình, Ninh Kiều",149 Đ. Phạm Ngũ Lão,Cần Thơ,900000.0,"Ninh Kiều, Cần Thơ",VN,"10.0436923,105.7738938"
149,ChIJKR-dPo6JoDERPm863-UzylU,Cửa Hàng Pháo Hoa Cần Thơ,Cửa hàng bán pháo hoa,0984 642 567,"Cửa Hàng Pháo Hoa Cần Thơ, 622 Đ. Nguyễn Đệ, P, Bình Thủy, Cần Thơ","P, Bình Thủy",622 Đ. Nguyễn Đệ,Cần Thơ,,"Bình Thủy, Cần Thơ",VN,"10.0508779,105.7688407"
150,ChIJ6beGwdCJoDERvJledWR8dfo,Cửa Hàng Gas Petrolimex Số 1,Cửa hàng ga,1900 989874,"Cửa Hàng Gas Petrolimex Số 1, 16 Đ. Nguyễn Văn Cừ, An Hoà, Ninh Kiều, Cần Thơ","An Hoà, Ninh Kiều",16 Đ. Nguyễn Văn Cừ,Cần Thơ,,"Ninh Kiều, Cần Thơ",VN,"10.0524223,105.7744932"
152,ChIJ17ApohOIoDER1HweGEQVEG4,Cửa Hàng Gas - Bếp Gas Xuân Hoa,Cửa hàng bán dụng cụ sửa nhà,0292 3891 791,"Cửa Hàng Gas - Bếp Gas Xuân Hoa, 138 Nguyễn Văn Cừ Nối Dài, Phường An Khánh, Ninh Kiều, Cần Thơ","Phường An Khánh, Ninh Kiều",138 Nguyễn Văn Cừ Nối Dài,Cần Thơ,,"Ninh Kiều, Cần Thơ",VN,"10.040755599999999,105.7620681"
153,ChIJvT0Cf0SJoDERVpIGqYR4w00,"Cửa hàng Blouse, Scrub, thiết bị y tế Pamed Cần Thơ",Cửa hàng,0948 497 132,"Cửa hàng Blouse, Scrub, thiết bị y tế Pamed Cần Thơ, 32B Đ. Số 5A, Phường An Khánh, Ninh Kiều, Cần Thơ 94000","Phường An Khánh, Ninh Kiều",32B Đ. Số 5A,Cần Thơ,94000.0,"Ninh Kiều, Cần Thơ",VN,"10.0386283,105.7562962"
154,ChIJVbKnHIyrNTERrUwHjhOmb0M,Cửa Hàng Burin Market,Cửa hàng mỹ phẩm,0983 519 788,"Cửa Hàng Burin Market, 31 P. Nguyễn Đình Chiểu, Lê Đại Hành, Hai Bà Trưng, Hà Nội","Lê Đại Hành, Hai Bà Trưng",31 P. Nguyễn Đình Chiểu,Hà Nội,,"Hai Bà Trưng, Hà Nội",VN,"21.014567,105.84696819999999"
155,ChIJS5qcwJarNTERlbXJPY5zBGo,Cửa hàng Thời trang Seven Am,Cửa hàng phụ kiện thời trang,024 3824 6362,"Cửa hàng Thời trang Seven Am, 68 P. Hai Bà Trưng, Hàng Bông, Hoàn Kiếm, Hà Nội","Hàng Bông, Hoàn Kiếm",68 P. Hai Bà Trưng,Hà Nội,,"Hoàn Kiếm, Hà Nội",VN,"21.026664699999998,105.8451991"
156,ChIJfZewASmrNTERpMZ_UugOylQ,Cửa hàng tiện lợi Agami - Open 24hrs,Cửa hàng tiện lợi,,"Cửa hàng tiện lợi Agami - Open 24hrs, 215 P. Khâm Thiên, Thổ Quan, Đống Đa, Hà Nội","Thổ Quan, Đống Đa",215 P. Khâm Thiên,Hà Nội,,"Đống Đa, Hà Nội",VN,"21.019692,105.8340666"
157,ChIJLffuMgerNTERqcGRfmU0GZw,Cửa hàng Thực Phẩm Đông Lạnh Gia Đình,Cửa hàng bán thực phẩm sạch,0932 259 117,"Cửa hàng Thực Phẩm Đông Lạnh Gia Đình, 55 ngõ, 221 P. Tôn Đức Thắng, Thổ Quan, Đống Đa, Hà Nội 11506","Thổ Quan, Đống Đa","55 ngõ, 221 P. Tôn Đức Thắng",Hà Nội,11506.0,"Đống Đa, Hà Nội",VN,"21.0211523,105.83244739999999"
158,ChIJHWFyFpGrNTERFhltMfmCGyo,Đồ thờ cúng Đài Loan - cửa hàng đồ thờ đài loan THIỆN DUYÊN,Cửa hàng hàng hóa tôn giáo,0912 355 659,"Đồ thờ cúng Đài Loan - cửa hàng đồ thờ đài loan THIỆN DUYÊN, số 84 phố P. Quán Sứ, Trần Hưng Đạo, Hoàn Kiếm, Hà Nội","Trần Hưng Đạo, Hoàn Kiếm",số 84 phố P. Quán Sứ,Hà Nội,,"Hoàn Kiếm, Hà Nội",VN,"21.0236281,105.84456379999999"
159,ChIJZQAhvD-rNTERDXvvl5mS-w8,Cửa hàng đồ ngủ nội y Mialala 282 Bà Triệu,Cửa hàng bán đồ lót phụ nữ,0394 042 668,"Cửa hàng đồ ngủ nội y Mialala 282 Bà Triệu, 282 P. Bà Triệu, Lê Đại Hành, Hai Bà Trưng, Hà Nội 11606","Lê Đại Hành, Hai Bà Trưng",282 P. Bà Triệu,Hà Nội,11606.0,"Hai Bà Trưng, Hà Nội",VN,"21.0128293,105.8490504"
160,ChIJA81YuIiJoDERimKKGK05Hkk,Cửa hàng điện tử Văn Minh,Cửa hàng bán đồ điện tử,0939 446 555,"Cửa hàng điện tử Văn Minh, 381M17, tổ 06, Hẻm 6 Khu Vực 2, P, Ninh Kiều, Cần Thơ 900000","P, Ninh Kiều","381M17, tổ 06, Hẻm 6 Khu Vực 2",Cần Thơ,900000.0,"Ninh Kiều, Cần Thơ",VN,"10.0329245,105.7604363"
161,ChIJtUUsex2JoDERD6ttAWPTcbc,Cửa Hàng Nội Thất Đại Quang,Cửa hàng nội thất,0706 377 879,"Cửa Hàng Nội Thất Đại Quang, 60D Đ. Mậu Thân, An Nghiệp, Ninh Kiều, Cần Thơ","An Nghiệp, Ninh Kiều",60D Đ. Mậu Thân,Cần Thơ,,"Ninh Kiều, Cần Thơ",VN,"10.0357927,105.7727335"
163,ChIJ7Wd9CmKJoDER5dPLZWKXYWM,Cửa Hàng Xe Máy 7 Thành,Nhà buôn bán xe máy cũ,0918 368 291,"Cửa Hàng Xe Máy 7 Thành, Hẻm Đ. Trần Văn Hoài, Xuân Khánh, Ninh Kiều, Cần Thơ 900000","Xuân Khánh, Ninh Kiều",Hẻm Đ. Trần Văn Hoài,Cần Thơ,900000.0,"Ninh Kiều, Cần Thơ",VN,"10.0264217,105.77272269999999"
164,ChIJM7InrTmJoDERpIuyFEy-CrM,Hệ Thống Cửa Hàng Mẹ và Bé Bibo Mart - Thế Giới Đồ Sơ Sinh - Cần Thơ 4,Cửa hàng đồ trẻ em,1800 6886,"Hệ Thống Cửa Hàng Mẹ và Bé Bibo Mart - Thế Giới Đồ Sơ Sinh - Cần Thơ 4, 87 Đ. Trần Hưng Đạo, P, Ninh Kiều, Cần Thơ 900000","P, Ninh Kiều",87 Đ. Trần Hưng Đạo,Cần Thơ,900000.0,"Ninh Kiều, Cần Thơ",VN,"10.037443099999999,105.7764136"
165,ChIJAyRBl6WJoDER450UdTeUjOg,Cửa hàng Laura Sunshine,Cửa hàng mỹ phẩm,0899 994 681,"Cửa hàng Laura Sunshine, Đ. Mậu Thân, An Hoà, Ninh Kiều, Cần Thơ 90000","An Hoà, Ninh Kiều",Đ. Mậu Thân,Cần Thơ,90000.0,"Ninh Kiều, Cần Thơ",VN,"10.0430238,105.7659438"
167,ChIJySPCK5urNTERZdXW141pzM8,Cửa hàng Gas - Gas Trường Thành,Cửa hàng ga,0913 380 575,"Cửa hàng Gas - Gas Trường Thành, 275 Ng. Văn Chương, Khâm Thiên, Đống Đa, Hà Nội","Khâm Thiên, Đống Đa",275 Ng. Văn Chương,Hà Nội,,"Đống Đa, Hà Nội",VN,"21.020645299999998,105.8365286"
168,ChIJca-2qiSIoDER3nMW-wNmoEA,Cửa hàng nệm Kymdan,Cửa hàng nội thất,1800 9053,"Cửa hàng nệm Kymdan, 144 Đ. 3 Tháng 2, Hưng Lợi, Ninh Kiều, Cần Thơ 900000","Hưng Lợi, Ninh Kiều",144 Đ. 3 Tháng 2,Cần Thơ,900000.0,"Ninh Kiều, Cần Thơ",VN,"10.020978,105.76230629999999"
169,ChIJvWcBzJKJoDER8GdqGYDPCmA,Cửa Hàng Tinh Dầu Như Ý,Cửa tiệm bán lẻ trực tiếp,0292 6288 899,"Cửa Hàng Tinh Dầu Như Ý, 190E/3 Hẻm 532, Hẻm 553, Hưng Lợi, Ninh Kiều, Cần Thơ 919999","Hưng Lợi, Ninh Kiều","190E/3 Hẻm 532, Hẻm 553",Cần Thơ,919999.0,"Ninh Kiều, Cần Thơ",VN,"10.017590799999999,105.7656727"
170,ChIJjxcbgOkpdTER8mHiEszmXAk,Cửa hàng Phú Cường,Cửa hàng nội thất,0986 282 323,"Cửa hàng Phú Cường, 211 Hẻm 132 Đ. 3 Tháng 2, Hưng Lợi, Ninh Kiều, Cần Thơ 900000","Hưng Lợi, Ninh Kiều",211 Hẻm 132 Đ. 3 Tháng 2,Cần Thơ,900000.0,"Ninh Kiều, Cần Thơ",VN,"10.0214497,105.76535439999999"
171,ChIJT1H1WBiIoDERF5OYh6zWhYo,Cửa Hàng Nhôm Kính Cao Cấp Minh Ngọc,Cửa hàng vật liệu xây dựng,0292 3733 357,"Cửa Hàng Nhôm Kính Cao Cấp Minh Ngọc, 30 Đ. Mậu Thân, An Phú, Ninh Kiều, Cần Thơ","An Phú, Ninh Kiều",30 Đ. Mậu Thân,Cần Thơ,,"Ninh Kiều, Cần Thơ",VN,"10.034602999999999,105.7735855"
172,ChIJUc8OtxuJoDERUDqN4Ff7qdQ,CỬA HÀNG ĐỒ THỜ CÚNG CẦN THƠ - CHI NHÁNH 2,Cửa hàng,0918 494 794,"CỬA HÀNG ĐỒ THỜ CÚNG CẦN THƠ - CHI NHÁNH 2, 228 Đ. 30 Tháng 4, Xuân Khánh, Ninh Kiều, Cần Thơ","Xuân Khánh, Ninh Kiều",228 Đ. 30 Tháng 4,Cần Thơ,,"Ninh Kiều, Cần Thơ",VN,"10.026539,105.7760302"
173,ChIJuYXet3VjoDER-dRkLQTyltY,Chén Dĩa Tô Ly - Cửa Hàng CHỊ TÝ,Cửa hàng đồ gia dụng,0862 449 943,"Chén Dĩa Tô Ly - Cửa Hàng CHỊ TÝ, 54 Nguyễn Thái Học, Tân An, Ninh Kiều, Cần Thơ 900000","Tân An, Ninh Kiều",54 Nguyễn Thái Học,Cần Thơ,900000.0,"Ninh Kiều, Cần Thơ",VN,"10.0326918,105.78580389999999"
174,ChIJAc0z1x-IoDERXbOaU1f2Mgs,"Cửa Hàng Gạo Lứt, Muối Mè Bách Thảo",Cửa hàng thực phẩm thiên nhiên,0292 3821 143,"Cửa Hàng Gạo Lứt, Muối Mè Bách Thảo, 83B Đ. Đề Thám, Tân An, Ninh Kiều, Cần Thơ","Tân An, Ninh Kiều",83B Đ. Đề Thám,Cần Thơ,,"Ninh Kiều, Cần Thơ",VN,"10.034625,105.78162259999999"
175,ChIJjTNnjC5joDERqnYoBv3eqI4,Shop Guitar Cần Thơ,Cửa hàng bán đàn ghita,0365 778 077,"Shop Guitar Cần Thơ, 40 Trần Văn Khéo, An Hội, Ninh Kiều, Cần Thơ","An Hội, Ninh Kiều",40 Trần Văn Khéo,Cần Thơ,,"Ninh Kiều, Cần Thơ",VN,"10.0440056,105.78326299999999"
178,ChIJTVxiNBKIoDERCGAFOxd2NFI,Cửa Hàng ĐTDĐ Quốc Duy,Cửa hàng điện thoại di động,0907 744 777,"Cửa Hàng ĐTDĐ Quốc Duy, 138b6 Đ. Nguyễn Văn Cừ, Phường An Khánh, Ninh Kiều, Cần Thơ","Phường An Khánh, Ninh Kiều",138b6 Đ. Nguyễn Văn Cừ,Cần Thơ,,"Ninh Kiều, Cần Thơ",VN,"10.041746,105.7631206"
179,ChIJ8XImqeqJoDERBXYn8VUl_XA,Cửa hàng VNPT VinaPhone_Đường Trần Nam Phú Số 60A2 Tổ 9 KV2,Cửa hàng,0855 714 086,"Cửa hàng VNPT VinaPhone_Đường Trần Nam Phú Số 60A2 Tổ 9 KV2, 60A2 Tổ 9, KV2, Ninh Kiều, Cần Thơ","KV2, Ninh Kiều",60A2 Tổ 9,Cần Thơ,,"Ninh Kiều, Cần Thơ",VN,"10.0392025,105.7541236"
180,ChIJ84CSmYarNTERSceeCBhQB5c,Cửa Hàng Bát Đĩa Hàn Quốc Nhật Bản Vạn Lộc,Cửa hàng bán buôn,0963 286 456,"Cửa Hàng Bát Đĩa Hàn Quốc Nhật Bản Vạn Lộc, Ngõ 281 Ng. Chợ Khâm Thiên, Phương Liên, Đống Đa, Hà Nội 100000","Phương Liên, Đống Đa",Ngõ 281 Ng. Chợ Khâm Thiên,Hà Nội,100000.0,"Đống Đa, Hà Nội",VN,"21.0134595,105.8364794"
181,ChIJTbdTzpqrNTER63P-v_AcZEA,Cửa Hàng Gas Minh Quang,Cửa hàng nội thất,0973 466 480,"Cửa Hàng Gas Minh Quang, 88 P. Trần Quý Cáp, Văn Chương, Đống Đa, Hà Nội 100000","Văn Chương, Đống Đa",88 P. Trần Quý Cáp,Hà Nội,100000.0,"Đống Đa, Hà Nội",VN,"21.0206917,105.83872219999999"
182,ChIJNXCweo-rNTERCOuGbBHuFME,Cửa hàng đồ đồng Quỳnh Anh,Cửa hàng lưu niệm,0916 307 247,"Cửa hàng đồ đồng Quỳnh Anh, 257 Đ. Lê Duẩn, Trung Phụng, Hai Bà Trưng, Hà Nội","Trung Phụng, Hai Bà Trưng",257 Đ. Lê Duẩn,Hà Nội,,"Hai Bà Trưng, Hà Nội",VN,"21.0158909,105.8414873"
183,ChIJC7kj3VWrNTER0zHG41Aaask,SHOP KÍNH HÀNG ĐỘC - (Cửa Hàng : Kính mắt Lĩnh Sơn),Cửa hàng kính mát,0973 869 211,"SHOP KÍNH HÀNG ĐỘC - (Cửa Hàng : Kính mắt Lĩnh Sơn), 163 Đ. Lê Duẩn, Khâm Thiên, Đống Đa, Hà Nội","Khâm Thiên, Đống Đa",163 Đ. Lê Duẩn,Hà Nội,,"Đống Đa, Hà Nội",VN,"21.0210282,105.8415256"
184,ChIJ075H-4-rNTEReINIIDWgy7Q,Thanh Thủy Fashion Shop,Cửa hàng quần áo,,"Thanh Thủy Fashion Shop, 91 Đ. Lê Duẩn, Khâm Thiên, Đống Đa, Hà Nội","Khâm Thiên, Đống Đa",91 Đ. Lê Duẩn,Hà Nội,,"Đống Đa, Hà Nội",VN,"21.019468699999997,105.8415381"
185,ChIJm4ByN2arNTERtFwVG6HvhYM,Cửa Hàng Thịt Sạch,Meat products store,0913 356 755,"Cửa Hàng Thịt Sạch, Đại lý Thực Phẩm Sạch, 132 Ng. Chợ Khâm Thiên, Trung Phụng, Đống Đa, Hà Nội 100000","Trung Phụng, Đống Đa","Đại lý Thực Phẩm Sạch, 132 Ng. Chợ Khâm Thiên",Hà Nội,100000.0,"Đống Đa, Hà Nội",VN,"21.016692,105.838307"
186,ChIJH_8XJwytNTERv_0fyDD9BfE,Ciracle Shop,Cửa hàng chăm sóc sức khỏe và làm đẹp,0985 387 686,"Ciracle Shop, Dao Duy Anh Towner No 9 Dao Duy Anh Street, Phuong Mai Ward, Dong Da District, Ha noi, Hà Nội 01234","Phương Liên, Đống Đa","Dao Duy Anh Towner No 9 Dao Duy Anh Street, Phuong Mai Ward, Dong Da District, Ha noi",Hà Nội,1234.0,"Đống Đa, Hà Nội",VN,"21.0085299,105.83870809999999"
187,ChIJ-f94RAurNTER2qrVQsbTATk,Cửa Hàng BHLĐ Ngọc Duy,Nhà cung cấp thiết bị an toàn,024 3822 3922,"Cửa Hàng BHLĐ Ngọc Duy, 73 P. Nguyễn Du, Nguyễn Du, Hai Bà Trưng, Hà Nội 100000","Nguyễn Du, Hai Bà Trưng",73 P. Nguyễn Du,Hà Nội,100000.0,"Hai Bà Trưng, Hà Nội",VN,"21.020191,105.842643"
188,ChIJL_4QXuirNTER-620TQ7rn0U,Cửa Hàng Bán Sữa Ensure Úc,Cửa hàng,0906 222 637,"Cửa Hàng Bán Sữa Ensure Úc, 292 P. Tây Sơn, Trung Liệt, Đống Đa, Hà Nội 100000","Trung Liệt, Đống Đa",292 P. Tây Sơn,Hà Nội,100000.0,"Đống Đa, Hà Nội",VN,"21.007047699999998,105.8228378"
189,ChIJ6Vgz3ZarNTER2b4nOzINetc,Cửa hàng bán An Cung Ngưu Hoàng Chính Hãng,Cửa hàng dược thảo,024 3566 8899,"Cửa hàng bán An Cung Ngưu Hoàng Chính Hãng, 76 P. Hai Bà Trưng, Cửa Nam, Hoàn Kiếm, Hà Nội","Cửa Nam, Hoàn Kiếm",76 P. Hai Bà Trưng,Hà Nội,,"Hoàn Kiếm, Hà Nội",VN,"21.0268342,105.84458479999999"
190,ChIJ7fEy5ISrNTER3iYpgaJ2g9c,"Cửa hàng ""Giấc mơ sữa Việt"" Vinamilk",Cửa hàng bơ sữa,024 3516 2967,"Cửa hàng ""Giấc mơ sữa Việt"" Vinamilk, 30 P. Khâm Thiên, P, Đống Đa, Hà Nội 100000","P, Đống Đa",30 P. Khâm Thiên,Hà Nội,100000.0,"Đống Đa, Hà Nội",VN,"21.0190885,105.83920119999999"
191,ChIJd2xix8GtNTERTRS41Op3unE,Cửa Hàng Bán Sữa Forticare Tại Hà Nội,Cửa hàng,0904 614 767,"Cửa Hàng Bán Sữa Forticare Tại Hà Nội, Tòa nhà GP Invest, 170 Đ. Đê La Thành, Thổ Quan, Đống Đa, Hà Nội","Thổ Quan, Đống Đa","Tòa nhà GP Invest, 170 Đ. Đê La Thành",Hà Nội,,"Đống Đa, Hà Nội",VN,"21.017806999999998,105.83135259999999"
192,ChIJrzxMAdyJoDERXe5ilbgS7wI,Cửa hàng Mẫu Nhi,Cửa hàng quần áo trẻ em,0292 3943 297,"Cửa hàng Mẫu Nhi, Địa chỉ: 566 Đường 30/4, P.Hưng Lợi, Q, Ninh Kiều, Cần Thơ 94116","Hưng Lợi, Ninh Kiều","Địa chỉ: 566 Đường 30/4, P.Hưng Lợi, Q",Cần Thơ,94116.0,"Ninh Kiều, Cần Thơ",VN,"10.0165136,105.7645663"
194,ChIJHaT0sSaIoDERQo5JSFuuRWA,Shop Minh Trang Thời Trang Nữ,Cửa hàng quần áo,0944 361 696,"Shop Minh Trang Thời Trang Nữ, Ba Mươi Tháng Tư, Lô 47-48 Lầu Chợ Xuân Khánh đường, Cần Thơ 900000","Xuân Khánh, Ninh Kiều","Ba Mươi Tháng Tư, Lô 47-48 Lầu Chợ Xuân Khánh đường",Cần Thơ,900000.0,"Ninh Kiều, Cần Thơ",VN,"10.0263945,105.7768655"
195,ChIJm3YdQQRjoDER09dPH6TV22E,Yến sào Gia Đạt - Cửa hàng Đề Thám,Cửa hàng bán thực phẩm sạch,0762 226 565,"Yến sào Gia Đạt - Cửa hàng Đề Thám, 20 đường Đề Thám, An Cư, Ninh Kiều Cần Thơ Can Tho City, 90000","Tân An, Ninh Kiều","20 đường Đề Thám, An Cư, Ninh Kiều Cần Thơ Can Tho City",Cần Thơ,90000.0,"Ninh Kiều, Cần Thơ",VN,"10.0335434,105.7832991"
196,ChIJ5dBAPaBioDERaPw149NwQNE,Shop Thời Trang Jenny,Cửa hàng quần áo,0918 319 303,"Shop Thời Trang Jenny, 10 Đ. Đề Thám, Tân An, Ninh Kiều, Cần Thơ","Tân An, Ninh Kiều",10 Đ. Đề Thám,Cần Thơ,,"Ninh Kiều, Cần Thơ",VN,"10.0333103,105.783625"
199,ChIJDzuxDqhioDERd2GpKN4UYVM,Cửa hàng Edena,Cửa hàng bán ga giường,0292 3761 662,"Cửa hàng Edena, 20 Trần Văn Khéo, P, Ninh Kiều, Cần Thơ 900000","P, Ninh Kiều",20 Trần Văn Khéo,Cần Thơ,900000.0,"Ninh Kiều, Cần Thơ",VN,"10.0435199,105.78310359999999"
201,ChIJe5DiyjljoDERXQ8EvdmxFsk,Shop Mon & Sisters,Cửa hàng quần áo nữ,0838 115 531,"Shop Mon & Sisters, 120/10 Trần Phú, Cái Khế, Ninh Kiều, Cần Thơ 94000","Cái Khế, Ninh Kiều",120/10 Trần Phú,Cần Thơ,94000.0,"Ninh Kiều, Cần Thơ",VN,"10.0479422,105.78482489999999"
204,ChIJe4d_8o9joDERS4qbsHTPh3I,Triumph Cần Thơ 4,Cửa hàng bán đồ lót phụ nữ,0292 3769 669,"Triumph Cần Thơ 4, 9 Trần Văn Khéo, An Hội, Ninh Kiều, Cần Thơ 900000","An Hội, Ninh Kiều",9 Trần Văn Khéo,Cần Thơ,900000.0,"Ninh Kiều, Cần Thơ",VN,"10.0435511,105.782578"
205,ChIJ1weZ-haJoDER2PTRK_entTQ,Showroom Đông Trùng Hạ Thảo Đăng Thoa,Cửa hàng thực phẩm hữu cơ,0988 151 670,"Showroom Đông Trùng Hạ Thảo Đăng Thoa, 47a Đ. Nguyễn Đệ, An Hoà, Ninh Kiều, Cần Thơ 94108","An Hoà, Ninh Kiều",47a Đ. Nguyễn Đệ,Cần Thơ,94108.0,"Ninh Kiều, Cần Thơ",VN,"10.049418,105.7652045"
206,ChIJwW01cuyJoDERAp-624oAJrM,Cửa Hàng VNPT VinaPhone Võ Trường Toản,Cửa hàng,0913 186 667,"Cửa Hàng VNPT VinaPhone Võ Trường Toản, 49/53 Đ. Võ Trường Toản, An Hoà, Ninh Kiều, Cần Thơ","An Hoà, Ninh Kiều",49/53 Đ. Võ Trường Toản,Cần Thơ,,"Ninh Kiều, Cần Thơ",VN,"10.0474163,105.76685719999999"
207,ChIJ_dDLYa6JoDERBxA8gCS-T1s,Cửa hàng Phương ngọc,Cửa hàng đồng phục,0947 138 389,"Cửa hàng Phương ngọc, Lô 20 Đ. Nguyễn Đệ, An Hoà, Bình Thủy, Cần Thơ 900000","An Hoà, Bình Thủy",Lô 20 Đ. Nguyễn Đệ,Cần Thơ,900000.0,"Bình Thủy, Cần Thơ",VN,"10.0510399,105.76941269999999"
208,ChIJIVBQsfmJoDERwMPyH2Og5cI,Cửa hàng VNPT vinaphone Mậu Thân An Hoà,Cửa hàng,0917 723 456,"Cửa hàng VNPT vinaphone Mậu Thân An Hoà, 45/4 Đ. Mậu Thân, An Nghiệp, Ninh Kiều, Cần Thơ","An Nghiệp, Ninh Kiều",45/4 Đ. Mậu Thân,Cần Thơ,,"Ninh Kiều, Cần Thơ",VN,"10.0418305,105.7662249"
209,ChIJ-fy9uNGJoDERQaMKmtDkI7M,shopnice,Cửa hàng tiện lợi,,"shopnice, 152 Ngô Thì Nhậm, P, Ninh Kiều, Cần Thơ","P, Ninh Kiều",152 Ngô Thì Nhậm,Cần Thơ,,"Ninh Kiều, Cần Thơ",VN,"10.0414856,105.7554224"
210,ChIJ6XtHZBCJoDERM_5GRv6Z_gQ,Cửa Hàng Dụng Cụ Chăm Sóc Mẹ và Bé - Nguyet Thanh Mom And Baby Healthcare,Cửa hàng chăm sóc sức khỏe và làm đẹp,0292 3943 236,"Cửa Hàng Dụng Cụ Chăm Sóc Mẹ và Bé - Nguyet Thanh Mom And Baby Healthcare, LK2, 18 Nguyễn Văn Cừ Nối Dài, An Bình, Ninh Kiều, Cần Thơ 94159","An Bình, Ninh Kiều","LK2, 18 Nguyễn Văn Cừ Nối Dài",Cần Thơ,94159.0,"Ninh Kiều, Cần Thơ",VN,"10.0171022,105.7377734"
211,ChIJPX0woSSrNTER4_4YInEDe2c,Cửa Hàng Bán Sữa Grow Plus,Cửa hàng,0904 614 767,"Cửa Hàng Bán Sữa Grow Plus, 58 P. Trần Nhân Tông, Nguyễn Du, Hai Bà Trưng, Hà Nội 100000","Nguyễn Du, Hai Bà Trưng",58 P. Trần Nhân Tông,Hà Nội,100000.0,"Hai Bà Trưng, Hà Nội",VN,"21.0175988,105.8426035"
212,ChIJ6Vk4V4-rNTER3BHRUiyYWbA,Cửa Hàng Đồ Đồng Mỹ Nghệ,Cửa hàng lưu niệm,024 6683 4296,"Cửa Hàng Đồ Đồng Mỹ Nghệ, 235 Đ. Lê Duẩn, Trung Phụng, Đống Đa, Hà Nội","Trung Phụng, Đống Đa",235 Đ. Lê Duẩn,Hà Nội,,"Đống Đa, Hà Nội",VN,"21.015456099999998,105.8415503"
213,ChIJTdL8ZJGsNTERv7OeCcNzvFY,Cửa Hàng Tiêu Dùng,Cửa hàng đồ gia dụng,0944 397 266,"Cửa Hàng Tiêu Dùng, 5B, Ngõ 376/14/1, Phố Khương Đình, Phường Hạ Đình, Quận Thanh Xuân, Hạ Đình, Thanh Xuân, Hà Nội","Hạ Đình, Thanh Xuân","5B, Ngõ 376/14/1, Phố Khương Đình, Phường Hạ Đình, Quận Thanh Xuân",Hà Nội,,"Thanh Xuân, Hà Nội",VN,"20.994139099999998,105.8134607"
214,ChIJDXWZp42rNTERVJXYTwxWshU,Cửa Hàng Minh Tân,Cửa hàng giày dép,024 3822 8202,"Cửa Hàng Minh Tân, 150 P. Bà Triệu, Nguyễn Du, Hai Bà Trưng, Hà Nội","Nguyễn Du, Hai Bà Trưng",150 P. Bà Triệu,Hà Nội,,"Hai Bà Trưng, Hà Nội",VN,"21.017118,105.84912489999999"
215,ChIJz4viVBCrNTERw8GLeroSAXs,Cửa Hàng Rèm Á Âu,Cửa hàng rèm và màn trập,0912 994 832,"Cửa Hàng Rèm Á Âu, 87 Ng. Chợ Khâm Thiên, Trung Phụng, Đống Đa, Hà Nội 100000","Trung Phụng, Đống Đa",87 Ng. Chợ Khâm Thiên,Hà Nội,100000.0,"Đống Đa, Hà Nội",VN,"21.016375,105.838155"
216,ChIJ2fXy4IOrNTERMQskmO0RCqA,Công Ty Cp Thời Trang Hanosimex,Cửa hàng quần áo,024 3573 7653,"Công Ty Cp Thời Trang Hanosimex, 394 P. Xã Đàn, Nam Đồng, Đống Đa, Hà Nội","Nam Đồng, Đống Đa",394 P. Xã Đàn,Hà Nội,,"Đống Đa, Hà Nội",VN,"21.0150679,105.8336396"
217,ChIJIRlO9merNTERhFehELyImHk,Cửa hàng viện bảo vệ thực vật,Cửa hàng chăm sóc sức khỏe và làm đẹp,0911 849 557,"Cửa hàng viện bảo vệ thực vật, số 8 Nguyễn Viết Xuân, Thanh Xuân, Hà nội, Hà Nội 100000","Quốc Tử Giám, Hà nội","số 8 Nguyễn Viết Xuân, Thanh Xuân",Hà Nội,100000.0,"Hà nội, Hà Nội",VN,"21.027763999999998,105.83416"
218,ChIJNc_rIPSrNTERT6KNWPROAhE,Cửa hàng thời trang trẻ em ILABY KIDS Bà Triệu - Hai Bà Trưng,Cửa hàng quần áo trẻ em,0339 298 886,"Cửa hàng thời trang trẻ em ILABY KIDS Bà Triệu - Hai Bà Trưng, 170 P. Bà Triệu, Nguyễn Du, Hai Bà Trưng, Hà Nội 100000","Nguyễn Du, Hai Bà Trưng",170 P. Bà Triệu,Hà Nội,100000.0,"Hai Bà Trưng, Hà Nội",VN,"21.016417399999998,105.8491329"
219,ChIJ0RmT85CrNTER-xgA-7ceaQA,COT design - style - store,Cửa hàng quần áo,0904 581 433,"COT design - style - store, 27b Ng. Tức Mặc, Cửa Nam, Hoàn Kiếm, Hà Nội","Cửa Nam, Hoàn Kiếm",27b Ng. Tức Mặc,Hà Nội,,"Hoàn Kiếm, Hà Nội",VN,"21.023336,105.8423773"
220,ChIJXXXl01SrNTERWeyCx43hvGw,Cửa Hàng Bán Sữa A2 Úc Tại Hà Nội,Cửa hàng,0904 669 973,"Cửa Hàng Bán Sữa A2 Úc Tại Hà Nội, Số 9 P. Đào Duy Anh, Phương Liên, Đống Đa, Hà Nội 100000","Phương Liên, Đống Đa",Số 9 P. Đào Duy Anh,Hà Nội,100000.0,"Đống Đa, Hà Nội",VN,"21.0085299,105.83870809999999"
221,ChIJe6Su4JarNTERGy9W1do_v-g,Cửa Hàng Trang Phục Lót Triumph,Cửa hàng đồ lót,024 3942 7736,"Cửa Hàng Trang Phục Lót Triumph, 57D P. Hai Bà Trưng, Trần Hưng Đạo, Hoàn Kiếm, Hà Nội","Trần Hưng Đạo, Hoàn Kiếm",57D P. Hai Bà Trưng,Hà Nội,,"Hoàn Kiếm, Hà Nội",VN,"21.0266597,105.84416"
222,ChIJ0_tEoJOJoDERoYBolclGvN4,Cửa Hàng Vật Liệu Ốp Tường,Cửa hàng nội thất,0901 030 442,"Cửa Hàng Vật Liệu Ốp Tường, 96 Đường Trần Hoàng Na, Khu dân cư 91B, Ninh Kiều, Cần Thơ","Khu dân cư 91B, Ninh Kiều",96 Đường Trần Hoàng Na,Cần Thơ,,"Ninh Kiều, Cần Thơ",VN,"10.021846,105.7538479"
223,ChIJxbIriimJoDERsxhl0fxrBAU,Nhi Nhi Shop Quần Áo Gym,Cửa hàng quần áo thể thao,0848 119 698,"Nhi Nhi Shop Quần Áo Gym, 132 Đ. 3 Tháng 2, Hưng Lợi, Ninh Kiều, Cần Thơ","Hưng Lợi, Ninh Kiều",132 Đ. 3 Tháng 2,Cần Thơ,,"Ninh Kiều, Cần Thơ",VN,"10.019700499999999,105.75909159999999"
224,ChIJg7jiSyqJoDERlroBEctQqAM,"Cửa hàng VNPT Vinaphone 3/2, Hưng Lợi, Ninh Kiều, Cần Thơ",Cửa hàng,0917 533 584,"2Q96+J36 Cửa hàng VNPT Vinaphone 3/2, Hưng Lợi, Ninh Kiều, Cần Thơ, Hẻm 132 Đ. 3 Tháng 2, An Binh, Ninh Kiều, Cần Thơ","An Binh, Ninh Kiều","2Q96+J36, Hẻm 132 Đ. 3 Tháng 2",Cần Thơ,,"Ninh Kiều, Cần Thơ",VN,"10.0190276,105.76015149999999"
225,ChIJcfPSQH-JoDERTMlWsPQ2FFc,Cửa Hàng Thực Phẩm HUỲNH ĐĂNG,Cửa hàng bán thực phẩm sạch,0919 803 869,"Cửa Hàng Thực Phẩm HUỲNH ĐĂNG, Số 67-69 Đường số 3, KDC CBGV, Đ. Nguyễn Văn Linh, Phường An Khánh, Ninh Kiều, Cần Thơ","Phường An Khánh, Ninh Kiều","Số 67-69 Đường số 3, KDC CBGV, Đ. Nguyễn Văn Linh",Cần Thơ,,"Ninh Kiều, Cần Thơ",VN,"10.0282357,105.758147"
226,ChIJTT8ed3-JoDERnm9Bucpn8g4,Cửa hàng VNPT Vinaphone_ Nguyễn Kim Chưng đường 3 tháng 2,Cửa hàng,0943 594 351,"2Q86+342 Cửa hàng VNPT Vinaphone_ Nguyễn Kim Chưng đường 3 tháng 2, Hẻm 83 Đ. 3 Tháng 2, Hưng Lợi, Ninh Kiều, Cần Thơ","Hưng Lợi, Ninh Kiều","2Q86+342, Hẻm 83 Đ. 3 Tháng 2",Cần Thơ,,"Ninh Kiều, Cần Thơ",VN,"10.0151492,105.7602594"
227,ChIJIQZublqJoDERF7n8UfyLGB0,Cửa hàng VNPT Vinaphone_ đường 3 tháng 3,Cửa hàng,0943 594 351,"Cửa hàng VNPT Vinaphone_ đường 3 tháng 3, hẻm 71 Đ. 3 Tháng 2, Hưng Lợi, Ninh Kiều, Cần Thơ 94000","Hưng Lợi, Ninh Kiều",hẻm 71 Đ. 3 Tháng 2,Cần Thơ,94000.0,"Ninh Kiều, Cần Thơ",VN,"10.0212294,105.7621147"
231,ChIJDcngbK-JoDERLfzeboOXk6w,Cửa hàng nội thất Hồng Phát,Cửa hàng nội thất,0966 459 869,"Cửa hàng nội thất Hồng Phát, 557 Đường 30/04, Hưng Lợi, Ninh Kiều, Cần Thơ 900000","Hưng Lợi, Ninh Kiều",557 Đường 30/04,Cần Thơ,900000.0,"Ninh Kiều, Cần Thơ",VN,"10.0117432,105.7601136"
232,ChIJjXggqcOJoDERnV2W6gyeWo4,Cửa hàng VNPT Vinaphone_nguyễn văn linh,Cửa hàng,0858 451 089,"Cửa hàng VNPT Vinaphone_nguyễn văn linh, 1b1 Đ. Nguyễn Văn Linh, Hưng Lợi, Ninh Kiều, Cần Thơ","Hưng Lợi, Ninh Kiều",1b1 Đ. Nguyễn Văn Linh,Cần Thơ,,"Ninh Kiều, Cần Thơ",VN,"10.020550799999999,105.76607589999999"
233,ChIJ3fF1DOGJoDERhPFSeIw3HhI,Cửa hàng áo Sunflowers,Cửa hàng áo thun,0374 555 197,"Cửa hàng áo Sunflowers, Hẻm 49 Đ. Trần Hoàng Na, Hưng Lợi, Ninh Kiều, Cần Thơ 90000","Hưng Lợi, Ninh Kiều",Hẻm 49 Đ. Trần Hoàng Na,Cần Thơ,90000.0,"Ninh Kiều, Cần Thơ",VN,"10.0116554,105.76468299999999"
234,ChIJjUuMUQCJoDERhh07fwrgqM0,Cửa hàng nước hoa PL Perfume,Cửa hàng mỹ phẩm,,"Cửa hàng nước hoa PL Perfume, 15A Đ. Mậu Thân, An Phú, Ninh Kiều, Cần Thơ","An Phú, Ninh Kiều",15A Đ. Mậu Thân,Cần Thơ,,"Ninh Kiều, Cần Thơ",VN,"10.033671799999999,105.7737356"
235,ChIJfcenVSOIoDERy4g3MDHEn6A,Cửa Hàng Dụng Cụ Điện Cầm Tay Thanh Hoàng,Cửa hàng thiết bị điện,0292 3734 560,"Cửa Hàng Dụng Cụ Điện Cầm Tay Thanh Hoàng, 136 Đ. 3 Tháng 2, Xuân Khánh, Ninh Kiều, Cần Thơ","Xuân Khánh, Ninh Kiều",136 Đ. 3 Tháng 2,Cần Thơ,,"Ninh Kiều, Cần Thơ",VN,"10.027865799999999,105.7705953"
236,ChIJXY6gyiGIoDERMtl55zKtwrw,Cửa Hàng Nước Hoa Dubai Cần Thơ - SUDUBAI,Cửa hàng mỹ phẩm,,"Cửa Hàng Nước Hoa Dubai Cần Thơ - SUDUBAI, 108/46/29 Đ. Nguyễn Việt Hồng, An Lạc, Ninh Kiều, Cần Thơ","An Lạc, Ninh Kiều",108/46/29 Đ. Nguyễn Việt Hồng,Cần Thơ,,"Ninh Kiều, Cần Thơ",VN,"10.031301,105.7794615"
237,ChIJ2e-4VZ9ioDERJetBMYoURBU,Cửa Hàng Bánh Pía - Lạp Xưởng Thanh Lâm 2,Cửa hàng bán thực phẩm đặc sản,0292 3815 303,"Cửa Hàng Bánh Pía - Lạp Xưởng Thanh Lâm 2, 8 Nguyễn Thái Học, Tân An, Ninh Kiều, Cần Thơ","Tân An, Ninh Kiều",8 Nguyễn Thái Học,Cần Thơ,,"Ninh Kiều, Cần Thơ",VN,"10.0323722,105.7875966"
238,ChIJH2whZyKIoDER_82azDjQmbw,Shop Minh Thư,Siêu thị,0292 3838 546,"Shop Minh Thư, 364 Đ. 30 Tháng 4, Xuân Khánh, Ninh Kiều, Cần Thơ","Xuân Khánh, Ninh Kiều",364 Đ. 30 Tháng 4,Cần Thơ,,"Ninh Kiều, Cần Thơ",VN,"10.0221588,105.7709939"
239,ChIJCUiD0hyIoDERLC0Ejvesw6A,Cửa Hàng Mắt Kính Văn Nhiều,Cửa hàng kính,0292 3825 453,"Cửa Hàng Mắt Kính Văn Nhiều, 60 Hùng Vương, An Cư, Ninh Kiều, Cần Thơ","An Cư, Ninh Kiều",60 Hùng Vương,Cần Thơ,,"Ninh Kiều, Cần Thơ",VN,"10.0433194,105.7782897"
242,ChIJQy3hfp9ioDERSkPdDUUePaM,Cửa Hàng Bánh Bao - Xíu Mại - Há Cảo Viễn Hưng,Tiệm bánh,0292 3814 134,"Cửa Hàng Bánh Bao - Xíu Mại - Há Cảo Viễn Hưng, 61 Võ Văn Tần, Tân An, Ninh Kiều, Cần Thơ 900000","Tân An, Ninh Kiều",61 Võ Văn Tần,Cần Thơ,900000.0,"Ninh Kiều, Cần Thơ",VN,"10.0324308,105.78528639999999"
244,ChIJR3IAwDWIoDERPdhl_witFxo,Cửa hàng trang trí ôtô Lê Hào,Cửa hàng phụ tùng xe ô tô,0909 365 369,"Cửa hàng trang trí ôtô Lê Hào, 64 Đ. 3 Tháng 2, Hưng Lợi, Ninh Kiều, Cần Thơ","Hưng Lợi, Ninh Kiều",64 Đ. 3 Tháng 2,Cần Thơ,,"Ninh Kiều, Cần Thơ",VN,"10.0146416,105.75859419999999"
247,ChIJEehXGySIoDERlpb1NiiFNk4,Cửa hàng Mẹ và Bé Cần Thơ - Thegioisosinh.com,Cửa hàng quần áo trẻ em,0869 287 887,"Cửa hàng Mẹ và Bé Cần Thơ - Thegioisosinh.com, 72-74 Đ. 30 Tháng 4, An Lạc, Ninh Kiều, Cần Thơ 902480","An Lạc, Ninh Kiều",72-74 Đ. 30 Tháng 4,Cần Thơ,902480.0,"Ninh Kiều, Cần Thơ",VN,"10.029843999999999,105.7799034"
248,ChIJ-45s8J9ioDERwEOWG3dEXAg,Shop Đồng hồ HƯNG PHÁT,Cửa hàng đồng hồ,0292 3815 369,"Shop Đồng hồ HƯNG PHÁT, 19 Đại Lộ, Đại lộ Hoà Bình, An Lạc, Ninh Kiều, Cần Thơ","An Lạc, Ninh Kiều","19 Đại Lộ, Đại lộ Hoà Bình",Cần Thơ,,"Ninh Kiều, Cần Thơ",VN,"10.031979699999999,105.78285389999999"
249,ChIJH8K4uaCJoDER0Z_tsUhDuIs,Cửa Hàng Gia Dụng HOÀNG NAM,Cửa hàng đồ gia dụng,0949 656 007,"2QH6+FHW Cửa Hàng Gia Dụng HOÀNG NAM, Đ. Số 7, Phường An Khánh, Ninh Kiều, Cần Thơ","Phường An Khánh, Ninh Kiều","2QH6+FHW, Đ. Số 7",Cần Thơ,,"Ninh Kiều, Cần Thơ",VN,"10.0286134,105.76138739999999"
250,ChIJ4Q-V8R-IoDER3a5Z4M_zMus,Mắt Kính 42 Cần Thơ,Người đo thị lực,0292 3734 906,"Mắt Kính 42 Cần Thơ, 42 Đ. Lý Tự Trọng, An Cư, Ninh Kiều, Cần Thơ 94000","An Cư, Ninh Kiều",42 Đ. Lý Tự Trọng,Cần Thơ,94000.0,"Ninh Kiều, Cần Thơ",VN,"10.0348131,105.779376"
251,ChIJiX7xPSKIoDER9Kg_0RvsGNc,Cửa Hàng Th True Milk,Cửa hàng tạp phẩm,,"Cửa Hàng Th True Milk, 95 Đ. Mậu Thân, An Phú, Ninh Kiều, Cần Thơ","An Phú, Ninh Kiều",95 Đ. Mậu Thân,Cần Thơ,,"Ninh Kiều, Cần Thơ",VN,"10.0315329,105.77496459999999"
252,ChIJO9iGkqBioDERqsyPlyc4LVc,Bụi Store Cần Thơ,Cửa hàng giày dép,0939 908 850,"Bụi Store Cần Thơ, Hẻm 97, Tân An, Ninh Kiều, Cần Thơ 90000","Tân An, Ninh Kiều",Hẻm 97,Cần Thơ,90000.0,"Ninh Kiều, Cần Thơ",VN,"10.0351775,105.78300569999999"
253,ChIJwepf76FioDERth8Lmj9JN4s,Bánh Mì Gà 37,Tiệm bánh,0292 3810 203,"Bánh Mì Gà 37, 37 Phan Đình Phùng, Tân An, Ninh Kiều, Cần Thơ","Tân An, Ninh Kiều",37 Phan Đình Phùng,Cần Thơ,,"Ninh Kiều, Cần Thơ",VN,"10.033042499999999,105.78695069999999"
254,ChIJnSLYXYOrNTERLe2g7uCymHY,Cửa Hàng Tùng Linh,Cửa hàng mỹ phẩm,0934 418 848,"Cửa Hàng Tùng Linh, 214 P. Khâm Thiên, Khâm Thiên, Đống Đa, Hà Nội","Khâm Thiên, Đống Đa",214 P. Khâm Thiên,Hà Nội,,"Đống Đa, Hà Nội",VN,"21.0192508,105.8353783"
255,ChIJNUrNT59ioDER0FrZRgr1_78,Cửa Hàng Khải Hoàn,Cửa hàng quần áo,0292 3820 147,"Cửa Hàng Khải Hoàn, 50 Phan Bội Châu, Tân An, Ninh Kiều, Cần Thơ","Tân An, Ninh Kiều",50 Phan Bội Châu,Cần Thơ,,"Ninh Kiều, Cần Thơ",VN,"10.031867,105.78691099999999"
257,ChIJZd_lrQ-IoDERbWNIROt4BUg,ĐẶC SẢN QUÊ NHÀ - ĐẶC SẢN CẦN THƠ,Cửa hàng bán thực phẩm đặc sản,0939 991 011,"ĐẶC SẢN QUÊ NHÀ - ĐẶC SẢN CẦN THƠ, Số 21 Đường số 25, KDC An Khánh, Ninh Kiều, Cần Thơ","KDC An Khánh, Ninh Kiều",Số 21 Đường số 25,Cần Thơ,,"Ninh Kiều, Cần Thơ",VN,"10.0400754,105.75498189999999"
258,ChIJZX_PaQiJoDERxl5dAGaB7vs,Mỹ phẩm chenny shop,Cửa hàng mỹ phẩm,,"Mỹ phẩm chenny shop, 58 Đ. Võ Trường Toản, An Hoà, Ninh Kiều, Cần Thơ","An Hoà, Ninh Kiều",58 Đ. Võ Trường Toản,Cần Thơ,,"Ninh Kiều, Cần Thơ",VN,"10.0486196,105.76571059999999"
259,ChIJeZg5AKeJoDERVmv0dVwzYhA,Cửa hàng thuốc thú y Huỳnh Mai,Hiệu thuốc thú y,0292 3834 446,"Cửa hàng thuốc thú y Huỳnh Mai, 246 Đ. Trần Hưng Đạo, An Nghiệp, Ninh Kiều, Cần Thơ","An Nghiệp, Ninh Kiều",246 Đ. Trần Hưng Đạo,Cần Thơ,,"Ninh Kiều, Cần Thơ",VN,"10.0330849,105.77483679999999"
261,ChIJn-vA3IarNTERdSERDg6J0rM,Cửa Hàng 8X Mobile,Cửa hàng điện thoại di động,024 3999 3333,"Cửa Hàng 8X Mobile, 248 P. Xã Đàn, Phương Liên, Đống Đa, Hà Nội","Phương Liên, Đống Đa",248 P. Xã Đàn,Hà Nội,,"Đống Đa, Hà Nội",VN,"21.0124151,105.8361264"
262,ChIJrbdZSwqJoDERfZzhhVfMoxA,Cửa Hàng Tạp Hóa Diễm My,Cửa hàng bách hóa,0292 2483 646,"Cửa Hàng Tạp Hóa Diễm My, 251 Ấp Mỹ Phước, Huyện Phong Điền, An Bình, Ninh Kiều, Cần Thơ","An Bình, Ninh Kiều","251 Ấp Mỹ Phước, Huyện Phong Điền",Cần Thơ,,"Ninh Kiều, Cần Thơ",VN,"9.9999404,105.74154"
263,ChIJxXIAnp5ioDERZW4FAV7ZYek,Kim Hoang My Lan Gold Shop,Cửa hàng,0292 3821 404,"Kim Hoang My Lan Gold Shop, 84 Đường Hai Bà Trưng, Tân An, Ninh Kiều, Cần Thơ","Tân An, Ninh Kiều",84 Đường Hai Bà Trưng,Cần Thơ,,"Ninh Kiều, Cần Thơ",VN,"10.0327308,105.7880661"
264,ChIJc8W0ywSJoDER7s_0hZHUHmg,Cửa Hàng Gas Việt Phương,Cửa hàng,,"Cửa Hàng Gas Việt Phương, số 91/36 Đ. 30 Tháng 4, Hưng Lợi, Ninh Kiều, Cần Thơ","Hưng Lợi, Ninh Kiều",số 91/36 Đ. 30 Tháng 4,Cần Thơ,,"Ninh Kiều, Cần Thơ",VN,"10.0105649,105.75837879999999"
265,ChIJt5bfPCKIoDERb8TM_u6-tg8,Cửa Hàng Điện Cơ Tấn Hậu,Cửa hàng thiết bị điện,0292 3832 088,"Cửa Hàng Điện Cơ Tấn Hậu, 142 Đ. Mậu Thân, An Phú, Ninh Kiều, Cần Thơ","An Phú, Ninh Kiều",142 Đ. Mậu Thân,Cần Thơ,,"Ninh Kiều, Cần Thơ",VN,"10.0313223,105.775504"
267,ChIJf9lXJbqrNTERnnqZ5yq6Lo0,Cửa hàng hoa tươi HOA XUÂN,Cửa hàng hoa,024 3934 9810,"Cửa hàng hoa tươi HOA XUÂN, 81B P. Hai Bà Trưng, Cửa Nam, Hoàn Kiếm, Hà Nội","Cửa Nam, Hoàn Kiếm",81B P. Hai Bà Trưng,Hà Nội,,"Hoàn Kiếm, Hà Nội",VN,"21.027079399999998,105.8427116"
268,ChIJW8kIy1-rNTERE2jtwWFDPkA,Cửa Hàng Bếp Gas Thành Đạt,Cửa hàng ga,024 3212 7887,"Cửa Hàng Bếp Gas Thành Đạt, Số 9 phố Trần Duy Hưng, Trung Hoà, Cầu Giấy, Hà Nội","Trung Hoà, Cầu Giấy",Số 9 phố Trần Duy Hưng,Hà Nội,,"Cầu Giấy, Hà Nội",VN,"21.0145731,105.8043845"
269,ChIJTy-5VDOIoDERIxrdYmnrJQU,Cửa Hàng Tạp Hoá Bách Sơn,Cửa hàng bách hóa,,"Cửa Hàng Tạp Hoá Bách Sơn, 17 Đ. Trần Hoàng Na, Hưng Lợi, Ninh Kiều, Cần Thơ","Hưng Lợi, Ninh Kiều",17 Đ. Trần Hoàng Na,Cần Thơ,,"Ninh Kiều, Cần Thơ",VN,"10.0130204,105.7634131"
271,ChIJbfO_N6BioDER2UE5zJ8oTeg,Cửa Hàng Áo Tắm Cao Cấp Lan Hạnh,Cửa hàng đồ bơi,0292 3828 728,"Cửa Hàng Áo Tắm Cao Cấp Lan Hạnh, 32 A, Đại lộ Hoà Bình, Tân An, Ninh Kiều, Cần Thơ","Tân An, Ninh Kiều","32 A, Đại lộ Hoà Bình",Cần Thơ,,"Ninh Kiều, Cần Thơ",VN,"10.0338309,105.78428"
272,ChIJl7TmAxyIoDERZ33KWieXoWA,Cửa Hàng Sơn Hà Xìl - sơn xịt SAMURAI,Cửa hàng sơn,0939 015 715,"Cửa Hàng Sơn Hà Xìl - sơn xịt SAMURAI, 68-68A Đ. Trần Hưng Đạo, An Cư, Ninh Kiều, Cần Thơ","An Cư, Ninh Kiều",68-68A Đ. Trần Hưng Đạo,Cần Thơ,,"Ninh Kiều, Cần Thơ",VN,"10.0386246,105.7765762"
275,ChIJmdzZohOIoDERN5H6hxoVxgs,Cửa Hàng Tôn Hiệp Hưng Cần Thơ,Cửa hàng,0292 3897 450,"Cửa Hàng Tôn Hiệp Hưng Cần Thơ, 132 Nguyễn Văn Cừ Nối Dài, Phường An Khánh, Ninh Kiều, Cần Thơ","Phường An Khánh, Ninh Kiều",132 Nguyễn Văn Cừ Nối Dài,Cần Thơ,,"Ninh Kiều, Cần Thơ",VN,"10.0405468,105.7623339"
277,ChIJexLG3yKJoDERCi5h-uLkSX4,Cửa Hàng Dụng Cụ Câu Cá Việt Thu,Cửa hàng bán đồ câu cá,0907 303 189,"Cửa Hàng Dụng Cụ Câu Cá Việt Thu, 7 Đ. Số 4, KDC Metro, Ninh Kiều, Cần Thơ 900000","KDC Metro, Ninh Kiều",7 Đ. Số 4,Cần Thơ,900000.0,"Ninh Kiều, Cần Thơ",VN,"10.0216073,105.76031169999999"
282,ChIJH1OXRBSJoDER0L-RBz2juSI,Cửa hàng 108 STORE - Điện thoại iPhone giá rẻ Cần Thơ,Cửa hàng điện thoại di động,0981 180 108,"Cửa hàng 108 STORE - Điện thoại iPhone giá rẻ Cần Thơ, 108/4 Hẻm 108 Đ. 30 Tháng 4, An Lạc, Ninh Kiều, Cần Thơ 94000","An Lạc, Ninh Kiều",108/4 Hẻm 108 Đ. 30 Tháng 4,Cần Thơ,94000.0,"Ninh Kiều, Cần Thơ",VN,"10.0293653,105.7791659"
284,ChIJxUKM25mrNTERSlf9xkWvfPA,Cửa hàng 100 năm dao kéo Sinh Tài,Cửa hàng dao,024 3843 3622,"Cửa hàng 100 năm dao kéo Sinh Tài, 15A P. Nguyễn Khuyến, Văn Miếu, Đống Đa, Hà Nội","Văn Miếu, Đống Đa",15A P. Nguyễn Khuyến,Hà Nội,,"Đống Đa, Hà Nội",VN,"21.0277718,105.8402808"
285,ChIJX4CyFiOIoDER1PTVz3Ntmy0,Cửa Hàng Mắt Kính Sao Việt,Cửa hàng,0932 273 737,"Cửa Hàng Mắt Kính Sao Việt, 106, Đường 3/2, Phường Xuân Khánh, Quận Ninh Kiều, Thành Phố Cần Thơ, Xuân Khánh, Ninh Kiều, Cần Thơ","Xuân Khánh, Ninh Kiều","106, Đường 3/2, Phường Xuân Khánh, Quận Ninh Kiều, Thành Phố Cần Thơ",Cần Thơ,,"Ninh Kiều, Cần Thơ",VN,"10.0294127,105.77215179999999"
286,ChIJ6YypMCGIoDERyzmSR2YLpe4,Cửa Hàng Vàng Bạc Kim Phát Hoàng,Cửa hàng phụ kiện thời trang,0859 829 633,"Cửa Hàng Vàng Bạc Kim Phát Hoàng, 180A đường 30 Tháng 4, phường An Phú, quận Ninh Kiều, thành phố Cần Thơ, tỉnh Cần Thơ, Xuân Khánh, Ninh Kiều, Cần Thơ","Xuân Khánh, Ninh Kiều","180A đường 30 Tháng 4, phường An Phú, quận Ninh Kiều, thành phố Cần Thơ, tỉnh Cần Thơ",Cần Thơ,,"Ninh Kiều, Cần Thơ",VN,"10.028158,105.77799859999999"
287,ChIJU6JgJVGIoDER_BmcU9B7cEQ,Công Ty Tnhh May Xuất Khẩu Việt Thành,Cửa hàng may,,"Công Ty Tnhh May Xuất Khẩu Việt Thành, 246 Đ. Hoàng Quốc Việt, An Bình, Ninh Kiều, Cần Thơ","An Bình, Ninh Kiều",246 Đ. Hoàng Quốc Việt,Cần Thơ,,"Ninh Kiều, Cần Thơ",VN,"10.019965,105.7419438"
288,ChIJc6j0bZCrNTER_ABmkw6723I,Cửa Hàng Mắt Kính Mạnh Long,Cửa hàng kính mát,024 3942 3002,"Cửa Hàng Mắt Kính Mạnh Long, 151 Đ. Lê Duẩn, Khâm Thiên, Hoàn Kiếm, Hà Nội","Khâm Thiên, Hoàn Kiếm",151 Đ. Lê Duẩn,Hà Nội,,"Hoàn Kiếm, Hà Nội",VN,"21.0214327,105.8415842"
289,ChIJl784lfuJoDERD_ZvhALnVJs,"Cửa hàng Obinest Cần Thơ ( chuyên vật tư - thiết bị nhà yến, loa nhà yến,mùi nhà yến..)",Cửa hàng,0933 617 379,"Cửa hàng Obinest Cần Thơ ( chuyên vật tư - thiết bị nhà yến, loa nhà yến,mùi nhà yến..), 211 Đ. Nguyễn Văn Linh, Hưng Lợi, Ninh Kiều, Cần Thơ","Hưng Lợi, Ninh Kiều",211 Đ. Nguyễn Văn Linh,Cần Thơ,,"Ninh Kiều, Cần Thơ",VN,"10.0209949,105.7653339"
290,ChIJ0ZappTKJoDER_HoDEjICiXo,Cửa Hàng Cà Phê 65,Quán cà phê,,"Cửa Hàng Cà Phê 65, Cầu 3, Đ. Nguyễn Văn Linh, Phường An Khánh, Ninh Kiều, Cần Thơ","Phường An Khánh, Ninh Kiều","Cầu 3, Đ. Nguyễn Văn Linh",Cần Thơ,,"Ninh Kiều, Cần Thơ",VN,"10.0274258,105.7564203"
292,ChIJSSzkdZ6JoDERrxD0_9-ENjk,Cửa Hàng Giày Paranoid Sneakers Store,Cửa hàng giày dép,0906 735 337,"Cửa Hàng Giày Paranoid Sneakers Store, hẻm 53 Đ. Lê Lai, An Phú, Ninh Kiều, Cần Thơ 94114","An Phú, Ninh Kiều",hẻm 53 Đ. Lê Lai,Cần Thơ,94114.0,"Ninh Kiều, Cần Thơ",VN,"10.032465499999999,105.7800891"
293,ChIJ7WSM1KFioDERCSEjKV2Frhw,Cửa Hàng Băng Đĩa Nhạc 42,Cửa hàng bán đồ điện tử,0292 3828 921,"Cửa Hàng Băng Đĩa Nhạc 42, 27 Phan Đình Phùng, Tân An, Ninh Kiều, Cần Thơ","Tân An, Ninh Kiều",27 Phan Đình Phùng,Cần Thơ,,"Ninh Kiều, Cần Thơ",VN,"10.033407799999999,105.7870112"
294,ChIJAzpQIKJioDERPUI-BSfO7n8,Cửa Hàng Điện Máy Điện Gia Dụng Hùng,Cửa hàng bán đồ điện tử,0292 3823 324,"Cửa Hàng Điện Máy Điện Gia Dụng Hùng, 32 Đ. Lê Thánh Tôn, Tân An, Ninh Kiều, Cần Thơ","Tân An, Ninh Kiều",32 Đ. Lê Thánh Tôn,Cần Thơ,,"Ninh Kiều, Cần Thơ",VN,"10.032513,105.7875545"
295,ChIJGZzG4qFioDERrVKK8nKVQDo,Cửa Hàng Máy Tính Casio Tại Cần Thơ,Cửa hàng bán đồ điện tử,0292 3822 137,"Cửa Hàng Máy Tính Casio Tại Cần Thơ, 28 Nguyễn Thái Học, Tân An, Ninh Kiều, Cần Thơ","Tân An, Ninh Kiều",28 Nguyễn Thái Học,Cần Thơ,,"Ninh Kiều, Cần Thơ",VN,"10.0324593,105.7872328"
296,ChIJaZrI1tyJoDERkGjYu5WO8jE,Màn cửa nệm LỘC PHÁT,Cửa hàng nội thất,0932 888 928,"Màn cửa nệm LỘC PHÁT, 393 Nguyễn Văn Cừ Nối Dài, An Bình, Ninh Kiều, Cần Thơ","An Bình, Ninh Kiều",393 Nguyễn Văn Cừ Nối Dài,Cần Thơ,,"Ninh Kiều, Cần Thơ",VN,"10.0210724,105.74259819999999"
297,ChIJl24qX4yrNTERlrnmB431nVs,Cửa Hàng Linh Kiện Điện Thoại 64,Cửa hàng điện thoại di động,0912 035 888,"Cửa Hàng Linh Kiện Điện Thoại 64, 64 P. Tuệ Tĩnh, Bùi Thị Xuân, Hai Bà Trưng, Hà Nội","Bùi Thị Xuân, Hai Bà Trưng",64 P. Tuệ Tĩnh,Hà Nội,,"Hai Bà Trưng, Hà Nội",VN,"21.015262399999997,105.8493838"
298,ChIJTX-D24OrNTERreH7IrTouDg,Cửa Hàng Giới Thiệu Sản Phẩm Vinamilk,Cửa hàng tạp phẩm,024 3577 3074,"Cửa Hàng Giới Thiệu Sản Phẩm Vinamilk, 418 P. Xã Đàn, Nam Đồng, Đống Đa, Hà Nội","Nam Đồng, Đống Đa",418 P. Xã Đàn,Hà Nội,,"Đống Đa, Hà Nội",VN,"21.015631499999998,105.8331632"
299,ChIJBVYpQ62JoDERsamJ_Wb87zU,Cửa Hàng Tạp Hóa Tuyết,Cửa hàng bách hóa,0292 3844 138,"Cửa Hàng Tạp Hóa Tuyết, 249, Đường Cái Sơn Hàng Bàng, Quận Cái Răng, An Bình, Ninh Kiều, Cần Thơ","An Bình, Ninh Kiều","249, Đường Cái Sơn Hàng Bàng, Quận Cái Răng",Cần Thơ,,"Ninh Kiều, Cần Thơ",VN,"10.0115442,105.74609819999999"
300,ChIJH8G2_jqIoDER7Cw0sU76zrY,Cửa Hàng Gỗ Tín Đức,Cửa hàng tạp phẩm,0988 811 379,"Cửa Hàng Gỗ Tín Đức, 75B Hẻm 132 Đ. 3 Tháng 2, Hưng Lợi, Ninh Kiều, Cần Thơ","Hưng Lợi, Ninh Kiều",75B Hẻm 132 Đ. 3 Tháng 2,Cần Thơ,,"Ninh Kiều, Cần Thơ",VN,"10.015322099999999,105.7597924"
301,ChIJXeiXxTWIoDER1QzusV7QFVc,Cửa Hàng Nội Thất Xuân Tín,Cửa hàng bán dụng cụ sửa nhà,0292 3838 529,"Cửa Hàng Nội Thất Xuân Tín, 99 Đ. 3 Tháng 2, Hưng Lợi, Ninh Kiều, Cần Thơ","Hưng Lợi, Ninh Kiều",99 Đ. 3 Tháng 2,Cần Thơ,,"Ninh Kiều, Cần Thơ",VN,"10.0165025,105.76079589999999"
304,ChIJ38z8OyGIoDERvyku7nWR2eI,Cửa Hàng Ống Nước - Điện Gia Dụng Hải Đăng,Cửa hàng thiết bị điện,0292 2225 148,"Cửa Hàng Ống Nước - Điện Gia Dụng Hải Đăng, 101C, Đường 30/04, Quận Ninh Kiều, Tp Cần Thơ, Xuân Khánh, Ninh Kiều, Cần Thơ","Xuân Khánh, Ninh Kiều","101C, Đường 30/04, Quận Ninh Kiều, Tp Cần Thơ",Cần Thơ,,"Ninh Kiều, Cần Thơ",VN,"10.0283217,105.77809029999999"
307,ChIJPcMDBp9ioDERmYWPnarPvUE,Cửa hàng Sơn Hứng - sơn xịt SAMURAI,Cửa hàng sơn,0987 001 022,"Cửa hàng Sơn Hứng - sơn xịt SAMURAI, 18 Đ. Điện Biên Phủ, Tân An, Ninh Kiều, Cần Thơ","Tân An, Ninh Kiều",18 Đ. Điện Biên Phủ,Cần Thơ,,"Ninh Kiều, Cần Thơ",VN,"10.0304056,105.7853676"
308,ChIJUTYBGuCJoDERp-nvUIxr3j8,Cửa Hàng Gas Khánh Khoa,Cửa hàng,0913 853 349,"Cửa Hàng Gas Khánh Khoa, 1/125 Sông Hậu, Cái Khế, Ninh Kiều, Cần Thơ","Cái Khế, Ninh Kiều",1/125 Sông Hậu,Cần Thơ,,"Ninh Kiều, Cần Thơ",VN,"10.0520047,105.7843307"
310,ChIJ7T-eBRyIoDER-5LQcc-6kmI,Cửa Hàng Trang Trí Nội Thất Anh Đô,Cửa hàng nội thất,0292 3833 755,"Cửa Hàng Trang Trí Nội Thất Anh Đô, 54 Đ. Trần Hưng Đạo, An Cư, Ninh Kiều, Cần Thơ","An Cư, Ninh Kiều",54 Đ. Trần Hưng Đạo,Cần Thơ,,"Ninh Kiều, Cần Thơ",VN,"10.0388818,105.7766432"
312,ChIJo6W6iwaIoDERfT2lcTfczfQ,Cửa Hàng Quần Áo Đinh Văn Thắng,Cửa hàng phụ kiện thời trang,0918 240 514,"Cửa Hàng Quần Áo Đinh Văn Thắng, 10B, Đường Đ. Trần Việt Châu, An Hoà, Ninh Kiều, Cần Thơ","An Hoà, Ninh Kiều","10B, Đường Đ. Trần Việt Châu",Cần Thơ,,"Ninh Kiều, Cần Thơ",VN,"10.0497827,105.7734339"
313,ChIJVTEYC1CIoDER8o-3fO6a8ps,Cửa Hàng Tạp Hoá Đỗ Quyên,Cửa hàng bách hóa,0966 777 738,"Cửa Hàng Tạp Hoá Đỗ Quyên, 245 Đ. Tú Xương, An Bình, Ninh Kiều, Cần Thơ","An Bình, Ninh Kiều",245 Đ. Tú Xương,Cần Thơ,,"Ninh Kiều, Cần Thơ",VN,"10.023338899999999,105.74548809999999"
314,ChIJTZs2n1qIoDERBvVMg7pt8OI,Cửa Hàng Điện Nước Châu Diễm,Cửa hàng thiết bị điện,0292 3891 344,"Cửa Hàng Điện Nước Châu Diễm, 183 Nguyễn Văn Cừ Nối Dài, An Bình, Ninh Kiều, Cần Thơ","An Bình, Ninh Kiều",183 Nguyễn Văn Cừ Nối Dài,Cần Thơ,,"Ninh Kiều, Cần Thơ",VN,"10.0244351,105.7460012"
315,ChIJh6MFsbSJoDERu7wAr7lcVIY,Cửa Hàng Điện Thoại Di Động Hông Công,Cửa hàng điện thoại di động,0939 613 136,"Cửa Hàng Điện Thoại Di Động Hông Công, 32/1 Đường 3/2 nối dài, An Bình, Ninh Kiều, Cần Thơ","An Bình, Ninh Kiều",32/1 Đường 3/2 nối dài,Cần Thơ,,"Ninh Kiều, Cần Thơ",VN,"10.0118408,105.7536714"
316,ChIJi8PgPYOrNTERalgbljHxvpQ,Cửa Hàng Giới Thiệu Và Bán Sản Phẩm Dệt Kim Đông Xuân,Cửa hàng,024 3851 6623,"Cửa Hàng Giới Thiệu Và Bán Sản Phẩm Dệt Kim Đông Xuân, 221 P. Khâm Thiên, Thổ Quan, Đống Đa, Hà Nội 10000","Thổ Quan, Đống Đa",221 P. Khâm Thiên,Hà Nội,10000.0,"Đống Đa, Hà Nội",VN,"21.019239,105.8332322"
317,ChIJVVK8EDGrNTERxjZiY4U-XXk,Cửa Hàng Quạt Điện Phú Hải Sơn Thuỷ,Cửa hàng bán đồ điện tử,0962 353 568,"Cửa Hàng Quạt Điện Phú Hải Sơn Thuỷ, 16 P. Đông Các, Chợ Dừa, Đống Đa, Hà Nội","Chợ Dừa, Đống Đa",16 P. Đông Các,Hà Nội,,"Đống Đa, Hà Nội",VN,"21.0181252,105.82910919999999"
318,ChIJZe0tBlCrNTER3u_3f5UYSLc,Cửa hàng mỹ phẩm chính hãng Winky Cosmetics,Cửa hàng mỹ phẩm,0348 240 832,"Cửa hàng mỹ phẩm chính hãng Winky Cosmetics, 44 P. Trần Hữu Tước, Nam Đồng, Đống Đa, Hà Nội","Nam Đồng, Đống Đa",44 P. Trần Hữu Tước,Hà Nội,,"Đống Đa, Hà Nội",VN,"21.015828799999998,105.83013009999999"
319,ChIJ-67lT5yrNTERkUiJa2RDBE8,Cửa Hàng Đèn Trang Trí Thành Lộc,Cửa hàng bán đồ điện tử,0989 083 544,"Cửa Hàng Đèn Trang Trí Thành Lộc, 162 P. Tôn Đức Thắng, Hàng Bột, Đống Đa, Hà Nội","Hàng Bột, Đống Đa",162 P. Tôn Đức Thắng,Hà Nội,,"Đống Đa, Hà Nội",VN,"21.0244037,105.83250079999999"
320,ChIJbScjP4WrNTERGYxytWsAGxc,Cửa Hàng Kính Mắt Nam Bắc Hải,Cửa hàng kính mát,0973 375 831,"Cửa Hàng Kính Mắt Nam Bắc Hải, 28 P. Khâm Thiên, Khâm Thiên, Đống Đa, Hà Nội","Khâm Thiên, Đống Đa",28 P. Khâm Thiên,Hà Nội,,"Đống Đa, Hà Nội",VN,"21.0190117,105.8393444"
323,ChIJKWsofjCIoDERdoNBtJbU-YU,Cửa Hàng Ổ Khóa Hiếu Sơn,Cửa hàng đồ gia dụng,0939 055 557,"Cửa Hàng Ổ Khóa Hiếu Sơn, 9 Đ. Nguyễn Văn Linh, Hưng Lợi, Ninh Kiều, Cần Thơ","Hưng Lợi, Ninh Kiều",9 Đ. Nguyễn Văn Linh,Cần Thơ,,"Ninh Kiều, Cần Thơ",VN,"10.020974299999999,105.7662592"
325,ChIJY8m1wjaIoDERt0XlAkgkbBM,VLXD & TTNT Trường Giang,Cửa hàng vật liệu xây dựng,0292 3782 723,"VLXD & TTNT Trường Giang, 199c Đ. 3 Tháng 2, Hưng Lợi, Ninh Kiều, Cần Thơ","Hưng Lợi, Ninh Kiều",199c Đ. 3 Tháng 2,Cần Thơ,,"Ninh Kiều, Cần Thơ",VN,"10.0205149,105.7643027"
326,ChIJTVmsvAyJoDERoMhH-zsgr9Q,Cửa Hàng Điện Thoại New Phones,Cửa hàng bán đồ điện tử,,"Cửa Hàng Điện Thoại New Phones, 5Đ, 218, Đ. Trần Hưng Đạo, An Phú, Ninh Kiều, Cần Thơ","An Phú, Ninh Kiều","5Đ, 218, Đ. Trần Hưng Đạo",Cần Thơ,,"Ninh Kiều, Cần Thơ",VN,"10.034817,105.77482599999999"
327,ChIJ492v_TqIoDERvNO11OebDa0,Cửa Hàng Mắt Kính Việt Anh,Cửa hàng,0907 305 606,"Cửa Hàng Mắt Kính Việt Anh, 45 Đ. 3 Tháng 2, Xuân Khánh, Ninh Kiều, Cần Thơ","Xuân Khánh, Ninh Kiều",45 Đ. 3 Tháng 2,Cần Thơ,,"Ninh Kiều, Cần Thơ",VN,"10.025141,105.7677051"
329,ChIJ2-EXbKBioDERnbX0RqlsEoE,Cửa Hàng Nước Đá,Cửa hàng rượu,0292 3810 488,"Cửa Hàng Nước Đá, 47 Đ. Nguyễn Khuyến, Tân An, Ninh Kiều, Cần Thơ","Tân An, Ninh Kiều",47 Đ. Nguyễn Khuyến,Cần Thơ,,"Ninh Kiều, Cần Thơ",VN,"10.034217499999999,105.783062"
331,ChIJm7HFQP6HoDERGDy1uLbuSrY,Cửa Hàng Điện Cơ Quốc Hùng,Cửa hàng thiết bị điện,0907 765 728,"Cửa Hàng Điện Cơ Quốc Hùng, Cái Khế, Ninh Kiều, Cần Thơ","Cái Khế, Ninh Kiều",,Cần Thơ,,"Ninh Kiều, Cần Thơ",VN,"10.055962599999999,105.7779765"
332,ChIJj2VtTkSJoDERzRdixr1Fm1w,Cửa hàng sữa TH truemilk,Cửa hàng,0292 3890 016,"Cửa hàng sữa TH truemilk, 36 Đ. Trần Việt Châu, Thới Bình, Ninh Kiều, Cần Thơ","Thới Bình, Ninh Kiều",36 Đ. Trần Việt Châu,Cần Thơ,,"Ninh Kiều, Cần Thơ",VN,"10.0478296,105.7750263"
333,ChIJgxns621joDERtypa7ifCXVA,Cửa Hàng Bé Phú 2,Cửa hàng đồ chơi,0939 159 588,"Cửa Hàng Bé Phú 2, 54 Đ. Nguyễn Đức Cảnh, An Hội, Ninh Kiều, Cần Thơ","An Hội, Ninh Kiều",54 Đ. Nguyễn Đức Cảnh,Cần Thơ,,"Ninh Kiều, Cần Thơ",VN,"10.0454147,105.7829043"
334,ChIJtUpIVH1joDERkN_u-tR8uhk,Cửa Hàng Đồ Chơi Trẻ Em TIẾN THÀNH,Cửa hàng đồ chơi,0918 707 042,"Cửa Hàng Đồ Chơi Trẻ Em TIẾN THÀNH, 140 Đ. Ung Văn Khiêm, An Hội, Ninh Kiều, Cần Thơ","An Hội, Ninh Kiều",140 Đ. Ung Văn Khiêm,Cần Thơ,,"Ninh Kiều, Cần Thơ",VN,"10.043782799999999,105.7837332"
335,ChIJQ2or4qFioDEROmeM56cQ130,Cửa Hàng Điện Máy 34B,Cửa hàng bán đồ điện tử,0292 3812 515,"Cửa Hàng Điện Máy 34B, 34 Nguyễn Thái Học, Tân An, Ninh Kiều, Cần Thơ","Tân An, Ninh Kiều",34 Nguyễn Thái Học,Cần Thơ,,"Ninh Kiều, Cần Thơ",VN,"10.0326098,105.7865468"
342,ChIJZ55yUQOIoDERxSDzwWtGWb4,Cửa Hàng Phụ Kiện Giá Sỉ,Cửa hàng mỹ phẩm,0917 572 624,"Cửa Hàng Phụ Kiện Giá Sỉ, 20 Hùng Vương, Thới Bình, Ninh Kiều, Cần Thơ","Thới Bình, Ninh Kiều",20 Hùng Vương,Cần Thơ,,"Ninh Kiều, Cần Thơ",VN,"10.0441194,105.7767224"
345,ChIJg5CyOASJoDERPg8S1XO20gw,Linh store,Cửa hàng mỹ phẩm,0974 567 858,"Linh store, 133 c Đ. Mậu Thân, An Hoà, Ninh Kiều, Cần Thơ","An Hoà, Ninh Kiều",133 c Đ. Mậu Thân,Cần Thơ,,"Ninh Kiều, Cần Thơ",VN,"10.046676,105.76250119999999"
346,ChIJw7FiNQ6IoDERjq2bgrK5m9M,CỬA HÀNG MAY TÂY ĐÔ,Cửa hàng quần áo công sở,0292 3894 093,"CỬA HÀNG MAY TÂY ĐÔ, 349 Đ. Nguyễn Văn Cừ, An Hoà, Ninh Kiều, Cần Thơ","An Hoà, Ninh Kiều",349 Đ. Nguyễn Văn Cừ,Cần Thơ,,"Ninh Kiều, Cần Thơ",VN,"10.0453563,105.7673222"
348,ChIJ7wCjkhKIoDERYniB5S2Fbk8,Cửa Hàng Tạp Hóa Kha,Cửa hàng bách hóa,0919 763 978,"2QV6+783 Cửa Hàng Tạp Hóa Kha, Nguyễn Văn Cừ Nối Dài, Phường An Khánh, Ninh Kiều, Cần Thơ","Phường An Khánh, Ninh Kiều","2QV6+783, Nguyễn Văn Cừ Nối Dài",Cần Thơ,,"Ninh Kiều, Cần Thơ",VN,"10.0431393,105.760785"
349,ChIJifq3RqKJoDERlrVBxrOlgsU,G-Garden,Cửa hàng thực phẩm hữu cơ,0352 900 991,"G-Garden, Hẻm 160 Liên Tổ 13, Phường An Khánh, Ninh Kiều, Cần Thơ","Phường An Khánh, Ninh Kiều",Hẻm 160 Liên Tổ 13,Cần Thơ,,"Ninh Kiều, Cần Thơ",VN,"10.0431485,105.759868"
350,ChIJT7Pm9BKIoDERlt46C-dApIY,Cửa Hàng Tự Chọn Bảo Thy,Cửa hàng tạp phẩm,0292 6260 399,"Cửa Hàng Tự Chọn Bảo Thy, 19 Hẻm liên tổ 12-13-14-15-16-17-18-19-20, Phường An Khánh, Ninh Kiều, Cần Thơ","Phường An Khánh, Ninh Kiều",19 Hẻm liên tổ 12-13-14-15-16-17-18-19-20,Cần Thơ,,"Ninh Kiều, Cần Thơ",VN,"10.0424729,105.7625358"
352,ChIJM2s-XxKIoDER-qW_ZW6eEPY,Cửa Hàng Nhôm Kính Cao Cấp Thành Đạt,Cửa hàng vật liệu xây dựng,0327 012 325,"Cửa Hàng Nhôm Kính Cao Cấp Thành Đạt, 151/17, Nguyễn Văn Cừ, Liên Tổ 12-20, Phường An Khánh, Ninh Kiều, Cần Thơ","Phường An Khánh, Ninh Kiều","151/17, Nguyễn Văn Cừ, Liên Tổ 12-20",Cần Thơ,,"Ninh Kiều, Cần Thơ",VN,"10.042893,105.7616288"
354,ChIJZ7mqTpCrNTERYzc_myJp9cU,Cửa Hàng Họa Phẩm,Cửa hàng tạp phẩm,024 3942 5149,"Cửa Hàng Họa Phẩm, 42 P. Yết Kiêu, Cửa Nam, Hoàn Kiếm, Hà Nội","Cửa Nam, Hoàn Kiếm",42 P. Yết Kiêu,Hà Nội,,"Hoàn Kiếm, Hà Nội",VN,"21.0218086,105.84269929999999"
355,ChIJr3kmrtKrNTERVzKaHoNKUjg,Cửa hàng hoa quả Hamona fruit,Cửa hàng bán thực phẩm đặc sản,0904 157 522,"Cửa hàng hoa quả Hamona fruit, 49C P. Trần Quốc Toản, Trần Hưng Đạo, Hoàn Kiếm, Hà Nội","Trần Hưng Đạo, Hoàn Kiếm",49C P. Trần Quốc Toản,Hà Nội,,"Hoàn Kiếm, Hà Nội",VN,"21.0199258,105.8482669"
356,ChIJKc-zFoerNTERf6ceFji5crQ,Cửa Hàng Lego House,Cửa hàng đồ mới lạ,,"Cửa Hàng Lego House, 2 P.Phạm Ngọc Thạch, Phương Liên, Đống Đa, Hà Nội","Phương Liên, Đống Đa",2 P.Phạm Ngọc Thạch,Hà Nội,,"Đống Đa, Hà Nội",VN,"21.010439299999998,105.83651479999999"
357,ChIJB3cv_3-rNTERtXIvhHfSW9I,Cửa hàng thu mua phế liệu THÀNH HUYỀN - 224 đường tàu lê Duẩn,Bãi thu gom sắt thép,0912 643 865,"Cửa hàng thu mua phế liệu THÀNH HUYỀN - 224 đường tàu lê Duẩn, 224 Đ. Lê Duẩn, Trung Phụng, Đống Đa, Hà Nội","Trung Phụng, Đống Đa",224 Đ. Lê Duẩn,Hà Nội,,"Đống Đa, Hà Nội",VN,"21.0164148,105.8412539"
358,ChIJieqBuourNTERCdoEJoQG7Rk,Cửa Hàng Giầy Xuất Khẩu,Cửa hàng giày dép,024 3978 1826,"Cửa Hàng Giầy Xuất Khẩu, 44 P. Lê Đại Hành, Lê Đại Hành, Hai Bà Trưng, Hà Nội","Lê Đại Hành, Hai Bà Trưng",44 P. Lê Đại Hành,Hà Nội,,"Hai Bà Trưng, Hà Nội",VN,"21.01125,105.848641"
359,ChIJJze4WuurNTEREww5KkMH5o8,Cửa Hàng Kính Thuốc,Cửa hàng,,"Cửa Hàng Kính Thuốc, 86 P. Thợ Nhuộm, Trần Hưng Đạo, Hoàn Kiếm, Hà Nội","Trần Hưng Đạo, Hoàn Kiếm",86 P. Thợ Nhuộm,Hà Nội,,"Hoàn Kiếm, Hà Nội",VN,"21.0231286,105.84849559999999"
360,ChIJjy4mP4WrNTER-ox4KHERetQ,Cửa Hàng Gốm Sứ Nhật Bản,Cửa hàng nội thất,0367 252 182,"Cửa Hàng Gốm Sứ Nhật Bản, 46 P. Khâm Thiên, Khâm Thiên, Đống Đa, Hà Nội","Khâm Thiên, Đống Đa",46 P. Khâm Thiên,Hà Nội,,"Đống Đa, Hà Nội",VN,"21.0190649,105.83888429999999"
361,ChIJPyZ-O4WrNTERsWz0uXjBBQw,Cửa Hàng Vàng Mã Loan Đạt,Cửa hàng,024 3518 0605,"Cửa Hàng Vàng Mã Loan Đạt, 37 P. Khâm Thiên, Khâm Thiên, Đống Đa, Hà Nội","Khâm Thiên, Đống Đa",37 P. Khâm Thiên,Hà Nội,,"Đống Đa, Hà Nội",VN,"21.018888999999998,105.8387255"
362,ChIJa-EEPrSJoDERZRDvrmrIc7g,Cửa hàng nội thất Tiến Nhanh,Cửa hàng đồ gia dụng,0963 630 302,"2Q62+Q78 Cửa hàng nội thất Tiến Nhanh, Đ. Trần Vĩnh Kiết, An Bình, Ninh Kiều, Cần Thơ","An Bình, Ninh Kiều","2Q62+Q78, Đ. Trần Vĩnh Kiết",Cần Thơ,,"Ninh Kiều, Cần Thơ",VN,"10.0119058,105.7507086"
363,ChIJvRbkOLKJoDERrYcX1S16ZOc,Cửa Hàng Tạp Hóa Lê Thị Kiều Oanh,Cửa hàng bách hóa,0772 365 225,"Cửa Hàng Tạp Hóa Lê Thị Kiều Oanh, Lô 41, Đường Lộ Vòng Cung, Phường An Bình, Quận Ninh Kiều, An Bình, Ninh Kiều, Cần Thơ","An Bình, Ninh Kiều","Lô 41, Đường Lộ Vòng Cung, Phường An Bình, Quận Ninh Kiều",Cần Thơ,,"Ninh Kiều, Cần Thơ",VN,"10.0083381,105.7487957"
364,ChIJeakIUEyIoDER_kQHqRIuFEI,Cửa Hàng Thời Trang Quần Áo Thể Thao Gi,Cửa hàng phụ kiện thời trang,,"Cửa Hàng Thời Trang Quần Áo Thể Thao Gi, 172D Đ. Trần Vĩnh Kiết, An Bình, Ninh Kiều, Cần Thơ","An Bình, Ninh Kiều",172D Đ. Trần Vĩnh Kiết,Cần Thơ,,"Ninh Kiều, Cần Thơ",VN,"10.0158088,105.7504321"
365,ChIJgT6kdUeIoDER8nhJ_qAJcu4,Cửa Hàng Trần Thị Diễm Ngân,Cửa hàng đồ gia dụng,0933 936 730,"Cửa Hàng Trần Thị Diễm Ngân, Số 337A, Đường, Đ. Nguyễn Văn Linh, Hưng Lợi, Ninh Kiều, Cần Thơ","Hưng Lợi, Ninh Kiều","Số 337A, Đường, Đ. Nguyễn Văn Linh",Cần Thơ,,"Ninh Kiều, Cần Thơ",VN,"10.0257956,105.75733419999999"
366,ChIJfZoVISOJoDERcSGMwQhUl9A,Cửa hàng thực phẩm chay Áo Nâu,Cửa hàng tạp phẩm,0907 137 357,"Cửa hàng thực phẩm chay Áo Nâu, 5 Đường B28, Khu dân cư 91B, Ninh Kiều, Cần Thơ","Khu dân cư 91B, Ninh Kiều",5 Đường B28,Cần Thơ,,"Ninh Kiều, Cần Thơ",VN,"10.0242919,105.75425369999999"
367,ChIJPaZ_7wSJoDERKJYO5UXA7P8,GIẤY DÁN TƯỜNG CẦN THƠ GIÁ SỈ,Cửa hàng nội thất,0394 092 248,"GIẤY DÁN TƯỜNG CẦN THƠ GIÁ SỈ, Số 25/12B, Hưng Lợi, Ninh Kiều, Cần Thơ","Hưng Lợi, Ninh Kiều",Số 25/12B,Cần Thơ,,"Ninh Kiều, Cần Thơ",VN,"10.023947099999999,105.75928929999999"
368,ChIJVYpFOjeIoDEROoAb0tVsK2w,Cửa Hàng Sữa Meiji Gold,Cửa hàng thực phẩm,0292 3832 262,"Cửa Hàng Sữa Meiji Gold, 200, Đường Ba Tháng Hai, Phường Hưng Lợi, Quận Ninh Kiều, Hưng Lợi, Ninh Kiều, Cần Thơ","Hưng Lợi, Ninh Kiều","200, Đường Ba Tháng Hai, Phường Hưng Lợi, Quận Ninh Kiều",Cần Thơ,,"Ninh Kiều, Cần Thơ",VN,"10.0208662,105.76358909999999"
369,ChIJywqOSjWIoDERbi4k3IBxJIQ,Cửa Hàng Màn tre Cần Thơ,Cửa hàng bán dụng cụ sửa nhà,0939 688 919,"Cửa Hàng Màn tre Cần Thơ, 551 Đ. 30 Tháng 4, Hưng Lợi, Ninh Kiều, Cần Thơ","Hưng Lợi, Ninh Kiều",551 Đ. 30 Tháng 4,Cần Thơ,,"Ninh Kiều, Cần Thơ",VN,"10.012075399999999,105.76003469999999"
370,ChIJcxhSUjeIoDERi8AzZCVgEXo,Phuc Loi Rice Store,Cửa hàng,0292 2210 908,"Phuc Loi Rice Store, Hưng Lợi, Ninh Kiều, Cần Thơ","Hưng Lợi, Ninh Kiều",,Cần Thơ,,"Ninh Kiều, Cần Thơ",VN,"10.0221663,105.76412479999999"
372,ChIJdcxr1T-IoDERY91K8N8tdug,Cửa Hàng Gạo An Phát,Cửa hàng gạo,0907 334 560,"Cửa Hàng Gạo An Phát, 14B Đ. Trần Nam Phú, Phường An Khánh, Ninh Kiều, Cần Thơ","Phường An Khánh, Ninh Kiều",14B Đ. Trần Nam Phú,Cần Thơ,,"Ninh Kiều, Cần Thơ",VN,"10.0333031,105.7619374"
373,ChIJ7z6HMCKIoDERoYPRUwcCdOg,Cửa Hàng Gas Cường Thịnh,Cửa hàng tạp phẩm,7103888888,"Cửa Hàng Gas Cường Thịnh, 33 Đ. Mậu Thân, An Phú, Ninh Kiều, Cần Thơ","An Phú, Ninh Kiều",33 Đ. Mậu Thân,Cần Thơ,,"Ninh Kiều, Cần Thơ",VN,"10.0309014,105.7752677"
374,ChIJX4Uj2NWJoDER7E-wxgFKu7Q,Cửa hàng Vinamilk,Cửa hàng tạp phẩm,0899 300 222,"Cửa hàng Vinamilk, 100 Đ. Mậu Thân, An Phú, Ninh Kiều, Cần Thơ","An Phú, Ninh Kiều",100 Đ. Mậu Thân,Cần Thơ,,"Ninh Kiều, Cần Thơ",VN,"10.0294855,105.77629499999999"
375,ChIJH5x2BxmIoDERmJvxZpjLf1I,Cửa Hàng Đặc Sản Tây Ninh Cô Hưng,Cửa hàng bán thực phẩm sạch,0949 410 045,"Cửa Hàng Đặc Sản Tây Ninh Cô Hưng, 8-10 Nguyễn Cư Trinh, An Phú, Ninh Kiều, Cần Thơ","An Phú, Ninh Kiều",8-10 Nguyễn Cư Trinh,Cần Thơ,,"Ninh Kiều, Cần Thơ",VN,"10.0361197,105.7732992"
376,ChIJ8wGUKCKIoDERbI50_XnJUo8,Cửa Hàng Giày Dép 26 Mậu Thân,Cửa hàng giày dép,0292 3822 643,"Cửa Hàng Giày Dép 26 Mậu Thân, 26, Đường Mậu Thân, Quận Ninh Kiều, Tp Cần Thơ, Xuân Khánh, Ninh Kiều, Cần Thơ","Xuân Khánh, Ninh Kiều","26, Đường Mậu Thân, Quận Ninh Kiều, Tp Cần Thơ",Cần Thơ,,"Ninh Kiều, Cần Thơ",VN,"10.0304007,105.7759342"
377,ChIJs_53YCKIoDERcvZMDZnWOYA,Cửa hàng thịt trâu bò Mai,Cửa hàng bán thực phẩm sạch,0292 3833 162,"Cửa hàng thịt trâu bò Mai, 31 Đ. 3 Tháng 2, An Phú, Ninh Kiều, Cần Thơ","An Phú, Ninh Kiều",31 Đ. 3 Tháng 2,Cần Thơ,,"Ninh Kiều, Cần Thơ",VN,"10.031695,105.77338519999999"
378,ChIJewzx2B-IoDERT7D8eTV6CiU,Cửa Hàng Tạp Hóa Quế Vân,Cửa hàng tạp hóa,,"Cửa Hàng Tạp Hóa Quế Vân, 65 Đ. Đề Thám, Tân An, Ninh Kiều, Cần Thơ","Tân An, Ninh Kiều",65 Đ. Đề Thám,Cần Thơ,,"Ninh Kiều, Cần Thơ",VN,"10.0343064,105.7819746"
379,ChIJH7-A_6FioDERoKuIqr38ANs,Cửa Hàng Kinh Doanh Mùng Gối Tăng Kim Anh,Cửa hàng bán thảm,0817 507 940,"Cửa Hàng Kinh Doanh Mùng Gối Tăng Kim Anh, Đường Đường Hai Bà Trưng, Tân An, Ninh Kiều, Cần Thơ","Tân An, Ninh Kiều",Đường Đường Hai Bà Trưng,Cần Thơ,,"Ninh Kiều, Cần Thơ",VN,"10.0324972,105.78793429999999"
381,ChIJFSh3IaJioDERbTF9nTSaVCw,Cửa Hàng Tạp Hoá Nám,Cửa hàng bách hóa,0292 3828 198,"Cửa Hàng Tạp Hoá Nám, 50 Đường Hai Bà Trưng, Tân An, Ninh Kiều, Cần Thơ","Tân An, Ninh Kiều",50 Đường Hai Bà Trưng,Cần Thơ,,"Ninh Kiều, Cần Thơ",VN,"10.0338584,105.78824689999999"
382,ChIJsSDvT59ioDERXdi3TmxBI2Q,Cửa Hàng Thanh Hùng,Cửa hàng,0292 3822 401,"Cửa Hàng Thanh Hùng, 28 Phan Bội Châu, Tân An, Ninh Kiều, Cần Thơ","Tân An, Ninh Kiều",28 Phan Bội Châu,Cần Thơ,,"Ninh Kiều, Cần Thơ",VN,"10.031778599999999,105.7875778"
383,ChIJeV0rl59ioDER_K1QawqzjXQ,Thuan Food Grocery Store,Siêu thị,0292 3830 934,"Thuan Food Grocery Store, 114 Đường Châu Văn Liêm, Tân An, Ninh Kiều, Cần Thơ","Tân An, Ninh Kiều",114 Đường Châu Văn Liêm,Cần Thơ,,"Ninh Kiều, Cần Thơ",VN,"10.031476699999999,105.78423989999999"
384,ChIJjy6tzKFioDEROL3k3xi-gAk,Cửa Hàng Kế Tường,Cửa hàng,0292 3821 386,"Cửa Hàng Kế Tường, 9 Đ. Đồng Khởi, Tân An, Ninh Kiều, Cần Thơ","Tân An, Ninh Kiều",9 Đ. Đồng Khởi,Cần Thơ,,"Ninh Kiều, Cần Thơ",VN,"10.0337658,105.7850514"
385,ChIJ_1QPhqtjoDER7Vk3iYAp3Ig,Ga nệm Cần Thơ,Cửa hàng bán ga giường,0939 808 862,"Ga nệm Cần Thơ, 1 1/24B KV3, Sông Hậu, Cái Khế, Ninh Kiều, Cần Thơ","Cái Khế, Ninh Kiều","1 1/24B KV3, Sông Hậu",Cần Thơ,,"Ninh Kiều, Cần Thơ",VN,"10.0582659,105.78116209999999"
386,ChIJq6qqqq5ioDERI13VK6A2YNE,Cửa Hàng Tạp Hóa Chúc,Cửa hàng bách hóa,0902 359 342,"Cửa Hàng Tạp Hóa Chúc, Kios 25, Nhà Lồng 3, Trung Tâm Thương Mại Cái Khế, Phường Cái Khế, Quận Ninh Kiều, Thành Phố Cần Thơ, Cái Khế, Ninh Kiều, Cần Thơ","Cái Khế, Ninh Kiều","Kios 25, Nhà Lồng 3, Trung Tâm Thương Mại Cái Khế, Phường Cái Khế, Quận Ninh Kiều, Thành Phố Cần Thơ",Cần Thơ,,"Ninh Kiều, Cần Thơ",VN,"10.0480316,105.78784999999999"
387,ChIJ0QPwVJ9ioDERfT4w9rYyOkM,Cửa Hàng Chánh Mậu,Cửa hàng,0292 3824 863,"Cửa Hàng Chánh Mậu, 4 Nguyễn Thái Học, Tân An, Ninh Kiều, Cần Thơ","Tân An, Ninh Kiều",4 Nguyễn Thái Học,Cần Thơ,,"Ninh Kiều, Cần Thơ",VN,"10.032026799999999,105.7878118"
388,ChIJq6qqqq5ioDERQIkYOaAmgac,Cửa Hàng Trang Sức Kim Ngân,Nhà kim hoàn,0939 075 277,"Cửa Hàng Trang Sức Kim Ngân, Kios 61, Nhà Lồng 3, Trung Tâm Thương Mại Cái Khế, Phường Cái Khế, Quận Ninh Kiều, Thành Phố Cần Thơ, Cái Khế, Ninh Kiều, Cần Thơ","Cái Khế, Ninh Kiều","Kios 61, Nhà Lồng 3, Trung Tâm Thương Mại Cái Khế, Phường Cái Khế, Quận Ninh Kiều, Thành Phố Cần Thơ",Cần Thơ,,"Ninh Kiều, Cần Thơ",VN,"10.048589699999999,105.7879371"
389,ChIJf51c-yCIoDER1GscTjwujxE,Cửa Hàng Y- Nha Khoa Nguyễn Vui,Cửa hàng dụng cụ,0292 3813 841,"Cửa Hàng Y- Nha Khoa Nguyễn Vui, 154 Nguyễn Trãi, An Hội, Ninh Kiều, Cần Thơ","An Hội, Ninh Kiều",154 Nguyễn Trãi,Cần Thơ,,"Ninh Kiều, Cần Thơ",VN,"10.0446644,105.7809494"
390,ChIJ_8xMIqJioDERrhd1CKdTmac,Cửa Hàng Gốm Sứ Bát Tràng Việt Nam,Cửa hàng,0292 3824 565,"Cửa Hàng Gốm Sứ Bát Tràng Việt Nam, 46 Đường Hai Bà Trưng, Tân An, Ninh Kiều, Cần Thơ 21000","Tân An, Ninh Kiều",46 Đường Hai Bà Trưng,Cần Thơ,21000.0,"Ninh Kiều, Cần Thơ",VN,"10.033984799999999,105.7883818"
391,ChIJq6qqqq5ioDERK64YJuET4ds,Cửa Hàng Gia Công Vàng Bạc Phúc Lộc,Nhà kim hoàn,0292 3768 826,"Cửa Hàng Gia Công Vàng Bạc Phúc Lộc, Lô 33, Trung Tâm Thương Mại Cái Khế, Phường Cái Khế, Quận Ninh Kiều, Thành Phố Cần Thơ, Cái Khế, Ninh Kiều, Cần Thơ","Cái Khế, Ninh Kiều","Lô 33, Trung Tâm Thương Mại Cái Khế, Phường Cái Khế, Quận Ninh Kiều, Thành Phố Cần Thơ",Cần Thơ,,"Ninh Kiều, Cần Thơ",VN,"10.048589699999999,105.7879371"
392,ChIJowhDWKBioDER0elGJ_YIyGc,Cửa Hàng Xe Máy Sơn Nam,Cửa hàng xe máy,0292 3832 547,"Cửa Hàng Xe Máy Sơn Nam, 25 Đ. Nguyễn Khuyến, Tân An, Ninh Kiều, Cần Thơ","Tân An, Ninh Kiều",25 Đ. Nguyễn Khuyến,Cần Thơ,,"Ninh Kiều, Cần Thơ",VN,"10.034243799999999,105.78320459999999"
397,ChIJuQcajAOIoDERDpKn3XJWJPU,Cửa Hàng Dịch Vụ Thuốc Thú Y Ninh Kiều,Hiệu thuốc,,"Cửa Hàng Dịch Vụ Thuốc Thú Y Ninh Kiều, 53, Đường Cách Mạng Tháng 8, Quận Ninh Kiều, TP.Cần Thơ","Thới Bình, Ninh Kiều","53, Đường Cách Mạng Tháng 8, Quận Ninh Kiều, TP.Cần Thơ",Cần Thơ,,"Ninh Kiều, Cần Thơ",VN,"10.0485318,105.7767587"
404,ChIJIxGCehyIoDERlnZJRroGbao,Cửa Hàng Sữa Liên Hưng,Cửa hàng,,"Cửa Hàng Sữa Liên Hưng, 15 Đ. Huỳnh Thúc Kháng, An Cư, Ninh Kiều, Cần Thơ","An Cư, Ninh Kiều",15 Đ. Huỳnh Thúc Kháng,Cần Thơ,,"Ninh Kiều, Cần Thơ",VN,"10.0402933,105.7767777"
405,ChIJOQRYmgSIoDERd2dAfDNaQeU,Cửa Hàng Satrafoods,Cửa hàng bán thực phẩm sạch,7103846220,"Cửa Hàng Satrafoods, 77C Đ. Phạm Ngũ Lão, Thới Bình, Ninh Kiều, Cần Thơ","Thới Bình, Ninh Kiều",77C Đ. Phạm Ngũ Lão,Cần Thơ,,"Ninh Kiều, Cần Thơ",VN,"10.045586499999999,105.77579809999999"
406,ChIJB04CVZGJoDERm76eSSkNPlM,Cửa Hàng Tuấn Anh,Cửa hàng đồ gia dụng,0907 370 861,"Cửa Hàng Tuấn Anh, 107/90 Hoàng Văn Thụ, An Cư, Ninh Kiều, Cần Thơ","An Cư, Ninh Kiều",107/90 Hoàng Văn Thụ,Cần Thơ,,"Ninh Kiều, Cần Thơ",VN,"10.0386411,105.7818171"
407,ChIJ6dE4LhmIoDERt6XH_kjJkXw,Cửa Hàng Cửa Nhựa Eurostyle,Cửa hàng đồ gia dụng,0292 6518 679,"Cửa Hàng Cửa Nhựa Eurostyle, 148 Đ. Trần Hưng Đạo, P, Ninh Kiều, Cần Thơ 900000","P, Ninh Kiều",148 Đ. Trần Hưng Đạo,Cần Thơ,900000.0,"Ninh Kiều, Cần Thơ",VN,"10.0369017,105.77592209999999"
409,ChIJbVWrMB-IoDERsK9FaOpZrwA,Cửa Hàng Dụng Cụ Y Tế Ngọc Giao,Cửa hàng,0292 3830 117,"Cửa Hàng Dụng Cụ Y Tế Ngọc Giao, 62 Đ. Trần Hưng Đạo, An Cư, Ninh Kiều, Cần Thơ","An Cư, Ninh Kiều",62 Đ. Trần Hưng Đạo,Cần Thơ,,"Ninh Kiều, Cần Thơ",VN,"10.0389122,105.77663349999999"
410,ChIJDZNDvwSIoDERsfM-xK_idTc,A Chau Rice Store,Cửa hàng,0292 6290 189,"A Chau Rice Store, 134C Đ. Phạm Ngũ Lão, Thới Bình, Ninh Kiều, Cần Thơ 900000","Thới Bình, Ninh Kiều",134C Đ. Phạm Ngũ Lão,Cần Thơ,900000.0,"Ninh Kiều, Cần Thơ",VN,"10.044784,105.7746209"
411,ChIJ-T7j7xGIoDERV0r0n701mr4,Van Anh Mobile Store,Cửa hàng,0292 3891 456,"Van Anh Mobile Store, 335 Đ. Nguyễn Văn Cừ, An Hoà, Ninh Kiều, Cần Thơ","An Hoà, Ninh Kiều",335 Đ. Nguyễn Văn Cừ,Cần Thơ,,"Ninh Kiều, Cần Thơ",VN,"10.0455407,105.7674464"
412,ChIJq6qqBw-IoDERM4QWJL4Q-vs,Cửa Hàng Ngọc Khóa Việt Tiệp,Cửa hàng,0292 3827 384,"Cửa Hàng Ngọc Khóa Việt Tiệp, 28 Đ. Nguyễn Văn Cừ, An Hoà, Ninh Kiều, Cần Thơ","An Hoà, Ninh Kiều",28 Đ. Nguyễn Văn Cừ,Cần Thơ,,"Ninh Kiều, Cần Thơ",VN,"10.047019299999999,105.76794439999999"
413,ChIJq6qqBw-IoDERXyvmrtJ09rk,Cửa Hàng VLXD Ngọc Vinh,Cửa hàng vật liệu xây dựng,0292 3896 117,"Cửa Hàng VLXD Ngọc Vinh, 175, Đường Nguyễn Văn Cừ, Phường An Hoà, Quận Ninh Kiều, Tp Cần Thơ, An Hoà, Ninh Kiều, Cần Thơ","An Hoà, Ninh Kiều","175, Đường Nguyễn Văn Cừ, Phường An Hoà, Quận Ninh Kiều, Tp Cần Thơ",Cần Thơ,,"Ninh Kiều, Cần Thơ",VN,"10.047019299999999,105.76794439999999"
414,ChIJa9xlyw-IoDERQ04kxKWMVN8,Cửa Hàng Điện Thoại Di Động Hưng Nguyễn,Cửa hàng điện thoại di động,0904 535 158,"Cửa Hàng Điện Thoại Di Động Hưng Nguyễn, 335 Đ. Nguyễn Văn Cừ, An Hoà, Ninh Kiều, Cần Thơ","An Hoà, Ninh Kiều",335 Đ. Nguyễn Văn Cừ,Cần Thơ,,"Ninh Kiều, Cần Thơ",VN,"10.0455407,105.7674464"
415,ChIJq6qqBw-IoDERness_z9Slc0,Cửa Hàng Gas Phương Nam,Cửa hàng,0292 3898 222,"Cửa Hàng Gas Phương Nam, 10A K4 Đ. Nguyễn Văn Cừ, An Hoà, Ninh Kiều, Cần Thơ","An Hoà, Ninh Kiều",10A K4 Đ. Nguyễn Văn Cừ,Cần Thơ,,"Ninh Kiều, Cần Thơ",VN,"10.047019299999999,105.76794439999999"
416,ChIJD5BAuGuIoDERbXAoC4eaIfQ,Cửa Hàng Điện Thoại,Cửa hàng điện thoại di động,0938 238 861,"Cửa Hàng Điện Thoại, 75 Đ. số 30, Phường An Khánh, Ninh Kiều, Cần Thơ","Phường An Khánh, Ninh Kiều",75 Đ. số 30,Cần Thơ,,"Ninh Kiều, Cần Thơ",VN,"10.0375338,105.7541239"
418,ChIJ22uERWiJoDER9eZP8WV-qU0,Cửa hàng Thực phẩm Thuỷ Sản Cần Thơ,Cửa hàng tạp phẩm,0902 010 615,"Cửa hàng Thực phẩm Thuỷ Sản Cần Thơ, 14 Đường số 23, Phường An Khánh, Ninh Kiều, Cần Thơ","Phường An Khánh, Ninh Kiều",14 Đường số 23,Cần Thơ,,"Ninh Kiều, Cần Thơ",VN,"10.0390979,105.75746769999999"
419,ChIJIWTQtn-JoDERwBIvPjB4ep8,Cửa Hàng ĐTDĐ Văn Apple Cần Thơ,Cửa hàng điện thoại di động,0386 145 679,"Cửa Hàng ĐTDĐ Văn Apple Cần Thơ, 75b Đ. Phạm Thế Hiển, Phường An Khánh, Ninh Kiều, Cần Thơ","Phường An Khánh, Ninh Kiều",75b Đ. Phạm Thế Hiển,Cần Thơ,,"Ninh Kiều, Cần Thơ",VN,"10.039500799999999,105.7566635"
420,ChIJJ5bitv-JoDERuk-jaug-LDY,Cửa Hàng Thiên Hoa Sen,Cửa hàng tạp phẩm,0939 858 793,"Cửa Hàng Thiên Hoa Sen, 55 Đ. Số 2, KDC Thới Nhựt 1, Ninh Kiều, Cần Thơ","KDC Thới Nhựt 1, Ninh Kiều",55 Đ. Số 2,Cần Thơ,,"Ninh Kiều, Cần Thơ",VN,"10.0425457,105.7542174"
421,ChIJfz9_2WqIoDERJH9I69R2Vlo,Cửa Hàng Màn Cửa - Nệm Cao Cấp Hoàng Gia,Cửa hàng nội thất,0961 509 599,"Cửa Hàng Màn Cửa - Nệm Cao Cấp Hoàng Gia, 394 Đ. Nguyễn Văn Cừ, Phường An Khánh, Ninh Kiều, Cần Thơ","Phường An Khánh, Ninh Kiều",394 Đ. Nguyễn Văn Cừ,Cần Thơ,,"Ninh Kiều, Cần Thơ",VN,"10.0361183,105.7578585"
422,ChIJ4RpnQFGIoDERcj9XDPlbG1U,Cửa Hàng Điện Nước Minh Tuấn,Cửa hàng thiết bị điện,0292 3898 580,"Cửa Hàng Điện Nước Minh Tuấn, 401 Đ.Xuân Thủy, An Bình, Ninh Kiều, Cần Thơ","An Bình, Ninh Kiều",401 Đ.Xuân Thủy,Cần Thơ,,"Ninh Kiều, Cần Thơ",VN,"10.019632999999999,105.7426945"
423,ChIJDUQsQ1GIoDERYm0Q3ovn1Z0,Cửa Hàng Thực Phẩm Chay Diệu Hiền,Cửa hàng tạp phẩm,0944 550 775,"Cửa Hàng Thực Phẩm Chay Diệu Hiền, 315 Cái Sơn Hàng Bàng, An Bình, Ninh Kiều, Cần Thơ","An Bình, Ninh Kiều",315 Cái Sơn Hàng Bàng,Cần Thơ,,"Ninh Kiều, Cần Thơ",VN,"10.019019499999999,105.7423086"
424,ChIJyZBb3lCIoDERBiN8bMQI2FQ,Cửa Hàng Nội Thất Gỗ Việt Nhung,Cửa hàng nội thất,0916 277 799,"Cửa Hàng Nội Thất Gỗ Việt Nhung, 393AA Nguyễn Văn Cừ Nối Dài, An Bình, Ninh Kiều, Cần Thơ","An Bình, Ninh Kiều",393AA Nguyễn Văn Cừ Nối Dài,Cần Thơ,,"Ninh Kiều, Cần Thơ",VN,"10.021254599999999,105.74226469999999"
425,ChIJC97M5vOJoDERJvmZ2IqQx3U,Cửa Hàng Xe Máy TÂN LẬP HƯNG,Cửa hàng xe máy,0795 929 689,"Cửa Hàng Xe Máy TÂN LẬP HƯNG, 174 Đ. Hoàng Quốc Việt, An Bình, Ninh Kiều, Cần Thơ","An Bình, Ninh Kiều",174 Đ. Hoàng Quốc Việt,Cần Thơ,,"Ninh Kiều, Cần Thơ",VN,"10.0152025,105.74433599999999"
426,ChIJq6qqqhWIoDERh10W9-vTKko,Cửa Hàng Điện Thoại Di Động ĐỘC và LẠ 3,Cửa hàng điện thoại di động,0939 397 393,"Cửa Hàng Điện Thoại Di Động ĐỘC và LẠ 3, 107 Nguyễn Văn Cừ Nối Dài, Phường An Khánh, Ninh Kiều, Cần Thơ","Phường An Khánh, Ninh Kiều",107 Nguyễn Văn Cừ Nối Dài,Cần Thơ,,"Ninh Kiều, Cần Thơ",VN,"10.025714899999999,105.7473873"
427,ChIJ_3SGDgOJoDERqTsHiU8c5fs,Cửa hàng Dê Ngon 79 sỉ và lẻ,Cửa hàng tạp phẩm,,"Cửa hàng Dê Ngon 79 sỉ và lẻ, 120 Đ. Tú Xương, An Bình, Ninh Kiều, Cần Thơ","An Bình, Ninh Kiều",120 Đ. Tú Xương,Cần Thơ,,"Ninh Kiều, Cần Thơ",VN,"10.0251997,105.74726229999999"
428,ChIJyYjwWiGJoDERl47MkLlrj8w,CỬA HÀNG XE PHẨM XUÂN,Cửa hàng xe máy,0702 525 283,"CỬA HÀNG XE PHẨM XUÂN, 177 Đ.Xuân Thủy, An Bình, Ninh Kiều, Cần Thơ","An Bình, Ninh Kiều",177 Đ.Xuân Thủy,Cần Thơ,,"Ninh Kiều, Cần Thơ",VN,"10.023142199999999,105.746264"
429,ChIJB0ggrKGrNTERbfPn3B_3R9g,Chụt Store,Cửa hàng bán đồ điện tử,,"Chụt Store, 15 Ng. 4 P.Đặng Văn Ngữ, Trung Tự, Đống Đa, Hà Nội","Trung Tự, Đống Đa",15 Ng. 4 P.Đặng Văn Ngữ,Hà Nội,,"Đống Đa, Hà Nội",VN,"21.0101837,105.8344298"
430,ChIJH6omX4WrNTERt_yi02BMbpE,Cửa Hàng Cặp - Túi Xách Chính Nga,Cửa hàng phụ kiện thời trang,024 3516 2698,"Cửa Hàng Cặp - Túi Xách Chính Nga, 2 P. Khâm Thiên, Khâm Thiên, Đống Đa, Hà Nội","Khâm Thiên, Đống Đa",2 P. Khâm Thiên,Hà Nội,,"Đống Đa, Hà Nội",VN,"21.0189734,105.8402785"
431,ChIJZRfyLpCrNTERiwiWOtUr9Hw,Cửa Hàng Bảo Hộ Lao Động,Cửa hàng tạp phẩm,024 3942 7886,"Cửa Hàng Bảo Hộ Lao Động, 86 P. Nguyễn Du, Trần Hưng Đạo, Hai Bà Trưng, Hà Nội","Trần Hưng Đạo, Hai Bà Trưng",86 P. Nguyễn Du,Hà Nội,,"Hai Bà Trưng, Hà Nội",VN,"21.0201416,105.84353619999999"
432,ChIJwVJAUo-rNTER1iCr06U2omk,Đồ Gỗ Mỹ Nghệ Minh Châu,Cửa hàng nội thất,0915 312 468,"Đồ Gỗ Mỹ Nghệ Minh Châu, 436 Đ. Lê Duẩn, Phương Liên, Đống Đa, Hà Nội","Phương Liên, Đống Đa",436 Đ. Lê Duẩn,Hà Nội,,"Đống Đa, Hà Nội",VN,"21.0087141,105.84115469999999"
433,ChIJkRG7z5qrNTERWGE9f5eFABU,Cửa Hàng VLXD Dũng Lan,Cửa hàng vật liệu xây dựng,0972 395 885,"Cửa Hàng VLXD Dũng Lan, 42 Ng. Trung Tiền, Khâm Thiên, Đống Đa, Hà Nội","Khâm Thiên, Đống Đa",42 Ng. Trung Tiền,Hà Nội,,"Đống Đa, Hà Nội",VN,"21.0195533,105.8380736"
434,ChIJa9hYuYKrNTERzpyATpBybFA,Cửa Hàng Thời Trang Trẻ Em,Cửa hàng quần áo trẻ em,024 3511 9094,"2R9J+P2H Cửa Hàng Thời Trang Trẻ Em, Đường Tôn Đức Thắng, Quận Đống Đa, Hàng Bột, Đống Đa, Hà Nội","Hàng Bột, Đống Đa","2R9J+P2H, Đường Tôn Đức Thắng, Quận Đống Đa",Hà Nội,,"Đống Đa, Hà Nội",VN,"21.01932,105.8301212"
435,ChIJD8xxzYSrNTER2kmB2sdpDko,Cửa Hàng Tạp Hóa Hoàng Hiệp,Cửa hàng bách hóa,024 3516 2198,"Cửa Hàng Tạp Hóa Hoàng Hiệp, 305 Ng. Văn Chương, Khâm Thiên, Đống Đa, Hà Nội","Khâm Thiên, Đống Đa",305 Ng. Văn Chương,Hà Nội,,"Đống Đa, Hà Nội",VN,"21.0203644,105.8371361"
436,ChIJ_db0K5CrNTERk-Go37p0zIo,Cửa Hàng Rum,Cửa hàng tổng hợp,0948 556 988,"Cửa Hàng Rum, 63 P. Nguyễn Du, Nguyễn Du, Hai Bà Trưng, Hà Nội 100000","Nguyễn Du, Hai Bà Trưng",63 P. Nguyễn Du,Hà Nội,100000.0,"Hai Bà Trưng, Hà Nội",VN,"21.0198057,105.8437658"
437,ChIJ-wI98ISrNTERKhdAZJaOSyo,Cửa Hàng Đá Phong Thủy Hieu Jade,Cửa hàng,0976 710 620,"Cửa Hàng Đá Phong Thủy Hieu Jade, 196 P.Trung Phụng, Nam Đồng, Đống Đa, Hà Nội","Nam Đồng, Đống Đa",196 P.Trung Phụng,Hà Nội,,"Đống Đa, Hà Nội",VN,"21.0181434,105.8370144"
438,ChIJ08QUg4-rNTERt24J2OCtum0,Minizon Kids,Cửa hàng quần áo trẻ em,0982 069 598,"Minizon Kids, 200 P. Khâm Thiên, Khâm Thiên, Đống Đa, Hà Nội","Khâm Thiên, Đống Đa",200 P. Khâm Thiên,Hà Nội,,"Đống Đa, Hà Nội",VN,"21.0171544,105.8412791"
439,ChIJqw8z-qSJoDERG6eGUDNX5pA,Cửa Hàng Tạp Hoá Cô Chí,Cửa hàng bách hóa,0919 202 213,"Cửa Hàng Tạp Hoá Cô Chí, 65/1, Võ Tánh, Phường Lê Bình, Quận Cái Răng, Thành Phố Cần Thơ, Lê Bình, Cái Răng, Cần Thơ","Lê Bình, Cái Răng","65/1, Võ Tánh, Phường Lê Bình, Quận Cái Răng, Thành Phố Cần Thơ",Cần Thơ,,"Cái Răng, Cần Thơ",VN,"9.998661799999999,105.7443783"
440,ChIJDyvbU66JoDERZukN2Ih4XSA,Cửa Hàng Đồ Gỗ Lộc Phát,Cửa hàng bán dụng cụ sửa nhà,0292 2210 489,"2P3V+XPQ Cửa Hàng Đồ Gỗ Lộc Phát, ĐT923, An Bình, Ninh Kiều, Cần Thơ","An Bình, Ninh Kiều","2P3V+XPQ, ĐT923",Cần Thơ,,"Ninh Kiều, Cần Thơ",VN,"10.004959999999999,105.7443713"
441,ChIJ_7vxx5qJoDERgzlVxY2ADao,Cửa Hàng Gỗ Hà Yến,Cửa hàng đồ gia dụng,,"XPJW+94H Cửa Hàng Gỗ Hà Yến, Ba Láng, Cái Răng, Cần Thơ","Ba Láng, Cái Răng",XPJW+94H,Cần Thơ,,"Cái Răng, Cần Thơ",VN,"9.980941,105.74534949999999"
442,ChIJr5lCCK6JoDERYfR9bifm-Bs,Cửa Hàng Bao Bì,Cửa hàng bán dụng cụ đóng gói,0292 3846 871,"Cửa Hàng Bao Bì, 89A/2, Đường 3-2 Nối Dài, Phường An Bình, Quận Ninh Kiều, Thành Phố Cần Thơ, An Bình, Ninh Kiều, Cần Thơ","An Bình, Ninh Kiều","89A/2, Đường 3-2 Nối Dài, Phường An Bình, Quận Ninh Kiều, Thành Phố Cần Thơ",Cần Thơ,,"Ninh Kiều, Cần Thơ",VN,"10.0071426,105.746026"
443,ChIJrzHktKWJoDERtxlWCnU1uk0,Cửa Hàng Inox Minh Anh,Cửa hàng vật liệu xây dựng,0888 882 627,"Cửa Hàng Inox Minh Anh, 109 Lộ Vòng Cung, An Bình, Ninh Kiều, Cần Thơ","An Bình, Ninh Kiều",109 Lộ Vòng Cung,Cần Thơ,,"Ninh Kiều, Cần Thơ",VN,"9.9994192,105.7425944"
444,ChIJC_JMWbiJoDERwtlzb9aylP4,Cửa hàng thực phẩm An Bình,Cửa hàng tạp phẩm,0849 001 096,"Cửa hàng thực phẩm An Bình, 247 Đ. Hoàng Quốc Việt, An Bình, Ninh Kiều, Cần Thơ","An Bình, Ninh Kiều",247 Đ. Hoàng Quốc Việt,Cần Thơ,,"Ninh Kiều, Cần Thơ",VN,"10.010505799999999,105.7466446"
445,ChIJT2CL6EyIoDERsOR_69_53mo,Cửa Hàng Toàn Cúc,Cửa hàng thiết bị điện,0907 104 646,"Cửa Hàng Toàn Cúc, 3 Đ. Trần Vĩnh Kiết, An Bình, Ninh Kiều, Cần Thơ","An Bình, Ninh Kiều",3 Đ. Trần Vĩnh Kiết,Cần Thơ,,"Ninh Kiều, Cần Thơ",VN,"10.0116102,105.7513625"
446,ChIJpYho90yIoDERlHteFyiHBhM,Cửa Hàng Đồ Gỗ Xuân Phương,Cửa hàng bán dụng cụ sửa nhà,,"Cửa Hàng Đồ Gỗ Xuân Phương, 75 Đ. Trần Vĩnh Kiết, An Bình, Ninh Kiều, Cần Thơ","An Bình, Ninh Kiều",75 Đ. Trần Vĩnh Kiết,Cần Thơ,,"Ninh Kiều, Cần Thơ",VN,"10.0149176,105.7505413"
447,ChIJ38zspLOJoDERdeWM9-Q7j0g,Cửa Hàng Mua Bán & Trao Đổi Xe Cũ Minh Thành,Cửa hàng,0918 391 706,"Cửa Hàng Mua Bán & Trao Đổi Xe Cũ Minh Thành, 14, Quốc Lộ 1A, Quận Cái Răng, An Bình, Ninh Kiều, Cần Thơ","An Bình, Ninh Kiều","14, Quốc Lộ 1A, Quận Cái Răng",Cần Thơ,,"Ninh Kiều, Cần Thơ",VN,"10.0092158,105.7508282"
448,ChIJG-PS4q2JoDERccH0zuy31lA,Cửa Hàng Nhật Quang,Cửa hàng bán thực phẩm sạch,0292 3847 048,"Cửa Hàng Nhật Quang, 108B/3, Đường 3-2 Nối Dài, Phường An Bình, Quận Ninh Kiều, Thành Phố Cần Thơ, An Bình, Ninh Kiều, Cần Thơ","An Bình, Ninh Kiều","108B/3, Đường 3-2 Nối Dài, Phường An Bình, Quận Ninh Kiều, Thành Phố Cần Thơ",Cần Thơ,,"Ninh Kiều, Cần Thơ",VN,"10.0075966,105.7465891"
449,ChIJP-iWsZKJoDERJrAlcWwUGOo,Cửa Hàng Thực Phẩm Bếp Nàng 2,Cửa hàng,0938 945 256,"2Q83+6PM Cửa Hàng Thực Phẩm Bếp Nàng 2, Hẻm 12 Đ. 3 Tháng 2, Hưng Lợi, Ninh Kiều, Cần Thơ","Hưng Lợi, Ninh Kiều","2Q83+6PM, Hẻm 12 Đ. 3 Tháng 2",Cần Thơ,,"Ninh Kiều, Cần Thơ",VN,"10.0155794,105.7543097"
450,ChIJ1UtufrCJoDERTgAAa10RVaw,Cửa Hàng Điện Gia Dụng Hữu Thạnh,Cửa hàng thiết bị điện,0292 3846 487,"Cửa Hàng Điện Gia Dụng Hữu Thạnh, 75/9, Đường Nguyễn Trãi, Quận Cái Răng, TP Cần Thơ, Lê Bình, Cái Răng, Cần Thơ","Lê Bình, Cái Răng","75/9, Đường Nguyễn Trãi, Quận Cái Răng, TP Cần Thơ",Cần Thơ,,"Cái Răng, Cần Thơ",VN,"10.001984799999999,105.7496525"
454,ChIJn7kzG7KJoDERmFr9TlIwDgM,Cửa Hàng VLXD Hồng Phước,Cửa hàng vật liệu xây dựng,0919 367 907,"Cửa Hàng VLXD Hồng Phước, 4 Lộ Vòng Cung, An Bình, Ninh Kiều, Cần Thơ","An Bình, Ninh Kiều",4 Lộ Vòng Cung,Cần Thơ,,"Ninh Kiều, Cần Thơ",VN,"10.0077365,105.746665"
456,ChIJwZ_KDrOJoDERZkt16pKrnu0,Cửa Hàng Vật Liệu Xây Dựng Thanh Phát,Cửa hàng vật liệu xây dựng,0292 3847 847,"Cửa Hàng Vật Liệu Xây Dựng Thanh Phát, 83/2, Quốc Lộ 1A, Phường An Bình, Quận Ninh Kiều, An Bình, Ninh Kiều, Cần Thơ","An Bình, Ninh Kiều","83/2, Quốc Lộ 1A, Phường An Bình, Quận Ninh Kiều",Cần Thơ,,"Ninh Kiều, Cần Thơ",VN,"10.0120274,105.7537165"
457,ChIJ26b9fTiIoDERdiiX5uSOZlM,Cửa Hàng Hằng,Cửa hàng bán thực phẩm sạch,0292 3833 839,"Cửa Hàng Hằng, 1N, Quốc Lộ 91B, Phường Hưng Lợi, Quận Ninh Kiều, Thành Phố Cần Thơ, Hưng Lợi, Ninh Kiều, Cần Thơ","Hưng Lợi, Ninh Kiều","1N, Quốc Lộ 91B, Phường Hưng Lợi, Quận Ninh Kiều, Thành Phố Cần Thơ",Cần Thơ,,"Ninh Kiều, Cần Thơ",VN,"10.0255739,105.7589649"
458,ChIJFeaXaziIoDER5FkzI33SBHc,Cửa Hàng Tạp Hóa Huỳnh Thị Mỹ Duyên,Cửa hàng bách hóa,0763 792 313,"Cửa Hàng Tạp Hóa Huỳnh Thị Mỹ Duyên, 21C, Tỉnh Lộ 91B, Phường Hưng Lợi, Quận Ninh Kiều, Hưng Lợi, Ninh Kiều, Cần Thơ","Hưng Lợi, Ninh Kiều","21C, Tỉnh Lộ 91B, Phường Hưng Lợi, Quận Ninh Kiều",Cần Thơ,,"Ninh Kiều, Cần Thơ",VN,"10.0244606,105.7597957"
459,ChIJeb-oMFmJoDERognrpi0cpL4,BAO BÌ TÂN HỮU THIỆN CẦN THƠ,Cửa hàng tạp hóa,0945 949 409,"BAO BÌ TÂN HỮU THIỆN CẦN THƠ, 49 Đường Số 1 Khu Dân Cư Metro, P.Hưng Lợi, Q.Ninh Kiều Cần Thơ Can Tho City, 94118","Hưng Lợi, Ninh Kiều","49 Đường Số 1 Khu Dân Cư Metro, P.Hưng Lợi, Q.Ninh Kiều Cần Thơ Can Tho City",Cần Thơ,94118.0,"Ninh Kiều, Cần Thơ",VN,"10.0227092,105.7597284"
460,ChIJl7Q9QDqJoDERA-PFMfcconY,Shop Bụi. Cửa Hàng Thời Trang Nam,Cửa hàng quần áo,0976 626 665,"Shop Bụi. Cửa Hàng Thời Trang Nam, 176 Đ. 3 Tháng 2, Hưng Lợi, Ninh Kiều, Cần Thơ","Hưng Lợi, Ninh Kiều",176 Đ. 3 Tháng 2,Cần Thơ,,"Ninh Kiều, Cần Thơ",VN,"10.0236606,105.7670009"
461,ChIJFcip8jaIoDERXgcQTS8kDIU,Cửa Hàng Ván Ép Bích Thủy,Cửa hàng,0292 3840 441,"Cửa Hàng Ván Ép Bích Thủy, 142 Đ. 3 Tháng 2, Hưng Lợi, Ninh Kiều, Cần Thơ","Hưng Lợi, Ninh Kiều",142 Đ. 3 Tháng 2,Cần Thơ,,"Ninh Kiều, Cần Thơ",VN,"10.018728399999999,105.7621892"
462,ChIJd7suZzaIoDER3jjo4-S2FVk,BEN'S Shop,Cửa hàng quần áo,0967 331 061,"BEN'S Shop, 7 Đ. Nguyễn Văn Linh, Hưng Lợi, Ninh Kiều, Cần Thơ","Hưng Lợi, Ninh Kiều",7 Đ. Nguyễn Văn Linh,Cần Thơ,,"Ninh Kiều, Cần Thơ",VN,"10.018587499999999,105.76111549999999"
463,ChIJwdz9QTiIoDERYxAm_1vIC6U,Cửa Hàng Bao Cao Su Núi Lửa,Hiệu thuốc,0292 6526 683,"Cửa Hàng Bao Cao Su Núi Lửa, 32 QL91B, Hưng Lợi, Ninh Kiều, Cần Thơ","Hưng Lợi, Ninh Kiều",32 QL91B,Cần Thơ,,"Ninh Kiều, Cần Thơ",VN,"10.0245164,105.7600545"
464,ChIJye3LXziIoDERBHth0kqoyWM,Cửa Hàng Quần Áo Ngân,Cửa hàng quần áo,0292 3894 834,"Cửa Hàng Quần Áo Ngân, 40 Quốc Lộ 91B, Quận Ninh Kiều, Hưng Lợi, Ninh Kiều, Cần Thơ","Hưng Lợi, Ninh Kiều","40 Quốc Lộ 91B, Quận Ninh Kiều",Cần Thơ,,"Ninh Kiều, Cần Thơ",VN,"10.0253891,105.76017159999999"
465,ChIJD4JejTaIoDERIubih070Jew,Cửa Hàng Hoàng Ngân,Cửa hàng vật liệu xây dựng,0292 3817 818,"Cửa Hàng Hoàng Ngân, 39, Ba Tháng Hai, Phường Hưng Lợi, Quận Ninh Kiều, Thành Phố Cần Thơ, Hưng Lợi, Ninh Kiều, Cần Thơ","Hưng Lợi, Ninh Kiều","39, Ba Tháng Hai, Phường Hưng Lợi, Quận Ninh Kiều, Thành Phố Cần Thơ",Cần Thơ,,"Ninh Kiều, Cần Thơ",VN,"10.0180435,105.7615835"
466,ChIJJYCy9aWJoDERZ0aSWNzBrmg,Cửa Hàng Điện Thoại Nguyễn Thông mobile,Cửa hàng bán đồ điện tử,,"2QG5+CF6 Cửa Hàng Điện Thoại Nguyễn Thông mobile, khu cán bộ giảng viên đại học cần thơ, Đ. Nguyễn Văn Linh, Phường An Khánh, Ninh Kiều, Cần Thơ","Phường An Khánh, Ninh Kiều","2QG5+CF6, khu cán bộ giảng viên đại học cần thơ, Đ. Nguyễn Văn Linh",Cần Thơ,,"Ninh Kiều, Cần Thơ",VN,"10.0260498,105.75865329999999"
467,ChIJ11abWjeIoDERvghjAdUeWYs,Cửa Hàng Đtdđ Nguyễn Nhân,Cửa hàng điện thoại di động,0939 832 383,"Cửa Hàng Đtdđ Nguyễn Nhân, 7 Đ. Nguyễn Văn Linh, Hưng Lợi, Ninh Kiều, Cần Thơ","Hưng Lợi, Ninh Kiều",7 Đ. Nguyễn Văn Linh,Cần Thơ,,"Ninh Kiều, Cần Thơ",VN,"10.0218534,105.763911"
468,ChIJHSb0FMeJoDERuP6NcpVcOPA,Cửa hàng xe gắn máy Hoà Phát,Cửa hàng,0903 101 175,"Cửa hàng xe gắn máy Hoà Phát, 119 Hẻm 132 Đ. 3 Tháng 2, Hưng Lợi, Ninh Kiều, Cần Thơ","Hưng Lợi, Ninh Kiều",119 Hẻm 132 Đ. 3 Tháng 2,Cần Thơ,,"Ninh Kiều, Cần Thơ",VN,"10.0174889,105.761651"
469,ChIJmRP1piaIoDERS3-q3NSpr04,Cửa Hàng Nhựa Phụng Vỹ,Cửa hàng,,"Cửa Hàng Nhựa Phụng Vỹ, 195 Đ. 30 Tháng 4, Hưng Lợi, Ninh Kiều, Cần Thơ","Hưng Lợi, Ninh Kiều",195 Đ. 30 Tháng 4,Cần Thơ,,"Ninh Kiều, Cần Thơ",VN,"10.019759299999999,105.76437179999999"
470,ChIJA0A63zmIoDERi1Ex5onhGt0,Cửa Hàng Phụ Tùng Ô Tô Cường Thịnh,Cửa hàng phụ tùng xe ô tô,0292 3838 717,"Cửa Hàng Phụ Tùng Ô Tô Cường Thịnh, 13 QL91B, Hưng Lợi, Ninh Kiều, Cần Thơ","Hưng Lợi, Ninh Kiều",13 QL91B,Cần Thơ,,"Ninh Kiều, Cần Thơ",VN,"10.022737099999999,105.7626504"
471,ChIJD4JejTaIoDERpDsy8hc2_X0,Cửa Hàng Điện Thoại Hoài Minh,Cửa hàng điện thoại di động,0907 210 350,"Cửa Hàng Điện Thoại Hoài Minh, 58, Ba Tháng Hai, Phường Hưng Lợi, Quận Ninh Kiều, Thành Phố Cần Thơ, Hưng Lợi, Ninh Kiều, Cần Thơ","Hưng Lợi, Ninh Kiều","58, Ba Tháng Hai, Phường Hưng Lợi, Quận Ninh Kiều, Thành Phố Cần Thơ",Cần Thơ,,"Ninh Kiều, Cần Thơ",VN,"10.018600099999999,105.762236"
472,ChIJY5iaEruJoDERndqBoBvOUwg,Cửa Hàng Điện Lạnh Hoàng Tâm,Cửa hàng đồ gia dụng,0931 794 030,"Cửa Hàng Điện Lạnh Hoàng Tâm, 21 Đ. Nguyễn Văn Linh, Hưng Lợi, Ninh Kiều, Cần Thơ","Hưng Lợi, Ninh Kiều",21 Đ. Nguyễn Văn Linh,Cần Thơ,,"Ninh Kiều, Cần Thơ",VN,"10.0223356,105.76374469999999"
474,ChIJkbKKkjWIoDERWITODXYAw_U,Cửa Hàng Thiên Tân,Cửa hàng điện thoại di động,0901 214 066,"Cửa Hàng Thiên Tân, 1D, Đường Ba Tháng Hai Nối Dài, Phường An Bình, Quận Ninh Kiều, Thành Phố Cần Thơ, Hưng Lợi, Ninh Kiều, Cần Thơ","Hưng Lợi, Ninh Kiều","1D, Đường Ba Tháng Hai Nối Dài, Phường An Bình, Quận Ninh Kiều, Thành Phố Cần Thơ",Cần Thơ,,"Ninh Kiều, Cần Thơ",VN,"10.0159331,105.7594156"
479,ChIJkYMS0TWIoDER8gNnv2JvDtM,Cửa Hàng Đá Hoa Cương Phú Tài,Cửa hàng vật liệu xây dựng,0292 3739 598,"Cửa Hàng Đá Hoa Cương Phú Tài, 107 Đ. 3 Tháng 2, Hưng Lợi, Ninh Kiều, Cần Thơ","Hưng Lợi, Ninh Kiều",107 Đ. 3 Tháng 2,Cần Thơ,,"Ninh Kiều, Cần Thơ",VN,"10.0168132,105.76105779999999"
481,ChIJKcgGhTWIoDERRLYp4ngJJag,Cửa Hàng Vật Liệu Xây Dựng Đại Sơn,Cửa hàng vật liệu xây dựng,0292 6250 278,"Cửa Hàng Vật Liệu Xây Dựng Đại Sơn, 67A, Đường 3/2, Quận Ninh Kiều, Tp Cần Thơ, Hưng Lợi, Ninh Kiều, Cần Thơ","Hưng Lợi, Ninh Kiều","67A, Đường 3/2, Quận Ninh Kiều, Tp Cần Thơ",Cần Thơ,,"Ninh Kiều, Cần Thơ",VN,"10.0152814,105.759135"
482,ChIJy2WNRjeIoDERYUtjl8KwHX8,Cửa Hàng Gạo Chợ Đào Long An Kim Chi,Cửa hàng bách hóa,0292 3782 625,"Cửa Hàng Gạo Chợ Đào Long An Kim Chi, 7D Quốc Lộ 91B, Quận Ninh Kiều, Hưng Lợi, Ninh Kiều, Cần Thơ","Hưng Lợi, Ninh Kiều","7D Quốc Lộ 91B, Quận Ninh Kiều",Cần Thơ,,"Ninh Kiều, Cần Thơ",VN,"10.021782199999999,105.76402879999999"
483,ChIJ9ZJZ2DaIoDERu9R3TyK4xBU,Cửa Hàng Vlxd - Trang Trí Nội Thất Đông Tiến,Cửa hàng vật liệu xây dựng,0292 3830 857,"Cửa Hàng Vlxd - Trang Trí Nội Thất Đông Tiến, 183 Đ. 3 Tháng 2, Hưng Lợi, Ninh Kiều, Cần Thơ","Hưng Lợi, Ninh Kiều",183 Đ. 3 Tháng 2,Cần Thơ,,"Ninh Kiều, Cần Thơ",VN,"10.0196854,105.76359629999999"
484,ChIJ8_cKmUqIoDER0BOj9g9h5jU,Cửa Hàng Đá Hoa Cương Kim Thành Phát,Cửa hàng vật liệu xây dựng,0919 099 294,"Cửa Hàng Đá Hoa Cương Kim Thành Phát, 51 Hẻm 132 Đ. 3 Tháng 2, Hưng Lợi, Ninh Kiều, Cần Thơ","Hưng Lợi, Ninh Kiều",51 Hẻm 132 Đ. 3 Tháng 2,Cần Thơ,,"Ninh Kiều, Cần Thơ",VN,"10.0136234,105.7581039"
487,ChIJg1UKysqJoDERsdG7rp7U_14,Cửa Hàng Phụ Tùng Xe Máy Hoàng Sơn 2,Đại lý xe mô tô,,"Cửa Hàng Phụ Tùng Xe Máy Hoàng Sơn 2, 1018 Hẻm 553, Hưng Lợi, Ninh Kiều, Cần Thơ","Hưng Lợi, Ninh Kiều",1018 Hẻm 553,Cần Thơ,,"Ninh Kiều, Cần Thơ",VN,"10.0117513,105.76010959999999"
489,ChIJx2BIl9CJoDER20im4XUb-q0,Cửa Hàng Xe Máy Nhập Khẩu Cần Thơ Cơ Sở 1,Cửa hàng xe máy,0292 3780 164,"Cửa Hàng Xe Máy Nhập Khẩu Cần Thơ Cơ Sở 1, 164/1B Đ. Trần Ngọc Quế, Xuân Khánh, Ninh Kiều, Cần Thơ","Xuân Khánh, Ninh Kiều",164/1B Đ. Trần Ngọc Quế,Cần Thơ,,"Ninh Kiều, Cần Thơ",VN,"10.024227999999999,105.768496"
490,ChIJSRX1SjCJoDERLCmMRcpvUos,Cửa hàng tiện lợi KTX A ĐHCT,Cửa hàng tiện lợi,,"2QM9+CXH Cửa hàng tiện lợi KTX A ĐHCT, Xuân Khánh, Ninh Kiều, Cần Thơ","Xuân Khánh, Ninh Kiều",2QM9+CXH,Cần Thơ,,"Ninh Kiều, Cần Thơ",VN,"10.0335533,105.7699762"
491,ChIJnxGpgg6JoDEROXuZZTm7EfY,MAMA - Cửa hàng tiện lợi,Cửa hàng tiện lợi,,"MAMA - Cửa hàng tiện lợi, 142 Đ. 3 Tháng 2, Xuân Khánh, Ninh Kiều, Cần Thơ 900000","Xuân Khánh, Ninh Kiều",142 Đ. 3 Tháng 2,Cần Thơ,900000.0,"Ninh Kiều, Cần Thơ",VN,"10.027637799999999,105.77056019999999"
492,ChIJL9Y-YEOJoDERtLW-lOtKEAc,Cửa Hàng giầy Giép TÚ TÀI,Cửa hàng,0355 547 777,"Cửa Hàng giầy Giép TÚ TÀI, 95 Đ. Mậu Thân, An Phú, Ninh Kiều, Cần Thơ","An Phú, Ninh Kiều",95 Đ. Mậu Thân,Cần Thơ,,"Ninh Kiều, Cần Thơ",VN,"10.0313838,105.77509069999999"
494,ChIJD-70YSGIoDERb8gJYG2Znw0,Cửa Hàng Đồ Chơi Trẻ Em Thanh,Cửa hàng đồ chơi,0292 3832 808,"Cửa Hàng Đồ Chơi Trẻ Em Thanh, 84 Đ. Mậu Thân, Xuân Khánh, Ninh Kiều, Cần Thơ","Xuân Khánh, Ninh Kiều",84 Đ. Mậu Thân,Cần Thơ,,"Ninh Kiều, Cần Thơ",VN,"10.029556,105.77653"
495,ChIJk1UQ9yCIoDERbaS5KPOz36k,Cửa Hàng Yến Việt,Cửa hàng thực phẩm thiên nhiên,0292 3821 789,"Cửa Hàng Yến Việt, 76 Đ. 30 Tháng 4, An Lạc, Ninh Kiều, Cần Thơ","An Lạc, Ninh Kiều",76 Đ. 30 Tháng 4,Cần Thơ,,"Ninh Kiều, Cần Thơ",VN,"10.02985,105.7798564"
497,ChIJM_iaHCOIoDERdJSm6oQp4kE,Cửa Hàng Thể Dục Thể Thao K - Sport,Cửa hàng đồ thể thao,0989 700 179,"Cửa Hàng Thể Dục Thể Thao K - Sport, 90 Đ. 3 Tháng 2, Xuân Khánh, Ninh Kiều, Cần Thơ","Xuân Khánh, Ninh Kiều",90 Đ. 3 Tháng 2,Cần Thơ,,"Ninh Kiều, Cần Thơ",VN,"10.0300136,105.77244429999999"
498,ChIJdSUrZKBioDERfmw8Tq2bpUY,"Cửa Hàng In Áo, Huy Hiệu, Móc Khoá Werota",Cửa hàng bách hóa,0926 681 234,"Cửa Hàng In Áo, Huy Hiệu, Móc Khoá Werota, 28 Đ. Nguyễn Khuyến, Tân An, Ninh Kiều, Cần Thơ","Tân An, Ninh Kiều",28 Đ. Nguyễn Khuyến,Cần Thơ,,"Ninh Kiều, Cần Thơ",VN,"10.034766999999999,105.78315429999999"
499,ChIJwxOX2x-IoDERw2yFguS9-rs,Pham Thuy Linh Fashion Shop,Cửa hàng quần áo nữ,0941 068 410,"Pham Thuy Linh Fashion Shop, 88 Đ. Đề Thám, Tân An, Ninh Kiều, Cần Thơ","Tân An, Ninh Kiều",88 Đ. Đề Thám,Cần Thơ,,"Ninh Kiều, Cần Thơ",VN,"10.034792099999999,105.7816771"
502,ChIJwX6FX6BioDER6Bt7b6ZX9TA,Cửa Hàng Bách Hóa Thảo Lâm,Cửa hàng tạp phẩm,,"Cửa Hàng Bách Hóa Thảo Lâm, 12 Đ. Nguyễn Khuyến, Tân An, Ninh Kiều, Cần Thơ","Tân An, Ninh Kiều",12 Đ. Nguyễn Khuyến,Cần Thơ,,"Ninh Kiều, Cần Thơ",VN,"10.0353509,105.78360389999999"
503,ChIJGUuwg59ioDERGRJAAB4Bqvc,Cửa Hàng Điện Thoại Hồng Đăng,Cửa hàng điện thoại di động,0898 333 339,"Cửa Hàng Điện Thoại Hồng Đăng, 3 Đ. Đồng Khởi, Tân An, Ninh Kiều, Cần Thơ 90000","Tân An, Ninh Kiều",3 Đ. Đồng Khởi,Cần Thơ,90000.0,"Ninh Kiều, Cần Thơ",VN,"10.033638999999999,105.7850596"
504,ChIJyQSaiZ9ioDER4dDTzgnBbQk,Cửa Hàng Túi Xách Tigon,Cửa hàng bán va li,0292 3508 487,"Cửa Hàng Túi Xách Tigon, 58A Đ. Nam Kỳ Khởi Nghĩa, Tân An, Ninh Kiều, Cần Thơ","Tân An, Ninh Kiều",58A Đ. Nam Kỳ Khởi Nghĩa,Cần Thơ,,"Ninh Kiều, Cần Thơ",VN,"10.032220599999999,105.78407949999999"
505,ChIJvdG0jp9ioDERmDKk5sa4QaU,Cửa Hàng Nguyễn Khánh Mobile,Cửa hàng điện thoại di động,0939 686 874,"Cửa Hàng Nguyễn Khánh Mobile, 60C Đ. Nam Kỳ Khởi Nghĩa, Tân An, Ninh Kiều, Cần Thơ","Tân An, Ninh Kiều",60C Đ. Nam Kỳ Khởi Nghĩa,Cần Thơ,,"Ninh Kiều, Cần Thơ",VN,"10.0322345,105.7839466"
506,ChIJo4IMhJ9ioDERrSgNeHsjBEU,Cửa Hàng Tranh Duy,Cửa hàng đồ mới lạ,,"Cửa Hàng Tranh Duy, 40 Đ. Nam Kỳ Khởi Nghĩa, Tân An, Ninh Kiều, Cần Thơ","Tân An, Ninh Kiều",40 Đ. Nam Kỳ Khởi Nghĩa,Cần Thơ,,"Ninh Kiều, Cần Thơ",VN,"10.032146899999999,105.78459889999999"
507,ChIJ91fNiaFioDERBdy72B_sgms,Cửa Hàng Máy Nước Nóng,Cửa hàng vật liệu xây dựng,0903 611 822,"Cửa Hàng Máy Nước Nóng, 27B Đ. Lý Thường Kiệt, Tân An, Ninh Kiều, Cần Thơ","Tân An, Ninh Kiều",27B Đ. Lý Thường Kiệt,Cần Thơ,,"Ninh Kiều, Cần Thơ",VN,"10.034299899999999,105.7879033"
508,ChIJLZ5zAqJioDERPzq37j4g7Bs,Cửa Hàng Dây Lưới Hào Liên,Cửa hàng,0292 3829 905,"Cửa Hàng Dây Lưới Hào Liên, 94 Đường Hai Bà Trưng, Tân An, Ninh Kiều, Cần Thơ","Tân An, Ninh Kiều",94 Đường Hai Bà Trưng,Cần Thơ,,"Ninh Kiều, Cần Thơ",VN,"10.0324086,105.78820569999999"
510,ChIJz8bxDJ9ioDERCcr_tX9WkdM,Cửa Hàng Hiền,Cửa hàng đồ xây dựng,0907 551 818,"Cửa Hàng Hiền, 65 Đường Châu Văn Liêm, Tân An, Ninh Kiều, Cần Thơ","Tân An, Ninh Kiều",65 Đường Châu Văn Liêm,Cần Thơ,,"Ninh Kiều, Cần Thơ",VN,"10.030923699999999,105.78547429999999"
511,ChIJO8CRiJ9ioDERKfkLqSz_gLY,Cửa Hàng Nhôm Kim Hằng,Cửa hàng vật liệu xây dựng,0292 3817 540,"Cửa Hàng Nhôm Kim Hằng, 83 Đ. Nam Kỳ Khởi Nghĩa, Tân An, Ninh Kiều, Cần Thơ","Tân An, Ninh Kiều",83 Đ. Nam Kỳ Khởi Nghĩa,Cần Thơ,,"Ninh Kiều, Cần Thơ",VN,"10.0321246,105.783665"
512,ChIJ70NzF59ioDER3N1waHChV98,Cửa Hàng Miss Hằng,Cửa hàng phụ kiện thời trang,0939 515 192,"Cửa Hàng Miss Hằng, 177, Phan Đình Phùng, Phường Tân An, Quận Ninh Kiều, Tân An, Ninh Kiều, Cần Thơ","Tân An, Ninh Kiều","177, Phan Đình Phùng, Phường Tân An, Quận Ninh Kiều",Cần Thơ,,"Ninh Kiều, Cần Thơ",VN,"10.030460099999999,105.78625919999999"
513,ChIJD3Rw7Z9ioDER3wRpzLbU9Vk,Ngoc Lam Fabric Shop,Cửa hàng,0292 3819 155,"Ngoc Lam Fabric Shop, 80 Đ. Nam Kỳ Khởi Nghĩa, Tân An, Ninh Kiều, Cần Thơ 900000","Tân An, Ninh Kiều",80 Đ. Nam Kỳ Khởi Nghĩa,Cần Thơ,900000.0,"Ninh Kiều, Cần Thơ",VN,"10.032409999999999,105.78343869999999"
515,ChIJwWrc_x-IoDERFQN5004n5sg,"Cửa Hàng Sàn Gỗ Ngoài Trời: Hồ Bơi, Sân Vườn, Sân Thượng",Cửa hàng vật liệu xây dựng,0292 2240 773,"Cửa Hàng Sàn Gỗ Ngoài Trời: Hồ Bơi, Sân Vườn, Sân Thượng, 02, Lý Tự Trọng, Quận Ninh Kiều, Phường An Cư, TP Cần Thơ, An Lạc, Ninh Kiều, Cần Thơ","An Lạc, Ninh Kiều","02, Lý Tự Trọng, Quận Ninh Kiều, Phường An Cư, TP Cần Thơ",Cần Thơ,,"Ninh Kiều, Cần Thơ",VN,"10.0327977,105.78199339999999"
516,ChIJ8-6mfp9ioDER45FXlRtTahA,Honda Parts Store No. 63b,Cửa hàng phụ tùng xe ô tô,0292 3823 460,"Honda Parts Store No. 63b, 61 Võ Văn Tần, Tân An, Ninh Kiều, Cần Thơ","Tân An, Ninh Kiều",61 Võ Văn Tần,Cần Thơ,,"Ninh Kiều, Cần Thơ",VN,"10.0324279,105.7852877"
518,ChIJgdYLjKFioDER498KTVeWeTk,Cửa Hàng Mắt Kính Tây Đô,Cửa hàng,0292 3829 296,"Cửa Hàng Mắt Kính Tây Đô, 37 Đ. Ngô Quyền, Tân An, Ninh Kiều, Cần Thơ","Tân An, Ninh Kiều",37 Đ. Ngô Quyền,Cần Thơ,,"Ninh Kiều, Cần Thơ",VN,"10.0339413,105.78753259999999"
519,ChIJieXTzh-IoDERslM7gM7V4vw,Lam Vinh Record Shop,Cửa hàng phim ảnh,0292 3831 919,"Lam Vinh Record Shop, 114 Đ. Trương Định, Tân An, Ninh Kiều, Cần Thơ","Tân An, Ninh Kiều",114 Đ. Trương Định,Cần Thơ,,"Ninh Kiều, Cần Thơ",VN,"10.0348809,105.78090949999999"
520,ChIJu7SwHx6IoDER5_x00SnT_GY,Cửa Hàng Gạo Á Châu,Cửa hàng,0292 6537 189,"Cửa Hàng Gạo Á Châu, 23 Hẻm 22 Đ. Mạc Đĩnh Chi, An Cư, Ninh Kiều, Cần Thơ","An Cư, Ninh Kiều",23 Hẻm 22 Đ. Mạc Đĩnh Chi,Cần Thơ,,"Ninh Kiều, Cần Thơ",VN,"10.0367604,105.782343"
521,ChIJhZOG9_uHoDERDkxsU6CBIGo,Cửa Hàng Dầu Nhớt Castrol,Cửa hàng đồ gia dụng,0988 449 979,"Cửa Hàng Dầu Nhớt Castrol, 35 Đường Số 7 Khu Vực 3 Sông Hậu, P, Ninh Kiều, Cần Thơ","P, Ninh Kiều",35 Đường Số 7 Khu Vực 3 Sông Hậu,Cần Thơ,,"Ninh Kiều, Cần Thơ",VN,"10.0601792,105.7754626"
522,ChIJ_zH34aKJoDERD3jAXm7Ygh4,Cửa Hàng ĐT PNC,Cửa hàng bán đồ điện tử,0877 678 965,"Cửa Hàng ĐT PNC, 81 Đ. Nguyễn Đệ, An Hoà, Ninh Kiều, Cần Thơ","An Hoà, Ninh Kiều",81 Đ. Nguyễn Đệ,Cần Thơ,,"Ninh Kiều, Cần Thơ",VN,"10.0519135,105.770096"
523,ChIJGyqxPv6HoDERojg05BwJpCY,Cửa Hàng Điện Tử Tấn Khoa,Cửa hàng thiết bị điện,0937 608 823,"Cửa Hàng Điện Tử Tấn Khoa, Khu Vực 3 Sông Hậu, Nguyễn Văn Cừ Nối Dài, Phường Cái Khế, Quận Ninh Kiều, Thành Phố Cần Thơ, Cái Khế, Ninh Kiều, Cần Thơ","Cái Khế, Ninh Kiều","Khu Vực 3 Sông Hậu, Nguyễn Văn Cừ Nối Dài, Phường Cái Khế, Quận Ninh Kiều, Thành Phố Cần Thơ",Cần Thơ,,"Ninh Kiều, Cần Thơ",VN,"10.0555718,105.777998"
524,ChIJ6fj5MAeIoDERLbnNzH45opI,Cửa Hàng Quảng Cáo Thành Công,Cửa hàng in ấn,0768 110 514,"Cửa Hàng Quảng Cáo Thành Công, 49/11 Đoàn Thị Điểm, Cái Khế, Ninh Kiều, Cần Thơ","Cái Khế, Ninh Kiều",49/11 Đoàn Thị Điểm,Cần Thơ,,"Ninh Kiều, Cần Thơ",VN,"10.0527897,105.77559049999999"
525,ChIJwb_DT_6HoDERQQ4_UxBADU0,Cửa Hàng Cửa Lưới Chống Muỗi Bình Minh,Cửa hàng,0939 616 914,"Cửa Hàng Cửa Lưới Chống Muỗi Bình Minh, 9 Cồn Khương, Cái Khế, Ninh Kiều, Cần Thơ","Cái Khế, Ninh Kiều",9 Cồn Khương,Cần Thơ,,"Ninh Kiều, Cần Thơ",VN,"10.0564118,105.7785656"
526,ChIJl9BS_DSJoDERIPS_mfTGcDY,Cửa Hàng Dụng Cụ Câu Cá Ngân Long,Cửa hàng bán đồ câu cá,0939 676 678,"Cửa Hàng Dụng Cụ Câu Cá Ngân Long, 83 Đ. Cách Mạng Tháng 8, An Hoà, Ninh Kiều, Cần Thơ 901150","An Hoà, Ninh Kiều",83 Đ. Cách Mạng Tháng 8,Cần Thơ,901150.0,"Ninh Kiều, Cần Thơ",VN,"10.0501426,105.7749255"
527,ChIJE5tpFv6HoDER3SwXU78zWXw,Cửa Hàng Mua Bán Máy Nổ Thanh Danh,Cửa hàng,0939 286 689,"Cửa Hàng Mua Bán Máy Nổ Thanh Danh, 6 Đ. Nguyễn Văn Cừ, Cái Khế, Ninh Kiều, Cần Thơ","Cái Khế, Ninh Kiều",6 Đ. Nguyễn Văn Cừ,Cần Thơ,,"Ninh Kiều, Cần Thơ",VN,"10.0550981,105.7773928"
528,ChIJn9eui6BioDERH44NJuOuOYw,Cửa Hàng Dụng Cụ Gia Đình Mười Mập,Cửa hàng đồ gia dụng,0292 3502 975,"Cửa Hàng Dụng Cụ Gia Đình Mười Mập, 24/3, Đường Ngô Quyền, Quận Cái Răng, Tân An, Ninh Kiều, Cần Thơ","Tân An, Ninh Kiều","24/3, Đường Ngô Quyền, Quận Cái Răng",Cần Thơ,,"Ninh Kiều, Cần Thơ",VN,"10.0354643,105.7833259"
529,ChIJq6qqqq5ioDERK8JHHC36rIU,Cửa Hàng Tạp Hóa Nhẫn Thoa,Cửa hàng bách hóa,0292 3763 411,"Cửa Hàng Tạp Hóa Nhẫn Thoa, Kios 123, Nhà Lồng 3, Trung Tâm Thương Mại Cái Khế, Phường Cái Khế, Quận Ninh Kiều, Thành Phố Cần Thơ, Cái Khế, Ninh Kiều, Cần Thơ","Cái Khế, Ninh Kiều","Kios 123, Nhà Lồng 3, Trung Tâm Thương Mại Cái Khế, Phường Cái Khế, Quận Ninh Kiều, Thành Phố Cần Thơ",Cần Thơ,,"Ninh Kiều, Cần Thơ",VN,"10.048589699999999,105.7879371"
530,ChIJfSqKpiaIoDER3JObzkAF2yY,Cửa Hàng Gạo Tài Lộc,Cửa hàng,0292 3820 175,"Cửa Hàng Gạo Tài Lộc, 142 Đ. Ung Văn Khiêm, An Hội, Ninh Kiều, Cần Thơ","An Hội, Ninh Kiều",142 Đ. Ung Văn Khiêm,Cần Thơ,,"Ninh Kiều, Cần Thơ",VN,"10.0436307,105.783785"
531,ChIJD1IniaFioDER030kLydFTPY,Cửa hàng Điện gia dụng Hồng phát.,Cửa hàng bán đồ điện tử,0918 262 032,"Cửa hàng Điện gia dụng Hồng phát., 42 Đ. Ngô Quyền, Tân An, Ninh Kiều, Cần Thơ","Tân An, Ninh Kiều",42 Đ. Ngô Quyền,Cần Thơ,,"Ninh Kiều, Cần Thơ",VN,"10.0341939,105.787408"
532,ChIJlyx6Z6BioDER_at5Atk9QdM,Cửa Hàng Bách Hóa Soda,Cửa hàng bách hóa,0941 988 511,"Cửa Hàng Bách Hóa Soda, 24 Đ. Nguyễn Khuyến, Tân An, Ninh Kiều, Cần Thơ","Tân An, Ninh Kiều",24 Đ. Nguyễn Khuyến,Cần Thơ,,"Ninh Kiều, Cần Thơ",VN,"10.0347869,105.78334029999999"
533,ChIJq6qqqq5ioDER4-Oeop1oCes,Cửa Hàng Điện Nước Gia Dụng,Cửa hàng thiết bị điện,0352 237 747,"Cửa Hàng Điện Nước Gia Dụng, Lô 85, Trung Tâm Thương Mại Cái Khế, Phường Cái Khế, Quận Ninh Kiều, Thành Phố Cần Thơ, Cái Khế, Ninh Kiều, Cần Thơ","Cái Khế, Ninh Kiều","Lô 85, Trung Tâm Thương Mại Cái Khế, Phường Cái Khế, Quận Ninh Kiều, Thành Phố Cần Thơ",Cần Thơ,,"Ninh Kiều, Cần Thơ",VN,"10.048589699999999,105.7879371"
534,ChIJdwbjPaBioDERLq7sHpwA-X8,Van Ba Part Of Bicycle Store,Cửa hàng đồ thể thao,0292 3851 916,"Van Ba Part Of Bicycle Store, 132 Tu Do Street, Thot Not District, Can Tho City, Tân An, Ninh Kiều, Cần Thơ","Tân An, Ninh Kiều","132 Tu Do Street, Thot Not District, Can Tho City",Cần Thơ,,"Ninh Kiều, Cần Thơ",VN,"10.033544599999999,105.7835908"
535,ChIJWT4o_aZioDERsyCSizL4XNc,Cửa Hàng Xe Máy Tín Hoà,Đại lý xe mô tô,7103821919,"Cửa Hàng Xe Máy Tín Hoà, 67C Nguyễn Trãi, Tân An, Ninh Kiều, Cần Thơ","Tân An, Ninh Kiều",67C Nguyễn Trãi,Cần Thơ,,"Ninh Kiều, Cần Thơ",VN,"10.0399123,105.7853136"
536,ChIJg06JiqFioDERymwnoFsvjjo,Cửa Hàng Dụng Cụ Vàng Bạc Đá Quý Tuyết Nhân,Nhà kim hoàn,0943 147 229,"Cửa Hàng Dụng Cụ Vàng Bạc Đá Quý Tuyết Nhân, 11 Đ. Ngô Quyền, Tân An, Ninh Kiều, Cần Thơ","Tân An, Ninh Kiều",11 Đ. Ngô Quyền,Cần Thơ,,"Ninh Kiều, Cần Thơ",VN,"10.033738699999999,105.78785959999999"
537,ChIJ7e9RjqFioDERKC3vrEQE3_0,Cửa Hàng Xe Máy Hoàng Sơn,Đại lý xe mô tô,,"Cửa Hàng Xe Máy Hoàng Sơn, 44 Đ. Ngô Quyền, Tân An, Ninh Kiều, Cần Thơ","Tân An, Ninh Kiều",44 Đ. Ngô Quyền,Cần Thơ,,"Ninh Kiều, Cần Thơ",VN,"10.0342124,105.7873487"
538,ChIJReTeO6FioDERDFs2N96qjbo,Cửa Hàng Anh Duy,Cửa hàng văn phòng phẩm,0292 3828 299,"Cửa Hàng Anh Duy, 3 Đ. Ng. Hữu Hạnh, Tân An, Ninh Kiều, Cần Thơ","Tân An, Ninh Kiều",3 Đ. Ng. Hữu Hạnh,Cần Thơ,,"Ninh Kiều, Cần Thơ",VN,"10.0368892,105.78617109999999"
541,ChIJq6qqqq5ioDEROjg8QGCHqs8,Cửa Hàng Giày Dép Thời Trang Thu Thủy,Cửa hàng giày dép,0972 758 384,"Cửa Hàng Giày Dép Thời Trang Thu Thủy, Lô 16, Trung Tâm Thương Mại Cái Khế, Phường Cái Khế, Quận Ninh Kiều, Thành Phố Cần Thơ, Cái Khế, Ninh Kiều, Cần Thơ","Cái Khế, Ninh Kiều","Lô 16, Trung Tâm Thương Mại Cái Khế, Phường Cái Khế, Quận Ninh Kiều, Thành Phố Cần Thơ",Cần Thơ,,"Ninh Kiều, Cần Thơ",VN,"10.048589699999999,105.7879371"
542,ChIJIx3h-gdjoDERnAE5wOvoBk8,Cửa Hàng CHI-HẠNH,Cửa hàng,0939 639 739,"Cửa Hàng CHI-HẠNH, 10a2 Đ. Nguyễn Đức Cảnh, Thới Bình, Ninh Kiều, Cần Thơ","Thới Bình, Ninh Kiều",10a2 Đ. Nguyễn Đức Cảnh,Cần Thơ,,"Ninh Kiều, Cần Thơ",VN,"10.0462819,105.7822989"
544,ChIJf70bYwKIoDERp_30y-0CNkg,Cửa Hàng Tạp Hóa 59,Cửa hàng bách hóa,0292 3823 153,"Cửa Hàng Tạp Hóa 59, 59 Trần Phú, Thới Bình, Ninh Kiều, Cần Thơ","Thới Bình, Ninh Kiều",59 Trần Phú,Cần Thơ,,"Ninh Kiều, Cần Thơ",VN,"10.0460508,105.78111489999999"
545,ChIJiXGcWahioDERhm-SSocteBM,Cửa Hàng Điện Thoại Di Động Ngọc Ngân,Cửa hàng điện thoại di động,0907 145 558,"Cửa Hàng Điện Thoại Di Động Ngọc Ngân, 15, Trần Văn Khéo, Quận Ninh Kiều, Cái Khế, Ninh Kiều, Cần Thơ","Cái Khế, Ninh Kiều","15, Trần Văn Khéo, Quận Ninh Kiều",Cần Thơ,,"Ninh Kiều, Cần Thơ",VN,"10.045209,105.784697"
546,ChIJ9bryV6hioDERooU6eqTn2dM,Cửa Hàng Điện Thoại Di Động Hoàng Thông,Cửa hàng,0292 3763 813,"Cửa Hàng Điện Thoại Di Động Hoàng Thông, 1919, Trần Văn Khéo, Quận Ninh Kiều, Tp Cần Thơ, Cái Khế, Ninh Kiều, Cần Thơ","Cái Khế, Ninh Kiều","1919, Trần Văn Khéo, Quận Ninh Kiều, Tp Cần Thơ",Cần Thơ,,"Ninh Kiều, Cần Thơ",VN,"10.0453131,105.784075"
547,ChIJ63jaxgOIoDERfVD2A4__Is0,Cửa Hàng Điện Thoại Di Động Đăng Khoa,Cửa hàng điện thoại di động,0292 3769 439,"Cửa Hàng Điện Thoại Di Động Đăng Khoa, 4B, Nguyễn Trãi, Phường Cái Khế, Quận Ninh Kiều, Tp Cần Thơ","An Hội, Ninh Kiều","4B, Nguyễn Trãi, Phường Cái Khế, Quận Ninh Kiều, Tp Cần Thơ",Cần Thơ,,"Ninh Kiều, Cần Thơ",VN,"10.0428102,105.78246109999999"
548,ChIJobChvgKIoDERc80ODtD01CU,Cửa hàng Xe điện Minh Cường,Cửa hàng xe đạp,,"Cửa hàng Xe điện Minh Cường, 150 Nguyễn Trãi, An Hội, Ninh Kiều, Cần Thơ 900000","An Hội, Ninh Kiều",150 Nguyễn Trãi,Cần Thơ,900000.0,"Ninh Kiều, Cần Thơ",VN,"10.0446339,105.78098179999999"
557,ChIJP4o4LgOIoDERASU393tIef0,Cửa Hàng Đtdđ Akah,Cửa hàng điện thoại di động,,"Cửa Hàng Đtdđ Akah, 54 Hùng Vương, An Hội, Ninh Kiều, Cần Thơ","An Hội, Ninh Kiều",54 Hùng Vương,Cần Thơ,,"Ninh Kiều, Cần Thơ",VN,"10.044075999999999,105.7781179"
559,ChIJn3pqYwGIoDERHopmFpzQ4lc,Cửa Hàng Điện Thoại Di Động Minh Hiếu,Cửa hàng điện thoại di động,0292 5648 870,"Cửa Hàng Điện Thoại Di Động Minh Hiếu, 88/79, Đường Cách Mạng Tháng 8, Quận Ninh Kiều, Tp Cần Thơ, Cái Khế, Ninh Kiều, Cần Thơ","Cái Khế, Ninh Kiều","88/79, Đường Cách Mạng Tháng 8, Quận Ninh Kiều, Tp Cần Thơ",Cần Thơ,,"Ninh Kiều, Cần Thơ",VN,"10.049324799999999,105.7783048"
560,ChIJLQe_0hyIoDERsQdUBySFLGw,Cửa Hàng Kim Cương Nhân Tạo An Khang,Cửa hàng,0292 3822 937,"Cửa Hàng Kim Cương Nhân Tạo An Khang, 58 Hùng Vương, An Hội, Ninh Kiều, Cần Thơ","An Hội, Ninh Kiều",58 Hùng Vương,Cần Thơ,,"Ninh Kiều, Cần Thơ",VN,"10.043764699999999,105.7784487"
562,ChIJ4fGoDhyIoDERvV79qLBcBoI,Minh Vy Disc Store,Cửa hàng phim ảnh,0292 3823 495,"Minh Vy Disc Store, 67/7, Tran Hung Dao Street, Cai Rang District, Can Tho City, An Cư, Ninh Kiều, Cần Thơ","An Cư, Ninh Kiều","67/7, Tran Hung Dao Street, Cai Rang District, Can Tho City",Cần Thơ,,"Ninh Kiều, Cần Thơ",VN,"10.0393027,105.7766032"
564,ChIJlxnf2QKIoDERq8rXH742fFM,Cửa Hàng Thái Tuyền,Cửa hàng bán thực phẩm sạch,0919 306 669,"Cửa Hàng Thái Tuyền, 14 Đ. Hồ Xuân Hương, An Hội, Ninh Kiều, Cần Thơ","An Hội, Ninh Kiều",14 Đ. Hồ Xuân Hương,Cần Thơ,,"Ninh Kiều, Cần Thơ",VN,"10.0439476,105.779769"
565,ChIJDwxagBuIoDER0Uxrf9xBVJY,Cửa Hàng Thực Phẩm Giá Rẻ 132,Cửa hàng tạp phẩm,,"Cửa Hàng Thực Phẩm Giá Rẻ 132, Thới Binh, Ninh Kiều, Cần Thơ","Thới Binh, Ninh Kiều",,Cần Thơ,,"Ninh Kiều, Cần Thơ",VN,"10.040891799999999,105.776062"
568,ChIJu8DtkRuIoDERn_Dvp1SvPxk,Cửa Hàng Hà,Cửa hàng tổng hợp,0292 6250 341,"Cửa Hàng Hà, 1B Đ. Huỳnh Thúc Kháng, An Cư, Ninh Kiều, Cần Thơ","An Cư, Ninh Kiều",1B Đ. Huỳnh Thúc Kháng,Cần Thơ,,"Ninh Kiều, Cần Thơ",VN,"10.0402532,105.777025"
571,ChIJs-MlsxuIoDERwK2UEweWUbw,Cửa Hàng Thực Phẩm Tươi Sạch Kim Ngân,Cửa hàng tạp phẩm,,"Cửa Hàng Thực Phẩm Tươi Sạch Kim Ngân, 111A Đ. Huỳnh Thúc Kháng, An Nghiệp, Ninh Kiều, Cần Thơ","An Nghiệp, Ninh Kiều",111A Đ. Huỳnh Thúc Kháng,Cần Thơ,,"Ninh Kiều, Cần Thơ",VN,"10.040281199999999,105.77333449999999"
572,ChIJ_y0dfESJoDERXaBMnGyx_bs,Đồ chơi giá rẻ cần thơ,Cửa hàng đồ chơi,0949 929 922,"Đồ chơi giá rẻ cần thơ, Hẻm 118 Đ. Hùng Vương, An Cư, Ninh Kiều, Cần Thơ","An Cư, Ninh Kiều",Hẻm 118 Đ. Hùng Vương,Cần Thơ,,"Ninh Kiều, Cần Thơ",VN,"10.0416642,105.77732359999999"
573,ChIJX-wu3RiJoDER6Tewdegh2nc,Cửa hàng phụ tùng 108 Hùng Vương,Cửa hàng phụ tùng xe ô tô,,"Cửa hàng phụ tùng 108 Hùng Vương, 108 Hùng Vương, An Cư, Ninh Kiều, Cần Thơ","An Cư, Ninh Kiều",108 Hùng Vương,Cần Thơ,,"Ninh Kiều, Cần Thơ",VN,"10.042129899999999,105.7778314"
574,ChIJ8e6D4wOIoDERf5pWQcCme8A,Cửa Hàng Bao Cao Su 58,Hiệu thuốc,0989 840 722,"Cửa Hàng Bao Cao Su 58, 58, Đường Cách Mạng Tháng 8, Quận Ninh Kiều, Tp Cần Thơ, Cái Khế, Ninh Kiều, Cần Thơ","Cái Khế, Ninh Kiều","58, Đường Cách Mạng Tháng 8, Quận Ninh Kiều, Tp Cần Thơ",Cần Thơ,,"Ninh Kiều, Cần Thơ",VN,"10.048800199999999,105.7771343"
575,ChIJzWREBByIoDERQUi4C3cfUxw,Cửa Hàng Điện Tử - ĐTDĐ Phước Thịnh,Cửa hàng,0292 3821 159,"Cửa Hàng Điện Tử - ĐTDĐ Phước Thịnh, 62 Đ. Trần Hưng Đạo, An Cư, Ninh Kiều, Cần Thơ","An Cư, Ninh Kiều",62 Đ. Trần Hưng Đạo,Cần Thơ,,"Ninh Kiều, Cần Thơ",VN,"10.038891,105.77656759999999"
576,ChIJ-4-RnhuIoDERiHlkp43QiMA,Cửa Hàng Điện Nước Huỳnh Gia,Cửa hàng thiết bị điện,0292 3830 236,"Cửa Hàng Điện Nước Huỳnh Gia, 132A, Hùng Vương, Phường Thới Bình, Quận Ninh Kiều, Thành Phố Cần Thơ, An Cư, Ninh Kiều, Cần Thơ","An Cư, Ninh Kiều","132A, Hùng Vương, Phường Thới Bình, Quận Ninh Kiều, Thành Phố Cần Thơ",Cần Thơ,,"Ninh Kiều, Cần Thơ",VN,"10.0408663,105.77503139999999"
578,ChIJeUK0zgSIoDER-cWZrJ_rF4Q,Cửa Hàng Điện Tử Thanh,Cửa hàng thiết bị điện,0989 203 479,"Cửa Hàng Điện Tử Thanh, 138 Đ. Phạm Ngũ Lão, Thới Bình, Ninh Kiều, Cần Thơ","Thới Bình, Ninh Kiều",138 Đ. Phạm Ngũ Lão,Cần Thơ,,"Ninh Kiều, Cần Thơ",VN,"10.0442831,105.7741234"
581,ChIJlZHbny-JoDER-r-eNTCldcQ,Cửa hàng điện thoại di động Toàn Táo,Cửa hàng điện thoại di động,,"Cửa hàng điện thoại di động Toàn Táo, 14 Đ. Phạm Ngũ Lão, Thới Bình, Ninh Kiều, Cần Thơ","Thới Bình, Ninh Kiều",14 Đ. Phạm Ngũ Lão,Cần Thơ,,"Ninh Kiều, Cần Thơ",VN,"10.0470138,105.77692479999999"
582,ChIJxU67URuIoDERerhTlRPCRL8,Cửa Hàng Điện Nước Tuấn Minh,Cửa hàng thiết bị điện,0939 009 173,"Cửa Hàng Điện Nước Tuấn Minh, 132/42/89 Hùng Vương, An Phú, Ninh Kiều, Cần Thơ","An Phú, Ninh Kiều",132/42/89 Hùng Vương,Cần Thơ,,"Ninh Kiều, Cần Thơ",VN,"10.0432436,105.775617"
584,ChIJN-TmvQaIoDERoV3U99NmHGg,Cửa Hàng Sửa Chữa Xe Gắn Máy,Đại lý xe mô tô,0933 936 724,"Cửa Hàng Sửa Chữa Xe Gắn Máy, 91/18B Đ. Cách Mạng Tháng 8, Cái Khế, Ninh Kiều, Cần Thơ","Cái Khế, Ninh Kiều",91/18B Đ. Cách Mạng Tháng 8,Cần Thơ,,"Ninh Kiều, Cần Thơ",VN,"10.0502155,105.7748089"
587,ChIJt0BQMAOIoDERfum8ZMCDvi0,Cửa Hàng Đá Mỹ Nghệ,Cửa hàng,0292 3762 611,"Cửa Hàng Đá Mỹ Nghệ, 51 Đ. Đinh Tiên Hoàng, An Hội, Ninh Kiều, Cần Thơ","An Hội, Ninh Kiều",51 Đ. Đinh Tiên Hoàng,Cần Thơ,,"Ninh Kiều, Cần Thơ",VN,"10.0440715,105.77805199999999"
588,ChIJ88keBRyIoDERBLP1DrNi2gA,Cửa Hàng Quang Vinh,Cửa hàng,0292 2241 421,"Cửa Hàng Quang Vinh, 47 Đ. Trần Hưng Đạo, An Cư, Ninh Kiều, Cần Thơ","An Cư, Ninh Kiều",47 Đ. Trần Hưng Đạo,Cần Thơ,,"Ninh Kiều, Cần Thơ",VN,"10.0388222,105.7769287"
591,ChIJq6qqBw-IoDER3BOqG_jLqbY,Cửa Hàng Cà Phê - Tạp Hoá Lư Quyên,Cửa hàng tạp hóa,0945 050 450,"Cửa Hàng Cà Phê - Tạp Hoá Lư Quyên, Tp, 299B/9, Đ. Nguyễn Văn Cừ, An Hoà, Ninh Kiều, Cần Thơ","An Hoà, Ninh Kiều","Tp, 299B/9, Đ. Nguyễn Văn Cừ",Cần Thơ,,"Ninh Kiều, Cần Thơ",VN,"10.047019299999999,105.76794439999999"
593,ChIJq6qqBw-IoDER8y7iKoRSDu4,Cửa Hàng Văn Phòng Phẩm Gia Anh,Cửa hàng đồ mới lạ,0292 3895 123,"Cửa Hàng Văn Phòng Phẩm Gia Anh, 256/16, Nguyễn Văn Cừ, Quận Ninh Kiều, TP Cần Thơ, An Hoà, Ninh Kiều, Cần Thơ","An Hoà, Ninh Kiều","256/16, Nguyễn Văn Cừ, Quận Ninh Kiều, TP Cần Thơ",Cần Thơ,,"Ninh Kiều, Cần Thơ",VN,"10.047019299999999,105.76794439999999"
594,ChIJq6qqBw-IoDERwzMIXcSQu4Q,Cửa Hàng Điện Thoại Tân Việt,Cửa hàng,0907 289 992,"Cửa Hàng Điện Thoại Tân Việt, 126A Đ. Nguyễn Văn Cừ, An Hoà, Ninh Kiều, Cần Thơ","An Hoà, Ninh Kiều",126A Đ. Nguyễn Văn Cừ,Cần Thơ,,"Ninh Kiều, Cần Thơ",VN,"10.047019299999999,105.76794439999999"
595,ChIJq6qqBw-IoDERz9Yod3O-fy8,Cửa Hàng Kinh Doanh Gốm Sứ Tổng Hợp,Cửa hàng,0292 2208 639,"Cửa Hàng Kinh Doanh Gốm Sứ Tổng Hợp, 16/2, 30/4, Quận Ninh Kiều, Tp Cần Thơ, An Hoà, Ninh Kiều, Cần Thơ","An Hoà, Ninh Kiều","16/2, 30/4, Quận Ninh Kiều, Tp Cần Thơ",Cần Thơ,,"Ninh Kiều, Cần Thơ",VN,"10.047019299999999,105.76794439999999"
596,ChIJP7QXwAiIoDERqXTdN3JXMcg,Cửa Hàng Hoa Tươi 29,Cửa hàng hoa,0907 544 255,"Cửa Hàng Hoa Tươi 29, 29 Đ. Nguyễn Đệ, An Hoà, Ninh Kiều, Cần Thơ","An Hoà, Ninh Kiều",29 Đ. Nguyễn Đệ,Cần Thơ,,"Ninh Kiều, Cần Thơ",VN,"10.0507303,105.7689458"
597,ChIJMYJBlg-IoDERrN9QiDzOL0A,Cửa Hàng Điện An Bình,Cửa hàng thiết bị điện,7103895483,"Cửa Hàng Điện An Bình, 10 Đ. Nguyễn Văn Cừ, An Hoà, Ninh Kiều, Cần Thơ","An Hoà, Ninh Kiều",10 Đ. Nguyễn Văn Cừ,Cần Thơ,,"Ninh Kiều, Cần Thơ",VN,"10.047019299999999,105.7679445"
598,ChIJq6qqBw-IoDERQzMKOq9vUnc,Cửa Hàng Điện Dân Dụng Phát Lai,Cửa hàng thiết bị điện,0292 3898 029,"Cửa Hàng Điện Dân Dụng Phát Lai, 29 Đ. Nguyễn Văn Cừ, An Hoà, Ninh Kiều, Cần Thơ","An Hoà, Ninh Kiều",29 Đ. Nguyễn Văn Cừ,Cần Thơ,,"Ninh Kiều, Cần Thơ",VN,"10.047019299999999,105.76794439999999"
599,ChIJ8fvDDA-IoDERfyodUtyj0aA,Cửa Hàng Ẩm Thực Hòa Ký,Cửa hàng bán đồ ăn nấu sẵn,0907 257 925,"Cửa Hàng Ẩm Thực Hòa Ký, 224C Đ. Nguyễn Văn Cừ, An Hoà, Ninh Kiều, Cần Thơ","An Hoà, Ninh Kiều",224C Đ. Nguyễn Văn Cừ,Cần Thơ,,"Ninh Kiều, Cần Thơ",VN,"10.0476645,105.7696804"
600,ChIJq6qqBw-IoDEROPYy5wGD1_k,Cửa Hàng Bao Cao Su Việt Thái,Hiệu thuốc,0939 145 135,"Cửa Hàng Bao Cao Su Việt Thái, 10 Đ. Nguyễn Văn Cừ, An Hoà, Ninh Kiều, Cần Thơ","An Hoà, Ninh Kiều",10 Đ. Nguyễn Văn Cừ,Cần Thơ,,"Ninh Kiều, Cần Thơ",VN,"10.047019299999999,105.76794439999999"
601,ChIJ780SsgWIoDERhwYgOppXWiY,Cửa Hàng Bình Điện Ắc Quy Quốc Thịnh,Cửa hàng thiết bị điện,0977 888 261,"2QWF+W5W Cửa Hàng Bình Điện Ắc Quy Quốc Thịnh, Hẻm 42, Thới Bình, Ninh Kiều, Cần Thơ","Thới Bình, Ninh Kiều","2QWF+W5W, Hẻm 42",Cần Thơ,,"Ninh Kiều, Cần Thơ",VN,"10.047361,105.7729403"
602,ChIJn2UQwxGIoDERtfIixlNajo8,Cửa Hàng VLXD Tài Phát,Cửa hàng vật liệu xây dựng,0292 3834 462,"Cửa Hàng VLXD Tài Phát, 140B, Đường Mậu Thân, Quận Ninh Kiều, Tp Cần Thơ, An Hoà, Ninh Kiều, Cần Thơ","An Hoà, Ninh Kiều","140B, Đường Mậu Thân, Quận Ninh Kiều, Tp Cần Thơ",Cần Thơ,,"Ninh Kiều, Cần Thơ",VN,"10.0432484,105.76518209999999"
604,ChIJq6qqBw-IoDERD6J78el9kI0,Cửa Hàng Tạp Hóa 134B,Cửa hàng bách hóa,0292 3898 383,"Cửa Hàng Tạp Hóa 134B, 134B Đ. Nguyễn Văn Cừ, An Hoà, Ninh Kiều, Cần Thơ","An Hoà, Ninh Kiều",134B Đ. Nguyễn Văn Cừ,Cần Thơ,,"Ninh Kiều, Cần Thơ",VN,"10.047019299999999,105.76794439999999"
605,ChIJifv1hiCJoDER97EvYCKpfrA,Cửa Hàng Gạo Phong Điền,Cửa hàng gạo,,"Cửa Hàng Gạo Phong Điền, 231 Đ. Nguyễn Văn Cừ, An Hoà, Ninh Kiều, Cần Thơ","An Hoà, Ninh Kiều",231 Đ. Nguyễn Văn Cừ,Cần Thơ,,"Ninh Kiều, Cần Thơ",VN,"10.0476224,105.76957639999999"
606,ChIJj2gItSqJoDERMk7KM1_i9y4,Cửa hàng xe máy HỒNG ĐỨC MẬU THÂN,Cửa hàng,0792 249 227,"Cửa hàng xe máy HỒNG ĐỨC MẬU THÂN, 41k Đ. Mậu Thân, An Hoà, Ninh Kiều, Cần Thơ","An Hoà, Ninh Kiều",41k Đ. Mậu Thân,Cần Thơ,,"Ninh Kiều, Cần Thơ",VN,"10.041224399999999,105.7669938"
607,ChIJgaSV9wWIoDERc1jLyDdIE30,Cửa Hàng Giày Dép Phương Nam,Cửa hàng giày dép,0939 036 472,"Cửa Hàng Giày Dép Phương Nam, 177 Đ. Nguyễn Văn Cừ, An Hoà, Ninh Kiều, Cần Thơ 900000","An Hoà, Ninh Kiều",177 Đ. Nguyễn Văn Cừ,Cần Thơ,900000.0,"Ninh Kiều, Cần Thơ",VN,"10.0484014,105.7709738"
608,ChIJ6WrJ8hKIoDERKCWXzSnTfZQ,Cửa Hàng Sen Garden,Cửa hàng hoa,0907 687 767,"Cửa Hàng Sen Garden, 6 Đ. Nguyễn Văn Cừ, An Hoà, Ninh Kiều, Cần Thơ","An Hoà, Ninh Kiều",6 Đ. Nguyễn Văn Cừ,Cần Thơ,,"Ninh Kiều, Cần Thơ",VN,"10.0430876,105.7608911"
609,ChIJxc1FjRKIoDERmVxeRLbi0IA,Cửa Hàng Quảng Cáo - Xây Dựng Kim Long,Cửa hàng in ấn,0939 383 283,"Cửa Hàng Quảng Cáo - Xây Dựng Kim Long, 158A2/6, Khu Vực 1, Ninh Kiều, Cần Thơ","Khu Vực 1, Ninh Kiều",158A2/6,Cần Thơ,,"Ninh Kiều, Cần Thơ",VN,"10.0432296,105.7608848"
610,ChIJP5_TTp-JoDERBy2sm7X6CYo,Cửa hàng thực phẩm SinVi Foods,Cửa hàng tạp phẩm,0979 563 212,"Cửa hàng thực phẩm SinVi Foods, 63 Đ. Chu Văn An, Phường An Khánh, Ninh Kiều, Cần Thơ","Phường An Khánh, Ninh Kiều",63 Đ. Chu Văn An,Cần Thơ,,"Ninh Kiều, Cần Thơ",VN,"10.043006,105.75645659999999"
611,ChIJp_q43VmJoDERXnsXFYem2_U,Cửa hàng Minh Thư,Cửa hàng quà tặng,,"Cửa hàng Minh Thư, 55 Đ. Số 2, KDC Thới Nhựt 1, Ninh Kiều, Cần Thơ","KDC Thới Nhựt 1, Ninh Kiều",55 Đ. Số 2,Cần Thơ,,"Ninh Kiều, Cần Thơ",VN,"10.0425548,105.7542127"
612,ChIJt3x8tROIoDERZfLc3zYNq2s,Cửa Hàng Vlxd - Trang Trí Nội Thất Hùng Cẩm 1,Cửa hàng vật liệu xây dựng,0292 3895 638,"Cửa Hàng Vlxd - Trang Trí Nội Thất Hùng Cẩm 1, 89 Đ. Nguyễn Văn Cừ, Phường An Khánh, Ninh Kiều, Cần Thơ","Phường An Khánh, Ninh Kiều",89 Đ. Nguyễn Văn Cừ,Cần Thơ,,"Ninh Kiều, Cần Thơ",VN,"10.0415619,105.76291479999999"
613,ChIJldBxdmyIoDERCiZ7EPVn0xk,Cửa Hàng Tạp Hóa Thanh Kiều,Cửa hàng bách hóa,0907 270 883,"Cửa Hàng Tạp Hóa Thanh Kiều, 1, KDC, Đường Số 5, Phường An Khánh, Ninh Kiều, Cần Thơ","Phường An Khánh, Ninh Kiều","1, KDC, Đường Số 5",Cần Thơ,,"Ninh Kiều, Cần Thơ",VN,"10.03948,105.7546"
614,ChIJi7KU-muIoDERD5sU3GwOmls,CỬA HÀNG THƯƠNG MẠI CẦN THƠ.,Cửa hàng,0292 3883 386,"CỬA HÀNG THƯƠNG MẠI CẦN THƠ., Chợ phường An Khánh, 369A 15, Phường An Khánh, Ninh Kiều, Cần Thơ","Phường An Khánh, Ninh Kiều","Chợ phường An Khánh, 369A 15",Cần Thơ,,"Ninh Kiều, Cần Thơ",VN,"10.0389606,105.754615"
615,ChIJbd64nxOIoDERlBzs0P5wIeo,Cửa Hàng Nội Thất Phúc Phát,Cửa hàng bán dụng cụ sửa nhà,,"Cửa Hàng Nội Thất Phúc Phát, An Khánh, Ninh Kiều, Cần Thơ","An Khánh, Ninh Kiều",,Cần Thơ,,"Ninh Kiều, Cần Thơ",VN,"10.040287,105.7616164"
616,ChIJDXVhAG2IoDERBVcsNCkc2w0,Cửa Hàng Hoàng Kim,Hiệu thuốc,0939 190 219,"Cửa Hàng Hoàng Kim, 8, Tô Hiến Thành, Phường An Khánh, Quận Ninh Kiều, Thành Phố Cần Thơ, Phường An Khánh, Ninh Kiều, Cần Thơ","Phường An Khánh, Ninh Kiều","8, Tô Hiến Thành, Phường An Khánh, Quận Ninh Kiều, Thành Phố Cần Thơ",Cần Thơ,,"Ninh Kiều, Cần Thơ",VN,"10.0414718,105.755455"
617,ChIJ6YMythOIoDER5U_NPwvGpak,Cửa Hàng Dụng Cụ Y Khoa Ngọc,Cửa hàng,0292 6281 886,"Cửa Hàng Dụng Cụ Y Khoa Ngọc, 134 Đ. Nguyễn Văn Cừ, Phường An Khánh, Ninh Kiều, Cần Thơ","Phường An Khánh, Ninh Kiều",134 Đ. Nguyễn Văn Cừ,Cần Thơ,,"Ninh Kiều, Cần Thơ",VN,"10.041169799999999,105.76297459999999"
618,ChIJq2ye7WuIoDERk3rxrkQ1nts,Cửa hàng tiện lợi 40,Cửa hàng tiện lợi,7103781562,"Cửa hàng tiện lợi 40, 41 Đ. Tô Hiến Thành, Phường An Khánh, Ninh Kiều, Cần Thơ","Phường An Khánh, Ninh Kiều",41 Đ. Tô Hiến Thành,Cần Thơ,,"Ninh Kiều, Cần Thơ",VN,"10.0386317,105.7540394"
619,ChIJG6GgZhGIoDERTwS6TWGzl2s,Cửa Hàng Cơ Điện Lạnh Sơn Thạch,Cửa hàng thiết bị điện,1687 027025,"2QR7+6XC Cửa Hàng Cơ Điện Lạnh Sơn Thạch, Nguyễn Văn Cừ Nối Dài, Phường An Khánh, Ninh Kiều, Cần Thơ","Phường An Khánh, Ninh Kiều","2QR7+6XC, Nguyễn Văn Cừ Nối Dài",Cần Thơ,,"Ninh Kiều, Cần Thơ",VN,"10.04056,105.7649"
620,ChIJhf7CohSIoDERbt_K_bpjpck,Cửa Hàng Sơn Kim Cương,Cửa hàng sơn,0292 2213 245,"Cửa Hàng Sơn Kim Cương, 163 Nguyễn Văn Cừ Nối Dài, Phường An Khánh, Ninh Kiều, Cần Thơ","Phường An Khánh, Ninh Kiều",163 Nguyễn Văn Cừ Nối Dài,Cần Thơ,,"Ninh Kiều, Cần Thơ",VN,"10.0385051,105.75993059999999"
621,ChIJS0rfoGuIoDERFUcjemcUqTc,Cửa Hàng Mứt Vỏ Bưởi Chị Ba,Cửa hàng bán thực phẩm sạch,0901 273 538,"Cửa Hàng Mứt Vỏ Bưởi Chị Ba, 1B Đường Số 6A, Phường An Khánh, Ninh Kiều, Cần Thơ","Phường An Khánh, Ninh Kiều",1B Đường Số 6A,Cần Thơ,,"Ninh Kiều, Cần Thơ",VN,"10.037763,105.7554971"
623,ChIJFaAu82uIoDER9ZpPeXCIf6s,Cửa Hàng Cháo Nóng Việt Soup,Cửa hàng bán thực phẩm sạch,1900 636743,"Cửa Hàng Cháo Nóng Việt Soup, Chợ phường An Khánh, Đường 19, Phường An Khánh, Ninh Kiều, Cần Thơ","Phường An Khánh, Ninh Kiều","Chợ phường An Khánh, Đường 19",Cần Thơ,,"Ninh Kiều, Cần Thơ",VN,"10.0388729,105.75424179999999"
624,ChIJPUanMmuIoDERVGnxREWsv_8,Cửa Hàng Vlxd Nam Thành,Cửa hàng vật liệu xây dựng,0292 2470 847,"Cửa Hàng Vlxd Nam Thành, 163 Đ. Nguyễn Văn Cừ, Phường An Khánh, Ninh Kiều, Cần Thơ","Phường An Khánh, Ninh Kiều",163 Đ. Nguyễn Văn Cừ,Cần Thơ,,"Ninh Kiều, Cần Thơ",VN,"10.0371054,105.7583623"
625,ChIJsRrytxSIoDERni1s5EnqnFk,Cửa Hàng Đtdđ Bol Ga,Cửa hàng,0907 004 343,"Cửa Hàng Đtdđ Bol Ga, 163 Đ. Nguyễn Văn Cừ, Phường An Khánh, Ninh Kiều, Cần Thơ","Phường An Khánh, Ninh Kiều",163 Đ. Nguyễn Văn Cừ,Cần Thơ,,"Ninh Kiều, Cần Thơ",VN,"10.0375106,105.75876339999999"
626,ChIJC62GmBOIoDER_BQbXCsdp0Q,Cửa Hàng Tạp Hóa Thiên Duyên,Cửa hàng bách hóa,0292 6292 077,"Cửa Hàng Tạp Hóa Thiên Duyên, 132 Đ. Nguyễn Văn Cừ, Phường An Khánh, Ninh Kiều, Cần Thơ","Phường An Khánh, Ninh Kiều",132 Đ. Nguyễn Văn Cừ,Cần Thơ,,"Ninh Kiều, Cần Thơ",VN,"10.040178899999999,105.7619481"
627,ChIJV_oPfVyJoDERAZXY1MVKqZg,KafesBox - Cửa Hàng tiện lợi,Cửa hàng tạp phẩm,,"KafesBox - Cửa Hàng tiện lợi, 14B Đ. Trần Nam Phú, Phường An Khánh, Ninh Kiều, Cần Thơ 902494","Phường An Khánh, Ninh Kiều",14B Đ. Trần Nam Phú,Cần Thơ,902494.0,"Ninh Kiều, Cần Thơ",VN,"10.0334401,105.7602321"
629,ChIJf9RmnRSIoDERCgMi6DwTWEM,Cửa Hàng Tạp Hóa Hưng Thịnh,Cửa hàng tạp hóa,0292 3895 703,"Cửa Hàng Tạp Hóa Hưng Thịnh, 132 Nguyễn Văn Cừ Nối Dài, Phường An Khánh, Ninh Kiều, Cần Thơ","Phường An Khánh, Ninh Kiều",132 Nguyễn Văn Cừ Nối Dài,Cần Thơ,,"Ninh Kiều, Cần Thơ",VN,"10.039055099999999,105.76089479999999"
630,ChIJtYwXnBSIoDERtGyHbfjhABk,Cửa Hàng Đtdđ A-B,Cửa hàng,0985 833 339,"Cửa Hàng Đtdđ A-B, 138 Đ. Nguyễn Văn Cừ, Phường An Khánh, Ninh Kiều, Cần Thơ","Phường An Khánh, Ninh Kiều",138 Đ. Nguyễn Văn Cừ,Cần Thơ,,"Ninh Kiều, Cần Thơ",VN,"10.0387638,105.7605488"
631,ChIJMd83UVSJoDERWs7WtMQskG4,Cửa Hàng Điện Tâm Phát,Cửa hàng,,"Cửa Hàng Điện Tâm Phát, 153 Đ. Nguyễn Tri Phương, Phường An Khánh, Ninh Kiều, Cần Thơ 950000","Phường An Khánh, Ninh Kiều",153 Đ. Nguyễn Tri Phương,Cần Thơ,950000.0,"Ninh Kiều, Cần Thơ",VN,"10.041110399999999,105.75476719999999"
633,ChIJ7_FxdxOIoDERx0-5biMvjOc,Cửa Hàng Xe Máy Hiền,Đại lý xe mô tô,0919 438 152,"2QQ6+WG7 Cửa Hàng Xe Máy Hiền, Nguyễn Văn Cừ Nối Dài, Phường An Khánh, Ninh Kiều, Cần Thơ","Phường An Khánh, Ninh Kiều","2QQ6+WG7, Nguyễn Văn Cừ Nối Dài",Cần Thơ,,"Ninh Kiều, Cần Thơ",VN,"10.03978,105.76129999999999"
634,ChIJtb0IR1GIoDERz5Zn4Rx9-6E,Cửa Hàng Giàu,Cửa hàng đồ gia dụng,0984 244 731,"Cửa Hàng Giàu, 312 Đ. Hoàng Quốc Việt, An Bình, Ninh Kiều, Cần Thơ","An Bình, Ninh Kiều",312 Đ. Hoàng Quốc Việt,Cần Thơ,,"Ninh Kiều, Cần Thơ",VN,"10.019135,105.74199209999999"
635,ChIJsWV3IFGIoDERH7dxS9fn1lo,Cửa Hàng Điện Cơ Phát Đạt,Cửa hàng thiết bị điện,0939 767 065,"2PCR+9WW Cửa Hàng Điện Cơ Phát Đạt, Nguyễn Văn Cừ Nối Dài, Phường An Khánh, Ninh Kiều, Cần Thơ","Phường An Khánh, Ninh Kiều","2PCR+9WW, Nguyễn Văn Cừ Nối Dài",Cần Thơ,,"Ninh Kiều, Cần Thơ",VN,"10.020976,105.742317"
636,ChIJxQMd71CIoDERl2If6feAVDo,Cửa Hàng Vlxd Linh Phương,Cửa hàng vật liệu xây dựng,0292 3782 713,"Cửa Hàng Vlxd Linh Phương, 126 Nguyễn Văn Cừ Nối Dài, An Bình, Ninh Kiều, Cần Thơ","An Bình, Ninh Kiều",126 Nguyễn Văn Cừ Nối Dài,Cần Thơ,,"Ninh Kiều, Cần Thơ",VN,"10.0218369,105.7428716"
637,ChIJn-KQfFCIoDERBPx3CRcJDLI,Cửa Hàng Đèn Trang Trí Trần Tú,Cửa hàng thiết bị chiếu sáng,0292 3765 388,"Cửa Hàng Đèn Trang Trí Trần Tú, 100 Nguyễn Văn Cừ Nối Dài, An Bình, Ninh Kiều, Cần Thơ","An Bình, Ninh Kiều",100 Nguyễn Văn Cừ Nối Dài,Cần Thơ,,"Ninh Kiều, Cần Thơ",VN,"10.022945199999999,105.7439936"
638,ChIJG8Z3eVCIoDERWNyP5hBP8iI,Cửa Hàng Vlxd Toàn Thắng,Cửa hàng vật liệu xây dựng,0292 3895 627,"Cửa Hàng Vlxd Toàn Thắng, 96 Nguyễn Văn Cừ Nối Dài, An Bình, Ninh Kiều, Cần Thơ","An Bình, Ninh Kiều",96 Nguyễn Văn Cừ Nối Dài,Cần Thơ,,"Ninh Kiều, Cần Thơ",VN,"10.023308199999999,105.7443084"
639,ChIJh7Hew0SIoDERghgWmzqIrCk,Cửa Hàng Tạp Hoá Trinh,Cửa hàng bách hóa,0904 500 330,"Cửa Hàng Tạp Hoá Trinh, 75B, Nguyễn Văn Cừ Nối Dài, Phường An Khánh, Quận Ninh Kiều, Thành Phố Cần Thơ, An Bình, Ninh Kiều, Cần Thơ","An Bình, Ninh Kiều","75B, Nguyễn Văn Cừ Nối Dài, Phường An Khánh, Quận Ninh Kiều, Thành Phố Cần Thơ",Cần Thơ,,"Ninh Kiều, Cần Thơ",VN,"10.0264172,105.74746619999999"
640,ChIJ3zgATMeJoDERrFzHGBSG5YI,Cửa Hàng VNPT Vinaphone- Thái Thanh Tuyền,Cửa hàng,,"Cửa Hàng VNPT Vinaphone- Thái Thanh Tuyền, KDC Hồng Phát, Đ.Xuân Thủy, An Bình, Ninh Kiều, Cần Thơ","An Bình, Ninh Kiều","KDC Hồng Phát, Đ.Xuân Thủy",Cần Thơ,,"Ninh Kiều, Cần Thơ",VN,"10.022377299999999,105.74559269999999"
641,ChIJ0XGnDQqJoDERwpusEHX-Gzg,Cửa hàng Vũ Mobile,Cửa hàng bán đồ điện tử,0901 522 626,"2P8X+4GC Cửa hàng Vũ Mobile, Unnamed Road, An Bình, Ninh Kiều, Cần Thơ","An Bình, Ninh Kiều","2P8X+4GC, Unnamed Road",Cần Thơ,,"Ninh Kiều, Cần Thơ",VN,"10.0153021,105.74876929999999"
642,ChIJ0aU6PU-IoDERRz3Ds_uqNwc,Cửa Hàng Quốc Hưng,Cửa hàng rượu,0917 867 678,"Cửa Hàng Quốc Hưng, 260 Đ. Trần Vĩnh Kiết, Hưng Lợi, Ninh Kiều, Cần Thơ","Hưng Lợi, Ninh Kiều",260 Đ. Trần Vĩnh Kiết,Cần Thơ,,"Ninh Kiều, Cần Thơ",VN,"10.0213136,105.7513599"
643,ChIJAfnvxESIoDER1rZlXpHTKeA,Cửa Hàng Điện Nước Dũng,Cửa hàng thiết bị điện,0292 6525 767,"Cửa Hàng Điện Nước Dũng, 70, Đường Nguyễn Văn Cừ, Quận Ninh Kiều, An Bình, Ninh Kiều, Cần Thơ","An Bình, Ninh Kiều","70, Đường Nguyễn Văn Cừ, Quận Ninh Kiều",Cần Thơ,,"Ninh Kiều, Cần Thơ",VN,"10.0263382,105.7479359"
644,ChIJf_f5JGmJoDERZWe_VKYKvvo,Cửa hàng VNPT Vinaphone - Lưu Huỳnh Anh,Cửa hàng,0946 221 114,"Cửa hàng VNPT Vinaphone - Lưu Huỳnh Anh, KDC Hồng Phát, 96B Đường số 3, An Bình, Ninh Kiều, Cần Thơ","An Bình, Ninh Kiều","KDC Hồng Phát, 96B Đường số 3",Cần Thơ,,"Ninh Kiều, Cần Thơ",VN,"10.022542099999999,105.7491191"
645,ChIJ6yCD9lCIoDERbWDsosxvwjQ,Cửa Hàng Điện Thành Phát,Cửa hàng thiết bị điện,,"Cửa Hàng Điện Thành Phát, 331 Nguyễn Văn Cừ Nối Dài, An Bình, Ninh Kiều, Cần Thơ","An Bình, Ninh Kiều",331 Nguyễn Văn Cừ Nối Dài,Cần Thơ,,"Ninh Kiều, Cần Thơ",VN,"10.0220273,105.74351089999999"
646,ChIJi-mS31KIoDER5rs4EDkiqHc,Cửa Hàng Văn Phòng Phẩm Hoàng Oanh,Cửa hàng văn phòng phẩm,0859 721 448,"Cửa Hàng Văn Phòng Phẩm Hoàng Oanh, 222D/6, Khu Vực 4, Hoàng Quốc Việt, Phường An Bình, Quận Ninh Kiều, Thành Phố Cần Thơ, An Bình, Ninh Kiều, Cần Thơ","An Bình, Ninh Kiều","222D/6, Khu Vực 4, Hoàng Quốc Việt, Phường An Bình, Quận Ninh Kiều, Thành Phố Cần Thơ",Cần Thơ,,"Ninh Kiều, Cần Thơ",VN,"10.0140458,105.74397239999999"
647,ChIJIdjlolqIoDERtFgGOLCTNU0,Cửa Hàng Đtdđ Thành,Cửa hàng,0909 747 747,"Cửa Hàng Đtdđ Thành, 201 Nguyễn Văn Cừ Nối Dài, An Bình, Ninh Kiều, Cần Thơ","An Bình, Ninh Kiều",201 Nguyễn Văn Cừ Nối Dài,Cần Thơ,,"Ninh Kiều, Cần Thơ",VN,"10.024867799999999,105.7459243"
648,ChIJe63QanqrNTERDQeZgbGADx8,Cửa Hàng Tự Chọn,Cửa hàng bách hóa,0964 171 286,"Cửa Hàng Tự Chọn, 74 P. Nguyễn Phúc Lai, Chợ Dừa, Đống Đa, Hà Nội 100000","Chợ Dừa, Đống Đa",74 P. Nguyễn Phúc Lai,Hà Nội,100000.0,"Đống Đa, Hà Nội",VN,"21.0204146,105.8213979"
649,ChIJcy6AGpCrNTERnoC4EjN-eSo,Cửa hàng Điện tử Viễn thông,Cửa hàng bán đồ điện tử,,"Cửa hàng Điện tử Viễn thông, Nguyễn Du, Hoàn Kiếm, Hà Nội","Nguyễn Du, Hoàn Kiếm",,Hà Nội,,"Hoàn Kiếm, Hà Nội",VN,"21.020605,105.8416797"
650,ChIJEQL78Y-rNTER_IEWYXKmS_s,Cửa Hàng Thuý Nga,Cửa hàng điện thoại di động,0912 154 558,"Cửa Hàng Thuý Nga, 208 Đ. Lê Duẩn, Khâm Thiên, Hai Bà Trưng, Hà Nội","Khâm Thiên, Hai Bà Trưng",208 Đ. Lê Duẩn,Hà Nội,,"Hai Bà Trưng, Hà Nội",VN,"21.0188518,105.841472"
651,ChIJRSQYPJGrNTERV7uKtIactCk,Cửa hàng văn hóa tín ngưỡng Hoa Liên,Cửa hàng lưu niệm,0915 177 319,"Cửa hàng văn hóa tín ngưỡng Hoa Liên, 74 P. Quán Sứ, Cửa Nam, Hoàn Kiếm, Hà Nội","Cửa Nam, Hoàn Kiếm",74 P. Quán Sứ,Hà Nội,,"Hoàn Kiếm, Hà Nội",VN,"21.024233,105.8447219"
652,ChIJlRi_ZoOrNTERbjJeeb6csgw,Cửa Hàng Sửa Chữa quần Ao,Cửa hàng,0945 613 113,"Cửa Hàng Sửa Chữa quần Ao, Tòa nhà, 193-195 P. Khâm Thiên, Thổ Quan, Đống Đa, Hà Nội","Thổ Quan, Đống Đa","Tòa nhà, 193-195 P. Khâm Thiên",Hà Nội,,"Đống Đa, Hà Nội",VN,"21.0188389,105.83445909999999"
653,ChIJCQsyS7yrNTERqohsXf-SZ4o,cửa hàng của Tùng,Cửa hàng,0976 575 174,"cửa hàng của Tùng, ngõ 104 P. Trung Liệt, Trung Liệt, Đống Đa, Hà Nội 100000","Trung Liệt, Đống Đa",ngõ 104 P. Trung Liệt,Hà Nội,100000.0,"Đống Đa, Hà Nội",VN,"21.0113467,105.8204214"
654,ChIJRaLg24OrNTEREx6nt0OLW-c,Cửa Hàng Hàng Tiêu Dùng Thái Lan,Cửa hàng đồ gia dụng,0984 534 444,"Cửa Hàng Hàng Tiêu Dùng Thái Lan, 228, Xã Đàn, Phường Phương Liên, Quận Đống Đa, Thành Phố Hà Nội, Nam Đồng, Đống Đa, Hà Nội","Nam Đồng, Đống Đa","228, Xã Đàn, Phường Phương Liên, Quận Đống Đa, Thành Phố Hà Nội",Hà Nội,,"Đống Đa, Hà Nội",VN,"21.015258199999998,105.83292949999999"
655,ChIJyWtRRmCrNTERrTFqOs56pWA,Cửa Hàng Hàng Nga,Cửa hàng vật liệu xây dựng,0912 899 747,"Cửa Hàng Hàng Nga, 282, Láng, Phường Láng Hạ, Quận Đống Đa, Thành Phố Hà Nội, Trung Hoà, Cầu Giấy, Hà Nội","Trung Hoà, Cầu Giấy","282, Láng, Phường Láng Hạ, Quận Đống Đa, Thành Phố Hà Nội",Hà Nội,,"Cầu Giấy, Hà Nội",VN,"21.0131837,105.8075946"
656,ChIJ-_eFYH6rNTER3SQDo9LoZKw,Cửa Hàng Thế Giới Nước Hoa,Cửa hàng tạp phẩm,0916 553 815,"2R7X+37W Cửa Hàng Thế Giới Nước Hoa, P. Bà Triệu, Lê Đại Hành, Hai Bà Trưng, Hà Nội","Lê Đại Hành, Hai Bà Trưng","2R7X+37W, P. Bà Triệu",Hà Nội,,"Hai Bà Trưng, Hà Nội",VN,"21.012747599999997,105.8481891"
657,ChIJv-iviI-rNTERQxyWJOapNfE,Fphone Shop,Cửa hàng điện thoại di động,,"Fphone Shop, 162, Le Duan Street, Hai Ba Trung District, Khâm Thiên, Đống Đa, Hà Nội","Khâm Thiên, Đống Đa","162, Le Duan Street, Hai Ba Trung District",Hà Nội,,"Đống Đa, Hà Nội",VN,"21.017373,105.84130719999999"
658,ChIJgx8BaZqrNTERTRTr8gWIslA,Cửa Hàng VLXD Thắng,Cửa hàng vật liệu xây dựng,0985 677 932,"Cửa Hàng VLXD Thắng, 460 P. Trần Quý Cáp, Văn Chương, Đống Đa, Hà Nội","Văn Chương, Đống Đa",460 P. Trần Quý Cáp,Hà Nội,,"Đống Đa, Hà Nội",VN,"21.0234646,105.8399336"
659,ChIJ29w_bZerNTERUl5QkgNH48o,Cửa Hàng Mỹ Phẩm Thái Lan Shop,Cửa hàng mỹ phẩm,0919 899 796,"Cửa Hàng Mỹ Phẩm Thái Lan Shop, 79 P. Hai Bà Trưng, Cửa Nam, Hoàn Kiếm, Hà Nội","Cửa Nam, Hoàn Kiếm",79 P. Hai Bà Trưng,Hà Nội,,"Hoàn Kiếm, Hà Nội",VN,"21.0273728,105.8420814"
660,ChIJ7982zo-rNTER5zLFBZUuIQM,Cửa Hàng Dệt Kim Hà Nội,Cửa hàng,0912 427 392,"Cửa Hàng Dệt Kim Hà Nội, 7 P. Nguyễn Thượng Hiền, Nguyễn Du, Hai Bà Trưng, Hà Nội 11614","Nguyễn Du, Hai Bà Trưng",7 P. Nguyễn Thượng Hiền,Hà Nội,11614.0,"Hai Bà Trưng, Hà Nội",VN,"21.0187629,105.8432406"
661,ChIJndsjpI-rNTEREq4RIoON9gM,Cửa Hàng Âm Thanh Xe Hơi Hướng,Cửa hàng bán đồ điện tử,024 3660 3342,"Cửa Hàng Âm Thanh Xe Hơi Hướng, 58 P. Trần Nhân Tông, Lê Đại Hành, Hai Bà Trưng, Hà Nội","Lê Đại Hành, Hai Bà Trưng",58 P. Trần Nhân Tông,Hà Nội,,"Hai Bà Trưng, Hà Nội",VN,"21.017618799999997,105.8426025"
662,ChIJ3x8zBZCrNTERiCN0oluunNc,Cửa Hàng Thực Phẩm Sạch Sói Biển Lê Duẩn,Cửa hàng bán thực phẩm sạch,0943 360 361,"Cửa Hàng Thực Phẩm Sạch Sói Biển Lê Duẩn, 177 Đ. Lê Duẩn, Khâm Thiên, Đống Đa, Hà Nội","Khâm Thiên, Đống Đa",177 Đ. Lê Duẩn,Hà Nội,,"Đống Đa, Hà Nội",VN,"21.0204977,105.8415326"
663,ChIJvT2-WIWrNTERuk54DBJOZkk,Tiệm Bánh Kẹo Thuốc Lá Nguyễn Hoài Hương,Cửa hàng tạp phẩm,0934 001 525,"Tiệm Bánh Kẹo Thuốc Lá Nguyễn Hoài Hương, 12/1B, Phố Khâm Thiên, Phường Nguyễn Du, Quận Đống Đa, Thành Phố Hà Nội, Khâm Thiên, Đống Đa, Hà Nội","Khâm Thiên, Đống Đa","12/1B, Phố Khâm Thiên, Phường Nguyễn Du, Quận Đống Đa, Thành Phố Hà Nội",Hà Nội,,"Đống Đa, Hà Nội",VN,"21.0189766,105.8406973"
664,ChIJIbyhZZCrNTERNW78zumbi60,Cửa Hàng Kính Mắt Hùng Huy,Cửa hàng kính mát,024 3942 0301,"Cửa Hàng Kính Mắt Hùng Huy, 157 Đ. Lê Duẩn, Khâm Thiên, Hoàn Kiếm, Hà Nội","Khâm Thiên, Hoàn Kiếm",157 Đ. Lê Duẩn,Hà Nội,,"Hoàn Kiếm, Hà Nội",VN,"21.0214033,105.841589"
665,ChIJAbUaW4-rNTERZn36RjQ6slk,Antique Art Souvenir Shop,Cửa hàng đồ mới lạ,024 3942 3841,"Antique Art Souvenir Shop, Trung Phụng, Đống Đa, Hà Nội","Trung Phụng, Đống Đa",,Hà Nội,,"Đống Đa, Hà Nội",VN,"21.0150632,105.8410688"
666,ChIJydm9cIyrNTERXS8MTnu5GYc,Cửa Hàng Quần Áo May,Cửa hàng phụ kiện thời trang,024 3974 9386,"Cửa Hàng Quần Áo May, 154, Đường Bà Triệu, Quận Hai Bà Trưng, Lê Đại Hành, Hai Bà Trưng, Hà Nội","Lê Đại Hành, Hai Bà Trưng","154, Đường Bà Triệu, Quận Hai Bà Trưng",Hà Nội,,"Hai Bà Trưng, Hà Nội",VN,"21.013858199999998,105.84877759999999"
667,ChIJwynrAZGrNTERfE4Auk9qRDM,Cửa Hàng Bán & Giới Thiệu Sản Phẩm Công Ty Thuốc Lá Việt Nam,Hiệu thuốc,024 3942 0934,"Cửa Hàng Bán & Giới Thiệu Sản Phẩm Công Ty Thuốc Lá Việt Nam, 10 P. Yết Kiêu, Cửa Nam, Hoàn Kiếm, Hà Nội","Cửa Nam, Hoàn Kiếm",10 P. Yết Kiêu,Hà Nội,,"Hoàn Kiếm, Hà Nội",VN,"21.0230998,105.84350359999999"
668,ChIJM1rm3oSrNTERAZIxzKWBvUw,Cửa Hàng Trái Cây Nhập Khẩu,Cửa hàng tổng hợp,024 3858 4848,"Cửa Hàng Trái Cây Nhập Khẩu, 100 P. Khâm Thiên, Khâm Thiên, Đống Đa, Hà Nội","Khâm Thiên, Đống Đa",100 P. Khâm Thiên,Hà Nội,,"Đống Đa, Hà Nội",VN,"21.019135499999997,105.837462"
669,ChIJ9VJO6ISrNTERviy6d8ztt1E,Cửa Hàng Dụng Cụ Làm Bánh Bella Torta,Cửa hàng bán thực phẩm sạch,024 3516 2629,"Cửa Hàng Dụng Cụ Làm Bánh Bella Torta, 97A P. Khâm Thiên, Khâm Thiên, Đống Đa, Hà Nội","Khâm Thiên, Đống Đa",97A P. Khâm Thiên,Hà Nội,,"Đống Đa, Hà Nội",VN,"21.0187563,105.8369529"
670,ChIJ3eQRSZGrNTERM0n2GGPiA7Q,Cửa Hàng Thời Trang Made In Việt Nam,Cửa hàng quần áo,024 3942 3283,"Cửa Hàng Thời Trang Made In Việt Nam, 70 P. Quán Sứ, Cửa Nam, Hoàn Kiếm, Hà Nội 100000","Cửa Nam, Hoàn Kiếm",70 P. Quán Sứ,Hà Nội,100000.0,"Hoàn Kiếm, Hà Nội",VN,"21.0247781,105.844967"
671,ChIJp9LbvmGtNTERYu0W4SjMAXY,Cửa hàng,Nhà hàng,,"Cửa hàng, 16 Ng. 1 Tôn Thất Tùng, Kim Liên, Đống Đa, Hà Nội","Kim Liên, Đống Đa",16 Ng. 1 Tôn Thất Tùng,Hà Nội,,"Đống Đa, Hà Nội",VN,"21.005319999999998,105.8311765"
672,ChIJGeA01ISrNTERmJNyXWkXi0Q,Shop Việt - Quần Áo VNXK,Cửa hàng quần áo,0943 830 363,"Shop Việt - Quần Áo VNXK, 335 Ng. Văn Chương, Khâm Thiên, Đống Đa, Hà Nội","Khâm Thiên, Đống Đa",335 Ng. Văn Chương,Hà Nội,,"Đống Đa, Hà Nội",VN,"21.019983,105.83764699999999"
673,ChIJL0trsI-rNTERY86eoXxSkC0,Thien Hoang Swallow Nest Store,Cửa hàng bán nước quả ép,024 6329 7225,"Thien Hoang Swallow Nest Store, 65B, Tran Nhan Tong Street, Nguyen Du, Hai Ba Trung District, Nguyễn Du, Hai Bà Trưng, Hà Nội","Nguyễn Du, Hai Bà Trưng","65B, Tran Nhan Tong Street, Nguyen Du, Hai Ba Trung District",Hà Nội,,"Hai Bà Trưng, Hà Nội",VN,"21.0176706,105.8430477"
674,ChIJBRLzUI-rNTER1-bh74ZG2Z4,Cửa Hàng Đồ Gỗ Mỹ Hà,Cửa hàng bán dụng cụ sửa nhà,024 3851 2807,"Cửa Hàng Đồ Gỗ Mỹ Hà, 300 Đ. Lê Duẩn, Trung Phụng, Đống Đa, Hà Nội","Trung Phụng, Đống Đa",300 Đ. Lê Duẩn,Hà Nội,,"Đống Đa, Hà Nội",VN,"21.0153656,105.8412599"
675,ChIJu188cJCrNTER00e6ucNbM5s,Cửa Hàng Dụng Cụ Thể Thao Chiến Sport,Cửa hàng đồ thể thao,0932 323 876,"Cửa Hàng Dụng Cụ Thể Thao Chiến Sport, 32 Đ. Lê Duẩn, Khâm Thiên, Hoàn Kiếm, Hà Nội","Khâm Thiên, Hoàn Kiếm",32 Đ. Lê Duẩn,Hà Nội,,"Hoàn Kiếm, Hà Nội",VN,"21.0219711,105.8414483"
676,ChIJOTbckaurNTERZkSLFbKV_WM,"Cửa hàng VNPT Vinaphone Bùi Minh Phương 14 Ngõ 1B Khâm Thiên, P. Khâm Thiên, Q. Đống Đa",Cửa hàng,,"Cửa hàng VNPT Vinaphone Bùi Minh Phương 14 Ngõ 1B Khâm Thiên, P. Khâm Thiên, Q. Đống Đa, 6/1 P. Khâm Thiên, Khâm Thiên, Đống Đa, Hà Nội","Khâm Thiên, Đống Đa",6/1 P. Khâm Thiên,Hà Nội,,"Đống Đa, Hà Nội",VN,"21.0187945,105.8401573"
677,ChIJZyYM44-rNTER9kaXxahP0CY,Cửa Hàng Kính Mắt Tiến Đat,Nhà thiết kế đồ trang sức,024 3941 0196,"Cửa Hàng Kính Mắt Tiến Đat, 191b Đ. Lê Duẩn, Nguyễn Du, Hai Bà Trưng, Hà Nội","Nguyễn Du, Hai Bà Trưng",191b Đ. Lê Duẩn,Hà Nội,,"Hai Bà Trưng, Hà Nội",VN,"21.0196371,105.84151159999999"
678,ChIJt3SCXIWrNTERGjAOaiPzL98,Cửa Hàng Thuốc Phiến Đài Bích Liên,Hiệu thuốc,024 3518 0455,"Cửa Hàng Thuốc Phiến Đài Bích Liên, 2 P. Khâm Thiên, Khâm Thiên, Đống Đa, Hà Nội","Khâm Thiên, Đống Đa",2 P. Khâm Thiên,Hà Nội,,"Đống Đa, Hà Nội",VN,"21.0189734,105.8402785"
679,ChIJnZfN_YurNTERs2kR1Vhe6DQ,Cửa Hàng Vải Thùy Tuyết,Cửa hàng bán vải,024 3974 5671,"Cửa Hàng Vải Thùy Tuyết, 52 P. Nguyễn Đình Chiểu, Lê Đại Hành, Hai Bà Trưng, Hà Nội","Lê Đại Hành, Hai Bà Trưng",52 P. Nguyễn Đình Chiểu,Hà Nội,,"Hai Bà Trưng, Hà Nội",VN,"21.0131879,105.8468127"
680,ChIJq59GvOerNTERIWuUB1Ywr7w,"Cửa hàng chăn ga gối đệm, đồ gia dụng, thiết bị điện",Cửa hàng tạp phẩm,0399 713 829,"Cửa hàng chăn ga gối đệm, đồ gia dụng, thiết bị điện, 301 Ng. Chợ Khâm Thiên, Phương Liên, Đống Đa, Hà Nội","Phương Liên, Đống Đa",301 Ng. Chợ Khâm Thiên,Hà Nội,,"Đống Đa, Hà Nội",VN,"21.0132093,105.836073"
681,ChIJUYgOkqWJoDERvsVeCSYXor0,Cửa Hàng Điện Gia Dụng Tường Phát,Cửa hàng thiết bị điện,0292 3913 714,"Cửa Hàng Điện Gia Dụng Tường Phát, 48, Đường Lộ Vòng Cung, An Bình, Ninh Kiều, Cần Thơ","An Bình, Ninh Kiều","48, Đường Lộ Vòng Cung",Cần Thơ,,"Ninh Kiều, Cần Thơ",VN,"10.001291799999999,105.7427527"
682,ChIJyeVP56CJoDERGhPWWfdtCt8,Cửa Hàng Tạp Hóa Bảo Ngọc,Cửa hàng bách hóa,0292 3848 757,"Cửa Hàng Tạp Hóa Bảo Ngọc, 245 Ấp Mỹ Ái, Huyện Phong Điền, An Bình, Ninh Kiều, Cần Thơ","An Bình, Ninh Kiều","245 Ấp Mỹ Ái, Huyện Phong Điền",Cần Thơ,,"Ninh Kiều, Cần Thơ",VN,"9.9954346,105.7376554"
683,ChIJP-uihuqJoDERtcI1Ham_D0M,Cửa Hàng Thực Phẩm LeO,Cửa hàng thịt,0823 695 099,"Cửa Hàng Thực Phẩm LeO, 151a1 Nguyễn Văn Trường, An Bình, Ninh Kiều, Cần Thơ","An Bình, Ninh Kiều",151a1 Nguyễn Văn Trường,Cần Thơ,,"Ninh Kiều, Cần Thơ",VN,"10.0015197,105.7347681"
684,ChIJHSNy_KSJoDERmljxrdkhaqk,Cửa Hàng Tạp Hoá Kim Anh,Cửa hàng bách hóa,0292 6297 925,"Cửa Hàng Tạp Hoá Kim Anh, 61/3A, Võ Tánh, Phường Lê Bình, Quận Cái Răng, Thành Phố Cần Thơ, Lê Bình, Cái Răng, Cần Thơ","Lê Bình, Cái Răng","61/3A, Võ Tánh, Phường Lê Bình, Quận Cái Răng, Thành Phố Cần Thơ",Cần Thơ,,"Cái Răng, Cần Thơ",VN,"9.999007599999999,105.7444239"
685,ChIJKSlpRa6JoDER-RSHafDTZPM,Cửa Hàng Tạp Hóa Trúc,Cửa hàng bách hóa,0365 547 883,"Cửa Hàng Tạp Hóa Trúc, 154 ĐT923, An Bình, Ninh Kiều, Cần Thơ 902340","An Bình, Ninh Kiều",154 ĐT923,Cần Thơ,902340.0,"Ninh Kiều, Cần Thơ",VN,"10.0053719,105.74470939999999"
686,ChIJeQMGhqWJoDERt6K-PzZGPAA,Cửa Hàng Văn Phòng Phẩm,Cửa hàng văn phòng phẩm,0292 3846 469,"Cửa Hàng Văn Phòng Phẩm, 189/5, Lộ Vòng Cung, Phường An Bình, Quận Ninh Kiều, Thành Phố Cần Thơ, An Bình, Ninh Kiều, Cần Thơ","An Bình, Ninh Kiều","189/5, Lộ Vòng Cung, Phường An Bình, Quận Ninh Kiều, Thành Phố Cần Thơ",Cần Thơ,,"Ninh Kiều, Cần Thơ",VN,"10.0016771,105.74314559999999"
687,ChIJ5UeKYa2JoDERJ2C9rWVFsuo,Cửa Hàng ĐTDĐ Quang Thái,Cửa hàng điện thoại di động,0987 808 628,"Cửa Hàng ĐTDĐ Quang Thái, 221, Đường Cái Sơn Hàng Bàng, Quận Cái Răng, An Bình, Ninh Kiều, Cần Thơ","An Bình, Ninh Kiều","221, Đường Cái Sơn Hàng Bàng, Quận Cái Răng",Cần Thơ,,"Ninh Kiều, Cần Thơ",VN,"10.010962,105.7467449"
688,ChIJ03BArLOJoDERa4qsogzdxq0,Cửa Hàng Điện Nước Minh Quang,Cửa hàng bán đồ điện tử,0939 291 818,"Cửa Hàng Điện Nước Minh Quang, 109A/3 Đường, Can Tho City, Đ. 3 Tháng 2, An Bình, Ninh Kiều, Cần Thơ","An Bình, Ninh Kiều","109A/3 Đường, Can Tho City, Đ. 3 Tháng 2",Cần Thơ,,"Ninh Kiều, Cần Thơ",VN,"10.0093651,105.75003679999999"
689,ChIJJ20gwUyIoDER7vZ0df5dUt4,Cửa Hàng Mỹ Phẩm Thanh Thoảng,Cửa hàng mỹ phẩm,0907 094 450,"Cửa Hàng Mỹ Phẩm Thanh Thoảng, 145/4C Đ. Trần Vĩnh Kiết, An Bình, Ninh Kiều, Cần Thơ","An Bình, Ninh Kiều",145/4C Đ. Trần Vĩnh Kiết,Cần Thơ,,"Ninh Kiều, Cần Thơ",VN,"10.0135513,105.7510956"
690,ChIJ3dKqerOJoDERrZpqDbI1oV8,Cửa Hàng Điện Thoại Di Động Bích Trân,Cửa hàng điện thoại di động,0977 988 667,"Cửa Hàng Điện Thoại Di Động Bích Trân, 108A, Quốc Lộ 1A, P. An Bình, Quận Ninh Kiều, An Bình, Ninh Kiều, Cần Thơ","An Bình, Ninh Kiều","108A, Quốc Lộ 1A, P. An Bình, Quận Ninh Kiều",Cần Thơ,,"Ninh Kiều, Cần Thơ",VN,"10.0106521,105.7513737"
691,ChIJOQn6DbKJoDERIaqn742ZapU,Tuan Kiet Grocery Store,Cửa hàng bách hóa,0292 6280 290,"Tuan Kiet Grocery Store, 226C, Lo Vong Cung Street, Ninh Kieu District, Can Tho City, An Bình, Ninh Kiều, Cần Thơ","An Bình, Ninh Kiều","226C, Lo Vong Cung Street, Ninh Kieu District, Can Tho City",Cần Thơ,,"Ninh Kiều, Cần Thơ",VN,"10.0083089,105.74761"
693,ChIJJ8hWp7OJoDERJGZ9f1WZ3WQ,Cửa Hàng Điện Nước Gia Lập,Cửa hàng thiết bị điện,0292 3913 515,"Cửa Hàng Điện Nước Gia Lập, 1 Đ. 3 Tháng 2, An Bình, Ninh Kiều, Cần Thơ","An Bình, Ninh Kiều",1 Đ. 3 Tháng 2,Cần Thơ,,"Ninh Kiều, Cần Thơ",VN,"10.0106054,105.75122379999999"
694,ChIJjTxR_62JoDERGS3r8X4aUfQ,Cửa Hàng Thiết Bị Âm Thanh Đức Nguyễn,Cửa hàng thiết bị điện,0366 619 386,"Cửa Hàng Thiết Bị Âm Thanh Đức Nguyễn, Lô 4-21, Chợ An Bình, An Bình, Ninh Kiều, Cần Thơ","An Bình, Ninh Kiều","Lô 4-21, Chợ An Bình",Cần Thơ,,"Ninh Kiều, Cần Thơ",VN,"10.007534999999999,105.746826"
695,ChIJaeXvE66JoDERVVea_woa2cc,Cửa Hàng Tạp Hóa Quốc Hương,Cửa hàng bách hóa,0292 3913 001,"Cửa Hàng Tạp Hóa Quốc Hương, An Bình, Ninh Kiều, Cần Thơ","An Bình, Ninh Kiều",,Cần Thơ,,"Ninh Kiều, Cần Thơ",VN,"10.0063079,105.7457041"
696,ChIJ2a3LbrKJoDERQXv8tjUtHww,Cửa Hàng Điện Thoại Quang Thái,Cửa hàng điện thoại di động,0939 154 968,"Cửa Hàng Điện Thoại Quang Thái, 221F Đ. Hoàng Quốc Việt, An Bình, Ninh Kiều, Cần Thơ","An Bình, Ninh Kiều",221F Đ. Hoàng Quốc Việt,Cần Thơ,,"Ninh Kiều, Cần Thơ",VN,"10.008918399999999,105.7479001"
697,ChIJrTj4GbGJoDERP692YFFgzP4,Cửa hàng bách hóa Kim Hiền,Cửa hàng bách hóa,0981 776 422,"Cửa hàng bách hóa Kim Hiền, 61 Trần Hưng Đạo, Lê Bình, Cái Răng, Cần Thơ","Lê Bình, Cái Răng",61 Trần Hưng Đạo,Cần Thơ,,"Cái Răng, Cần Thơ",VN,"10.0049239,105.7509242"
698,ChIJ9ZRp3VOJoDER8suRw0X1bGg,Cửa hàng tiện ích Kim Hiền,Cửa hàng,0776 826 861,"Cửa hàng tiện ích Kim Hiền, 12/16b Hẻm 132 Đ. 3 Tháng 2, Hưng Lợi, Ninh Kiều, Cần Thơ","Hưng Lợi, Ninh Kiều",12/16b Hẻm 132 Đ. 3 Tháng 2,Cần Thơ,,"Ninh Kiều, Cần Thơ",VN,"10.0146736,105.7550636"
699,ChIJATbPFLGJoDERYr8ssyelkTY,Cửa Hàng Gạo Diễm,Cửa hàng thực phẩm,0939 390 549,"2Q42+6CR Cửa Hàng Gạo Diễm, Đinh Tiên Hoàng, Lê Bình, Cái Răng, Cần Thơ","Lê Bình, Cái Răng","2Q42+6CR, Đinh Tiên Hoàng",Cần Thơ,,"Cái Răng, Cần Thơ",VN,"10.0056181,105.7510087"
700,ChIJqQuoQbGJoDERtuJTosE6yPw,Cửa Hàng Đồ Nhựa Ông Siêu,Cửa hàng,0292 3846 247,"Cửa Hàng Đồ Nhựa Ông Siêu, 24 Ngô Quyền, Lê Bình, Cái Răng, Cần Thơ","Lê Bình, Cái Răng",24 Ngô Quyền,Cần Thơ,,"Cái Răng, Cần Thơ",VN,"10.0058589,105.7514333"
701,ChIJG3k3q7SJoDERnOgw5OTpz6g,Cửa Hàng Điện Thoại Di Động Minh Hòa,Cửa hàng điện thoại di động,0292 3846 447,"Cửa Hàng Điện Thoại Di Động Minh Hòa, 121A, Đường 3/2 Nối Dài, p. An Bình, Quận Ninh Kiều, Hưng Lợi, Ninh Kiều, Cần Thơ","Hưng Lợi, Ninh Kiều","121A, Đường 3/2 Nối Dài, p. An Bình, Quận Ninh Kiều",Cần Thơ,,"Ninh Kiều, Cần Thơ",VN,"10.0115666,105.75284549999999"
702,ChIJ55U4QLGJoDEReZyBKYM0Q-E,Cửa Hàng Đồ Nhựa Triều Phát,Cửa hàng,0292 3846 039,"Cửa Hàng Đồ Nhựa Triều Phát, 57 Đinh Tiên Hoàng, Lê Bình, Cái Răng, Cần Thơ","Lê Bình, Cái Răng",57 Đinh Tiên Hoàng,Cần Thơ,,"Cái Răng, Cần Thơ",VN,"10.0058185,105.75132119999999"
703,ChIJOYXierOJoDEREUJgGzxO984,Cửa Hàng Sữa Long Thành,Cửa hàng thực phẩm,0292 3846 384,"Cửa Hàng Sữa Long Thành, 108/3, Quốc Lộ 1A, P. An Bình, Quận Ninh Kiều, An Bình, Ninh Kiều, Cần Thơ","An Bình, Ninh Kiều","108/3, Quốc Lộ 1A, P. An Bình, Quận Ninh Kiều",Cần Thơ,,"Ninh Kiều, Cần Thơ",VN,"10.0102503,105.75216979999999"
704,ChIJzcRUOrGJoDERFEMSmZC4bUg,Cửa Hàng Phụ Liệu Tóc - Mỹ Phẩm Lam Khương,Cửa hàng mỹ phẩm,0292 2469 966,"Cửa Hàng Phụ Liệu Tóc - Mỹ Phẩm Lam Khương, 19 Ngô Quyền, Lê Bình, Cái Răng, Cần Thơ","Lê Bình, Cái Răng",19 Ngô Quyền,Cần Thơ,,"Cái Răng, Cần Thơ",VN,"10.0050256,105.7518923"
705,ChIJhf1MRbOJoDERYRLWpqICwhk,Cửa Hàng Điện Thoại Di Động Hiền,Cửa hàng điện thoại di động,0292 2463 378,"Cửa Hàng Điện Thoại Di Động Hiền, 85/5, Quốc Lộ 1A, TP Cần Thơ, Quận Cái Răng, An Bình, Ninh Kiều, Cần Thơ","An Bình, Ninh Kiều","85/5, Quốc Lộ 1A, TP Cần Thơ, Quận Cái Răng",Cần Thơ,,"Ninh Kiều, Cần Thơ",VN,"10.0115651,105.7528433"
706,ChIJI5dwPrGJoDERLlefjjHDvM0,Cửa Hàng Kính Nhân,Cửa hàng vật liệu xây dựng,0989 037 426,"Cửa Hàng Kính Nhân, 53/2 Hàm Nghi, Lê Bình, Cái Răng, Cần Thơ","Lê Bình, Cái Răng",53/2 Hàm Nghi,Cần Thơ,,"Cái Răng, Cần Thơ",VN,"10.0052953,105.7514964"
707,ChIJNTXkELGJoDER9N2wSC6E1is,Cửa Hàng Xe Đạp Hưng Phát,Cửa hàng đồ thể thao,0292 2464 222,"Cửa Hàng Xe Đạp Hưng Phát, 64 Trần Hưng Đạo, Lê Bình, Cái Răng, Cần Thơ","Lê Bình, Cái Răng",64 Trần Hưng Đạo,Cần Thơ,,"Cái Răng, Cần Thơ",VN,"10.0052097,105.75066"
708,ChIJcVvRAkuIoDERSlzbSOkXmFY,Cửa Hàng Nhôm Nhựa Gia Dụng Nguyên,Cửa hàng,0911 878 224,"Cửa Hàng Nhôm Nhựa Gia Dụng Nguyên, 12/5B Hẻm 132 Đ. 3 Tháng 2, Hưng Lợi, Ninh Kiều, Cần Thơ","Hưng Lợi, Ninh Kiều",12/5B Hẻm 132 Đ. 3 Tháng 2,Cần Thơ,,"Ninh Kiều, Cần Thơ",VN,"10.014336,105.7555216"
709,ChIJv9QIwLCJoDERMoz4Y6x9wOQ,Cửa Hàng Điện -Nước- Gia Dụng Thiên Quang,Cửa hàng thiết bị điện,0919 145 832,"Cửa Hàng Điện -Nước- Gia Dụng Thiên Quang, 454 Nguyễn Trãi, Lê Bình, Cái Răng, Cần Thơ","Lê Bình, Cái Răng",454 Nguyễn Trãi,Cần Thơ,,"Cái Răng, Cần Thơ",VN,"10.0030744,105.75099209999999"
710,ChIJf7R0T7WJoDER2KgkyfLaFDk,Cửa Hàng Điện Máy,Cửa hàng bán đồ điện tử,0292 3837 689,"Cửa Hàng Điện Máy, 59, Đường 30/4, Quận Ninh Kiều, Tp Cần Thơ, Hưng Lợi, Ninh Kiều, Cần Thơ","Hưng Lợi, Ninh Kiều","59, Đường 30/4, Quận Ninh Kiều, Tp Cần Thơ",Cần Thơ,,"Ninh Kiều, Cần Thơ",VN,"10.0115535,105.7576735"
711,ChIJWRvzZLOJoDERar90qErNjdw,Cửa Hàng Dầu Nhớt AMALIE,Cửa hàng phụ tùng xe ô tô,0292 3512 036,"Cửa Hàng Dầu Nhớt AMALIE, 110/3, Quốc Lộ 1A, P. An Bình, Quận Ninh Kiều, An Bình, Ninh Kiều, Cần Thơ","An Bình, Ninh Kiều","110/3, Quốc Lộ 1A, P. An Bình, Quận Ninh Kiều",Cần Thơ,,"Ninh Kiều, Cần Thơ",VN,"10.010464899999999,105.75221909999999"
712,ChIJHT-z2LCJoDER4CAEkE682yU,Cửa Hàng Đồng Hồ Cường,Cửa hàng đồng hồ,0292 3911 528,"Cửa Hàng Đồng Hồ Cường, 13 Lê Thái Tổ, Lê Bình, Cái Răng, Cần Thơ","Lê Bình, Cái Răng",13 Lê Thái Tổ,Cần Thơ,,"Cái Răng, Cần Thơ",VN,"10.0040772,105.75174779999999"
713,ChIJXfur-rCJoDERth_7wpX0ZLs,Cửa Hàng Xe Đạp Điện Minh Nhiên,Cửa hàng,0907 312 111,"Cửa Hàng Xe Đạp Điện Minh Nhiên, 45/5, KV Yên Bình, Cái Răng, Cần Thơ","Lê Bình, Cái Răng","45/5, KV Yên Bình",Cần Thơ,,"Cái Răng, Cần Thơ",VN,"10.0034872,105.7504359"
714,ChIJI2iqGraJoDERzfAmHErMRao,Cửa Hàng Điện Thoại Phát Tiến 2,Cửa hàng bán đồ điện tử,,"Cửa Hàng Điện Thoại Phát Tiến 2, 55a Hẻm 132 Đ. 3 Tháng 2, Hưng Lợi, Ninh Kiều, Cần Thơ","Hưng Lợi, Ninh Kiều",55a Hẻm 132 Đ. 3 Tháng 2,Cần Thơ,,"Ninh Kiều, Cần Thơ",VN,"10.0196875,105.7576764"
717,ChIJs0zobLOJoDER4QuWT6SZKKo,Ngoc Tung Repair-Wash Motocar Store,Cửa hàng bảo trì và sửa chữ ô tô,0292 3834 393,"Ngoc Tung Repair-Wash Motocar Store, 107/3, Highway 1A, An Binh Ward, Ninh Kieu District, Can Tho City, An Bình, Ninh Kiều, Cần Thơ","An Bình, Ninh Kiều","107/3, Highway 1A, An Binh Ward, Ninh Kieu District, Can Tho City",Cần Thơ,,"Ninh Kiều, Cần Thơ",VN,"10.0106152,105.75135399999999"
718,ChIJbyVxFLGJoDERS3ENWoSJwIE,Mi Ngot Store,Cửa hàng bách hóa,0292 3915 859,"Mi Ngot Store, 59 Đinh Tiên Hoàng, Lê Bình, Cái Răng, Cần Thơ","Lê Bình, Cái Răng",59 Đinh Tiên Hoàng,Cần Thơ,,"Cái Răng, Cần Thơ",VN,"10.005444299999999,105.75077089999999"
719,ChIJCT5PFa6JoDERNsyysjeK1C0,Cửa Hàng Gạo A Huê,Cửa hàng,0292 3847 983,"Cửa Hàng Gạo A Huê, 182 ĐT923, An Bình, Ninh Kiều, Cần Thơ","An Bình, Ninh Kiều",182 ĐT923,Cần Thơ,,"Ninh Kiều, Cần Thơ",VN,"10.0059351,105.7452168"
720,ChIJuWFWErGJoDERCy-00brg7qQ,Công Ty Tnhh Hakia - Cửa Hàng Điện Gia Dụng,Cửa hàng thiết bị điện,,"Công Ty Tnhh Hakia - Cửa Hàng Điện Gia Dụng, 63 Trần Hưng Đạo, Lê Bình, Cái Răng, Cần Thơ","Lê Bình, Cái Răng",63 Trần Hưng Đạo,Cần Thơ,,"Cái Răng, Cần Thơ",VN,"10.005528,105.75074869999999"
721,ChIJE0ViFbGJoDERKRmMlnzD9oM,Hieu Chi Flower Shop,Cửa hàng hoa,0977 113 846,"Hieu Chi Flower Shop, City, 59/2 Đinh Tiên Hoàng, Street, Cái Răng, Cần Thơ","Street, Cái Răng","City, 59/2 Đinh Tiên Hoàng",Cần Thơ,,"Cái Răng, Cần Thơ",VN,"10.005543699999999,105.7512467"
722,ChIJy2CDOjaIoDERZviyt2KA-EE,Cửa Hàng Mỹ Phẩm Nhật Vy,Cửa hàng mỹ phẩm,0978 380 078,"Cửa Hàng Mỹ Phẩm Nhật Vy, 132/25 Đ. 3 Tháng 2, Hưng Lợi, Ninh Kiều, Cần Thơ","Hưng Lợi, Ninh Kiều",132/25 Đ. 3 Tháng 2,Cần Thơ,,"Ninh Kiều, Cần Thơ",VN,"10.019448899999999,105.7595025"
723,ChIJ_-M4QTaIoDER2DbWvBcBSJY,Cửa Hàng Ốp Lưng Bé Cà Chua,Cửa hàng điện thoại di động,0899 500 750,"Cửa Hàng Ốp Lưng Bé Cà Chua, 132/15 Đ. 3 Tháng 2, Hưng Lợi, Ninh Kiều, Cần Thơ","Hưng Lợi, Ninh Kiều",132/15 Đ. 3 Tháng 2,Cần Thơ,,"Ninh Kiều, Cần Thơ",VN,"10.0190965,105.76037129999999"
724,ChIJl9NpYDaIoDERVE8f3BZ9rhI,Cửa Hàng Hàng Thái Lan 36,Cửa hàng đồ gia dụng,0948 061 660,"Cửa Hàng Hàng Thái Lan 36, 148/6 Hẻm 132 Đ. 3 Tháng 2, Hưng Lợi, Ninh Kiều, Cần Thơ","Hưng Lợi, Ninh Kiều",148/6 Hẻm 132 Đ. 3 Tháng 2,Cần Thơ,,"Ninh Kiều, Cần Thơ",VN,"10.0187413,105.76112719999999"
726,ChIJ36FT6keIoDERd-rMRudYNf4,Cửa Hàng 45 Gạo,Cửa hàng,,"Cửa Hàng 45 Gạo, 43 Đ. Nguyễn Hiền, Hưng Lợi, Ninh Kiều, Cần Thơ 900000","Hưng Lợi, Ninh Kiều",43 Đ. Nguyễn Hiền,Cần Thơ,900000.0,"Ninh Kiều, Cần Thơ",VN,"10.0241244,105.7573413"
727,ChIJSRi0C0aIoDER534I0oJ4Ods,Cửa Hàng Trang Thiết Bị Y Tế Dksh,Cửa hàng,,"Cửa Hàng Trang Thiết Bị Y Tế Dksh, 164 Đường B21, Khu dân cư 91B, Ninh Kiều, Cần Thơ","Khu dân cư 91B, Ninh Kiều",164 Đường B21,Cần Thơ,,"Ninh Kiều, Cần Thơ",VN,"10.024292599999999,105.75290749999999"
728,ChIJXY3k_riJoDER4MKrNHn2hKc,Cửa hàng ĐTDĐ TN Shop,Cửa hàng điện thoại di động,0901 018 910,"2QG4+39V Cửa hàng ĐTDĐ TN Shop, Đ. B19, Khu dân cư 91B, Ninh Kiều, Cần Thơ","Khu dân cư 91B, Ninh Kiều","2QG4+39V, Đ. B19",Cần Thơ,,"Ninh Kiều, Cần Thơ",VN,"10.025239599999999,105.7559283"
729,ChIJfVEOqQKJoDERMSN-Yyorn9Y,THỂ THAO THẮNG LỢI,Cửa hàng đồ lưu niệm thể thao,0982 939 409,"THỂ THAO THẮNG LỢI, 38 Hẻm 132 Đ. 3 Tháng 2, Hưng Lợi, Ninh Kiều, Cần Thơ","Hưng Lợi, Ninh Kiều",38 Hẻm 132 Đ. 3 Tháng 2,Cần Thơ,,"Ninh Kiều, Cần Thơ",VN,"10.019687,105.75767619999999"
730,ChIJochLBeiJoDERtYIJm7xcRmE,CỬA HÀNG SƠN TRUNG NAM CẦN THƠ,Cửa hàng sơn,0902 650 637,"CỬA HÀNG SƠN TRUNG NAM CẦN THƠ, 41 Đ. Số 7, KDC Metro, Ninh Kiều, Cần Thơ 94000","KDC Metro, Ninh Kiều",41 Đ. Số 7,Cần Thơ,94000.0,"Ninh Kiều, Cần Thơ",VN,"10.0221886,105.7590266"
732,ChIJr9raj0eIoDER2tBd0WxNtZQ,Cửa Hàng Điện Nước Huy Ngữ,Cửa hàng thiết bị điện,0778 171 583,"Cửa Hàng Điện Nước Huy Ngữ, 2 Đ. Nguyễn Hiền, Khu dân cư 91B, Ninh Kiều, Cần Thơ","Khu dân cư 91B, Ninh Kiều",2 Đ. Nguyễn Hiền,Cần Thơ,,"Ninh Kiều, Cần Thơ",VN,"10.0249683,105.7580765"
733,ChIJ-UN8ZjiIoDERXxP6ZEXSu54,Cửa Hàng Tạp Hóa Ngọc Xuyến,Cửa hàng tạp hóa,0907 829 430,"Cửa Hàng Tạp Hóa Ngọc Xuyến, Hưng Lợi, Ninh Kiều, Cần Thơ","Hưng Lợi, Ninh Kiều",,Cần Thơ,,"Ninh Kiều, Cần Thơ",VN,"10.025034999999999,105.7598179"
734,ChIJ7fLEPseJoDERDIIa1fpKLBI,Cửa Hàng Siêu Rẻ 39k Cần Thơ,Cửa hàng đồ gia dụng,0901 027 989,"Cửa Hàng Siêu Rẻ 39k Cần Thơ, 102 Đường Trần Hoàng Na, Hưng Lợi, Ninh Kiều, Cần Thơ 94000","Hưng Lợi, Ninh Kiều",102 Đường Trần Hoàng Na,Cần Thơ,94000.0,"Ninh Kiều, Cần Thơ",VN,"10.0170469,105.7590257"
735,ChIJRZgHSjmJoDERRxefJf0EiTw,Cửa hàng dụng cụ thể dục thể thao PT,Cửa hàng,,"Cửa hàng dụng cụ thể dục thể thao PT, 150 Đ. 3 Tháng 2, Hưng Lợi, Ninh Kiều, Cần Thơ","Hưng Lợi, Ninh Kiều",150 Đ. 3 Tháng 2,Cần Thơ,,"Ninh Kiều, Cần Thơ",VN,"10.0198419,105.7615502"
736,ChIJBWc9cEeIoDERzgjtSmfVXu4,Cửa Hàng Gas Anh Thơ,Cửa hàng,0292 3894 111,"Cửa Hàng Gas Anh Thơ, 337 QL91B, Hưng Lợi, Ninh Kiều, Cần Thơ","Hưng Lợi, Ninh Kiều",337 QL91B,Cần Thơ,,"Ninh Kiều, Cần Thơ",VN,"10.0262123,105.7576423"
737,ChIJgTITn7yJoDERk3jIqTSA-tE,Cửa hàng vật tư nông nghiệp Hưng Lợi,Cửa hàng,0907 761 890,"Cửa hàng vật tư nông nghiệp Hưng Lợi, 27 Đ. Nguyễn Văn Linh, P, Ninh Kiều, Cần Thơ","P, Ninh Kiều",27 Đ. Nguyễn Văn Linh,Cần Thơ,,"Ninh Kiều, Cần Thơ",VN,"10.024763199999999,105.76039039999999"
738,ChIJD4JejTaIoDERK-vPatBLUxE,Cửa Hàng Mỹ Phẩm Kim Lý,Cửa hàng mỹ phẩm,0706 756 768,"Cửa Hàng Mỹ Phẩm Kim Lý, 10, Ba Tháng Hai, Phường Hưng Lợi, Quận Ninh Kiều, Thành Phố Cần Thơ, Hưng Lợi, Ninh Kiều, Cần Thơ","Hưng Lợi, Ninh Kiều","10, Ba Tháng Hai, Phường Hưng Lợi, Quận Ninh Kiều, Thành Phố Cần Thơ",Cần Thơ,,"Ninh Kiều, Cần Thơ",VN,"10.018600099999999,105.762236"
739,ChIJ52Cb9zOIoDERyuzlhcqsrEU,Cửa Hàng Đtdđ - Cầm Đồ Hoàng Châu,Cửa hàng điện thoại di động,0292 6290 186,"Cửa Hàng Đtdđ - Cầm Đồ Hoàng Châu, 566 Đ. 30 Tháng 4, Hưng Lợi, Ninh Kiều, Cần Thơ","Hưng Lợi, Ninh Kiều",566 Đ. 30 Tháng 4,Cần Thơ,,"Ninh Kiều, Cần Thơ",VN,"10.016502,105.7645572"
740,ChIJDYlnxzWIoDERu-E5IxTwkbY,Cửa Hàng Dầu Mỡ Nhờn Mipec Hoàng Long Phi,Cửa hàng phụ tùng xe ô tô,7103783668,"Cửa Hàng Dầu Mỡ Nhờn Mipec Hoàng Long Phi, 111 Đ. 3 Tháng 2, Hưng Lợi, Ninh Kiều, Cần Thơ","Hưng Lợi, Ninh Kiều",111 Đ. 3 Tháng 2,Cần Thơ,,"Ninh Kiều, Cần Thơ",VN,"10.0160831,105.7605468"
741,ChIJ6f6JfDiIoDERqUOIMMv4a2c,Cửa Hàng Ống Nhựa Huy Ngữ,Cửa hàng vật liệu xây dựng,0292 3833 403,"Cửa Hàng Ống Nhựa Huy Ngữ, 2 QL91B, Hưng Lợi, Ninh Kiều, Cần Thơ","Hưng Lợi, Ninh Kiều",2 QL91B,Cần Thơ,,"Ninh Kiều, Cần Thơ",VN,"10.0253806,105.75918539999999"
742,ChIJQ4Sp6TCIoDERt4ulAUwDSj8,Cửa Hàng Thực Phẩm,Cửa hàng bán thực phẩm sạch,0989 952 590,"Cửa Hàng Thực Phẩm, 404A/13, Nguyễn Văn Linh, Quận Ninh Kiều, Thành Phố Cần Thơ, Hưng Lợi, Ninh Kiều, Cần Thơ","Hưng Lợi, Ninh Kiều","404A/13, Nguyễn Văn Linh, Quận Ninh Kiều, Thành Phố Cần Thơ",Cần Thơ,,"Ninh Kiều, Cần Thơ",VN,"10.0214511,105.7656322"
743,ChIJi4ECDUeIoDERZj9Geg0W0OI,Cửa Hàng Sim Số Vạn Toàn,Cửa hàng điện thoại di động,7102222888,"Cửa Hàng Sim Số Vạn Toàn, 19A Khu Dân Cư Metro, QL91B, Hưng Lợi, Ninh Kiều, Cần Thơ","Hưng Lợi, Ninh Kiều","19A Khu Dân Cư Metro, QL91B",Cần Thơ,,"Ninh Kiều, Cần Thơ",VN,"10.026167899999999,105.75701029999999"
744,ChIJWTW7jjaIoDER9JSqnrrWEZU,Cửa Hàng Xe Máy Tân Tín Việt,Đại lý xe mô tô,1800 1551,"Cửa Hàng Xe Máy Tân Tín Việt, 126 Đ. 3 Tháng 2, Hưng Lợi, Ninh Kiều, Cần Thơ","Hưng Lợi, Ninh Kiều",126 Đ. 3 Tháng 2,Cần Thơ,,"Ninh Kiều, Cần Thơ",VN,"10.018336699999999,105.7618677"
745,ChIJ_4z6eDWIoDERCAFJ9dveR-w,Cửa Hàng Vlxd Diễm Ngọc,Cửa hàng vật liệu xây dựng,,"Cửa Hàng Vlxd Diễm Ngọc, 69 Đ. 3 Tháng 2, Hưng Lợi, Ninh Kiều, Cần Thơ","Hưng Lợi, Ninh Kiều",69 Đ. 3 Tháng 2,Cần Thơ,,"Ninh Kiều, Cần Thơ",VN,"10.0150332,105.7589134"
746,ChIJ4cHHz6WJoDERKiIZGtyEepA,CỬA HÀNG THỰC PHẨM TƯƠI SỐNG,Cửa hàng thịt,,"CỬA HÀNG THỰC PHẨM TƯƠI SỐNG, 154 Đ. Nguyễn Hiền, Khu dân cư 91B, Ninh Kiều, Cần Thơ","Khu dân cư 91B, Ninh Kiều",154 Đ. Nguyễn Hiền,Cần Thơ,,"Ninh Kiều, Cần Thơ",VN,"10.0225359,105.7553545"
747,ChIJUU1UEziIoDERxz3ukhCNTsg,Cửa Hàng Nhựa Inox Gia Khang,Cửa hàng vật liệu xây dựng,0292 3740 877,"Cửa Hàng Nhựa Inox Gia Khang, 29A Quốc Lộ 91B, Quận Ninh Kiều, Tp Cần Thơ, Hưng Lợi, Ninh Kiều, Cần Thơ","Hưng Lợi, Ninh Kiều","29A Quốc Lộ 91B, Quận Ninh Kiều, Tp Cần Thơ",Cần Thơ,,"Ninh Kiều, Cần Thơ",VN,"10.0242021,105.7596796"
748,ChIJ_xWXQjiIoDERWNZdIJ40eqY,Cửa Hàng Ngọc Quang,Cửa hàng quà tặng,0292 3687 766,"Cửa Hàng Ngọc Quang, 410P, Nguyễn Văn Linh, Phường Hưng Lợi, Quận Ninh Kiều, Thành Phố Cần Thơ, Hưng Lợi, Ninh Kiều, Cần Thơ","Hưng Lợi, Ninh Kiều","410P, Nguyễn Văn Linh, Phường Hưng Lợi, Quận Ninh Kiều, Thành Phố Cần Thơ",Cần Thơ,,"Ninh Kiều, Cần Thơ",VN,"10.0248086,105.76021659999999"
749,ChIJad8GZTiIoDERottf8E_iHZc,Cửa Hàng Đtdđ Thời Gian,Cửa hàng,,"Cửa Hàng Đtdđ Thời Gian, 33 Đ. Nguyễn Văn Linh, Hưng Lợi, Ninh Kiều, Cần Thơ","Hưng Lợi, Ninh Kiều",33 Đ. Nguyễn Văn Linh,Cần Thơ,,"Ninh Kiều, Cần Thơ",VN,"10.024994699999999,105.7594658"
750,ChIJYa87TDeIoDERk9HdtKJBKCI,Cửa Hàng Kho Nệm Sỉ,Cửa hàng nội thất,1800 888909,"Cửa Hàng Kho Nệm Sỉ, 1L1, Đ. Nguyễn Văn Linh, Hưng Lợi, Ninh Kiều, Cần Thơ","Hưng Lợi, Ninh Kiều","1L1, Đ. Nguyễn Văn Linh",Cần Thơ,,"Ninh Kiều, Cần Thơ",VN,"10.0217367,105.7641117"
751,ChIJz-zabUeIoDERaPYJUyx-WIA,Cửa Hàng Đtdđ Ngọc Lan,Cửa hàng,0944 134 678,"Cửa Hàng Đtdđ Ngọc Lan, 327 QL91B, Hưng Lợi, Ninh Kiều, Cần Thơ","Hưng Lợi, Ninh Kiều",327 QL91B,Cần Thơ,,"Ninh Kiều, Cần Thơ",VN,"10.026538799999999,105.7574956"
752,ChIJH7m6QEeIoDER9cQkaZPat3w,Cửa Hàng Dán Xe Tạo 91B,Đại lý xe mô tô,0292 3897 834,"Cửa Hàng Dán Xe Tạo 91B, 410 QL91B, Hưng Lợi, Ninh Kiều, Cần Thơ","Hưng Lợi, Ninh Kiều",410 QL91B,Cần Thơ,,"Ninh Kiều, Cần Thơ",VN,"10.0273021,105.7572297"
753,ChIJkUsS2EaIoDERPpBij6vTEUc,Cửa Hàng Nội Thất Nhựa Đài Loan Cao Cấp Lộc Phát,Cửa hàng nội thất,0848 626 468,"Cửa Hàng Nội Thất Nhựa Đài Loan Cao Cấp Lộc Phát, 7 Đ. Nguyễn Văn Linh, Phường An Khánh, Ninh Kiều, Cần Thơ","Phường An Khánh, Ninh Kiều",7 Đ. Nguyễn Văn Linh,Cần Thơ,,"Ninh Kiều, Cần Thơ",VN,"10.0274439,105.75582999999999"
754,ChIJ_RZW0DmIoDERoHRiENKxz88,Cửa Hàng Đtdđ Quốc Trường,Cửa hàng điện thoại di động,,"Cửa Hàng Đtdđ Quốc Trường, 17 QL91B, Hưng Lợi, Ninh Kiều, Cần Thơ","Hưng Lợi, Ninh Kiều",17 QL91B,Cần Thơ,,"Ninh Kiều, Cần Thơ",VN,"10.0229976,105.76170189999999"
755,ChIJK6JkSDiIoDERpMTLbrnipHw,Cửa Hàng Đtdđ Ngọc Thảnh,Cửa hàng,0936 614 172,"Cửa Hàng Đtdđ Ngọc Thảnh, 40 Đ. Nguyễn Văn Linh, Hưng Lợi, Ninh Kiều, Cần Thơ","Hưng Lợi, Ninh Kiều",40 Đ. Nguyễn Văn Linh,Cần Thơ,,"Ninh Kiều, Cần Thơ",VN,"10.0243802,105.76084519999999"
756,ChIJldE9ZDiIoDER68DLKsb7N90,Cửa Hàng Đtdđ Huy Hiệp 2,Cửa hàng,0292 3781 355,"Cửa Hàng Đtdđ Huy Hiệp 2, 46A QL91B, Hưng Lợi, Ninh Kiều, Cần Thơ","Hưng Lợi, Ninh Kiều",46A QL91B,Cần Thơ,,"Ninh Kiều, Cần Thơ",VN,"10.0256209,105.75917199999999"
757,ChIJb7P93kOIoDERKTxWrbGqfBo,Cửa Hàng Hoa Tươi Phong Cách Thiên Nhiên,Cửa hàng hoa,0939 715 660,"Cửa Hàng Hoa Tươi Phong Cách Thiên Nhiên, 310/10 Đ. Nguyễn Văn Linh, Phường An Khánh, Ninh Kiều, Cần Thơ","Phường An Khánh, Ninh Kiều",310/10 Đ. Nguyễn Văn Linh,Cần Thơ,,"Ninh Kiều, Cần Thơ",VN,"10.026589099999999,105.7571294"
758,ChIJ_xWXQjiIoDERbneDJomwIyk,Cửa Hàng Phụ Tùng Vinh,Đại lý xe mô tô,0989 237 044,"Cửa Hàng Phụ Tùng Vinh, 233, Nguyễn Văn Linh, Phường Hưng Lợi, Quận Ninh Kiều, Thành Phố Cần Thơ, Hưng Lợi, Ninh Kiều, Cần Thơ","Hưng Lợi, Ninh Kiều","233, Nguyễn Văn Linh, Phường Hưng Lợi, Quận Ninh Kiều, Thành Phố Cần Thơ",Cần Thơ,,"Ninh Kiều, Cần Thơ",VN,"10.0247715,105.7601109"
759,ChIJaRUciDiIoDERop9pDySLJNo,Cửa Hàng Phụ Tùng Xe Trần Văn Trí,Đại lý xe mô tô,0988 413 304,"Cửa Hàng Phụ Tùng Xe Trần Văn Trí, 290A Đ. Nguyễn Văn Linh, Hưng Lợi, Ninh Kiều, Cần Thơ","Hưng Lợi, Ninh Kiều",290A Đ. Nguyễn Văn Linh,Cần Thơ,,"Ninh Kiều, Cần Thơ",VN,"10.025603,105.7593565"
761,ChIJgREtGzWIoDERrAVlwRKf3cM,Cửa Hàng Thời Trang Subin,Cửa hàng quần áo,0292 3837 280,"Cửa Hàng Thời Trang Subin, 223, Đường 30/04, Quận Ninh Kiều, Tp Cần Thơ, Hưng Lợi, Ninh Kiều, Cần Thơ","Hưng Lợi, Ninh Kiều","223, Đường 30/04, Quận Ninh Kiều, Tp Cần Thơ",Cần Thơ,,"Ninh Kiều, Cần Thơ",VN,"10.013934299999999,105.76098759999999"
762,ChIJK7E8QjGIoDER2qN_UWGGHrs,Hoang Chau Mobile Store,Cửa hàng,0919 334 244,"Hoang Chau Mobile Store, 176, 30/4 Street, Ninh Kieu District, Can Tho City, Hưng Lợi, Ninh Kiều, Cần Thơ","Hưng Lợi, Ninh Kiều","176, 30/4 Street, Ninh Kieu District, Can Tho City",Cần Thơ,,"Ninh Kiều, Cần Thơ",VN,"10.018116599999999,105.7658165"
765,ChIJQYkvljSIoDERWH42fdCcZyM,Cửa Hàng Gạo Thu Bình,Cửa hàng,0292 3840 185,"Cửa Hàng Gạo Thu Bình, 151 Đ. Trần Hoàng Na, Hưng Lợi, Ninh Kiều, Cần Thơ","Hưng Lợi, Ninh Kiều",151 Đ. Trần Hoàng Na,Cần Thơ,,"Ninh Kiều, Cần Thơ",VN,"10.0134969,105.76340929999999"
767,ChIJeTtZnEqIoDERlpesIuf0E9I,Cửa Hàng Đtdđ Pq,Cửa hàng điện thoại di động,0292 3839 164,"Cửa Hàng Đtdđ Pq, 59 Đ. 3 Tháng 2, Hưng Lợi, Ninh Kiều, Cần Thơ","Hưng Lợi, Ninh Kiều",59 Đ. 3 Tháng 2,Cần Thơ,,"Ninh Kiều, Cần Thơ",VN,"10.0141475,105.7583374"
769,ChIJ14oytcqJoDERxItTR3IxzYM,Cửa Hàng Tạp Hóa Ngọc Diễm,Cửa hàng bách hóa,0967 311 481,"Cửa Hàng Tạp Hóa Ngọc Diễm, 557 Đ. 30 Tháng 4, Hưng Lợi, Ninh Kiều, Cần Thơ","Hưng Lợi, Ninh Kiều",557 Đ. 30 Tháng 4,Cần Thơ,,"Ninh Kiều, Cần Thơ",VN,"10.0119432,105.7599644"
770,ChIJ3y0WaDGIoDERrTxgO9P1EcE,Cửa Hàng Điện Thoại Nguyễn Minh Tâm,Cửa hàng điện thoại di động,0774 395 606,"Cửa Hàng Điện Thoại Nguyễn Minh Tâm, 156, Đường 30 Tháng 4, Phường Hưng Lợi, Quận Ninh Kiều, Hưng Lợi, Ninh Kiều, Cần Thơ","Hưng Lợi, Ninh Kiều","156, Đường 30 Tháng 4, Phường Hưng Lợi, Quận Ninh Kiều",Cần Thơ,,"Ninh Kiều, Cần Thơ",VN,"10.0178964,105.7659856"
771,ChIJy8ErljSIoDER-m-917K6sdc,Cửa Hàng Gạo Phương Thảo,Cửa hàng bán thực phẩm sạch,0292 3840 591,"Cửa Hàng Gạo Phương Thảo, 151 Đ. Trần Hoàng Na, Hưng Lợi, Ninh Kiều, Cần Thơ","Hưng Lợi, Ninh Kiều",151 Đ. Trần Hoàng Na,Cần Thơ,,"Ninh Kiều, Cần Thơ",VN,"10.013247699999999,105.7635715"
774,ChIJF8Lj3C2IoDERIVCJkMA8s98,Cửa Hàng Dụng Cụ Học Sinh - Điện Gia Dụng,Cửa hàng,0292 3740 650,"Cửa Hàng Dụng Cụ Học Sinh - Điện Gia Dụng, 274, Đường Tầm Vu, Quận Ninh Kiều, Tp Cần Thơ, Hưng Lợi, Ninh Kiều, Cần Thơ","Hưng Lợi, Ninh Kiều","274, Đường Tầm Vu, Quận Ninh Kiều, Tp Cần Thơ",Cần Thơ,,"Ninh Kiều, Cần Thơ",VN,"10.0162782,105.7719963"
775,ChIJxSF3uDCIoDERQr_ivtK6T_0,Cửa Hàng Tạp Hóa Xuân Hảo,Cửa hàng bách hóa,,"Cửa Hàng Tạp Hóa Xuân Hảo, 200 QL91B, Hưng Lợi, Ninh Kiều, Cần Thơ","Hưng Lợi, Ninh Kiều",200 QL91B,Cần Thơ,,"Ninh Kiều, Cần Thơ",VN,"10.0212491,105.7653203"
776,ChIJrbfM2SCJoDERRN4ZcVI9GYs,CỬA HÀNG THỊNH PHÁT,Cửa hàng vật liệu xây dựng,0932 909 779,"CỬA HÀNG THỊNH PHÁT, 551 Đ. 30 Tháng 4, Hưng Lợi, Ninh Kiều, Cần Thơ","Hưng Lợi, Ninh Kiều",551 Đ. 30 Tháng 4,Cần Thơ,,"Ninh Kiều, Cần Thơ",VN,"10.012075399999999,105.76003469999999"
784,ChIJRXGZv8yJoDER7CIQIpN2sH0,Cửa Hàng Đồ Chơi Xe Malaysia HGT,Đại lý xe mô tô,0903 333 398,"Cửa Hàng Đồ Chơi Xe Malaysia HGT, 55K Đ. Trần Hoàng Na, Hưng Lợi, Ninh Kiều, Cần Thơ","Hưng Lợi, Ninh Kiều",55K Đ. Trần Hoàng Na,Cần Thơ,,"Ninh Kiều, Cần Thơ",VN,"10.010508999999999,105.76585399999999"
785,ChIJjVbaQQSJoDERB6STfdn5eTs,Cửa Hàng Xe Máy Đức Phúc Cần Thơ,Cửa hàng xe máy,0933 651 618,"Cửa Hàng Xe Máy Đức Phúc Cần Thơ, 490 Đ. 30 Tháng 4, Hưng Lợi, Ninh Kiều, Cần Thơ","Hưng Lợi, Ninh Kiều",490 Đ. 30 Tháng 4,Cần Thơ,,"Ninh Kiều, Cần Thơ",VN,"10.018423199999999,105.76675949999999"
786,ChIJecLv6UqIoDERKYeNow6EJxU,Cửa Hàng Vật Liệu Xây Dựng Phát Đạt,Cửa hàng vật liệu xây dựng,0292 3508 202,"Cửa Hàng Vật Liệu Xây Dựng Phát Đạt, 36C, Đường 3/2, Quận Ninh Kiều, TP Cần Thơ, Hưng Lợi, Ninh Kiều, Cần Thơ","Hưng Lợi, Ninh Kiều","36C, Đường 3/2, Quận Ninh Kiều, TP Cần Thơ",Cần Thơ,,"Ninh Kiều, Cần Thơ",VN,"10.013755399999999,105.7582798"
787,ChIJ08PopTSIoDER4E5loYShaZU,Cửa Hàng Tạp Hóa 32,Cửa hàng bách hóa,,"Cửa Hàng Tạp Hóa 32, 151 Đ. Trần Hoàng Na, Hưng Lợi, Ninh Kiều, Cần Thơ","Hưng Lợi, Ninh Kiều",151 Đ. Trần Hoàng Na,Cần Thơ,,"Ninh Kiều, Cần Thơ",VN,"10.0125681,105.7643574"
788,ChIJDQt4WDCIoDERvtYwBRawWjg,Cửa Hàng Ô Tô Hưng,Đại lý xe gắn máy,0292 3853 147,"Cửa Hàng Ô Tô Hưng, 268/48, Đường Nguyễn Văn Linh, Quận Ninh Kiều, Tp Cần Thơ, Hưng Lợi, Ninh Kiều, Cần Thơ","Hưng Lợi, Ninh Kiều","268/48, Đường Nguyễn Văn Linh, Quận Ninh Kiều, Tp Cần Thơ",Cần Thơ,,"Ninh Kiều, Cần Thơ",VN,"10.020586999999999,105.7673952"
789,ChIJNac3UDOIoDERFO4M9PkD2Ns,Cửa Hàng Tạp Hoá Mỹ Tiên,Cửa hàng bách hóa,0292 3838 151,"Cửa Hàng Tạp Hoá Mỹ Tiên, 151/39D, Trần Hoàng Na, Quận Ninh Kiều, Đ. Trần Hoàng Na, Hưng Lợi, Ninh Kiều, Cần Thơ","Hưng Lợi, Ninh Kiều","151/39D, Trần Hoàng Na, Quận Ninh Kiều, Đ. Trần Hoàng Na",Cần Thơ,,"Ninh Kiều, Cần Thơ",VN,"10.0117341,105.7645706"
791,ChIJDazuVDOIoDERvlhKVPIhQMw,Cửa Hàng Tạp Hóa Mỹ Chi,Cửa hàng bách hóa,0292 3738 690,"Cửa Hàng Tạp Hóa Mỹ Chi, 40 Đ. Trần Hoàng Na, Hưng Lợi, Ninh Kiều, Cần Thơ 900000","Hưng Lợi, Ninh Kiều",40 Đ. Trần Hoàng Na,Cần Thơ,900000.0,"Ninh Kiều, Cần Thơ",VN,"10.012138199999999,105.7646242"
792,ChIJp5gfWDSIoDERtLvopazEjDs,Cửa Hàng Thời Trang Công Sở A Sỹ Dương,Cửa hàng quần áo,0934 743 659,"Cửa Hàng Thời Trang Công Sở A Sỹ Dương, 124A Đ. 30 Tháng 4, Hưng Lợi, Ninh Kiều, Cần Thơ","Hưng Lợi, Ninh Kiều",124A Đ. 30 Tháng 4,Cần Thơ,,"Ninh Kiều, Cần Thơ",VN,"10.0146864,105.7622686"
793,ChIJb7P93kOIoDERP96kcQzLTD4,Cửa Hàng Nhôm Kính Minh Giang,Cửa hàng vật liệu xây dựng,0915 222 818,"Cửa Hàng Nhôm Kính Minh Giang, 227D Đ. Nguyễn Văn Linh, Phường An Khánh, Ninh Kiều, Cần Thơ","Phường An Khánh, Ninh Kiều",227D Đ. Nguyễn Văn Linh,Cần Thơ,,"Ninh Kiều, Cần Thơ",VN,"10.0210407,105.76602749999999"
794,ChIJI5yeaDGIoDERYbcRHY7RMcw,Cửa Hàng Mỹ Phẩm Thiên Nhiên Xanh,Cửa hàng mỹ phẩm,,"Cửa Hàng Mỹ Phẩm Thiên Nhiên Xanh, 514 Đ. 30 Tháng 4, Hưng Lợi, Ninh Kiều, Cần Thơ","Hưng Lợi, Ninh Kiều",514 Đ. 30 Tháng 4,Cần Thơ,,"Ninh Kiều, Cần Thơ",VN,"10.0178941,105.76613669999999"
795,ChIJl0p-7syJoDER98GSWWJl0wA,Cửa Hàng Bách Hóa Phúc,Cửa hàng bách hóa,1215 804053,"Cửa Hàng Bách Hóa Phúc, 151/60A Đ. Trần Hoàng Na, Hưng Lợi, Ninh Kiều, Cần Thơ","Hưng Lợi, Ninh Kiều",151/60A Đ. Trần Hoàng Na,Cần Thơ,,"Ninh Kiều, Cần Thơ",VN,"10.010339799999999,105.7663007"
796,ChIJjeqVejWIoDER_GYsZsvO7vI,Bao Thinh Interior Store,Cửa hàng đồ gia dụng,0292 3782 830,"Bao Thinh Interior Store, 65C, 3/2 Street, Hung Loi Ward, Ninh Kieu District, Can Tho City, Hưng Lợi, Ninh Kiều, Cần Thơ","Hưng Lợi, Ninh Kiều","65C, 3/2 Street, Hung Loi Ward, Ninh Kieu District, Can Tho City",Cần Thơ,,"Ninh Kiều, Cần Thơ",VN,"10.014165199999999,105.7592504"
797,ChIJB3omTo2JoDERWBa78VBgDbA,Cửa hàng An Phú,Cửa hàng thức ăn gia súc,,"Cửa hàng An Phú, 202 Tầm Vu, Hưng Lợi, Ninh Kiều, Cần Thơ","Hưng Lợi, Ninh Kiều",202 Tầm Vu,Cần Thơ,,"Ninh Kiều, Cần Thơ",VN,"10.0115202,105.7694092"
798,ChIJnZyNMjeIoDER6c3KHgHAyNs,Cửa Hàng Đtdđ Xphone,Cửa hàng,0292 3839 569,"Cửa Hàng Đtdđ Xphone, 203 Đ. 3 Tháng 2, Hưng Lợi, Ninh Kiều, Cần Thơ","Hưng Lợi, Ninh Kiều",203 Đ. 3 Tháng 2,Cần Thơ,,"Ninh Kiều, Cần Thơ",VN,"10.0208164,105.7645154"
799,ChIJq_ZHZWSJoDERHlNHHNTEvUQ,"Cửa hàng Điện Nước gia dụng, Phụ kiện điện thoại Ngân Thông",Cửa hàng tổng hợp,0907 828 978,"Cửa hàng Điện Nước gia dụng, Phụ kiện điện thoại Ngân Thông, 138 Đ. Mậu Thân, An Nghiệp, Ninh Kiều, Cần Thơ","An Nghiệp, Ninh Kiều",138 Đ. Mậu Thân,Cần Thơ,,"Ninh Kiều, Cần Thơ",VN,"10.0378782,105.771453"
800,ChIJfUCZBxmIoDERuxkzWq2i57s,"Cửa Hàng Mực In, Văn Phòng Phẩm Nghĩa Lợi",Cửa hàng đồ mới lạ,0292 3894 567,"Cửa Hàng Mực In, Văn Phòng Phẩm Nghĩa Lợi, 17 Nguyễn Cư Trinh, An Phú, Ninh Kiều, Cần Thơ","An Phú, Ninh Kiều",17 Nguyễn Cư Trinh,Cần Thơ,,"Ninh Kiều, Cần Thơ",VN,"10.036368999999999,105.7733428"
801,ChIJuQ7G6hmIoDERWPpq_aazR74,Huu Giang Mobile Store,Cửa hàng điện thoại di động,0292 2202 068,"Huu Giang Mobile Store, 114 Đ. Mậu Thân, An Nghiệp, Ninh Kiều, Cần Thơ 900000","An Nghiệp, Ninh Kiều",114 Đ. Mậu Thân,Cần Thơ,900000.0,"Ninh Kiều, Cần Thơ",VN,"10.0373588,105.7717696"
802,ChIJ_wSiMCKIoDERtrCgLDulFwU,Cửa Hàng Thế Giới Của Nàng,Cửa hàng phụ kiện thời trang,0292 3899 282,"Cửa Hàng Thế Giới Của Nàng, 15, Mậu Thân, Phường Xuân Khánh, Quận Ninh Kiều, Thành Phố Cần Thơ, An Phú, Ninh Kiều, Cần Thơ","An Phú, Ninh Kiều","15, Mậu Thân, Phường Xuân Khánh, Quận Ninh Kiều, Thành Phố Cần Thơ",Cần Thơ,,"Ninh Kiều, Cần Thơ",VN,"10.0308932,105.77518699999999"
803,ChIJWchAiE6JoDERDLNTVhxCB4I,Central Pet- Cửa hàng thú cưng,Cửa hàng vật nuôi,,"Central Pet- Cửa hàng thú cưng, 110 Đ. Mậu Thân, An Nghiệp, Ninh Kiều, Cần Thơ","An Nghiệp, Ninh Kiều",110 Đ. Mậu Thân,Cần Thơ,,"Ninh Kiều, Cần Thơ",VN,"10.0371803,105.7718326"
804,ChIJp15bpRmIoDERQo7inTaCAt8,Cửa Hàng ĐTDĐ 68,Cửa hàng điện thoại di động,0292 3834 241,"Cửa Hàng ĐTDĐ 68, 37 Đ. Mậu Thân, An Phú, Ninh Kiều, Cần Thơ","An Phú, Ninh Kiều",37 Đ. Mậu Thân,Cần Thơ,,"Ninh Kiều, Cần Thơ",VN,"10.0367759,105.7718328"
805,ChIJ_5lV7RmIoDER5t_UNVsLieg,Cửa Hàng Trang Sức Bích Nguyệt,Cửa hàng phụ kiện thời trang,0988 666 101,"Cửa Hàng Trang Sức Bích Nguyệt, 66A Đ. Mậu Thân, An Nghiệp, Ninh Kiều, Cần Thơ","An Nghiệp, Ninh Kiều",66A Đ. Mậu Thân,Cần Thơ,,"Ninh Kiều, Cần Thơ",VN,"10.037816699999999,105.771703"
806,ChIJm-jXDyOIoDER12KiZDIvkDo,Cửa Hàng Áo Quần 135,Cửa hàng quần áo,0939 809 612,"Cửa Hàng Áo Quần 135, 37, Đường 3/2, Quận Ninh Kiều, Tp Cần Thơ, Xuân Khánh, Ninh Kiều, Cần Thơ","Xuân Khánh, Ninh Kiều","37, Đường 3/2, Quận Ninh Kiều, Tp Cần Thơ",Cần Thơ,,"Ninh Kiều, Cần Thơ",VN,"10.0295586,105.7725327"
807,ChIJkzO_ZSKIoDERYldvtDJd6rI,Cửa Hàng Văn Phòng Phẩm Trần Duy,Cửa hàng đồ mới lạ,0908 408 884,"Cửa Hàng Văn Phòng Phẩm Trần Duy, 15 Đ. 3 Tháng 2, An Phú, Ninh Kiều, Cần Thơ","An Phú, Ninh Kiều",15 Đ. 3 Tháng 2,Cần Thơ,,"Ninh Kiều, Cần Thơ",VN,"10.031693299999999,105.7739184"
808,ChIJEZYvZiKIoDERPn6OIZpibis,Cửa Hàng Thịt Bò Sạch Hà Vân,Cửa hàng bán thực phẩm sạch,0942 181 238,"Cửa Hàng Thịt Bò Sạch Hà Vân, 32 Đ. 3 Tháng 2, Xuân Khánh, Ninh Kiều, Cần Thơ","Xuân Khánh, Ninh Kiều",32 Đ. 3 Tháng 2,Cần Thơ,,"Ninh Kiều, Cần Thơ",VN,"10.031808999999999,105.7740084"
809,ChIJ9eE97BCIoDERiQ42DpbDmzs,Nhà Sách Trung Tâm @ Cửa Hàng Tặng Phẩm,Cửa hàng văn phòng phẩm,7103831381,"Nhà Sách Trung Tâm @ Cửa Hàng Tặng Phẩm, 108B Đ. Mậu Thân, An Nghiệp, Ninh Kiều, Cần Thơ","An Nghiệp, Ninh Kiều",108B Đ. Mậu Thân,Cần Thơ,,"Ninh Kiều, Cần Thơ",VN,"10.0404719,105.7685631"
810,ChIJhZz37xmIoDER-3dZsgrr0vk,Cửa Hàng Mỹ Phẩm Anh Đào,Cửa hàng mỹ phẩm,0946 409 969,"Cửa Hàng Mỹ Phẩm Anh Đào, 65 Đ. Mậu Thân, An Nghiệp, Ninh Kiều, Cần Thơ","An Nghiệp, Ninh Kiều",65 Đ. Mậu Thân,Cần Thơ,,"Ninh Kiều, Cần Thơ",VN,"10.0377879,105.7710159"
811,ChIJfWltaiOIoDERE8hKbQMdCb4,Cửa Hàng Photocopy Flecoffice,Cửa hàng,0292 3734 336,"Cửa Hàng Photocopy Flecoffice, 90A, Đường 3/2, Quận Ninh Kiều, Tp Cần Thơ, Xuân Khánh, Ninh Kiều, Cần Thơ","Xuân Khánh, Ninh Kiều","90A, Đường 3/2, Quận Ninh Kiều, Tp Cần Thơ",Cần Thơ,,"Ninh Kiều, Cần Thơ",VN,"10.028797899999999,105.77184609999999"
812,ChIJ0TNQJSKIoDERtbT9wAmEMOQ,Cửa Hàng Thời Trang Minh Trâm,Cửa hàng phụ kiện thời trang,0913 737 177,"Cửa Hàng Thời Trang Minh Trâm, 75 Đ. Mậu Thân, An Nghiệp, Ninh Kiều, Cần Thơ","An Nghiệp, Ninh Kiều",75 Đ. Mậu Thân,Cần Thơ,,"Ninh Kiều, Cần Thơ",VN,"10.0307468,105.77549359999999"
813,ChIJw5qmPh-IoDERc6OqPcdlA6Q,Cửa Hàng Dược Mỹ Phẩm Trinh Lê Lê,Cửa hàng mỹ phẩm,0704 656 466,"Cửa Hàng Dược Mỹ Phẩm Trinh Lê Lê, 30 Đ. Trần Bình Trọng, An Phú, Ninh Kiều, Cần Thơ","An Phú, Ninh Kiều",30 Đ. Trần Bình Trọng,Cần Thơ,,"Ninh Kiều, Cần Thơ",VN,"10.0345692,105.7772511"
814,ChIJ_4zKuSSIoDERnDt679DEm8I,Cửa Hàng Thực Phẩm Nhập Khẩu Thanh Loan,Cửa hàng bán thực phẩm sạch,0933 805 073,"Cửa Hàng Thực Phẩm Nhập Khẩu Thanh Loan, 356 Đ. 30 Tháng 4, Xuân Khánh, Ninh Kiều, Cần Thơ","Xuân Khánh, Ninh Kiều",356 Đ. 30 Tháng 4,Cần Thơ,,"Ninh Kiều, Cần Thơ",VN,"10.026548,105.771149"
816,ChIJR5UeS2uIoDERccHNn-QbVTM,Cửa Hàng Điện Thoại Di Động Quỳnh Liên,Cửa hàng điện thoại di động,0903 768 534,"Cửa Hàng Điện Thoại Di Động Quỳnh Liên, 161C Đ. Nguyễn Văn Cừ, Phường An Khánh, Ninh Kiều, Cần Thơ","Phường An Khánh, Ninh Kiều",161C Đ. Nguyễn Văn Cừ,Cần Thơ,,"Ninh Kiều, Cần Thơ",VN,"10.038084099999999,105.7585203"
817,ChIJJdrr8SSIoDER3oCpwWTzexM,Cửa Hàng Điện Nước Phát Đạt,Cửa hàng thiết bị điện,0979 779 467,"Cửa Hàng Điện Nước Phát Đạt, 40 Đ. Trần Văn Hoài, Xuân Khánh, Ninh Kiều, Cần Thơ 900000","Xuân Khánh, Ninh Kiều",40 Đ. Trần Văn Hoài,Cần Thơ,900000.0,"Ninh Kiều, Cần Thơ",VN,"10.0259053,105.77242659999999"
818,ChIJl50ToRmIoDER_gr4H8EMld4,Cửa Hàng VLXD Tân Minh Phát,Cửa hàng vật liệu xây dựng,0909 204 461,"Cửa Hàng VLXD Tân Minh Phát, 49 Nguyễn Cư Trinh, An Phú, Ninh Kiều, Cần Thơ","An Phú, Ninh Kiều",49 Nguyễn Cư Trinh,Cần Thơ,,"Ninh Kiều, Cần Thơ",VN,"10.0369356,105.77309489999999"
819,ChIJuVUiFCKIoDER2OWHB_1fJKg,Cửa Hàng Panasonic,Cửa hàng bán đồ điện tử,0292 3833 987,"Cửa Hàng Panasonic, 146 Đ. Mậu Thân, An Phú, Ninh Kiều, Cần Thơ","An Phú, Ninh Kiều",146 Đ. Mậu Thân,Cần Thơ,,"Ninh Kiều, Cần Thơ",VN,"10.031906399999999,105.775171"
820,ChIJH9dPmxiIoDER824sn52W9Q0,Cửa Hàng Gạo,Cửa hàng gạo,0292 3733 927,"Cửa Hàng Gạo, 9 Đ. Mậu Thân, An Phú, Ninh Kiều, Cần Thơ","An Phú, Ninh Kiều",9 Đ. Mậu Thân,Cần Thơ,,"Ninh Kiều, Cần Thơ",VN,"10.033353199999999,105.7739759"
823,ChIJt1feZSKIoDERRfhbg7q1z6w,Cửa Hàng Cặp Da Túi Xách Dũng,Cửa hàng,0292 3733 179,"Cửa Hàng Cặp Da Túi Xách Dũng, 15 Đ. 3 Tháng 2, An Phú, Ninh Kiều, Cần Thơ","An Phú, Ninh Kiều",15 Đ. 3 Tháng 2,Cần Thơ,,"Ninh Kiều, Cần Thơ",VN,"10.031693299999999,105.7739184"
824,ChIJtVj8FiKIoDERmKon9AVM0b0,Hoang Lan Mobile Store,Cửa hàng,0292 3834 430,"Hoang Lan Mobile Store, 142C Đ. Mậu Thân, An Phú, Ninh Kiều, Cần Thơ","An Phú, Ninh Kiều",142C Đ. Mậu Thân,Cần Thơ,,"Ninh Kiều, Cần Thơ",VN,"10.0318984,105.7753333"
827,ChIJiRlSZiOIoDERzsWN8gI0EFo,Cửa Hàng Xe Máy Hồng Hải,Đại lý xe mô tô,0901 065 165,"Cửa Hàng Xe Máy Hồng Hải, 118 Đ. Mạc Thiên Tích, Xuân Khánh, Ninh Kiều, Cần Thơ","Xuân Khánh, Ninh Kiều",118 Đ. Mạc Thiên Tích,Cần Thơ,,"Ninh Kiều, Cần Thơ",VN,"10.028229999999999,105.77199999999999"
830,ChIJ-UbDX6BioDERrmjC3A-kVPs,Cửa Hàng Khánh Iphone,Cửa hàng điện thoại di động,0974 024 024,"Cửa Hàng Khánh Iphone, 9 Đ. Nguyễn Khuyến, Tân An, Ninh Kiều, Cần Thơ","Tân An, Ninh Kiều",9 Đ. Nguyễn Khuyến,Cần Thơ,,"Ninh Kiều, Cần Thơ",VN,"10.0352552,105.7839406"
831,ChIJB5VjSaBioDERbxjTUAKmq8Q,Cửa Hàng Thời Trang Anh Thư,Cửa hàng quần áo,0292 3824 431,"Cửa Hàng Thời Trang Anh Thư, 22 Đại lộ Hoà Bình, Tân An, Ninh Kiều, Cần Thơ 94112","Tân An, Ninh Kiều",22 Đại lộ Hoà Bình,Cần Thơ,94112.0,"Ninh Kiều, Cần Thơ",VN,"10.034105,105.7845882"
832,ChIJFf5fDaBioDERVPWz9nJBnHs,Cửa Hàng Yến Sào Bình Minh,Cửa hàng bán thực phẩm sạch,0292 3822 698,"Cửa Hàng Yến Sào Bình Minh, 54 Đ. Đề Thám, Tân An, Ninh Kiều, Cần Thơ","Tân An, Ninh Kiều",54 Đ. Đề Thám,Cần Thơ,,"Ninh Kiều, Cần Thơ",VN,"10.034124,105.7826559"
833,ChIJbekLF6BioDERFNGC66bRV4o,Cửa Hàng Photocopy Hải Âu,Cửa hàng,,"Cửa Hàng Photocopy Hải Âu, An Cư, Ninh Kiều, Cần Thơ","An Cư, Ninh Kiều",,Cần Thơ,,"Ninh Kiều, Cần Thơ",VN,"10.033333299999999,105.7833333"
834,ChIJt3AouKFioDEREeQn6eAz3s8,Cửa Hàng Điện Máy Nguyễn Cảnh,Cửa hàng bán đồ điện tử,,"Cửa Hàng Điện Máy Nguyễn Cảnh, 27 Đ. Ngô Văn Sở, Tân An, Ninh Kiều, Cần Thơ","Tân An, Ninh Kiều",27 Đ. Ngô Văn Sở,Cần Thơ,,"Ninh Kiều, Cần Thơ",VN,"10.033853899999999,105.785725"
835,ChIJ_ZMjtKFioDER8aJ6DKdeN1A,Cửa Hàng Đô Kids,Cửa hàng quần áo trẻ em,0939 597 167,"Cửa Hàng Đô Kids, 39A Đ. Ngô Văn Sở, Tân An, Ninh Kiều, Cần Thơ","Tân An, Ninh Kiều",39A Đ. Ngô Văn Sở,Cần Thơ,,"Ninh Kiều, Cần Thơ",VN,"10.033902,105.78545779999999"
836,ChIJM9dHbKBioDERHSBRgWFj3R4,Cửa Hàng Đá Hiếu,Cửa hàng vật liệu xây dựng,0939 767 388,"Cửa Hàng Đá Hiếu, 45 Đ. Nguyễn Khuyến, Tân An, Ninh Kiều, Cần Thơ","Tân An, Ninh Kiều",45 Đ. Nguyễn Khuyến,Cần Thơ,,"Ninh Kiều, Cần Thơ",VN,"10.0342519,105.783019"
837,ChIJR2jBi6BioDERqkUXINGWn3s,Cửa Hàng Phụ Liệu May Mặc Ngọc,Cửa hàng,0292 6543 930,"Cửa Hàng Phụ Liệu May Mặc Ngọc, 18/4, Đường Ngô Quyền, Quận Cái Răng, Tân An, Ninh Kiều, Cần Thơ","Tân An, Ninh Kiều","18/4, Đường Ngô Quyền, Quận Cái Răng",Cần Thơ,,"Ninh Kiều, Cần Thơ",VN,"10.0355065,105.7832401"
838,ChIJbagc5U6JoDERCkMZZIPQBdg,Cửa Hàng VNPT Vinaphone - Trương Thị Kim Loan,Cửa hàng,,"Cửa Hàng VNPT Vinaphone - Trương Thị Kim Loan, 85/8 Đ. Đề Thám, An Cư, Ninh Kiều, Cần Thơ","An Cư, Ninh Kiều",85/8 Đ. Đề Thám,Cần Thơ,,"Ninh Kiều, Cần Thơ",VN,"10.034654,105.781566"
840,ChIJwSlF1x-IoDERN5Zq6sSAER4,Kim Khoa Gold Shop,Cửa hàng phụ kiện thời trang,0292 3816 157,"Kim Khoa Gold Shop, 88 Đ. Đề Thám, An Cư, Ninh Kiều, Cần Thơ","An Cư, Ninh Kiều",88 Đ. Đề Thám,Cần Thơ,,"Ninh Kiều, Cần Thơ",VN,"10.0353193,105.7809013"
842,ChIJ96zv0B-IoDER8Lpo94Tu8II,Cửa Hàng Dụng Cụ Y Khoa Đại Ân,Cửa hàng,0292 3812 953,"Cửa Hàng Dụng Cụ Y Khoa Đại Ân, 87 Đ. Đề Thám, Tân An, Ninh Kiều, Cần Thơ","Tân An, Ninh Kiều",87 Đ. Đề Thám,Cần Thơ,,"Ninh Kiều, Cần Thơ",VN,"10.0347247,105.7815384"
843,ChIJP0c-IaJioDERUzxakOLNlyU,Cửa Hàng Phụ Liệu Uốn Tóc Và Đồ Cưới Ngọc Thắm,Cửa hàng đồ cắt tóc,,"Cửa Hàng Phụ Liệu Uốn Tóc Và Đồ Cưới Ngọc Thắm, 8 Đ. Ngô Quyền, Tân An, Ninh Kiều, Cần Thơ","Tân An, Ninh Kiều",8 Đ. Ngô Quyền,Cần Thơ,,"Ninh Kiều, Cần Thơ",VN,"10.0339554,105.7881482"
844,ChIJtW3MYJ9ioDERYt_Zl1LRNkI,Cửa Hàng Mua Bán Phụ Liệu Uốn Tóc Tám Thắm,Cửa hàng,0292 3875 134,"Cửa Hàng Mua Bán Phụ Liệu Uốn Tóc Tám Thắm, Đường Võ Văn Tần, Tân An, Ninh Kiều, Cần Thơ","Tân An, Ninh Kiều",Đường Võ Văn Tần,Cần Thơ,,"Ninh Kiều, Cần Thơ",VN,"10.0320659,105.78634869999999"
845,ChIJS9ZavqBioDERr0ZbuSZUhmk,Cửa Hàng Đại Lý Bia- Nước Ngọt Ngọc Phát,Cửa hàng,0292 3825 641,"Cửa Hàng Đại Lý Bia- Nước Ngọt Ngọc Phát, 36 Đ. Trương Định, Tân An, Ninh Kiều, Cần Thơ","Tân An, Ninh Kiều",36 Đ. Trương Định,Cần Thơ,,"Ninh Kiều, Cần Thơ",VN,"10.0364759,105.7833325"
847,ChIJnbHyAaBjoDERxtQKd09VvDA,Cửa hàng đồ thờ cúng VẠN PHÁT BẢY NGHĨA,Cửa hàng,0777 333 159,"Cửa hàng đồ thờ cúng VẠN PHÁT BẢY NGHĨA, 89 Võ Văn Tần, Tân An, Ninh Kiều, Cần Thơ 94000","Tân An, Ninh Kiều",89 Võ Văn Tần,Cần Thơ,94000.0,"Ninh Kiều, Cần Thơ",VN,"10.032580699999999,105.7842589"
848,ChIJ5eVOiZ9ioDER4HoSQfLt9ew,Cửa Hàng Băng Nhạc Thắng,Cửa hàng âm nhạc,,"Cửa Hàng Băng Nhạc Thắng, 65 Đ. Nam Kỳ Khởi Nghĩa, Tân An, Ninh Kiều, Cần Thơ","Tân An, Ninh Kiều",65 Đ. Nam Kỳ Khởi Nghĩa,Cần Thơ,,"Ninh Kiều, Cần Thơ",VN,"10.0320497,105.7841558"
849,ChIJQdjPf59ioDERRZLwr5AVv7k,Cửa Hàng Dụng Cụ Y Khoa Ngân Lượng,Cửa hàng,,"Cửa Hàng Dụng Cụ Y Khoa Ngân Lượng, 182 Đường Nguyễn An Ninh, Tân An, Ninh Kiều, Cần Thơ","Tân An, Ninh Kiều",182 Đường Nguyễn An Ninh,Cần Thơ,,"Ninh Kiều, Cần Thơ",VN,"10.032421099999999,105.7851582"
850,ChIJ4ZeHH59ioDERv6sH3fAFYqA,Cửa hàng thực phẩm Quốc Huỳnh,Cửa hàng bán thực phẩm sạch,0939 810 686,"Cửa hàng thực phẩm Quốc Huỳnh, 96 Phan Đình Phùng, P, Ninh Kiều, Cần Thơ","P, Ninh Kiều",96 Phan Đình Phùng,Cần Thơ,,"Ninh Kiều, Cần Thơ",VN,"10.0298123,105.7865616"
851,ChIJZ4caN59ioDERDx3kElUaiFk,Cửa Hàng Co.Op,Cửa hàng,0292 3810 299,"Cửa Hàng Co.Op, 8 Đường Nguyễn An Ninh, Tân An, Ninh Kiều, Cần Thơ","Tân An, Ninh Kiều",8 Đường Nguyễn An Ninh,Cần Thơ,,"Ninh Kiều, Cần Thơ",VN,"10.0308232,105.7873486"
852,ChIJB7398Z9ioDERncilQDJ4EnU,Cửa Hàng Relax,Cửa hàng bán đồ lót phụ nữ,0983 555 225,"Cửa Hàng Relax, 1 Đại lộ Hoà Bình, Tân An, Ninh Kiều, Cần Thơ","Tân An, Ninh Kiều",1 Đại lộ Hoà Bình,Cần Thơ,,"Ninh Kiều, Cần Thơ",VN,"10.0318916,105.78313709999999"
853,ChIJs1SxQZ9ioDERVo4fkhvv7dM,Cửa Hàng Điện Cơ Tiến Đạt,Cửa hàng thiết bị điện,0944 444 661,"Cửa Hàng Điện Cơ Tiến Đạt, 153, Phan Đình Phùng, phường Tân An, Quận Ninh Kiều, Thành Phố Cần Thơ, Tân An, Ninh Kiều, Cần Thơ","Tân An, Ninh Kiều","153, Phan Đình Phùng, phường Tân An, Quận Ninh Kiều, Thành Phố Cần Thơ",Cần Thơ,,"Ninh Kiều, Cần Thơ",VN,"10.0312401,105.7865301"
854,ChIJH8NFdJ9ioDER6puuJ5L9ujs,Cửa Hàng Đồ Điện 86,Cửa hàng thiết bị điện,7103832147,"Cửa Hàng Đồ Điện 86, 86 Đường Nguyễn An Ninh, An Hội, Ninh Kiều, Cần Thơ","An Hội, Ninh Kiều",86 Đường Nguyễn An Ninh,Cần Thơ,,"Ninh Kiều, Cần Thơ",VN,"10.031306899999999,105.7854627"
855,ChIJQ4nh46FioDERLCZpNxB8R0I,Cửa Hàng Tranh Đồng Hồ Ngọc An,Cửa hàng,0909 343 440,"Cửa Hàng Tranh Đồng Hồ Ngọc An, 30 Phan Đình Phùng, Tân An, Ninh Kiều, Cần Thơ","Tân An, Ninh Kiều",30 Phan Đình Phùng,Cần Thơ,,"Ninh Kiều, Cần Thơ",VN,"10.0327086,105.7867187"
856,ChIJa09R8qFioDEROVjwLgLNvss,Cửa Hàng Điện Máy Kim Khôi,Cửa hàng bán đồ điện tử,0292 3814 613,"Cửa Hàng Điện Máy Kim Khôi, Đường Đ. Lê Thánh Tôn, Tân An, Ninh Kiều, Cần Thơ","Tân An, Ninh Kiều",Đường Đ. Lê Thánh Tôn,Cần Thơ,,"Ninh Kiều, Cần Thơ",VN,"10.0336435,105.7874729"
857,ChIJbVPPlp9ioDERoynqa6_VKwE,Cửa Hàng Văn Hóa Phẩm Phật Giáo,Cửa hàng đồ mới lạ,0292 3810 826,"Cửa Hàng Văn Hóa Phẩm Phật Giáo, 128 Đường Nguyễn An Ninh, Tân An, Ninh Kiều, Cần Thơ","Tân An, Ninh Kiều",128 Đường Nguyễn An Ninh,Cần Thơ,,"Ninh Kiều, Cần Thơ",VN,"10.0315052,105.7840574"
858,ChIJYxAwhJ9ioDER3AczGIhN91A,Cửa Hàng Sơn Mài Thanh Thúy,Cửa hàng sơn,0292 3829 594,"Cửa Hàng Sơn Mài Thanh Thúy, 40 Đ. Nam Kỳ Khởi Nghĩa, Tân An, Ninh Kiều, Cần Thơ","Tân An, Ninh Kiều",40 Đ. Nam Kỳ Khởi Nghĩa,Cần Thơ,,"Ninh Kiều, Cần Thơ",VN,"10.032147,105.784599"
859,ChIJMUcpjKFioDERb4cxvxsH8xU,Cửa Hàng Đặc Sản Vùng Miền,Cửa hàng bán thực phẩm sạch,0292 2238 555,"Cửa Hàng Đặc Sản Vùng Miền, 39 Đ. Ngô Quyền, Tân An, Ninh Kiều, Cần Thơ","Tân An, Ninh Kiều",39 Đ. Ngô Quyền,Cần Thơ,,"Ninh Kiều, Cần Thơ",VN,"10.0339502,105.7874209"
860,ChIJlwZ7eZ9ioDERU-6us6QNIVU,Cửa Hàng Dụng Cụ Thợ Bạc Tín Phát,Cửa hàng,0292 3822 704,"Cửa Hàng Dụng Cụ Thợ Bạc Tín Phát, 26 Đ. Nam Kỳ Khởi Nghĩa, Tân An, Ninh Kiều, Cần Thơ","Tân An, Ninh Kiều",26 Đ. Nam Kỳ Khởi Nghĩa,Cần Thơ,,"Ninh Kiều, Cần Thơ",VN,"10.031996999999999,105.785361"
861,ChIJFzk2AKJioDERUki_98DgBWk,Cửa Hàng Vlxd,Cửa hàng vật liệu xây dựng,,"Cửa Hàng Vlxd, 110 Đường Hai Bà Trưng, Tân An, Ninh Kiều, Cần Thơ","Tân An, Ninh Kiều",110 Đường Hai Bà Trưng,Cần Thơ,,"Ninh Kiều, Cần Thơ",VN,"10.0324846,105.7879651"
863,ChIJCyoy1qFioDER9m8cukQtzNY,Cửa Hàng Điện Máy Điện Lạnh Nhật Khanh,Cửa hàng bán đồ điện tử,0292 3814 282,"Cửa Hàng Điện Máy Điện Lạnh Nhật Khanh, 67 Võ Văn Tần, Tân An, Ninh Kiều, Cần Thơ","Tân An, Ninh Kiều",67 Võ Văn Tần,Cần Thơ,,"Ninh Kiều, Cần Thơ",VN,"10.0324323,105.7850139"
865,ChIJrwjgoaBioDERSyIG03Bvt4I,Lien Grocery Store,Cửa hàng bách hóa,,"Lien Grocery Store, 16 Hẻm 22 Đ. Mạc Đĩnh Chi, Street, Ninh Kiều, Cần Thơ 900000","Street, Ninh Kiều",16 Hẻm 22 Đ. Mạc Đĩnh Chi,Cần Thơ,900000.0,"Ninh Kiều, Cần Thơ",VN,"10.0363855,105.7826212"
866,ChIJS_SG6CCIoDER7wzu7lIZ5d0,Cửa Hàng Điện Nước Hồng Cơ,Cửa hàng thiết bị điện,7103752219,"Cửa Hàng Điện Nước Hồng Cơ, 99 Quang Trung, An Lạc, Ninh Kiều, Cần Thơ","An Lạc, Ninh Kiều",99 Quang Trung,Cần Thơ,,"Ninh Kiều, Cần Thơ",VN,"10.0288218,105.77982899999999"
867,ChIJNRL_Dp9ioDERr6lnVFr9h28,Cửa Hàng Thiết Bị Điện Nước Hai Hiếu,Cửa hàng thiết bị điện,0292 3824 261,"Cửa Hàng Thiết Bị Điện Nước Hai Hiếu, 16 Đ. Điện Biên Phủ, Tân An, Ninh Kiều, Cần Thơ","Tân An, Ninh Kiều",16 Đ. Điện Biên Phủ,Cần Thơ,,"Ninh Kiều, Cần Thơ",VN,"10.030657099999999,105.78544339999999"
868,ChIJLel5qB-IoDERzxOqzfUfCaA,Cửa Hàng Xe Máy Hòa Hân,Đại lý xe mô tô,0292 3764 919,"Cửa Hàng Xe Máy Hòa Hân, 54 Đ. Lý Tự Trọng, An Cư, Ninh Kiều, Cần Thơ 94110","An Cư, Ninh Kiều",54 Đ. Lý Tự Trọng,Cần Thơ,94110.0,"Ninh Kiều, Cần Thơ",VN,"10.034949899999999,105.7792381"
869,ChIJObTN-6FioDER1jOQK3CJISY,Cửa Hàng Điện Lạnh Nam,Cửa hàng thiết bị điện,0292 3819 466,"Cửa Hàng Điện Lạnh Nam, 26B Đ. Lê Thánh Tôn, Tân An, Ninh Kiều, Cần Thơ","Tân An, Ninh Kiều",26B Đ. Lê Thánh Tôn,Cần Thơ,,"Ninh Kiều, Cần Thơ",VN,"10.0328537,105.7874616"
871,ChIJqwP3uaFioDERS4Xo3hmoeMs,Cửa Hàng Boxxyno,Nhà sản xuất,0907 070 679,"Cửa Hàng Boxxyno, 37 Đ. Ngô Văn Sở, Tân An, Ninh Kiều, Cần Thơ","Tân An, Ninh Kiều",37 Đ. Ngô Văn Sở,Cần Thơ,,"Ninh Kiều, Cần Thơ",VN,"10.033905599999999,105.785462"
872,ChIJGetYDgCJoDERwrGKKSZtXNc,Cửa hàng xe đạp Huân,Cửa hàng,,"Cửa hàng xe đạp Huân, 112 Đ. Lý Tự Trọng, An Cư, Ninh Kiều, Cần Thơ","An Cư, Ninh Kiều",112 Đ. Lý Tự Trọng,Cần Thơ,,"Ninh Kiều, Cần Thơ",VN,"10.0363477,105.777953"
873,ChIJKa_OmaFioDERwNLzsxKzilA,Cửa Hàng Văn Phòng Phẩm Dũng Hoa,Cửa hàng đồ mới lạ,0292 3821 387,"Cửa Hàng Văn Phòng Phẩm Dũng Hoa, 48 Đ. Ngô Quyền, Tân An, Ninh Kiều, Cần Thơ 94112","Tân An, Ninh Kiều",48 Đ. Ngô Quyền,Cần Thơ,94112.0,"Ninh Kiều, Cần Thơ",VN,"10.0345458,105.78663399999999"
874,ChIJY7ib9SCIoDERoXHVztWnNK4,Cửa Hàng Phụ Tùng Xe Máy Hoàng Sơn 2,Đại lý xe mô tô,,"Cửa Hàng Phụ Tùng Xe Máy Hoàng Sơn 2, 1018 Đ. 30 Tháng 4, Xuân Khánh, Ninh Kiều, Cần Thơ","Xuân Khánh, Ninh Kiều",1018 Đ. 30 Tháng 4,Cần Thơ,,"Ninh Kiều, Cần Thơ",VN,"10.0299289,105.78038579999999"
875,ChIJrSw-YJ9ioDER8CWM24vqUuk,Cửa Hàng Thu,Cửa hàng,,"Cửa Hàng Thu, 37C Võ Văn Tần, Tân An, Ninh Kiều, Cần Thơ","Tân An, Ninh Kiều",37C Võ Văn Tần,Cần Thơ,,"Ninh Kiều, Cần Thơ",VN,"10.032235499999999,105.78621969999999"
876,ChIJtz589J9ioDERKVzP2MQjqJE,Cửa Hàng Văn Hóa Phẩm Ngọc Dung,Cửa hàng đồ mới lạ,0292 3820 853,"Cửa Hàng Văn Hóa Phẩm Ngọc Dung, 17 Đ. Nam Kỳ Khởi Nghĩa, Tân An, Ninh Kiều, Cần Thơ","Tân An, Ninh Kiều",17 Đ. Nam Kỳ Khởi Nghĩa,Cần Thơ,,"Ninh Kiều, Cần Thơ",VN,"10.032155699999999,105.78332429999999"
877,ChIJhzsbt6FioDER-BrW8VaBfVo,Cửa Hàng Túi Xách Bella,Cửa hàng,0292 2240 499,"Cửa Hàng Túi Xách Bella, 33 Đ. Ngô Văn Sở, Tân An, Ninh Kiều, Cần Thơ","Tân An, Ninh Kiều",33 Đ. Ngô Văn Sở,Cần Thơ,,"Ninh Kiều, Cần Thơ",VN,"10.033898899999999,105.7855761"
878,ChIJf1RCtqFioDERns-qwF1XAXE,Cửa Hàng Quần Áo Châu,Cửa hàng quần áo,0937 790 699,"Cửa Hàng Quần Áo Châu, 41 Đ. Ngô Văn Sở, Tân An, Ninh Kiều, Cần Thơ","Tân An, Ninh Kiều",41 Đ. Ngô Văn Sở,Cần Thơ,,"Ninh Kiều, Cần Thơ",VN,"10.0339186,105.7853928"
