,place_id,name,main_category,phone,address,address_ward,address_street,address_city,address_postal_code,address_state,address_country_code
0,ChIJyShuuTCIoDERJ0vRVxlMw3U,Siêu thị Thế Giới Di Động,Cửa hàng điện thoại di động,+84 1900 232460,"Siêu thị Thế Giới Di Động, 217 Hẻm 132 Đ. 3 Tháng 2, P, Ninh Kiều, Cần Thơ 94000, Việt Nam","P, Ninh Kiều",217 Hẻm 132 Đ. 3 Tháng 2,Cần Thơ,94000.0,"Ninh Kiều, Cần Thơ",VN
15,ChIJi_MH9ouHoDERQBqmnXKHHbE,CellphoneS 131A-133 Cách Mạng Tháng 8 | Cần Thơ,Cửa hàng điện thoại di động,+84 28 7101 0133,"CellphoneS 131A-133 Cách Mạng Tháng 8 | Cần Thơ, 131A-133, Đ. Cách Mạng Tháng 8, An Hoà, Ninh Kiều, Cần Thơ 94100, Việt Nam","An Hoà, Ninh Kiều","131A-133, Đ. Cách Mạng Tháng 8",Cần Thơ,94100.0,"Ninh Kiều, Cần Thơ",VN
20,ChIJb3RfZzqIoDER4PV_KrSl5Hc,Di Động Rẻ by Di Động Thông Minh,Cửa hàng điện thoại di động,+84 911 108 855,"Di Động Rẻ by Di Động Thông Minh, 184A Đ. 3 Tháng 2, Hưng Lợi, Ninh Kiều, Cần Thơ, Việt Nam","Hưng Lợi, Ninh Kiều",184A Đ. 3 Tháng 2,Cần Thơ,,"Ninh Kiều, Cần Thơ",VN
35,ChIJ30ZkSzCIoDERIqc0-CaeQd8,Siêu Thị Thế Giới Di Động,Cửa hàng điện thoại di động,+84 1900 232460,"Siêu Thị Thế Giới Di Động, 84-86A Đ. 30 Tháng 4, An Lạc, Ninh Kiều, Cần Thơ 920000, Việt Nam","An Lạc, Ninh Kiều",84-86A Đ. 30 Tháng 4,Cần Thơ,920000.0,"Ninh Kiều, Cần Thơ",VN
49,ChIJl6LSChOIoDERSRE1820HPNM,Ép kính điện thoại Nguyễn An Cần Thơ,Cửa hàng điện thoại di động,+84 888 797 334,"Ép kính điện thoại Nguyễn An Cần Thơ, 48 Đ. Mậu Thân, An Nghiệp, Ninh Kiều, Cần Thơ, Việt Nam","An Nghiệp, Ninh Kiều",48 Đ. Mậu Thân,Cần Thơ,,"Ninh Kiều, Cần Thơ",VN
52,ChIJvSnTPSZjoDEROjZ3gp-p80I,duongphi.com - Cần Thơ,Cửa hàng điện thoại di động,+84 1900 3121,"duongphi.com - Cần Thơ, 76 Nguyễn Trãi, An Hội, Ninh Kiều, Cần Thơ 94000, Việt Nam","An Hội, Ninh Kiều",76 Nguyễn Trãi,Cần Thơ,94000.0,"Ninh Kiều, Cần Thơ",VN
58,ChIJJzJ2ZjOJoDERxEFFd7yMLWQ,Siêu thị Thế Giới Di Động,Cửa hàng điện thoại di động,+84 1900 232460,"Siêu thị Thế Giới Di Động, 305V Nguyễn Văn Linh, Khu Vực 3, P, Ninh Kiều, Cần Thơ 94000, Việt Nam","P, Ninh Kiều","305V Nguyễn Văn Linh, Khu Vực 3",Cần Thơ,94000.0,"Ninh Kiều, Cần Thơ",VN
73,ChIJSYbJvwOIoDER4BWs2D8l9bw,Siêu thị Thế Giới Di Động,Cửa hàng điện thoại di động,+84 1900 232460,"Siêu thị Thế Giới Di Động, 35B Đ. Cách Mạng Tháng 8, Thới Bình, Ninh Kiều, Cần Thơ 920000, Việt Nam","Thới Bình, Ninh Kiều",35B Đ. Cách Mạng Tháng 8,Cần Thơ,920000.0,"Ninh Kiều, Cần Thơ",VN
88,ChIJ945Q7xGIoDERonkj_4ePpA0,Thegioididong,Cửa hàng điện thoại di động,+84 1800 1060,"Thegioididong, 405 Đ. Nguyễn Văn Cừ, An Hoà, Ninh Kiều, Cần Thơ 900000, Việt Nam","An Hoà, Ninh Kiều",405 Đ. Nguyễn Văn Cừ,Cần Thơ,900000.0,"Ninh Kiều, Cần Thơ",VN
99,ChIJDRigsx6IoDERlGl5bkb1AWE,FPT Shop,Cửa hàng điện thoại di động,+84 1800 6601,"FPT Shop, 83 Đ. Trần Hưng Đạo, An Phú, Ninh Kiều, Cần Thơ, Việt Nam","An Phú, Ninh Kiều",83 Đ. Trần Hưng Đạo,Cần Thơ,,"Ninh Kiều, Cần Thơ",VN
100,ChIJW2LAzyN9oDER7QP99L_dxjE,Thế Giới Di Động,Cửa hàng điện thoại di động,+84 1900 232460,"Thế Giới Di Động, Tổ 21 Khóm 5, P, Bình Minh, Vĩnh Long 85000, Việt Nam","P, Bình Minh",Tổ 21 Khóm 5,Vĩnh Long,85000.0,"Bình Minh, Vĩnh Long",VN
115,ChIJSStmkV-GoDERTYi_YreP3bk,Siêu thị Thế Giới Di Động,Cửa hàng điện thoại di động,+84 1900 232460,"Siêu thị Thế Giới Di Động, Lô số 30A7, KCN Trà Nóc 1, P. Trà Nóc, Q. Bình Thủy, TP. Cần Thơ, Cần Thơ, 920000, Việt Nam","Trà Nóc, Cần Thơ","Lô số 30A7, KCN Trà Nóc 1, P. Trà Nóc, Q. Bình Thủy, TP. Cần Thơ",Cần Thơ,920000.0,Cần Thơ,VN
130,ChIJrYBlF6FioDERrR7-9ZUbZis,Phụ Kiện Số - 55 Xô Viết Nghệ Tỉnh,Cửa hàng phụ kiện điện thoại di động,+84 971 209 029,"Phụ Kiện Số - 55 Xô Viết Nghệ Tỉnh, 55 Đ. Xô Viết Nghệ Tĩnh, An Hội, Ninh Kiều, Cần Thơ 94000, Việt Nam","An Hội, Ninh Kiều",55 Đ. Xô Viết Nghệ Tĩnh,Cần Thơ,94000.0,"Ninh Kiều, Cần Thơ",VN
131,ChIJPw1xhbRjoDERnAjR8eGYBuM,102 Store,Cửa hàng điện thoại di động,+84 909 885 102,"102 Store, 27 Phan Đình Phùng, Tân An, Ninh Kiều, Cần Thơ, Việt Nam","Tân An, Ninh Kiều",27 Phan Đình Phùng,Cần Thơ,,"Ninh Kiều, Cần Thơ",VN
135,ChIJryMggh2IoDER8s2MYHn5x5c,Showroom iTamLoan,Cửa hàng điện thoại di động,+84 1900 6459,"Showroom iTamLoan, 46-48 Trần Văn Khéo, An Hội, Ninh Kiều, Cần Thơ 900000, Việt Nam","An Hội, Ninh Kiều",46-48 Trần Văn Khéo,Cần Thơ,900000.0,"Ninh Kiều, Cần Thơ",VN
141,ChIJQ5kf7V-JoDERyB1ukcK7wu8,Hoàng Hà Mobile,Cửa hàng điện thoại di động,+84 828 522 255,"Hoàng Hà Mobile, 221 Đ. 3 Tháng 2, Hưng Lợi, Ninh Kiều, Cần Thơ 900000, Việt Nam","Hưng Lợi, Ninh Kiều",221 Đ. 3 Tháng 2,Cần Thơ,900000.0,"Ninh Kiều, Cần Thơ",VN
142,ChIJ-cAAd-OEoDERRk2UmXlkCrg,Thế Giới Di Động,Cửa hàng điện thoại di động,+84 1900 232460,"Thế Giới Di Động, Số 1066/6 Quốc Lộ 91, Khu vực 5, P.Châu Văn Liêm, Quận Ô Môn , Tp.Cần Thơ, Cần Thơ, 920000, Việt Nam","Châu Văn Liêm, Cần Thơ","Số 1066/6 Quốc Lộ 91, Khu vực 5, P.Châu Văn Liêm, Quận Ô Môn , Tp.Cần Thơ",Cần Thơ,920000.0,Cần Thơ,VN
145,ChIJj3Ntc0eJoDERIjmPNzf-jHE,Cửa hàng Điện Thoại Hoàng Long,Cửa hàng điện thoại di động,+84 934 175 111,"Cửa hàng Điện Thoại Hoàng Long, 13 Đ. Trần Ngọc Quế, Xuân Khánh, Ninh Kiều, Cần Thơ 920000, Việt Nam","Xuân Khánh, Ninh Kiều",13 Đ. Trần Ngọc Quế,Cần Thơ,920000.0,"Ninh Kiều, Cần Thơ",VN
148,ChIJpUVM4kpgoDER32HdXJhR9-k,Siêu thị Thế Giới Di Động,Cửa hàng điện thoại di động,+84 1900 232460,"Siêu thị Thế Giới Di Động, Tỉnh lộ 925, ấp, Châu Thành, Hậu Giang, Việt Nam","TT. Ngã Sáu, Châu Thành","Tỉnh lộ 925, ấp",Hậu Giang,,"Châu Thành, Hậu Giang",VN
155,ChIJNR__MDeIoDERrVEw_HflcEM,"Siêu Thị Điện Thoại, Laptop Phương Tùng",Cửa hàng điện thoại di động,+84 1800 6869,"Siêu Thị Điện Thoại, Laptop Phương Tùng, 211 Đ. 3 Tháng 2, Hưng Lợi, Ninh Kiều, Cần Thơ 940000, Việt Nam","Hưng Lợi, Ninh Kiều",211 Đ. 3 Tháng 2,Cần Thơ,940000.0,"Ninh Kiều, Cần Thơ",VN
163,ChIJKdqw78aHoDERbE6CiKD0_As,Thế Giới Di Động,Cửa hàng điện thoại di động,+84 1900 232460,"Thế Giới Di Động, 26/9 Lê Hồng Phong, Bình Thuỷ, Bình Thủy, Cần Thơ, Việt Nam","Bình Thuỷ, Bình Thủy",26/9 Lê Hồng Phong,Cần Thơ,,"Bình Thủy, Cần Thơ",VN
178,ChIJYYvNCz2JoDERIkD_ETEpRb4,"Hoàng Anh Mobile - Cửa hàng bán lẻ điện thoại di động, smartphone, phụ kiện chính hãng Cần Thơ.",Cửa hàng điện thoại di động,+84 941 944 448,"Hoàng Anh Mobile - Cửa hàng bán lẻ điện thoại di động, smartphone, phụ kiện chính hãng Cần Thơ., 73 Đ. Cách Mạng Tháng 8, An Hoà, Ninh Kiều, Cần Thơ, Việt Nam","An Hoà, Ninh Kiều",73 Đ. Cách Mạng Tháng 8,Cần Thơ,,"Ninh Kiều, Cần Thơ",VN
184,ChIJg4sZ7BGIoDERQgxgogMwnK0,FPT Shop,Cửa hàng điện thoại di động,+84 1800 6601,"FPT Shop, 79A Đ. Mậu Thân, An Hoà, Ninh Kiều, Cần Thơ, Việt Nam","An Hoà, Ninh Kiều",79A Đ. Mậu Thân,Cần Thơ,,"Ninh Kiều, Cần Thơ",VN
185,ChIJy42CTCGIoDERLwLay5Fnns4,Phương Tùng Luxury Store Chi Nhánh 30/4,Cửa hàng điện thoại di động,+84 1800 6869,"Phương Tùng Luxury Store Chi Nhánh 30/4, 192 Đ. 30 Tháng 4, Xuân Khánh, Ninh Kiều, Cần Thơ, Việt Nam","Xuân Khánh, Ninh Kiều",192 Đ. 30 Tháng 4,Cần Thơ,,"Ninh Kiều, Cần Thơ",VN
194,ChIJOSN4beVjoDERk-nVpeDzRIc,102 Store - Phụ kiện điện thoại cần thơ,Cửa hàng phụ kiện điện thoại di động,+84 918 888 874,"102 Store - Phụ kiện điện thoại cần thơ, 45 Đ.Xô Viết Nghệ Tĩnh, An Hội, Ninh Kiều, Cần Thơ, Việt Nam","An Hội, Ninh Kiều",45 Đ.Xô Viết Nghệ Tĩnh,Cần Thơ,,"Ninh Kiều, Cần Thơ",VN
195,ChIJx9sdQ87zoDERe6iXzTgeLbY,Siêu thị Thế Giới Di Động,Cửa hàng điện thoại di động,+84 1900 232460,"Siêu thị Thế Giới Di Động, 954 QL61, Tân Bình, Phụng Hiệp, Hậu Giang, Việt Nam","Tân Bình, Phụng Hiệp",954 QL61,Hậu Giang,,"Phụng Hiệp, Hậu Giang",VN
196,ChIJWYNNieaDoDERC2qy_9fAma8,Siêu thị Thế Giới Di Động,Cửa hàng điện thoại di động,+84 1900 232460,"Siêu thị Thế Giới Di Động, Số 168-169-170, Thị Tứ, Phong Điền, Cần Thơ, Việt Nam","Nhơn ái, Phong Điền","Số 168-169-170, Thị Tứ, Phong Điền",Cần Thơ,,"Phong Điền, Cần Thơ",VN
200,ChIJ2Q8VQRqIoDER8BuXEZsciGM,Tứ Quí Care - Sửa chữa và thay kính điện thoại Cần Thơ,Cửa hàng điện thoại di động,+84 943 498 269,"Tứ Quí Care - Sửa chữa và thay kính điện thoại Cần Thơ, 2B Đ. Mậu Thân, An Phú, Ninh Kiều, Cần Thơ 94000, Việt Nam","An Phú, Ninh Kiều",2B Đ. Mậu Thân,Cần Thơ,94000.0,"Ninh Kiều, Cần Thơ",VN
201,ChIJMbTbygeLoDERrXE7aK8aMMU,Siêu thị Thế Giới Di Động,Cửa hàng điện thoại di động,+84 1800 1060,"Siêu thị Thế Giới Di Động, Số 31-33 Quốc lộ 61, Ấp Tân Phú A, H. T., Thị trấn Cái Tắc, Châu Thành A, Hậu Giang, Việt Nam","Thị trấn Cái Tắc, Châu Thành A","Số 31-33 Quốc lộ 61, Ấp Tân Phú A, H. T.",Hậu Giang,,"Châu Thành A, Hậu Giang",VN
208,ChIJA17UXyCIoDERA0pyeAN3lUM,FPT Shop | F.Studio by FPT,Cửa hàng điện thoại di động,+84 1800 6601,"FPT Shop | F.Studio by FPT, 52 Đ. 30 Tháng 4, An Lạc, Ninh Kiều, Cần Thơ, Việt Nam","An Lạc, Ninh Kiều",52 Đ. 30 Tháng 4,Cần Thơ,,"Ninh Kiều, Cần Thơ",VN
209,ChIJbTm7AHiQoDERL_3jBis-KtQ,Siêu thị Thế Giới Di Động,Cửa hàng điện thoại di động,+84 1900 232460,"Siêu thị Thế Giới Di Động, 21 ĐT922, Ấp Thới Thuận A, Thới Lai, Cần Thơ 94000, Việt Nam","Ấp Thới Thuận A, Thới Lai",21 ĐT922,Cần Thơ,94000.0,"Thới Lai, Cần Thơ",VN
210,ChIJfZMwM2pjoDERorvVy-bfXr0,Ken Táo,Cửa hàng điện thoại di động,+84 858 585 585,"Ken Táo, 9 Đ. Nguyễn Văn Cừ, An Hoà, Ninh Kiều, Cần Thơ, Việt Nam","An Hoà, Ninh Kiều",9 Đ. Nguyễn Văn Cừ,Cần Thơ,,"Ninh Kiều, Cần Thơ",VN
212,ChIJ28skeBSJoDERZ_hxVN31Yow,Di Động Việt,Cửa hàng điện thoại di động,+84 1800 6018,"Di Động Việt, 24B Nguyễn Trãi, Thới Bình, Ninh Kiều, Cần Thơ 900000, Việt Nam","Thới Bình, Ninh Kiều",24B Nguyễn Trãi,Cần Thơ,900000.0,"Ninh Kiều, Cần Thơ",VN
213,ChIJddwY9YGJoDERthmbXWw-tYk,CƯỜNG MOBILE CẦN THƠ,Cửa hàng điện thoại di động,+84 911 774 444,"CƯỜNG MOBILE CẦN THƠ, 119 Xô Viết Nghĩa Tĩnh, P, Ninh Kiều, Cần Thơ 900000, Việt Nam","P, Ninh Kiều",119 Xô Viết Nghĩa Tĩnh,Cần Thơ,900000.0,"Ninh Kiều, Cần Thơ",VN
233,ChIJOTkWycmMoDERvJvSiolm1KM,Siêu thị Thế Giới Di Động,Cửa hàng điện thoại di động,+84 1900 232460,"Siêu thị Thế Giới Di Động, H, 52 QL61, Tân Bình, Phụng Hiệp, Hậu Giang 95000, Việt Nam","Tân Bình, Phụng Hiệp","H, 52 QL61",Hậu Giang,95000.0,"Phụng Hiệp, Hậu Giang",VN
235,ChIJayLS8CCIoDERNPdYWqLPIfY,Phụ Kiện Số - 133A Xô Viết Nghệ Tỉnh,Cửa hàng phụ kiện điện thoại di động,+84 292 6544 134,"Phụ Kiện Số - 133A Xô Viết Nghệ Tỉnh, 133A Đ.Xô Viết Nghệ Tĩnh, An Cư, Ninh Kiều, Cần Thơ 94000, Việt Nam","An Cư, Ninh Kiều",133A Đ.Xô Viết Nghệ Tĩnh,Cần Thơ,94000.0,"Ninh Kiều, Cần Thơ",VN
241,ChIJ0WpT6hyIoDER4A9un5ShZy8,Di Động Thiên Minh,Cửa hàng điện thoại di động,+84 919 325 545,"Di Động Thiên Minh, 110 Hùng Vương, An Cư, Ninh Kiều, Cần Thơ, Việt Nam","An Cư, Ninh Kiều",110 Hùng Vương,Cần Thơ,,"Ninh Kiều, Cần Thơ",VN
256,ChIJ8WuG5NyJoDERgSoTUUt-1Ho,Táo Luxury,Cửa hàng điện thoại di động,+84 857 777 485,"Táo Luxury, 6A Cách Mạnh Tháng Tám, Cái Khế, Ninh Kiều, Cần Thơ 900000, Việt Nam","Cái Khế, Ninh Kiều",6A Cách Mạnh Tháng Tám,Cần Thơ,900000.0,"Ninh Kiều, Cần Thơ",VN
259,ChIJw4alvuiJoDERWaSLJP9kne4,Thanh Táo Store,Cửa hàng điện thoại di động,+84 783 756 666,"Thanh Táo Store, 4 Đ. Đinh Tiên Hoàng, An Hội, Ninh Kiều, Cần Thơ, Việt Nam","An Hội, Ninh Kiều",4 Đ. Đinh Tiên Hoàng,Cần Thơ,,"Ninh Kiều, Cần Thơ",VN
262,ChIJWaio91eJoDERVq22PtIr8CA,N. HOÁ STORE,Cửa hàng điện thoại di động,+84 565 678 928,"N. HOÁ STORE, 04 Đ. 3 Tháng 2, Hưng Lợi, Ninh Kiều, Cần Thơ, Việt Nam","Hưng Lợi, Ninh Kiều",04 Đ. 3 Tháng 2,Cần Thơ,,"Ninh Kiều, Cần Thơ",VN
266,ChIJyUHW15-JoDERmcl6_JTFUas,24H MOBILE,Cửa hàng điện thoại di động,+84 978 221 952,"24H MOBILE, 577 Đ. 30 Tháng 4, Hưng Lợi, Ninh Kiều, Cần Thơ, Việt Nam","Hưng Lợi, Ninh Kiều",577 Đ. 30 Tháng 4,Cần Thơ,,"Ninh Kiều, Cần Thơ",VN
268,ChIJI9yY54JjoDERmbZRmZGdFis,Hoàng Hà Mobile,Cửa hàng điện thoại di động,+84 794 308 899,"Hoàng Hà Mobile, 11 Đại lộ Hoà Bình, Tân An, Ninh Kiều, Cần Thơ 900000, Việt Nam","Tân An, Ninh Kiều",11 Đại lộ Hoà Bình,Cần Thơ,900000.0,"Ninh Kiều, Cần Thơ",VN
269,ChIJNTQWR2VjoDERPY1G_8yUJN0,DI ĐỘNG BULL,Cửa hàng điện thoại di động,+84 899 499 444,"DI ĐỘNG BULL, 24 Đ. Mậu Thân, An Nghiệp, Ninh Kiều, Cần Thơ 94154, Việt Nam","An Nghiệp, Ninh Kiều",24 Đ. Mậu Thân,Cần Thơ,94154.0,"Ninh Kiều, Cần Thơ",VN
284,ChIJu-k5NMeJoDERXMXBQAfV-yM,MINH TUẤN MOBILE,Cửa hàng điện thoại di động,,"MINH TUẤN MOBILE, 90a Đ. 30 Tháng 4, An Phú, Ninh Kiều, Cần Thơ, Việt Nam","An Phú, Ninh Kiều",90a Đ. 30 Tháng 4,Cần Thơ,,"Ninh Kiều, Cần Thơ",VN
285,ChIJw8bofl-JoDERsb-THXpTktc,Cảnh Phúc Mobile,Cửa hàng điện thoại di động,+84 583 020 097,"Cảnh Phúc Mobile, 9/2 Phạm Ngọc Hưng, Phường An Khánh, Bình Thủy, Cần Thơ, Việt Nam","Phường An Khánh, Bình Thủy",9/2 Phạm Ngọc Hưng,Cần Thơ,,"Bình Thủy, Cần Thơ",VN
288,ChIJ_yyx3neJoDERxWyhiGYGrRI,Vy Shop ( phụ kiện điện thoại),Cửa hàng điện thoại di động,,"Vy Shop ( phụ kiện điện thoại), 49 Đ. 3 Tháng 2, Xuân Khánh, Ninh Kiều, Cần Thơ, Việt Nam","Xuân Khánh, Ninh Kiều",49 Đ. 3 Tháng 2,Cần Thơ,,"Ninh Kiều, Cần Thơ",VN
289,ChIJidYnk9qJoDER3RMHIsBn4WI,CTy sim số đẹp,Cửa hàng điện thoại di động,+84 901 060 606,"CTy sim số đẹp, 24B Đ. Mậu Thân, p, Ninh Kiều, Cần Thơ 900000, Việt Nam","p, Ninh Kiều",24B Đ. Mậu Thân,Cần Thơ,900000.0,"Ninh Kiều, Cần Thơ",VN
290,ChIJWeny7XSHoDERXIeamQjpfiU,Trắng Store,Cửa hàng điện thoại di động,+84 869 848 286,"Trắng Store, 38/41 hẻm, 38 Đ. Mậu Thân, An Nghiệp, Ninh Kiều, Cần Thơ, Việt Nam","An Nghiệp, Ninh Kiều","38/41 hẻm, 38 Đ. Mậu Thân",Cần Thơ,,"Ninh Kiều, Cần Thơ",VN
295,ChIJJ93aDV-JoDERm1_oRI5bumU,"Tứ Quí Care 2 - Sửa chữa điện thoại, thay kính điện thoại tại Cần Thơ",Cửa hàng sửa chữa điện thoại di động,+84 901 044 299,"Tứ Quí Care 2 - Sửa chữa điện thoại, thay kính điện thoại tại Cần Thơ, 121 Đ.Xô Viết Nghệ Tĩnh, An Cư, Ninh Kiều, Cần Thơ 94000, Việt Nam","An Cư, Ninh Kiều",121 Đ.Xô Viết Nghệ Tĩnh,Cần Thơ,94000.0,"Ninh Kiều, Cần Thơ",VN
299,ChIJ13BcCahioDERwNx1vsjb0oI,Ngọc Trân - Loa karaoke di động Cần Thơ,Cửa hàng thiết bị âm thanh,+84 292 3763 853,"Ngọc Trân - Loa karaoke di động Cần Thơ, 33 Trần Văn Khéo, An Hội, Ninh Kiều, Cần Thơ, Việt Nam","An Hội, Ninh Kiều",33 Trần Văn Khéo,Cần Thơ,,"Ninh Kiều, Cần Thơ",VN
303,ChIJM0zmqwuJoDERLc8VRBmtKBY,TU STORE,Cửa hàng điện thoại di động,+84 939 670 123,"TU STORE, 224C Đ. Nguyễn Văn Cừ, An Hoà, Ninh Kiều, Cần Thơ, Việt Nam","An Hoà, Ninh Kiều",224C Đ. Nguyễn Văn Cừ,Cần Thơ,,"Ninh Kiều, Cần Thơ",VN
304,ChIJx4v8alyJoDERr83Ud5Q9djA,Siêu thị TopZone - Hệ thống cửa hàng Apple chính hãng 100%,Cửa hàng điện thoại di động,+84 1900 969642,"Siêu thị TopZone - Hệ thống cửa hàng Apple chính hãng 100%, Số 08 Hoà Bình, P, Ninh Kiều, Cần Thơ 94000, Việt Nam","P, Ninh Kiều",Số 08 Hoà Bình,Cần Thơ,94000.0,"Ninh Kiều, Cần Thơ",VN
310,ChIJgx5oi2KJoDEReyrhv1gpK6w,Anh Huy Store Cần Thơ,Cửa hàng điện thoại di động,+84 947 144 441,"Anh Huy Store Cần Thơ, 39 Hẻm 132 Đ. 3 Tháng 2, Xuân Khánh, Ninh Kiều, Cần Thơ 900000, Việt Nam","Xuân Khánh, Ninh Kiều",39 Hẻm 132 Đ. 3 Tháng 2,Cần Thơ,900000.0,"Ninh Kiều, Cần Thơ",VN
311,ChIJt9HIMmyJoDERxrPd865q9Dw,Tất Đạt Store - Chi nhánh Cần Thơ,Cửa hàng điện thoại di động,+84 926 510 000,"Tất Đạt Store - Chi nhánh Cần Thơ, 108/71 Đ. 30/4, An Cư, Ninh Kiều, Cần Thơ, Việt Nam","An Cư, Ninh Kiều",108/71 Đ. 30/4,Cần Thơ,,"Ninh Kiều, Cần Thơ",VN
312,ChIJ8YL7OSSIoDERHJFrcKMP1Ko,Ép Kính IPhone Cần Thơ,Cửa hàng điện thoại di động,+84 915 999 912,"Ép Kính IPhone Cần Thơ, 272 đường 30 tháng 4 Xuân khánh,nk,ct Đối diện cây đa bên vincom Xuân khámh, Cần Thơ, Việt Nam","Xuân Khánh, Ninh Kiều","272 đường 30 tháng 4 Xuân khánh,nk,ct Đối diện cây đa bên vincom Xuân khámh",Cần Thơ,,"Ninh Kiều, Cần Thơ",VN
315,ChIJX-ByD9-JoDERaa3MEVycKVY,Siêu thị Thế Giới Di Động,Cửa hàng điện thoại di động,+84 1900 232460,"Siêu thị Thế Giới Di Động, 403 Đ. Nguyễn Văn Cừ, An Hoà, Ninh Kiều, Cần Thơ 94000, Việt Nam","An Hoà, Ninh Kiều",403 Đ. Nguyễn Văn Cừ,Cần Thơ,94000.0,"Ninh Kiều, Cần Thơ",VN
318,ChIJV-GHjXCJoDER_RpxDGoBTIc,Nhựt Apple,Cửa hàng điện thoại di động,+84 854 656 565,"Nhựt Apple, hẻm 10 Nguyễn Trãi, An Hội, Ninh Kiều, Cần Thơ 90000, Việt Nam","An Hội, Ninh Kiều",hẻm 10 Nguyễn Trãi,Cần Thơ,90000.0,"Ninh Kiều, Cần Thơ",VN
325,ChIJZwjdUCGJoDERE4eSGlqw430,Phương Tùng Luxury,Cửa hàng điện thoại di động,+84 901 286 059,"Phương Tùng Luxury, 140-142 Đ. Nguyễn Văn Cừ, Phường An Khánh, Ninh Kiều, Cần Thơ, Việt Nam","Phường An Khánh, Ninh Kiều",140-142 Đ. Nguyễn Văn Cừ,Cần Thơ,,"Ninh Kiều, Cần Thơ",VN
333,ChIJaWvyVNKJoDER6TqlPuG7kv0,138'STORE Cần Thơ,Cửa hàng điện thoại di động,+84 949 234 322,"138'STORE Cần Thơ, 1 Đ. Hồ Bún Xáng, Phường An Khánh, Ninh Kiều, Cần Thơ, Việt Nam","Phường An Khánh, Ninh Kiều",1 Đ. Hồ Bún Xáng,Cần Thơ,,"Ninh Kiều, Cần Thơ",VN
335,ChIJMbYJ-cKHoDERdRTpTjjkVT8,Thế Giới Di Động,Cửa hàng điện thoại di động,+84 28 3810 2102,"3Q94+HFF Thế Giới Di Động, Hẻm 115 Cách Mạng Tháng Tám, P, Bình Thủy, Cần Thơ, Việt Nam","P, Bình Thủy","3Q94+HFF, Hẻm 115 Cách Mạng Tháng Tám",Cần Thơ,,"Bình Thủy, Cần Thơ",VN
336,ChIJq6Zsq0GJoDER_gnuWOFv8rc,Điện thoại di động Dương Linh,Cửa hàng điện thoại di động,+84 932 896 860,"Điện thoại di động Dương Linh, 388A/35, Nguyễn Văn Cừ Nối Dài, KV2, Ninh Kiều, Cần Thơ 900000, Việt Nam","KV2, Ninh Kiều","388A/35, Nguyễn Văn Cừ Nối Dài",Cần Thơ,900000.0,"Ninh Kiều, Cần Thơ",VN
351,ChIJy7JmWfmJoDERBDDTlKoNahE,ĐTDĐ NHƯ Ý MOBILE,Cửa hàng điện thoại di động,+84 770 427 777,"ĐTDĐ NHƯ Ý MOBILE, 112/52D, 54 Đ. Trần Hoàng Na, Hưng Lợi, Ninh Kiều, Cần Thơ, Việt Nam","Hưng Lợi, Ninh Kiều","112/52D, 54 Đ. Trần Hoàng Na",Cần Thơ,,"Ninh Kiều, Cần Thơ",VN
362,ChIJVxJb026JoDEREBURNLOrh0w,Quý Mobile,Cửa hàng điện thoại di động,+84 845 456 456,"Quý Mobile, 486 Đường 30/4, Hưng Lợi, Ninh Kiều, Cần Thơ, Việt Nam","Hưng Lợi, Ninh Kiều",486 Đường 30/4,Cần Thơ,,"Ninh Kiều, Cần Thơ",VN
363,ChIJ0yts0OaJoDER8QpOlk31LOw,Ép Kính Chấn Phong Cần Thơ,Cửa hàng điện thoại di động,+84 901 042 575,"Ép Kính Chấn Phong Cần Thơ, 112/46 Hẻm 112 Đ. 3 Tháng 2, Hưng Lợi, Ninh Kiều, Cần Thơ 900000, Việt Nam","Hưng Lợi, Ninh Kiều",112/46 Hẻm 112 Đ. 3 Tháng 2,Cần Thơ,900000.0,"Ninh Kiều, Cần Thơ",VN
373,ChIJpebHRLqJoDERMeY9u1A3t5M,Thế Giới Di Động,Cửa hàng điện thoại di động,+84 28 3810 2102,"Thế Giới Di Động, Khu Yên Hạ, P, Cái Răng, Cần Thơ, Việt Nam","P, Cái Răng",Khu Yên Hạ,Cần Thơ,,"Cái Răng, Cần Thơ",VN
374,ChIJF8489mGGoDERx3tPi9w_T8Q,Thế Giới Di Động,Cửa hàng điện thoại di động,+84 28 3810 2102,"Thế Giới Di Động, 189 Lê Hồng Phong, P, Bình Thủy, Cần Thơ, Việt Nam","P, Bình Thủy",189 Lê Hồng Phong,Cần Thơ,,"Bình Thủy, Cần Thơ",VN
375,ChIJk5_lsP1joDERug58n3lDMDo,Di Động Cần Thơ,Cửa hàng sửa chữa điện thoại di động,+84 945 667 661,"Di Động Cần Thơ, Hoàng Văn Thụ, An Hội, Ninh Kiều, Cần Thơ 92000, Việt Nam","An Hội, Ninh Kiều",Hoàng Văn Thụ,Cần Thơ,92000.0,"Ninh Kiều, Cần Thơ",VN
376,ChIJa-sPk0OJoDEROtFxYGXrDGY,ĐTDĐ NGUYỄN ĐOÀN MOBILE,Cửa hàng điện thoại di động,+84 918 365 859,"ĐTDĐ NGUYỄN ĐOÀN MOBILE, 175 Đ. Trần Việt Châu, An Hoà, Ninh Kiều, Cần Thơ 900000, Việt Nam","An Hoà, Ninh Kiều",175 Đ. Trần Việt Châu,Cần Thơ,900000.0,"Ninh Kiều, Cần Thơ",VN
380,ChIJU0b1UkxjoDER3t9Z8BQJLA0,Long Apple,Cửa hàng điện thoại di động,+84 906 977 666,"Long Apple, 75 Đ.Xô Viết Nghệ Tĩnh, An Cư, Ninh Kiều, Cần Thơ 900000, Việt Nam","An Cư, Ninh Kiều",75 Đ.Xô Viết Nghệ Tĩnh,Cần Thơ,900000.0,"Ninh Kiều, Cần Thơ",VN
384,ChIJqeJpK4djoDERF_if-d2pF0A,HOÀ HUỲNH STORE - Cần Thơ,Cửa hàng điện thoại di động,+84 932 878 878,"HOÀ HUỲNH STORE - Cần Thơ, 20 Lý Hồng Thanh, P, Q.NK, Cần Thơ, Việt Nam","P, Q.NK",20 Lý Hồng Thanh,Cần Thơ,,"Q.NK, Cần Thơ",VN
403,ChIJTVxiNBKIoDERCGAFOxd2NFI,Cửa Hàng ĐTDĐ Quốc Duy,Cửa hàng điện thoại di động,+84 907 744 777,"Cửa Hàng ĐTDĐ Quốc Duy, 138b6 Đ. Nguyễn Văn Cừ, Phường An Khánh, Ninh Kiều, Cần Thơ, Việt Nam","Phường An Khánh, Ninh Kiều",138b6 Đ. Nguyễn Văn Cừ,Cần Thơ,,"Ninh Kiều, Cần Thơ",VN
405,ChIJr1kxgEGIoDERurfW0812rEs,DD TRUNG TIN,Cửa hàng điện thoại di động,+84 336 036 913,"DD TRUNG TIN, 299 Đ. Nguyễn Văn Cừ, Phường An Khánh, Ninh Kiều, Cần Thơ, Việt Nam","Phường An Khánh, Ninh Kiều",299 Đ. Nguyễn Văn Cừ,Cần Thơ,,"Ninh Kiều, Cần Thơ",VN
421,ChIJvWCTB7aJoDERMdTZ1jL0bRU,Quốc Bảo 365 Store,Cửa hàng điện thoại di động,+84 898 656 565,"Quốc Bảo 365 Store, Đ. Trần Hoàng Na, Hưng Lợi, Ninh Kiều, Cần Thơ, Việt Nam","Hưng Lợi, Ninh Kiều",Đ. Trần Hoàng Na,Cần Thơ,,"Ninh Kiều, Cần Thơ",VN
432,ChIJ8bZ5gzyJoDERTIlblmmgcKc,Viện Di Động,Cửa hàng điện thoại di động,+84 1800 6729,"Viện Di Động, 24 Nguyễn Trãi, Thới Bình, Ninh Kiều, Cần Thơ 900000, Việt Nam","Thới Bình, Ninh Kiều",24 Nguyễn Trãi,Cần Thơ,900000.0,"Ninh Kiều, Cần Thơ",VN
433,ChIJ-Sispi5joDERlsUIkr6i4p4,Thế Giới Di Động,Cửa hàng điện thoại di động,+84 28 3810 2102,"Thế Giới Di Động, QL 54, tổ 50, khóm Đông Thuận, P.Đông Thuận, Vĩnh Long, Việt Nam","Đông Binh, Bình Minh","QL 54, tổ 50, khóm Đông Thuận, P.Đông Thuận",Vĩnh Long,,"Bình Minh, Vĩnh Long",VN
434,ChIJPWGxZwhjoDERxGw0UT6XBdQ,Vũ Cuxi,Cửa hàng điện thoại di động,+84 942 111 166,"Vũ Cuxi, 72 Đ.Xô Viết Nghệ Tĩnh, An Hội, Ninh Kiều, Cần Thơ 900000, Việt Nam","An Hội, Ninh Kiều",72 Đ.Xô Viết Nghệ Tĩnh,Cần Thơ,900000.0,"Ninh Kiều, Cần Thơ",VN
437,ChIJ29p5sNtjoDERxHuLBT0AjSs,ITMobile,Cửa hàng điện thoại di động,+84 848 656 565,"ITMobile, 43 Nguyễn Trãi, Tân An, Ninh Kiều, Cần Thơ 900000, Việt Nam","Tân An, Ninh Kiều",43 Nguyễn Trãi,Cần Thơ,900000.0,"Ninh Kiều, Cần Thơ",VN
438,ChIJO0iYkaSJoDERDTxOVkOdvjs,ĐTDĐ Hoàng Chung Mobile,Cửa hàng điện thoại di động,+84 522 096 917,"ĐTDĐ Hoàng Chung Mobile, Nhà Hàng Lúa Nếp, Hẻm 138 Trần Hưng Đạo, bãi cát, Ninh Kiều, Cần Thơ 123456, Việt Nam","bãi cát, Ninh Kiều","Nhà Hàng Lúa Nếp, Hẻm 138 Trần Hưng Đạo",Cần Thơ,123456.0,"Ninh Kiều, Cần Thơ",VN
455,ChIJD-R2PEGHoDERJOeICVj15FU,Vinh Shop - Điện Thoại Cũ Giá Rẻ,Cửa hàng điện thoại di động,+84 989 686 090,"Vinh Shop - Điện Thoại Cũ Giá Rẻ, 381K Đ. Trần Nam Phú, Phường An Khánh, Ninh Kiều, Cần Thơ, Việt Nam","Phường An Khánh, Ninh Kiều",381K Đ. Trần Nam Phú,Cần Thơ,,"Ninh Kiều, Cần Thơ",VN
461,ChIJi0sIy8iJoDERwptKSAtGAKc,Quý Mobile,Cửa hàng điện thoại di động,+84 845 456 456,"Quý Mobile, 486 Hẻm 553, Hưng Lợi, Ninh Kiều, Cần Thơ, Việt Nam","Hưng Lợi, Ninh Kiều",486 Hẻm 553,Cần Thơ,,"Ninh Kiều, Cần Thơ",VN
468,ChIJE_19eGOJoDERk5e8zy8cKvE,24H MOBILE,Cửa hàng điện thoại di động,+84 978 221 952,"24H MOBILE, 70 Hẻm 583, Hưng Lợi, Ninh Kiều, Cần Thơ, Việt Nam","Hưng Lợi, Ninh Kiều",70 Hẻm 583,Cần Thơ,,"Ninh Kiều, Cần Thơ",VN
480,ChIJY2_7FSOIoDERcz7s-D0GiTc,Cửa Hàng Đtdđ Nhựt Tân,Cửa hàng điện thoại di động,+84 292 3834 122,"Cửa Hàng Đtdđ Nhựt Tân, 112A Đ. 3 Tháng 2, Xuân Khánh, Ninh Kiều, Cần Thơ, Việt Nam","Xuân Khánh, Ninh Kiều",112A Đ. 3 Tháng 2,Cần Thơ,,"Ninh Kiều, Cần Thơ",VN
484,ChIJC-p35hSJoDERCgt90J2vpk8,Điện Thoại THANH BÌNH,Cửa hàng điện thoại di động,+84 918 024 333,"Điện Thoại THANH BÌNH, 185 Huỳnh Cương, An Cư, Ninh Kiều, Cần Thơ, Việt Nam","An Cư, Ninh Kiều",185 Huỳnh Cương,Cần Thơ,,"Ninh Kiều, Cần Thơ",VN
488,ChIJLar8PjpjoDEROgIvMoIJ0lI,VIP Mobile,Cửa hàng điện thoại di động,+84 567 402 222,"VIP Mobile, 74 Đ. Xô Viết Nghệ Tĩnh, An Cư, Ninh Kiều, Cần Thơ, Việt Nam","An Cư, Ninh Kiều",74 Đ. Xô Viết Nghệ Tĩnh,Cần Thơ,,"Ninh Kiều, Cần Thơ",VN
492,ChIJHewi3AljoDERR3qsPHDS4cY,KIM APPLE,Cửa hàng điện thoại di động,+84 917 713 099,"KIM APPLE, 84B Đ. Xô Viết Nghệ Tĩnh, An Cư, Ninh Kiều, Cần Thơ, Việt Nam","An Cư, Ninh Kiều",84B Đ. Xô Viết Nghệ Tĩnh,Cần Thơ,,"Ninh Kiều, Cần Thơ",VN
493,ChIJk2v3p1tjoDER5ppdSkMxy0s,BeApple Store - iPhone Zin Chất Cần Thơ,Cửa hàng điện thoại di động,+84 784 452 452,"BeApple Store - iPhone Zin Chất Cần Thơ, 31 Đ. Cao Bá Quát, Tân An, Ninh Kiều, Cần Thơ, Việt Nam","Tân An, Ninh Kiều",31 Đ. Cao Bá Quát,Cần Thơ,,"Ninh Kiều, Cần Thơ",VN
499,ChIJ8_CJOb-JoDERQjZ4ei6yeeo,Tiệm Nhà 2000er,Cửa hàng điện thoại di động,+84 764 441 222,"Tiệm Nhà 2000er, 22 Đ. Mậu Thân, An Nghiệp, Ninh Kiều, Cần Thơ 900000, Việt Nam","An Nghiệp, Ninh Kiều",22 Đ. Mậu Thân,Cần Thơ,900000.0,"Ninh Kiều, Cần Thơ",VN
502,ChIJWTVOTxyIoDERvwEXVEEhoxk,SBlueshop,Cửa hàng điện thoại di động,,"SBlueshop, 58 Đ. Trần Bình Trọng, An Phú, Ninh Kiều, Cần Thơ, Việt Nam","An Phú, Ninh Kiều",58 Đ. Trần Bình Trọng,Cần Thơ,,"Ninh Kiều, Cần Thơ",VN
504,ChIJMVVlxUiIoDER3HSBNgd4eg8,Phát mobile,Cửa hàng điện thoại di động,,"Phát mobile, Phường An Khánh, Ninh Kiều, Cần Thơ, Việt Nam","Phường An Khánh, Ninh Kiều",,Cần Thơ,,"Ninh Kiều, Cần Thơ",VN
505,ChIJVRnVyJFioDERhZEi1StR09w,Cửa hàng điện thoại di động Hoa An,Cửa hàng điện thoại di động,+84 907 941 624,"Cửa hàng điện thoại di động Hoa An, 64 QL1A, Hưng Phú, Cái Răng, Cần Thơ, Việt Nam","Hưng Phú, Cái Răng",64 QL1A,Cần Thơ,,"Cái Răng, Cần Thơ",VN
511,ChIJHcpJQ0CJoDERE0Uf3L-_dns,An Tân 3,Cửa hàng điện thoại di động,,"2QV7+CW4 An Tân 3, Đ. Nguyễn Văn Cừ, Phường An Khánh, Ninh Kiều, Cần Thơ, Việt Nam","Phường An Khánh, Ninh Kiều","2QV7+CW4, Đ. Nguyễn Văn Cừ",Cần Thơ,,"Ninh Kiều, Cần Thơ",VN
512,ChIJDXgabOmJoDERFEs8AgqPhQg,Khả Duy Mobile,Cửa hàng điện thoại di động,+84 702 680 999,"Khả Duy Mobile, 104-106 Đ. Nguyễn Tri Phương, Phường An Khánh, Ninh Kiều, Cần Thơ, Việt Nam","Phường An Khánh, Ninh Kiều",104-106 Đ. Nguyễn Tri Phương,Cần Thơ,,"Ninh Kiều, Cần Thơ",VN
515,ChIJD4JejTaIoDERX5R-5gtyslE,Cửa Hàng Điện Thoại Hàn Quốc,Cửa hàng điện thoại di động,+84 966 577 752,"Cửa Hàng Điện Thoại Hàn Quốc, 6, Ba Tháng Hai, Phường Hưng Lợi, Quận Ninh Kiều, Thành Phố Cần Thơ, Hưng Lợi, Ninh Kiều, Cần Thơ, Việt Nam","Hưng Lợi, Ninh Kiều","6, Ba Tháng Hai, Phường Hưng Lợi, Quận Ninh Kiều, Thành Phố Cần Thơ",Cần Thơ,,"Ninh Kiều, Cần Thơ",VN
517,ChIJrxD0IMKJoDERdV8ETzSX70c,SUN Apple Store,Cửa hàng điện thoại di động,+84 888 816 018,"SUN Apple Store, 501A Hẻm 553, Hưng Lợi, Ninh Kiều, Cần Thơ 94000, Việt Nam","Hưng Lợi, Ninh Kiều",501A Hẻm 553,Cần Thơ,94000.0,"Ninh Kiều, Cần Thơ",VN
521,ChIJxczyV8eJoDERpIyrOf0YuvQ,Minh Mobile,Cửa hàng điện thoại di động,,"Minh Mobile, 109 Đ.Xô Viết Nghệ Tĩnh, An Hội, Ninh Kiều, Cần Thơ, Việt Nam","An Hội, Ninh Kiều",109 Đ.Xô Viết Nghệ Tĩnh,Cần Thơ,,"Ninh Kiều, Cần Thơ",VN
526,ChIJVQPKWYmJoDERFNDSIQj1Fz8,Cửa Hàng Điện Thoại Di Động BOL GA,Cửa hàng,+84 855 656 565,"Cửa Hàng Điện Thoại Di Động BOL GA, ĐC:, 10 Đ. Nguyễn Văn Linh, Hưng Lợi, Ninh Kiều, Cần Thơ, Việt Nam","Hưng Lợi, Ninh Kiều","ĐC:, 10 Đ. Nguyễn Văn Linh",Cần Thơ,,"Ninh Kiều, Cần Thơ",VN
527,ChIJOXlYyD6IoDERECsYls1g5TY,ĐTDD 199 Store,Cửa hàng điện thoại di động,+84 939 133 332,"ĐTDD 199 Store, 23E/1 Hồ Bún Xáng, Cần Thơ, Việt Nam","Phường An Khánh, Ninh Kiều",23E/1 Hồ Bún Xáng,Cần Thơ,,"Ninh Kiều, Cần Thơ",VN
539,ChIJQV7SqhCIoDERP2xjcXfYgJo,Cửa Hàng Điện Thoại Di Động Bo Bo,Cửa hàng điện thoại di động,+84 909 566 669,"2QGH+784 Cửa Hàng Điện Thoại Di Động Bo Bo, Chợ, Xuân Khánh, Ninh Kiều, Cần Thơ, Việt Nam","Xuân Khánh, Ninh Kiều","2QGH+784, Chợ",Cần Thơ,,"Ninh Kiều, Cần Thơ",VN
540,ChIJh6MFsbSJoDERu7wAr7lcVIY,Cửa Hàng Điện Thoại Di Động Hông Công,Cửa hàng điện thoại di động,+84 939 613 136,"Cửa Hàng Điện Thoại Di Động Hông Công, 32/1 Đường 3/2 nối dài, An Bình, Ninh Kiều, Cần Thơ, Việt Nam","An Bình, Ninh Kiều",32/1 Đường 3/2 nối dài,Cần Thơ,,"Ninh Kiều, Cần Thơ",VN
541,ChIJYa2QJ2uIoDERgEoaCZYi_5Y,Cửa Hàng Điện Thoại Di Động Cường Thịnh,Cửa hàng điện thoại di động,+84 906 737 737,"Cửa Hàng Điện Thoại Di Động Cường Thịnh, 132K, Đường Nguyễn Văn Cừ, Phường An Khánh, Quận Ninh Kiều, Phường An Khánh, Ninh Kiều, Cần Thơ, Việt Nam","Phường An Khánh, Ninh Kiều","132K, Đường Nguyễn Văn Cừ, Phường An Khánh, Quận Ninh Kiều",Cần Thơ,,"Ninh Kiều, Cần Thơ",VN
542,ChIJe2jQmuKJoDERc_jNbAWqiSw,Hữu Giang Store,Cửa hàng điện thoại di động,+84 939 272 739,"Hữu Giang Store, 350 Đ. Nguyễn Văn Cừ, Phường An Khánh, Ninh Kiều, Cần Thơ 90000, Việt Nam","Phường An Khánh, Ninh Kiều",350 Đ. Nguyễn Văn Cừ,Cần Thơ,90000.0,"Ninh Kiều, Cần Thơ",VN
546,ChIJy9hz8CCIoDER8YKUxiWZ2Yw,Cửa hàng điện thoại Viễn Hưng,Cửa hàng điện thoại di động,+84 292 3812 555,"Cửa hàng điện thoại Viễn Hưng, 121 Quang Trung, An Lạc, Ninh Kiều, Cần Thơ, Việt Nam","An Lạc, Ninh Kiều",121 Quang Trung,Cần Thơ,,"Ninh Kiều, Cần Thơ",VN
558,ChIJnUtfgQGJoDER7nRgnwm_vYA,HK Services,Cửa hàng điện thoại di động,+84 939 200 990,"HK Services, 167 Đ. Phạm Ngũ Lão, Thới Bình, Ninh Kiều, Cần Thơ, Việt Nam","Thới Bình, Ninh Kiều",167 Đ. Phạm Ngũ Lão,Cần Thơ,,"Ninh Kiều, Cần Thơ",VN
568,ChIJpXqDREGIoDER8bJ7jnZZGEI,Công Ty TNHH Thương Mại Dịch Vụ Ngọc Thư,Cửa hàng điện thoại di động,+84 292 3508 402,"Công Ty TNHH Thương Mại Dịch Vụ Ngọc Thư, 307H Đ. Nguyễn Văn Linh, Phường An Khánh, Ninh Kiều, Cần Thơ, Việt Nam","Phường An Khánh, Ninh Kiều",307H Đ. Nguyễn Văn Linh,Cần Thơ,,"Ninh Kiều, Cần Thơ",VN
579,ChIJy2QBS7KJoDERlndcKq5XS_Y,Cửa Hàng ĐTDĐ HỒNG CÔNG,Cửa hàng điện thoại di động,,"Cửa Hàng ĐTDĐ HỒNG CÔNG, 134 Đ. 3 Tháng 2, An Bình, Ninh Kiều, Cần Thơ, Việt Nam","An Bình, Ninh Kiều",134 Đ. 3 Tháng 2,Cần Thơ,,"Ninh Kiều, Cần Thơ",VN
602,ChIJNxJLugaIoDERZwS3LEdvlxI,Cửa Hàng Đtdđ Diễm Sơn,Cửa hàng điện thoại di động,+84 939 663 606,"Cửa Hàng Đtdđ Diễm Sơn, 61 Đ. Cách Mạng Tháng 8, Thới Bình, Ninh Kiều, Cần Thơ 901157, Việt Nam","Thới Bình, Ninh Kiều",61 Đ. Cách Mạng Tháng 8,Cần Thơ,901157.0,"Ninh Kiều, Cần Thơ",VN
603,ChIJL32v-DqIoDERa_qWXl1ii-o,Cửa Hàng Điện Thoại Di Động Phong Nhã,Cửa hàng điện thoại di động,+84 982 299 405,"Cửa Hàng Điện Thoại Di Động Phong Nhã, 51/47B, Đường 3/2, Quận Ninh Kiều, Tp Cần Thơ, Hưng Lợi, Ninh Kiều, Cần Thơ, Việt Nam","Hưng Lợi, Ninh Kiều","51/47B, Đường 3/2, Quận Ninh Kiều, Tp Cần Thơ",Cần Thơ,,"Ninh Kiều, Cần Thơ",VN
604,ChIJvyR4vtGJoDER-AJQLxuT8kw,Di Động Hoàng Giang,Cửa hàng bán đồ điện tử,+84 984 123 489,"2QP4+6WH Di Động Hoàng Giang, Đ. Trần Nam Phú, Phường An Khánh, Ninh Kiều, Cần Thơ, Việt Nam","Phường An Khánh, Ninh Kiều","2QP4+6WH, Đ. Trần Nam Phú",Cần Thơ,,"Ninh Kiều, Cần Thơ",VN
605,ChIJB9MZb0WJoDERDLSgV-ZmW-I,Điện Thoại Châu Tùng,Cửa hàng điện thoại di động,+84 944 222 227,"Điện Thoại Châu Tùng, 196 Đ. Nguyễn Văn Cừ, An Hoà, Ninh Kiều, Cần Thơ 84071, Việt Nam","An Hoà, Ninh Kiều",196 Đ. Nguyễn Văn Cừ,Cần Thơ,84071.0,"Ninh Kiều, Cần Thơ",VN
606,ChIJ8zd4IryJoDERLgkLAB9esvw,Cửa Hàng Điện Thoại Di Động Anh Quý 1,Cửa hàng điện thoại di động,+84 292 2460 248,"Cửa Hàng Điện Thoại Di Động Anh Quý 1, 63/6, Đường Trần Hưng Đạo, Quận Cái Răng, Lê Bình, Cái Răng, Cần Thơ, Việt Nam","Lê Bình, Cái Răng","63/6, Đường Trần Hưng Đạo, Quận Cái Răng",Cần Thơ,,"Cái Răng, Cần Thơ",VN
632,ChIJ6wLxwWqIoDERHbJPpBGfQag,iPro Service Cần Thơ,Cửa hàng điện thoại di động,+84 915 955 554,"iPro Service Cần Thơ, 188/17A Đ. Nguyễn Văn Cừ, Phường An Khánh, Ninh Kiều, Cần Thơ 92000, Việt Nam","Phường An Khánh, Ninh Kiều",188/17A Đ. Nguyễn Văn Cừ,Cần Thơ,92000.0,"Ninh Kiều, Cần Thơ",VN
638,ChIJe_5fC8GOoDERhZp2zErJ-ec,Cửa Hàng Điện Thoại Di Động Minh,Cửa hàng điện thoại di động,+84 787 942 591,"Cửa Hàng Điện Thoại Di Động Minh, 153 Ấp Thị Tứ, Đường Tỉnh Lộ 923, Thị Trấn Phong Điền, Huyện Phong Điền, Thị trấn Phong Điền, Phong Điền, Cần Thơ, Việt Nam","Thị trấn Phong Điền, Phong Điền","153 Ấp Thị Tứ, Đường Tỉnh Lộ 923, Thị Trấn Phong Điền, Huyện Phong Điền",Cần Thơ,,"Phong Điền, Cần Thơ",VN
639,ChIJ0VQNiBOJoDERycxy1tWaYRc,Cửa Hàng Đtdđ Phong Vỹ,Cửa hàng điện thoại di động,+84 977 272 272,"Cửa Hàng Đtdđ Phong Vỹ, 231 Lộ Vòng Cung, Mỹ Khánh, Phong Điền, Cần Thơ, Việt Nam","Mỹ Khánh, Phong Điền",231 Lộ Vòng Cung,Cần Thơ,,"Phong Điền, Cần Thơ",VN
651,ChIJiQXExLCJoDER0T9C1bk-YNk,Cửa Hàng Đtdđ Anh Quý,Cửa hàng điện thoại di động,,"Cửa Hàng Đtdđ Anh Quý, 563 Nguyễn Trãi, Lê Bình, Cái Răng, Cần Thơ, Việt Nam","Lê Bình, Cái Răng",563 Nguyễn Trãi,Cần Thơ,,"Cái Răng, Cần Thơ",VN
655,ChIJF8EKYsiJoDERaPsFMFGKFp4,Chí Danh Apple Chuyên Bán Iphone,Cửa hàng điện thoại di động,+84 906 456 198,"Chí Danh Apple Chuyên Bán Iphone, Hẻm 117/5 Hẻm 132 Đ. 3 Tháng 2, Hưng Lợi, Ninh Kiều, Cần Thơ, Việt Nam","Hưng Lợi, Ninh Kiều",Hẻm 117/5 Hẻm 132 Đ. 3 Tháng 2,Cần Thơ,,"Ninh Kiều, Cần Thơ",VN
660,ChIJicDlGVKJoDER8bYjU9iA0S8,KPStore,Cửa hàng điện thoại di động,,"2Q76+4R9 KPStore, 483 (141 cũ) Đ. 30 Tháng 4, Hưng Lợi, Ninh Kiều, Cần Thơ 90000, Việt Nam","Hưng Lợi, Ninh Kiều","2Q76+4R9, 483 (141 cũ) Đ. 30 Tháng 4",Cần Thơ,90000.0,"Ninh Kiều, Cần Thơ",VN
663,ChIJDy1Zq4yJoDER3QO-QjmUKsM,Hoài Linh Store,Cửa hàng điện thoại di động,,"Hoài Linh Store, 168b Đ. Quản Trọng Hoàng, Xuân Khánh, Ninh Kiều, Cần Thơ, Việt Nam","Xuân Khánh, Ninh Kiều",168b Đ. Quản Trọng Hoàng,Cần Thơ,,"Ninh Kiều, Cần Thơ",VN
668,ChIJa9xlyw-IoDERQ04kxKWMVN8,Cửa Hàng Điện Thoại Di Động Hưng Nguyễn,Cửa hàng điện thoại di động,+84 904 535 158,"Cửa Hàng Điện Thoại Di Động Hưng Nguyễn, 335 Đ. Nguyễn Văn Cừ, An Hoà, Ninh Kiều, Cần Thơ, Việt Nam","An Hoà, Ninh Kiều",335 Đ. Nguyễn Văn Cừ,Cần Thơ,,"Ninh Kiều, Cần Thơ",VN
669,ChIJSTUxSp9ioDERROEinmH8cAg,Cửa Hàng Điện Thoại Di Động Hoàng,Cửa hàng điện thoại di động,+84 292 3823 172,"Cửa Hàng Điện Thoại Di Động Hoàng, 156 Đường Hai Bà Trưng, Tân An, Ninh Kiều, Cần Thơ, Việt Nam","Tân An, Ninh Kiều",156 Đường Hai Bà Trưng,Cần Thơ,,"Ninh Kiều, Cần Thơ",VN
670,ChIJ-3pSoIKJoDERbGLAoYnhWm0,Cửa Hàng Điện Thoại Di Động Sang IP,Cửa hàng điện thoại di động,+84 849 794 919,"Cửa Hàng Điện Thoại Di Động Sang IP, 251/40C Đ. Trần Ngọc Quế, Xuân Khánh, Ninh Kiều, Cần Thơ 94115, Việt Nam","Xuân Khánh, Ninh Kiều",251/40C Đ. Trần Ngọc Quế,Cần Thơ,94115.0,"Ninh Kiều, Cần Thơ",VN
671,ChIJFfK0c2yIoDERSdoDU-axl5A,Cửa Hàng Điện Thoại Di Động 8 Đỏ,Cửa hàng điện thoại di động,+84 907 447 189,"Cửa Hàng Điện Thoại Di Động 8 Đỏ, L60, Đường 17, Chợ An Khánh, Phường An Khánh, Quận Ninh Kiều, Thành Phố Cần Thơ, Phường An Khánh, Ninh Kiều, Cần Thơ, Việt Nam","Phường An Khánh, Ninh Kiều","L60, Đường 17, Chợ An Khánh, Phường An Khánh, Quận Ninh Kiều, Thành Phố Cần Thơ",Cần Thơ,,"Ninh Kiều, Cần Thơ",VN
672,ChIJyYq9BiiIoDER9DseEj_HRss,Cửa Hàng Điện Thoại Di Động 91,Cửa hàng điện thoại di động,+84 833 155 665,"Cửa Hàng Điện Thoại Di Động 91, 91, Đường Quang Trung, Quận Cái Răng, Hưng Phú, Cái Răng, Cần Thơ, Việt Nam","Hưng Phú, Cái Răng","91, Đường Quang Trung, Quận Cái Răng",Cần Thơ,,"Cái Răng, Cần Thơ",VN
673,ChIJfaS0TTSIoDERHI9Nu2fvHwo,Cửa Hàng Điện Thoại Di Động GSM,Cửa hàng điện thoại di động,+84 292 3514 514,"Cửa Hàng Điện Thoại Di Động GSM, 118/20A, Đường 30/4, Quận Ninh Kiều, Hưng Lợi, Ninh Kiều, Cần Thơ, Việt Nam","Hưng Lợi, Ninh Kiều","118/20A, Đường 30/4, Quận Ninh Kiều",Cần Thơ,,"Ninh Kiều, Cần Thơ",VN
674,ChIJL2I2QieIoDER1s_ETD1BQak,Cửa Hàng Điện Thoại Di Động Nguyễn Hữu Phúc,Cửa hàng điện thoại di động,+84 813 667 253,"Cửa Hàng Điện Thoại Di Động Nguyễn Hữu Phúc, 2 Quang Trung, Khu Vực 6, Ninh Kiều, Cần Thơ, Việt Nam","Khu Vực 6, Ninh Kiều",2 Quang Trung,Cần Thơ,,"Ninh Kiều, Cần Thơ",VN
675,ChIJ5-N53EOIoDERenSGR1kHujE,Cửa Hàng Điện Thoại Di Động Thành Đạt,Cửa hàng điện thoại di động,+84 906 350 180,"Cửa Hàng Điện Thoại Di Động Thành Đạt, 271/91, Quốc Lộ 91B, Quận Bình Thủy, Tp Cần Thơ, Phường An Khánh, Ninh Kiều, Cần Thơ, Việt Nam","Phường An Khánh, Ninh Kiều","271/91, Quốc Lộ 91B, Quận Bình Thủy, Tp Cần Thơ",Cần Thơ,,"Ninh Kiều, Cần Thơ",VN
676,ChIJq6qqqhWIoDERh10W9-vTKko,Cửa Hàng Điện Thoại Di Động ĐỘC và LẠ 3,Cửa hàng điện thoại di động,+84 939 397 393,"Cửa Hàng Điện Thoại Di Động ĐỘC và LẠ 3, 107 Nguyễn Văn Cừ Nối Dài, Phường An Khánh, Ninh Kiều, Cần Thơ, Việt Nam","Phường An Khánh, Ninh Kiều",107 Nguyễn Văn Cừ Nối Dài,Cần Thơ,,"Ninh Kiều, Cần Thơ",VN
677,ChIJU3h1nEFjoDERJdOP-uS913c,DUY IPHONE_ CẦN THƠ TTTM CÁI KHẾ ,Cửa hàng điện thoại di động,+84 939 353 935,"DUY IPHONE_ CẦN THƠ TTTM CÁI KHẾ , Đ. Hồ Tùng Mậu, Cái Khế, Ninh Kiều, Cần Thơ 92000, Việt Nam","Cái Khế, Ninh Kiều",Đ. Hồ Tùng Mậu,Cần Thơ,92000.0,"Ninh Kiều, Cần Thơ",VN
678,ChIJOYMmEbyJoDER5poJ7QwAFe4,Cửa Hàng Điện Thoại Di Động Quốc Tuấn 2,Cửa hàng điện thoại di động,+84 292 3914 788,"Cửa Hàng Điện Thoại Di Động Quốc Tuấn 2, 74/4, Đường Trần Hưng Đạo, Quận Cái Răng, Lê Bình, Cái Răng, Cần Thơ, Việt Nam","Lê Bình, Cái Răng","74/4, Đường Trần Hưng Đạo, Quận Cái Răng",Cần Thơ,,"Cái Răng, Cần Thơ",VN
679,ChIJ3ZA7HA6JoDERRw_8xwrC_4Q,Điện Thoại Di Động Vy Mobile,Cửa hàng bán đồ điện tử,+84 888 574 444,"Điện Thoại Di Động Vy Mobile, Đường Số 4, An Bình, Bình Thủy, Cần Thơ, Việt Nam","An Bình, Bình Thủy",Đường Số 4,Cần Thơ,,"Bình Thủy, Cần Thơ",VN
680,ChIJBQTEN9WFoDERz5g86GfV6g4,Cửa Hàng Điện Thoại Di Động Phương Trúc,Cửa hàng điện thoại di động,+84 292 3862 392,"Cửa Hàng Điện Thoại Di Động Phương Trúc, Quốc Lộ 91, phường Phước Thới, quận Ô Môn, Tp. Cần Thơ, Phước Thới, Ô Môn, Cần Thơ, Việt Nam","Phước Thới, Ô Môn","Quốc Lộ 91, phường Phước Thới, quận Ô Môn, Tp. Cần Thơ",Cần Thơ,,"Ô Môn, Cần Thơ",VN
681,ChIJCxLoLrSOoDER9Dc_WpDWdro,Cửa Hàng Điện Thoại Di Động Hồng Vân,Cửa hàng điện thoại di động,+84 292 3850 424,"Cửa Hàng Điện Thoại Di Động Hồng Vân, 42 Ấp Thị Tứ, Đường Tỉnh Lộ 923, Thị Trấn Phong Điền, Huyện Phong Điền, Thị trấn Phong Điền, Phong Điền, Cần Thơ, Việt Nam","Thị trấn Phong Điền, Phong Điền","42 Ấp Thị Tứ, Đường Tỉnh Lộ 923, Thị Trấn Phong Điền, Huyện Phong Điền",Cần Thơ,,"Phong Điền, Cần Thơ",VN
682,ChIJ_bW3BpyJoDERdFGK9hQBmBw,1905 STORE,Cửa hàng điện thoại di động,+84 834 497 497,"1905 STORE, 149/53 Đ. 30 Tháng 4, Xuân Khánh, Ninh Kiều, Cần Thơ 92220, Việt Nam","Xuân Khánh, Ninh Kiều",149/53 Đ. 30 Tháng 4,Cần Thơ,92220.0,"Ninh Kiều, Cần Thơ",VN
684,ChIJGUuwg59ioDERGRJAAB4Bqvc,Cửa Hàng Điện Thoại Hồng Đăng,Cửa hàng điện thoại di động,+84 898 333 339,"Cửa Hàng Điện Thoại Hồng Đăng, 3 Đ. Đồng Khởi, Tân An, Ninh Kiều, Cần Thơ 90000, Việt Nam","Tân An, Ninh Kiều",3 Đ. Đồng Khởi,Cần Thơ,90000.0,"Ninh Kiều, Cần Thơ",VN
691,ChIJjVes0aNioDERHWz89LgTMF4,CỮA HÀNG ĐIỆN THOẠI,Cửa hàng điện thoại di động,,"CỮA HÀNG ĐIỆN THOẠI, P. Q., 9 Ngô Gia Tự, Tân An, Ninh Kiều, Cần Thơ 910000, Việt Nam","Tân An, Ninh Kiều","P. Q., 9 Ngô Gia Tự",Cần Thơ,910000.0,"Ninh Kiều, Cần Thơ",VN
694,ChIJpbjq9J9ioDERlG4qM939QJ4,Công Ty TNHH Dịch Vụ Điện Thoại Quốc Hưng,Cửa hàng điện thoại di động,+84 292 3812 388,"Công Ty TNHH Dịch Vụ Điện Thoại Quốc Hưng, 74 Đ. Nam Kỳ Khởi Nghĩa, Tân An, Ninh Kiều, Cần Thơ, Việt Nam","Tân An, Ninh Kiều",74 Đ. Nam Kỳ Khởi Nghĩa,Cần Thơ,,"Ninh Kiều, Cần Thơ",VN
697,ChIJvdG0jp9ioDERmDKk5sa4QaU,Cửa Hàng Nguyễn Khánh Mobile,Cửa hàng điện thoại di động,+84 939 686 874,"Cửa Hàng Nguyễn Khánh Mobile, 60C Đ. Nam Kỳ Khởi Nghĩa, Tân An, Ninh Kiều, Cần Thơ, Việt Nam","Tân An, Ninh Kiều",60C Đ. Nam Kỳ Khởi Nghĩa,Cần Thơ,,"Ninh Kiều, Cần Thơ",VN
743,ChIJ1VvZbv-JoDER7m7j4atrnek,F10 STORE,Cửa hàng điện thoại di động,+84 907 826 626,"F10 STORE, 30/2B Cao Thắng, An Nghiệp, Ninh Kiều, Cần Thơ, Việt Nam","An Nghiệp, Ninh Kiều",30/2B Cao Thắng,Cần Thơ,,"Ninh Kiều, Cần Thơ",VN
755,ChIJNRlzUjiJoDERXOAYz0Xu-vI,Lỗ Store,Cửa hàng điện thoại di động,+84 774 000 003,"Lỗ Store, 85/106A, Đ. Phạm Ngũ Lão, Thới Bình, Ninh Kiều, Cần Thơ, Việt Nam","Thới Bình, Ninh Kiều","85/106A, Đ. Phạm Ngũ Lão",Cần Thơ,,"Ninh Kiều, Cần Thơ",VN
757,ChIJIWTQtn-JoDERwBIvPjB4ep8,Cửa Hàng ĐTDĐ Văn Apple Cần Thơ,Cửa hàng điện thoại di động,+84 386 145 679,"Cửa Hàng ĐTDĐ Văn Apple Cần Thơ, 75b Đ. Phạm Thế Hiển, Phường An Khánh, Ninh Kiều, Cần Thơ, Việt Nam","Phường An Khánh, Ninh Kiều",75b Đ. Phạm Thế Hiển,Cần Thơ,,"Ninh Kiều, Cần Thơ",VN
758,ChIJD5BAuGuIoDERbXAoC4eaIfQ,Cửa Hàng Điện Thoại,Cửa hàng điện thoại di động,+84 938 238 861,"Cửa Hàng Điện Thoại, 75 Đ. số 30, Phường An Khánh, Ninh Kiều, Cần Thơ, Việt Nam","Phường An Khánh, Ninh Kiều",75 Đ. số 30,Cần Thơ,,"Ninh Kiều, Cần Thơ",VN
772,ChIJK0IJ0UOIoDERDWg4Y5ATRi4,Cửa Hàng Đtdđ Kiều Oanh,Cửa hàng điện thoại di động,+84 939 688 008,"Cửa Hàng Đtdđ Kiều Oanh, 299 Đ. Nguyễn Văn Cừ, Phường An Khánh, Ninh Kiều, Cần Thơ, Việt Nam","Phường An Khánh, Ninh Kiều",299 Đ. Nguyễn Văn Cừ,Cần Thơ,,"Ninh Kiều, Cần Thơ",VN
773,ChIJvUY9z7iJoDERF8jv_vCM2v0,Tú Apple Cần Thơ,Cửa hàng điện thoại di động,+84 706 352 345,"Tú Apple Cần Thơ, 398 Đ. Trần Nam Phú, Phường An Khánh, Ninh Kiều, Cần Thơ 900000, Việt Nam","Phường An Khánh, Ninh Kiều",398 Đ. Trần Nam Phú,Cần Thơ,900000.0,"Ninh Kiều, Cần Thơ",VN
785,ChIJ7YnHxESIoDERc8E5lMI1Kis,Cửa Hàng Bol Ga,Cửa hàng điện thoại di động,+84 907 030 379,"Cửa Hàng Bol Ga, 170, Nguyễn Văn Cừ Nối Dài, Phường An Khánh, Quận Ninh Kiều, Thành Phố Cần Thơ, An Bình, Ninh Kiều, Cần Thơ, Việt Nam","An Bình, Ninh Kiều","170, Nguyễn Văn Cừ Nối Dài, Phường An Khánh, Quận Ninh Kiều, Thành Phố Cần Thơ",Cần Thơ,,"Ninh Kiều, Cần Thơ",VN
786,ChIJ11abWjeIoDERvghjAdUeWYs,Cửa Hàng Đtdđ Nguyễn Nhân,Cửa hàng điện thoại di động,+84 939 832 383,"Cửa Hàng Đtdđ Nguyễn Nhân, 7 Đ. Nguyễn Văn Linh, Hưng Lợi, Ninh Kiều, Cần Thơ, Việt Nam","Hưng Lợi, Ninh Kiều",7 Đ. Nguyễn Văn Linh,Cần Thơ,,"Ninh Kiều, Cần Thơ",VN
789,ChIJlSzyC66JoDERZPqiAgO6ADc,Cửa Hàng Ninh Kiều 5,Cửa hàng điện thoại di động,+84 292 3911 922,"Cửa Hàng Ninh Kiều 5, 108, Đường 3-2 Nối Dài, Phường An Bình, Quận Ninh Kiều, Thành Phố Cần Thơ, An Bình, Ninh Kiều, Cần Thơ, Việt Nam","An Bình, Ninh Kiều","108, Đường 3-2 Nối Dài, Phường An Bình, Quận Ninh Kiều, Thành Phố Cần Thơ",Cần Thơ,,"Ninh Kiều, Cần Thơ",VN
790,ChIJeU-YH7eJoDERpvsH9sYBUzY,Quoc Su Mobile Shop,Cửa hàng điện thoại di động,+84 292 3525 398,"Quoc Su Mobile Shop, 437, Hau Thanh My Street, Cai Rang District, Can Tho City, Lê Bình, Cái Răng, Cần Thơ, Việt Nam","Lê Bình, Cái Răng","437, Hau Thanh My Street, Cai Rang District, Can Tho City",Cần Thơ,,"Cái Răng, Cần Thơ",VN
795,ChIJV5bLiRSJoDERkBCFpdvmWXk,Cửa Hàng ĐTDĐ Thanh Phong,Cửa hàng điện thoại di động,+84 907 154 579,"Cửa Hàng ĐTDĐ Thanh Phong, 261 Ấp Mỹ Ái, Huyện Phong Điền, Mỹ Khánh, Phong Điền, Cần Thơ, Việt Nam","Mỹ Khánh, Phong Điền","261 Ấp Mỹ Ái, Huyện Phong Điền",Cần Thơ,,"Phong Điền, Cần Thơ",VN
797,ChIJ0-v96ROJoDERIJszHU5Hz8g,Cửa Hàng Điện Thoại Tiến Đạt,Cửa hàng điện thoại di động,+84 962 623 738,"Cửa Hàng Điện Thoại Tiến Đạt, 125, Lộ Vòng Cung, Xã Mỹ Khánh, Huyện Phong Điền, Thành Phố Cần Thơ, Mỹ Khánh, Phong Điền, Cần Thơ, Việt Nam","Mỹ Khánh, Phong Điền","125, Lộ Vòng Cung, Xã Mỹ Khánh, Huyện Phong Điền, Thành Phố Cần Thơ",Cần Thơ,,"Phong Điền, Cần Thơ",VN
801,ChIJQ6PqQwqJoDERXo-pqPxJXHI,Cửa Hàng ĐTDĐ Hoàng Hiệp,Cửa hàng điện thoại di động,+84 292 3848 239,"Cửa Hàng ĐTDĐ Hoàng Hiệp, 349 Ấp Mỹ Nhơn, Huyện Phong Điền, An Bình, Ninh Kiều, Cần Thơ, Việt Nam","An Bình, Ninh Kiều","349 Ấp Mỹ Nhơn, Huyện Phong Điền",Cần Thơ,,"Ninh Kiều, Cần Thơ",VN
803,ChIJdV4q6eWIoDERExkYa7frEZQ,Cửa Hàng Sim Thẻ Nguyễn Ngọc Tuyền,Cửa hàng điện thoại di động,+84 777 027 649,"Cửa Hàng Sim Thẻ Nguyễn Ngọc Tuyền, 404A, Đường Bùi Hữu Nghĩa Khu Vực Bình Dương B, Phường Long Tuyền, Quận Bình Thủy, Long Tuyền, Bình Thủy, Cần Thơ, Việt Nam","Long Tuyền, Bình Thủy","404A, Đường Bùi Hữu Nghĩa Khu Vực Bình Dương B, Phường Long Tuyền, Quận Bình Thủy",Cần Thơ,,"Bình Thủy, Cần Thơ",VN
807,ChIJA1Hx1sGOoDERdhnbJxcaQ08,Đại Lý Điện Thoại Di Động Thiên Bảo,Cửa hàng điện thoại di động,+84 292 3850 559,"Đại Lý Điện Thoại Di Động Thiên Bảo, 299 Ấp Thị Tứ, Đường Tỉnh Lộ 923, Thị Trấn Phong Điền, Huyện Phong Điền, Thị trấn Phong Điền, Phong Điền, Cần Thơ, Việt Nam","Thị trấn Phong Điền, Phong Điền","299 Ấp Thị Tứ, Đường Tỉnh Lộ 923, Thị Trấn Phong Điền, Huyện Phong Điền",Cần Thơ,,"Phong Điền, Cần Thơ",VN
808,ChIJU7SoKrqJoDERA58z3kYfnRo,Cửa Hàng ĐTDĐ Văn Minh,Cửa hàng điện thoại di động,+84 919 343 437,"Cửa Hàng ĐTDĐ Văn Minh, 368B Lê Bình, Cái Răng, Cần Thơ, Việt Nam","Lê Bình, Cái Răng",368B Lê Bình,Cần Thơ,,"Cái Răng, Cần Thơ",VN
809,ChIJ399zcQqJoDERRomVm4_k5dE,Đại Lý Sim Card Đoàn,Cửa hàng điện thoại di động,+84 292 3846 764,"Đại Lý Sim Card Đoàn, 453 Ấp Mỹ Nhơn, Huyện Phong Điền, An Bình, Ninh Kiều, Cần Thơ, Việt Nam","An Bình, Ninh Kiều","453 Ấp Mỹ Nhơn, Huyện Phong Điền",Cần Thơ,,"Ninh Kiều, Cần Thơ",VN
825,ChIJIYp-GbGJoDERpdBInpyl8Co,Cửa Hàng ĐTDĐ Anh Quý,Cửa hàng điện thoại di động,+84 939 362 060,"Cửa Hàng ĐTDĐ Anh Quý, 77/1 Trần Hưng Đạo, Lê Bình, Cái Răng, Cần Thơ, Việt Nam","Lê Bình, Cái Răng",77/1 Trần Hưng Đạo,Cần Thơ,,"Cái Răng, Cần Thơ",VN
851,ChIJp3XQIY-JoDERt5MviJ_o6oo,Cửa hàng điện thoại Vũ Vân,Cửa hàng điện thoại di động,,"Cửa hàng điện thoại Vũ Vân, 20 Trần Chiên, Lê Bình, Cái Răng, Cần Thơ, Việt Nam","Lê Bình, Cái Răng",20 Trần Chiên,Cần Thơ,,"Cái Răng, Cần Thơ",VN
866,ChIJc_i1cpSJoDER4kkG8sh83Z0,Trường Mobile,Cửa hàng điện thoại di động,+84 962 223 344,"Trường Mobile, 5c Đ. 30 Tháng 4, Xuân Khánh, Ninh Kiều, Cần Thơ, Việt Nam","Xuân Khánh, Ninh Kiều",5c Đ. 30 Tháng 4,Cần Thơ,,"Ninh Kiều, Cần Thơ",VN
867,ChIJXxhOIDeIoDERqs2HqkuuSy4,Công Ty TNHH MTV DVTM Trung Phát,Cửa hàng điện thoại di động,+84 292 3840 205,"Công Ty TNHH MTV DVTM Trung Phát, 148/85, Đường 3/2, Phường Hưng Lợi, Quận Ninh Kiều, Hưng Lợi, Ninh Kiều, Cần Thơ, Việt Nam","Hưng Lợi, Ninh Kiều","148/85, Đường 3/2, Phường Hưng Lợi, Quận Ninh Kiều",Cần Thơ,,"Ninh Kiều, Cần Thơ",VN
868,ChIJNWYuLjeIoDERMLokXEbw1ok,Cửa Hàng Sim Số X Phone,Cửa hàng điện thoại di động,+84 292 3839 569,"Cửa Hàng Sim Số X Phone, 203A Đ. 3 Tháng 2, Hưng Lợi, Ninh Kiều, Cần Thơ, Việt Nam","Hưng Lợi, Ninh Kiều",203A Đ. 3 Tháng 2,Cần Thơ,,"Ninh Kiều, Cần Thơ",VN
870,ChIJ8TYpTZeJoDERtgf7ARHpSFE,196 istore,Cửa hàng điện thoại di động,+84 907 544 425,"196 istore, 47/3A Đ. 3 Tháng 2, An Phú, Ninh Kiều, Cần Thơ, Việt Nam","An Phú, Ninh Kiều",47/3A Đ. 3 Tháng 2,Cần Thơ,,"Ninh Kiều, Cần Thơ",VN
872,ChIJ0YaZ7TSIoDEREK1ejOk4lB0,ĐIỆN THOẠI QUỐC DŨNG,Cửa hàng điện thoại di động,+84 939 522 959,"ĐIỆN THOẠI QUỐC DŨNG, 151 Đ. Trần Hoàng Na, Hưng Lợi, Ninh Kiều, Cần Thơ, Việt Nam","Hưng Lợi, Ninh Kiều",151 Đ. Trần Hoàng Na,Cần Thơ,,"Ninh Kiều, Cần Thơ",VN
883,ChIJD4JejTaIoDERpDsy8hc2_X0,Cửa Hàng Điện Thoại Hoài Minh,Cửa hàng điện thoại di động,+84 907 210 350,"Cửa Hàng Điện Thoại Hoài Minh, 58, Ba Tháng Hai, Phường Hưng Lợi, Quận Ninh Kiều, Thành Phố Cần Thơ, Hưng Lợi, Ninh Kiều, Cần Thơ, Việt Nam","Hưng Lợi, Ninh Kiều","58, Ba Tháng Hai, Phường Hưng Lợi, Quận Ninh Kiều, Thành Phố Cần Thơ",Cần Thơ,,"Ninh Kiều, Cần Thơ",VN
884,ChIJNZHQQjGIoDERtEfV40f87G4,Hoang Kim Mobile Phone Store,Cửa hàng,+84 907 271 102,"Hoang Kim Mobile Phone Store, 156, 30/4 Street, Ninh Kieu District, Can Tho City, Hưng Lợi, Ninh Kiều, Cần Thơ, Việt Nam","Hưng Lợi, Ninh Kiều","156, 30/4 Street, Ninh Kieu District, Can Tho City",Cần Thơ,,"Ninh Kiều, Cần Thơ",VN
914,ChIJzYJzkp9ioDERPqobBmMoTqI,DTDD Trần Hiền,Cửa hàng điện thoại di động,+84 919 751 161,"DTDD Trần Hiền, 037 tổ 3 ấp long thạnh a, Tân An, Ninh Kiều, Cần Thơ, Việt Nam","Tân An, Ninh Kiều",037 tổ 3 ấp long thạnh a,Cần Thơ,,"Ninh Kiều, Cần Thơ",VN
921,ChIJlZHbny-JoDER-r-eNTCldcQ,Cửa hàng điện thoại di động Toàn Táo,Cửa hàng điện thoại di động,,"Cửa hàng điện thoại di động Toàn Táo, 14 Đ. Phạm Ngũ Lão, Thới Bình, Ninh Kiều, Cần Thơ, Việt Nam","Thới Bình, Ninh Kiều",14 Đ. Phạm Ngũ Lão,Cần Thơ,,"Ninh Kiều, Cần Thơ",VN
922,ChIJqWJ3XQaIoDERrMcfmbImZns,Cửa Hàng Điện Thoại Di Động Tây Đô,Cửa hàng điện thoại di động,+84 292 3766 006,"Cửa Hàng Điện Thoại Di Động Tây Đô, 24/4C, Trần Việt Châu, phường An Hòa, quận Ninh Kiều, Tp. Cần Thơ, Việt Nam","Thới Bình, Ninh Kiều","24/4C, Trần Việt Châu, phường An Hòa, quận Ninh Kiều, Tp. Cần Thơ",Cần Thơ,,"Ninh Kiều, Cần Thơ",VN
923,ChIJCYtFxb-JoDERcnPppepKMmM,Di Động Giá Rẻ,Cửa hàng bán đồ điện tử,+84 292 3822 326,"Di Động Giá Rẻ, 329 QL91B, Phường An Khánh, Ninh Kiều, Cần Thơ, Việt Nam","Phường An Khánh, Ninh Kiều",329 QL91B,Cần Thơ,,"Ninh Kiều, Cần Thơ",VN
924,ChIJOR0UAKFioDERfrNXzPvNOi4,Cửa Hàng Điện Thoại Di Động Gertralo,Cửa hàng điện thoại di động,+84 7103815113,"Cửa Hàng Điện Thoại Di Động Gertralo, 49 Đ. Ngô Quyền, Tân An, Ninh Kiều, Cần Thơ 94112, Việt Nam","Tân An, Ninh Kiều",49 Đ. Ngô Quyền,Cần Thơ,94112.0,"Ninh Kiều, Cần Thơ",VN
925,ChIJ63jaxgOIoDERfVD2A4__Is0,Cửa Hàng Điện Thoại Di Động Đăng Khoa,Cửa hàng điện thoại di động,+84 292 3769 439,"Cửa Hàng Điện Thoại Di Động Đăng Khoa, 4B, Nguyễn Trãi, Phường Cái Khế, Quận Ninh Kiều, Tp Cần Thơ, Việt Nam","An Hội, Ninh Kiều","4B, Nguyễn Trãi, Phường Cái Khế, Quận Ninh Kiều, Tp Cần Thơ",Cần Thơ,,"Ninh Kiều, Cần Thơ",VN
926,ChIJn3pqYwGIoDERHopmFpzQ4lc,Cửa Hàng Điện Thoại Di Động Minh Hiếu,Cửa hàng điện thoại di động,+84 292 5648 870,"Cửa Hàng Điện Thoại Di Động Minh Hiếu, 88/79, Đường Cách Mạng Tháng 8, Quận Ninh Kiều, Tp Cần Thơ, Cái Khế, Ninh Kiều, Cần Thơ, Việt Nam","Cái Khế, Ninh Kiều","88/79, Đường Cách Mạng Tháng 8, Quận Ninh Kiều, Tp Cần Thơ",Cần Thơ,,"Ninh Kiều, Cần Thơ",VN
927,ChIJyco7zEOIoDERKxOobTQiZx8,Cửa Hàng Điện Thoại Di Động Thế Kỷ,Cửa hàng điện thoại di động,+84 292 3740 960,"Cửa Hàng Điện Thoại Di Động Thế Kỷ, 1L, Quốc Lộ 91B, phường Hưng Lợi, quận Ninh Kiều, Tp. Cần Thơ, Phường An Khánh, Ninh Kiều, Cần Thơ, Việt Nam","Phường An Khánh, Ninh Kiều","1L, Quốc Lộ 91B, phường Hưng Lợi, quận Ninh Kiều, Tp. Cần Thơ",Cần Thơ,,"Ninh Kiều, Cần Thơ",VN
928,ChIJs5wDFCKIoDERV2xijmw82Y8,Cửa Hàng Điện Thoại Di Động Tín Phong,Cửa hàng điện thoại di động,+84 7103833033,"Cửa Hàng Điện Thoại Di Động Tín Phong, C5 Đ. Mậu Thân, An Phú, Ninh Kiều, Cần Thơ, Việt Nam","An Phú, Ninh Kiều",C5 Đ. Mậu Thân,Cần Thơ,,"Ninh Kiều, Cần Thơ",VN
929,ChIJMedkU6BioDER3tTaXNUp2vw,Cửa Hàng Điện Thoại Di Động Chuyên,Cửa hàng điện thoại di động,+84 7103815113,"Cửa Hàng Điện Thoại Di Động Chuyên, 49 Đ. Ngô Quyền, Tân An, Ninh Kiều, Cần Thơ 94112, Việt Nam","Tân An, Ninh Kiều",49 Đ. Ngô Quyền,Cần Thơ,94112.0,"Ninh Kiều, Cần Thơ",VN
930,ChIJiXGcWahioDERhm-SSocteBM,Cửa Hàng Điện Thoại Di Động Ngọc Ngân,Cửa hàng điện thoại di động,+84 907 145 558,"Cửa Hàng Điện Thoại Di Động Ngọc Ngân, 15, Trần Văn Khéo, Quận Ninh Kiều, Cái Khế, Ninh Kiều, Cần Thơ, Việt Nam","Cái Khế, Ninh Kiều","15, Trần Văn Khéo, Quận Ninh Kiều",Cần Thơ,,"Ninh Kiều, Cần Thơ",VN
931,ChIJR5UeS2uIoDERccHNn-QbVTM,Cửa Hàng Điện Thoại Di Động Quỳnh Liên,Cửa hàng điện thoại di động,+84 903 768 534,"Cửa Hàng Điện Thoại Di Động Quỳnh Liên, 161C Đ. Nguyễn Văn Cừ, Phường An Khánh, Ninh Kiều, Cần Thơ, Việt Nam","Phường An Khánh, Ninh Kiều",161C Đ. Nguyễn Văn Cừ,Cần Thơ,,"Ninh Kiều, Cần Thơ",VN
932,ChIJfwVGDSKIoDERJOwcDxiT0Ew,Cửa Hàng Điện Thoại Di Động Lạc Việt,Cửa hàng,,"Cửa Hàng Điện Thoại Di Động Lạc Việt, 123 Đ. Mậu Thân, An Phú, Ninh Kiều, Cần Thơ, Việt Nam","An Phú, Ninh Kiều",123 Đ. Mậu Thân,Cần Thơ,,"Ninh Kiều, Cần Thơ",VN
933,ChIJ9bryV6hioDERooU6eqTn2dM,Cửa Hàng Điện Thoại Di Động Hoàng Thông,Cửa hàng,+84 292 3763 813,"Cửa Hàng Điện Thoại Di Động Hoàng Thông, 1919, Trần Văn Khéo, Quận Ninh Kiều, Tp Cần Thơ, Cái Khế, Ninh Kiều, Cần Thơ, Việt Nam","Cái Khế, Ninh Kiều","1919, Trần Văn Khéo, Quận Ninh Kiều, Tp Cần Thơ",Cần Thơ,,"Ninh Kiều, Cần Thơ",VN
934,ChIJz0oRBGiIoDERNxLPSY90M9M,Điện Thoại Di Động Quốc Tuấn,Cửa hàng,,"Điện Thoại Di Động Quốc Tuấn, An Khánh, Ninh Kiều, Cần Thơ, Việt Nam","An Khánh, Ninh Kiều",,Cần Thơ,,"Ninh Kiều, Cần Thơ",VN
935,ChIJBa1KWzqIoDER0J-LgKhBwDc,Cửa Hàng Điện Thoại Di Động Đặng Huỳnh,Cửa hàng điện thoại di động,+84 292 3893 845,"Cửa Hàng Điện Thoại Di Động Đặng Huỳnh, 171C, Đường 3/2, Quận Ninh Kiều, TP Cần Thơ, Hưng Lợi, Ninh Kiều, Cần Thơ, Việt Nam","Hưng Lợi, Ninh Kiều","171C, Đường 3/2, Quận Ninh Kiều, TP Cần Thơ",Cần Thơ,,"Ninh Kiều, Cần Thơ",VN
936,ChIJ-3IzakGIoDERGUY1HTNtg90,Cửa Hàng Điện Di Động Thoại Tùng,Cửa hàng điện thoại di động,+84 933 570 570,"Cửa Hàng Điện Di Động Thoại Tùng, 337B3, Đường Nguyễn Văn Linh, Quận Ninh Kiều, Thành Phố Cần Thơ, Phường An Khánh, Ninh Kiều, Cần Thơ, Việt Nam","Phường An Khánh, Ninh Kiều","337B3, Đường Nguyễn Văn Linh, Quận Ninh Kiều, Thành Phố Cần Thơ",Cần Thơ,,"Ninh Kiều, Cần Thơ",VN
937,ChIJqZwdX0xjoDER43h9PfVgp70,Điện thoại di động Tuấn Kiệt,Cửa hàng điện thoại di động,+84 932 972 168,"Điện thoại di động Tuấn Kiệt, 38 Đ.Xô Viết Nghệ Tĩnh, An Hội, Ninh Kiều, Cần Thơ, Việt Nam","An Hội, Ninh Kiều",38 Đ.Xô Viết Nghệ Tĩnh,Cần Thơ,,"Ninh Kiều, Cần Thơ",VN
938,ChIJnRTEZX1ioDERxtyf0Y4ob0c,Cửa Hàng Điện Thoại Di Động Chăm,Cửa hàng điện thoại di động,+84 939 144 144,"Cửa Hàng Điện Thoại Di Động Chăm, DD 20Khu Dân Cư Hưng Phú, Quận Cái Răng, Tp Cần Thơ, Hưng Phú, Cái Răng, Cần Thơ, Việt Nam","Hưng Phú, Cái Răng","DD 20Khu Dân Cư Hưng Phú, Quận Cái Răng, Tp Cần Thơ",Cần Thơ,,"Cái Răng, Cần Thơ",VN
939,ChIJD1qUSZ9ioDERoCsDGd9RYxU,Cửa Hàng Điện Thoại Di Động Nguyễn Hoàng Quốc Trung,Cửa hàng điện thoại di động,+84 345 204 278,"Cửa Hàng Điện Thoại Di Động Nguyễn Hoàng Quốc Trung, 66, Đường Hai Bà Trưng, Phường Tân An, Quận Ninh Kiều, Tân An, Ninh Kiều, Cần Thơ, Việt Nam","Tân An, Ninh Kiều","66, Đường Hai Bà Trưng, Phường Tân An, Quận Ninh Kiều",Cần Thơ,,"Ninh Kiều, Cần Thơ",VN
940,ChIJee83YfGJoDERpUBkDXPgazE,Lê Giang Store,Cửa hàng điện thoại di động,+84 975 024 639,"Lê Giang Store, 194/10c Đ. Cách Mạng Tháng 8, Cái Khế, Bình Thủy, Cần Thơ, Việt Nam","Cái Khế, Bình Thủy",194/10c Đ. Cách Mạng Tháng 8,Cần Thơ,,"Bình Thủy, Cần Thơ",VN
941,ChIJt2bf1EOIoDERxBTC2lBUAyY,cửa hàng điện thoại di động CSM,Cửa hàng điện thoại di động,,"cửa hàng điện thoại di động CSM, 380 Đ. Nguyễn Văn Cừ, Phường An Khánh, Ninh Kiều, Cần Thơ, Việt Nam","Phường An Khánh, Ninh Kiều",380 Đ. Nguyễn Văn Cừ,Cần Thơ,,"Ninh Kiều, Cần Thơ",VN
942,ChIJJ7dBui5joDERyWsBXxbh2zc,Cửa Hàng Điện Thoại Di Động Minh Hoàng,Cửa hàng điện thoại di động,,"Cửa Hàng Điện Thoại Di Động Minh Hoàng, Đông Bình, Tx. Bình Minh, Vĩnh Long, Việt Nam","Đông Bình, Thị xã Bình Minh",,Vĩnh Long,,Vĩnh Long,VN
943,ChIJ7wZxwZ1ioDERIPzu8K3sgts,Cửa Hàng Điện Thoại Di Động Trần Tâm,Cửa hàng điện thoại di động,+84 292 3829 154,"Cửa Hàng Điện Thoại Di Động Trần Tâm, 11A1, Đường 30 Tháng 4, phường Xuân Khánh, quận Ninh Kiều, Tp. Cần Thơ, Xuân Khánh, Ninh Kiều, Cần Thơ, Việt Nam","Xuân Khánh, Ninh Kiều","11A1, Đường 30 Tháng 4, phường Xuân Khánh, quận Ninh Kiều, Tp. Cần Thơ",Cần Thơ,,"Ninh Kiều, Cần Thơ",VN
944,ChIJQ76D2uWIoDERDA1koiIRyMM,Điện Thoại Di Động Minh Điền,Cửa hàng điện thoại di động,+84 907 300 060,"Điện Thoại Di Động Minh Điền, Long Tuyền, Bình Thủy, Cần Thơ, Việt Nam","Long Tuyền, Bình Thủy",,Cần Thơ,,"Bình Thủy, Cần Thơ",VN
945,ChIJhf1MRbOJoDERYRLWpqICwhk,Cửa Hàng Điện Thoại Di Động Hiền,Cửa hàng điện thoại di động,+84 292 2463 378,"Cửa Hàng Điện Thoại Di Động Hiền, 85/5, Quốc Lộ 1A, TP Cần Thơ, Quận Cái Răng, An Bình, Ninh Kiều, Cần Thơ, Việt Nam","An Bình, Ninh Kiều","85/5, Quốc Lộ 1A, TP Cần Thơ, Quận Cái Răng",Cần Thơ,,"Ninh Kiều, Cần Thơ",VN
946,ChIJv0oRJgCJoDERtJDWdb19teg,Cửa hàng điện thoại di động Nguyễn Trung,Cửa hàng điện thoại di động,,"Cửa hàng điện thoại di động Nguyễn Trung, 274 Đ. Bùi Hữu Nghĩa, Long Tuyền, Bình Thủy, Cần Thơ, Việt Nam","Long Tuyền, Bình Thủy",274 Đ. Bùi Hữu Nghĩa,Cần Thơ,,"Bình Thủy, Cần Thơ",VN
947,ChIJhSxNT7WJoDERY34-SVLzuvM,Cửa Hàng Điện Thoại Di Động Trung Nguyên,Cửa hàng điện thoại di động,+84 292 3911 679,"Cửa Hàng Điện Thoại Di Động Trung Nguyên, 422, Quốc Lộ 1A, Quận Cái Răng, Hưng Lợi, Ninh Kiều, Cần Thơ, Việt Nam","Hưng Lợi, Ninh Kiều","422, Quốc Lộ 1A, Quận Cái Răng",Cần Thơ,,"Ninh Kiều, Cần Thơ",VN
948,ChIJc1M5duuJoDERko4EOGnwzk0,Dtdd Thái Nguyễn,Cửa hàng điện thoại di động,+84 901 035 468,"Dtdd Thái Nguyễn, 158d/6 khu vực 1.phường an khánh.quận ninh kiều .tp, Cần Thơ 700000, Việt Nam","Phường An Khánh, Ninh Kiều",158d/6 khu vực 1.phường an khánh.quận ninh kiều .tp,Cần Thơ,700000.0,"Ninh Kiều, Cần Thơ",VN
949,ChIJrX2DriaIoDERX7xhTHzi36s,Cửa Hàng Điện Thoại Di Động Minh Nguyệt,Cửa hàng điện thoại di động,+84 292 2219 979,"Cửa Hàng Điện Thoại Di Động Minh Nguyệt, 34, 30/4, Quận Ninh Kiều, Xuân Khánh, Ninh Kiều, Cần Thơ, Việt Nam","Xuân Khánh, Ninh Kiều","34, 30/4, Quận Ninh Kiều",Cần Thơ,,"Ninh Kiều, Cần Thơ",VN
950,ChIJSfrVtrSJoDERlMVALFP2zZg,Cửa Hàng Điện Thoại Di Động Thịnh,Cửa hàng điện thoại di động,+84 292 3832 873,"Cửa Hàng Điện Thoại Di Động Thịnh, 166/4, Quốc Lộ 1A, P. Lê Bình, Quận Cái Răng, Hưng Lợi, Ninh Kiều, Cần Thơ, Việt Nam","Hưng Lợi, Ninh Kiều","166/4, Quốc Lộ 1A, P. Lê Bình, Quận Cái Răng",Cần Thơ,,"Ninh Kiều, Cần Thơ",VN
951,ChIJs0zydaFioDERPTVNrtgPVQE,Nguyen Chan Hung Old Mobile Phone Store,Cửa hàng điện thoại di động,+84 933 983 560,"Nguyen Chan Hung Old Mobile Phone Store, 27, Tran Quoc Toan Street, Tan An Ward, Ninh Kieu District, Tân An, Ninh Kiều, Cần Thơ, Việt Nam","Tân An, Ninh Kiều","27, Tran Quoc Toan Street, Tan An Ward, Ninh Kieu District",Cần Thơ,,"Ninh Kiều, Cần Thơ",VN
952,ChIJSVAZ-TSJoDERt9TaSfXN2To,Điện Thoại Di Động Thành Lợi,Cửa hàng bán đồ điện tử,+84 845 165 165,"2Q96+PF6 Điện Thoại Di Động Thành Lợi, Hưng Lợi, Ninh Kiều, Cần Thơ, Việt Nam","Hưng Lợi, Ninh Kiều",2Q96+PF6,Cần Thơ,,"Ninh Kiều, Cần Thơ",VN
953,ChIJC_tTBDuIoDERSzfGCYO3qQQ,Cửa Hàng Điện Thoại Di Động Hương Lan,Cửa hàng,+84 918 579 697,"Cửa Hàng Điện Thoại Di Động Hương Lan, 51A2, Đường 3/2, Quận Ninh Kiều, Tp Cần Thơ, Xuân Khánh, Ninh Kiều, Cần Thơ, Việt Nam","Xuân Khánh, Ninh Kiều","51A2, Đường 3/2, Quận Ninh Kiều, Tp Cần Thơ",Cần Thơ,,"Ninh Kiều, Cần Thơ",VN
954,ChIJG3k3q7SJoDERnOgw5OTpz6g,Cửa Hàng Điện Thoại Di Động Minh Hòa,Cửa hàng điện thoại di động,+84 292 3846 447,"Cửa Hàng Điện Thoại Di Động Minh Hòa, 121A, Đường 3/2 Nối Dài, p. An Bình, Quận Ninh Kiều, Hưng Lợi, Ninh Kiều, Cần Thơ, Việt Nam","Hưng Lợi, Ninh Kiều","121A, Đường 3/2 Nối Dài, p. An Bình, Quận Ninh Kiều",Cần Thơ,,"Ninh Kiều, Cần Thơ",VN
955,ChIJq6qqBw-IoDERTdFv7a8MiA0,Cửa Hàng Đại Lý Viễn Thông Số 0183,Cửa hàng điện thoại di động,+84 292 3389 181,"Cửa Hàng Đại Lý Viễn Thông Số 0183, 380B/14B, Đường Nguyễn Văn Cừ, Quận Ninh Kiều, Tp Cần Thơ, An Hoà, Ninh Kiều, Cần Thơ, Việt Nam","An Hoà, Ninh Kiều","380B/14B, Đường Nguyễn Văn Cừ, Quận Ninh Kiều, Tp Cần Thơ",Cần Thơ,,"Ninh Kiều, Cần Thơ",VN
956,ChIJJdXE2jmJoDER75FmGR2u344,Hoàng store,Cửa hàng điện thoại di động,+84 938 211 041,"Hoàng store, 40 Đ. Nguyễn Đệ, An Hoà, Ninh Kiều, Cần Thơ, Việt Nam","An Hoà, Ninh Kiều",40 Đ. Nguyễn Đệ,Cần Thơ,,"Ninh Kiều, Cần Thơ",VN
957,ChIJXTW4ILqJoDERgsLLJkaZjSo,Cửa Hàng Điện Thoại Di Động Cô Minh,Cửa hàng điện thoại di động,+84 292 3915 339,"Cửa Hàng Điện Thoại Di Động Cô Minh, 266E, Đường Trần Hưng Đạo, Quận Cái Răng, Lê Bình, Cái Răng, Cần Thơ, Việt Nam","Lê Bình, Cái Răng","266E, Đường Trần Hưng Đạo, Quận Cái Răng",Cần Thơ,,"Cái Răng, Cần Thơ",VN
958,ChIJTTd5tROIoDERzf4DBG_LOIk,Cửa Hàng Đtdđ Quốc Cường,Cửa hàng điện thoại di động,+84 292 3892 605,"Cửa Hàng Đtdđ Quốc Cường, 138h Đ. Nguyễn Văn Cừ, Phường An Khánh, Ninh Kiều, Cần Thơ, Việt Nam","Phường An Khánh, Ninh Kiều",138h Đ. Nguyễn Văn Cừ,Cần Thơ,,"Ninh Kiều, Cần Thơ",VN
959,ChIJuQ7G6hmIoDERWPpq_aazR74,Huu Giang Mobile Store,Cửa hàng điện thoại di động,+84 292 2202 068,"Huu Giang Mobile Store, 114 Đ. Mậu Thân, An Nghiệp, Ninh Kiều, Cần Thơ 900000, Việt Nam","An Nghiệp, Ninh Kiều",114 Đ. Mậu Thân,Cần Thơ,900000.0,"Ninh Kiều, Cần Thơ",VN
960,ChIJUYNKaRyIoDERNL3mEF2fDpw,Minh Huy Mobile Store,Cửa hàng,+84 292 3833 618,"Minh Huy Mobile Store, An Nghiệp, Ninh Kiều, Cần Thơ, Việt Nam","An Nghiệp, Ninh Kiều",,Cần Thơ,,"Ninh Kiều, Cần Thơ",VN
961,ChIJN_Ii6n2GoDER2NFOB7TgxHg,Cửa Hàng Điện Thoại Di Động Quốc Trung,Cửa hàng điện thoại di động,+84 7103841041,"Cửa Hàng Điện Thoại Di Động Quốc Trung, 92/8 Lê Hồng Phong, Trà Nóc, Ô Môn, Cần Thơ, Việt Nam","Trà Nóc, Ô Môn",92/8 Lê Hồng Phong,Cần Thơ,,"Ô Môn, Cần Thơ",VN
962,ChIJgzoXywmJoDERym9Umz3puzA,Điện Thoại Di Động Nghĩa Trần Mobile,Cửa hàng điện thoại di động,+84 769 666 665,"Điện Thoại Di Động Nghĩa Trần Mobile, 337b Đ. Nguyễn Văn Linh, Phường An Khánh, Ninh Kiều, Cần Thơ, Việt Nam","Phường An Khánh, Ninh Kiều",337b Đ. Nguyễn Văn Linh,Cần Thơ,,"Ninh Kiều, Cần Thơ",VN
963,ChIJ_d-pHryJoDER8jphtmq037s,Cửa Hàng Điện Thoại Di Động Lâm,Cửa hàng điện thoại di động,+84 292 3848 589,"Cửa Hàng Điện Thoại Di Động Lâm, 69/2, Đường Trần Hưng Đạo, Quận Cái Răng, Lê Bình, Cái Răng, Cần Thơ, Việt Nam","Lê Bình, Cái Răng","69/2, Đường Trần Hưng Đạo, Quận Cái Răng",Cần Thơ,,"Cái Răng, Cần Thơ",VN
964,ChIJvZi5_XqJoDERr3RkwvlvmTs,Bao Duy Store,Cửa hàng điện thoại di động,+84 939 999 002,"Bao Duy Store, 158 Đ. Đồng Văn Cống, An Thới, Bình Thủy, Cần Thơ 900000, Việt Nam","An Thới, Bình Thủy",158 Đ. Đồng Văn Cống,Cần Thơ,900000.0,"Bình Thủy, Cần Thơ",VN
965,ChIJT1Zle5CJoDERuKf5ZjakJYU,Điện thoại Minh Thuận,Cửa hàng điện thoại di động,+84 988 855 599,"Điện thoại Minh Thuận, 01 Đ. Trần Hưng Đạo, An Cư, Ninh Kiều, Cần Thơ 920000, Việt Nam","An Cư, Ninh Kiều",01 Đ. Trần Hưng Đạo,Cần Thơ,920000.0,"Ninh Kiều, Cần Thơ",VN
966,ChIJ3dKqerOJoDERrZpqDbI1oV8,Cửa Hàng Điện Thoại Di Động Bích Trân,Cửa hàng điện thoại di động,+84 977 988 667,"Cửa Hàng Điện Thoại Di Động Bích Trân, 108A, Quốc Lộ 1A, P. An Bình, Quận Ninh Kiều, An Bình, Ninh Kiều, Cần Thơ, Việt Nam","An Bình, Ninh Kiều","108A, Quốc Lộ 1A, P. An Bình, Quận Ninh Kiều",Cần Thơ,,"Ninh Kiều, Cần Thơ",VN
967,ChIJ-bEfxVKJoDERtu5jZFe4f08,Điện Thoại Cần Thơ - BT Smartphone,Cửa hàng điện thoại di động,+84 939 598 016,"Điện Thoại Cần Thơ - BT Smartphone, 132/42/125 Hùng Vương, An Cư, Ninh Kiều, Cần Thơ 94106, Việt Nam","An Cư, Ninh Kiều",132/42/125 Hùng Vương,Cần Thơ,94106.0,"Ninh Kiều, Cần Thơ",VN
968,ChIJ8c7luR6IoDER0gqSJKghuEY,SaigonHKphone,Cửa hàng điện thoại di động,+84 292 6282 882,"SaigonHKphone, 130 Đ. Lý Tự Trọng, An Cư, Ninh Kiều, Cần Thơ, Việt Nam","An Cư, Ninh Kiều",130 Đ. Lý Tự Trọng,Cần Thơ,,"Ninh Kiều, Cần Thơ",VN
969,ChIJP4o4LgOIoDERASU393tIef0,Cửa Hàng Đtdđ Akah,Cửa hàng điện thoại di động,,"Cửa Hàng Đtdđ Akah, 54 Hùng Vương, An Hội, Ninh Kiều, Cần Thơ, Việt Nam","An Hội, Ninh Kiều",54 Hùng Vương,Cần Thơ,,"Ninh Kiều, Cần Thơ",VN
970,ChIJMSArDKhioDERjCD-8utzVuE,Cửa Hàng Sim Số Simsomayman.Com,Cửa hàng điện thoại di động,+84 939 339 339,"Cửa Hàng Sim Số Simsomayman.Com, 47 Trần Văn Khéo, An Hội, Ninh Kiều, Cần Thơ, Việt Nam","An Hội, Ninh Kiều",47 Trần Văn Khéo,Cần Thơ,,"Ninh Kiều, Cần Thơ",VN
971,ChIJaUy27oCJoDERhMll16wo-eY,ĐIỆN THOẠI THÁI ANH,Cửa hàng điện thoại di động,+84 939 959 545,"ĐIỆN THOẠI THÁI ANH, Hùng Vương, An Cư, Ninh Kiều, Cần Thơ 123456, Việt Nam","An Cư, Ninh Kiều",Hùng Vương,Cần Thơ,123456.0,"Ninh Kiều, Cần Thơ",VN
972,ChIJdbM7WcqLoDERKy5lQ47uL9I,Nguyen Trang Siêu Thị Điện Thoại Di Động,Cửa hàng điện thoại di động,,"Nguyen Trang Siêu Thị Điện Thoại Di Động, Tân Phú Thạnh, Châu Thành A, Hậu Giang, Việt Nam","Tân Phú Thạnh, Châu Thành A",,Hậu Giang,,Hậu Giang,VN
990,ChIJZ1jxMR-IoDER3tEQ_UzR3ls,Cửa Hàng ĐTDĐ THT,Cửa hàng điện thoại di động,+84 384 613 289,"Cửa Hàng ĐTDĐ THT, 227/29, Trần Bình Trọng, Phường An Phú, Quận Ninh Kiều, TP Cần Thơ, An Phú, Ninh Kiều, Cần Thơ, Việt Nam","An Phú, Ninh Kiều","227/29, Trần Bình Trọng, Phường An Phú, Quận Ninh Kiều, TP Cần Thơ",Cần Thơ,,"Ninh Kiều, Cần Thơ",VN
997,ChIJRzTd-7BjoDERZF1E6PK-Hs0,Sim số đẹp Sửa chữa điện thoại Tài Nam Tài Phát,Cửa hàng điện thoại di động,,"Sim số đẹp Sửa chữa điện thoại Tài Nam Tài Phát, 1A Nguyễn Trãi, Tân An, Ninh Kiều, Cần Thơ 900000, Việt Nam","Tân An, Ninh Kiều",1A Nguyễn Trãi,Cần Thơ,900000.0,"Ninh Kiều, Cần Thơ",VN
998,ChIJs1_4daBioDERmNehoPvWr7s,Cửa Hàng Điện Thoại Huê Viên,Cửa hàng điện thoại di động,+84 932 999 656,"Cửa Hàng Điện Thoại Huê Viên, 100A, Đề Thám, Phường An Cư, Quận Ninh Kiều, Thành Phố Cần Thơ, Tân An, Ninh Kiều, Cần Thơ, Việt Nam","Tân An, Ninh Kiều","100A, Đề Thám, Phường An Cư, Quận Ninh Kiều, Thành Phố Cần Thơ",Cần Thơ,,"Ninh Kiều, Cần Thơ",VN
1000,ChIJF_kpTbKJoDERqiVlRmFumAM,Điện Thoại Di Động VI Phúc,Cửa hàng điện thoại di động,,"2P5X+HVQ Điện Thoại Di Động VI Phúc, ĐT923, An Bình, Ninh Kiều, Cần Thơ, Việt Nam","An Bình, Ninh Kiều","2P5X+HVQ, ĐT923",Cần Thơ,,"Ninh Kiều, Cần Thơ",VN
1008,ChIJ-UbDX6BioDERrmjC3A-kVPs,Cửa Hàng Khánh Iphone,Cửa hàng điện thoại di động,+84 974 024 024,"Cửa Hàng Khánh Iphone, 9 Đ. Nguyễn Khuyến, Tân An, Ninh Kiều, Cần Thơ, Việt Nam","Tân An, Ninh Kiều",9 Đ. Nguyễn Khuyến,Cần Thơ,,"Ninh Kiều, Cần Thơ",VN
1011,ChIJ--qsZqBioDERnPpiwNzhg9w,Mai Phat Mobile Store,Cửa hàng điện thoại di động,+84 292 3813 839,"Mai Phat Mobile Store, 16/47, Nguyen Khuyen Street, Ninh Kieu District, Can Tho City, Tân An, Ninh Kiều, Cần Thơ, Việt Nam","Tân An, Ninh Kiều","16/47, Nguyen Khuyen Street, Ninh Kieu District, Can Tho City",Cần Thơ,,"Ninh Kiều, Cần Thơ",VN
1018,ChIJbVIWoZ5ioDERjyo7er8nOZ8,Cửa Hàng Điện Thoại Nguyễn Thu Sương,Cửa hàng điện thoại di động,+84 854 721 120,"Cửa Hàng Điện Thoại Nguyễn Thu Sương, Đường Đường Hai Bà Trưng, Tân An, Ninh Kiều, Cần Thơ, Việt Nam","Tân An, Ninh Kiều",Đường Đường Hai Bà Trưng,Cần Thơ,,"Ninh Kiều, Cần Thơ",VN
1021,ChIJvaqkrKJjoDERE7TY7Q2RzIQ,Nguyễn Sơn - Điện Thoại Di Động,Cửa hàng bán đồ điện tử,+84 919 423 113,"2Q4J+7RW Nguyễn Sơn - Điện Thoại Di Động, Hưng Phú, Cái Răng, Cần Thơ, Việt Nam","Hưng Phú, Cái Răng",2Q4J+7RW,Cần Thơ,,"Cái Răng, Cần Thơ",VN
1072,ChIJb6wxgxuIoDERcSRrJWqHI58,SamMobile,Cửa hàng điện thoại di động,+84 782 904 686,"SamMobile, 56 Đ. Lê Anh Xuân, An Cư, Ninh Kiều, Cần Thơ, Việt Nam","An Cư, Ninh Kiều",56 Đ. Lê Anh Xuân,Cần Thơ,,"Ninh Kiều, Cần Thơ",VN
1073,ChIJJ73hHfSJoDEROlffAYNui_Q,Đức Huy 365 store,Cửa hàng điện thoại di động,+84 886 333 365,"Đức Huy 365 store, 121 Đ. Lý Tự Trọng, P, Ninh Kiều, Cần Thơ 94000, Việt Nam","P, Ninh Kiều",121 Đ. Lý Tự Trọng,Cần Thơ,94000.0,"Ninh Kiều, Cần Thơ",VN
1195,ChIJ5xfuoXKIoDERq9AAFbhAgEQ,Cửa Hàng Điện Thoại Thế Lực,Cửa hàng điện thoại di động,+84 939 884 188,"Cửa Hàng Điện Thoại Thế Lực, 32, Vành Đai Phi Trường, Quận Bình Thủy, Thành Phố Cần Thơ, Phường An Khánh, Ninh Kiều, Cần Thơ, Việt Nam","Phường An Khánh, Ninh Kiều","32, Vành Đai Phi Trường, Quận Bình Thủy, Thành Phố Cần Thơ",Cần Thơ,,"Ninh Kiều, Cần Thơ",VN
1224,ChIJGQgePwqJoDERwO_cSOhOJ1U,[30k/c] Ốp Lưng Điện Thoại Xinh - Có tất cả các hãng,Cửa hàng điện thoại di động,+84 789 667 678,"[30k/c] Ốp Lưng Điện Thoại Xinh - Có tất cả các hãng, 60 Đường số 6, Phường An Khánh, Ninh Kiều, Cần Thơ, Việt Nam","Phường An Khánh, Ninh Kiều",60 Đường số 6,Cần Thơ,,"Ninh Kiều, Cần Thơ",VN
1227,ChIJA4zJKMyJoDERAMyBCtHZ-_4,Phuc Tuong,Cửa hàng điện thoại di động,,"Phuc Tuong, 139d Đ. Nguyễn Đệ, An Hoà, Ninh Kiều, Cần Thơ, Việt Nam","An Hoà, Ninh Kiều",139d Đ. Nguyễn Đệ,Cần Thơ,,"Ninh Kiều, Cần Thơ",VN
1238,ChIJ9TUpXUGIoDERuRdosweUp6Q,Cửa Hàng Điện Thoại Di Dộng V&D,Cửa hàng điện thoại di động,+84 988 721 464,"Cửa Hàng Điện Thoại Di Dộng V&D, 337A, Quốc Lộ 91B, Quận Ninh Kiều, Thành Phố Cần Thơ, Phường An Khánh, Ninh Kiều, Cần Thơ, Việt Nam","Phường An Khánh, Ninh Kiều","337A, Quốc Lộ 91B, Quận Ninh Kiều, Thành Phố Cần Thơ",Cần Thơ,,"Ninh Kiều, Cần Thơ",VN
1272,ChIJG2N8CGqJoDERlSjXwByTuqg,PhongNT36,Cửa hàng điện thoại di động,,"PhongNT36, KV Bình An, Tân An, Ninh Kiều, Cần Thơ 900000, Việt Nam","Tân An, Ninh Kiều",KV Bình An,Cần Thơ,900000.0,"Ninh Kiều, Cần Thơ",VN
1275,ChIJmwJguRKIoDERfDgO8pUslxY,Công Ty TNHH Một Thành Viên TM DV Võ Tấn Đức,Cửa hàng điện thoại di động,+84 939 910 745,"2QV5+8RJ Công Ty TNHH Một Thành Viên TM DV Võ Tấn Đức, 1 Hẻm liên tổ 12-13-14-15-16-17-18-19-20, KV1, Ninh Kiều, Cần Thơ, Việt Nam","KV1, Ninh Kiều","2QV5+8RJ, 1 Hẻm liên tổ 12-13-14-15-16-17-18-19-20",Cần Thơ,,"Ninh Kiều, Cần Thơ",VN
1277,ChIJPSFmWhWIoDERjgdZ33PYOjc,Cửa Hàng Sim Đẹp Tự Chọn,Cửa hàng điện thoại di động,+84 939 987 688,"Cửa Hàng Sim Đẹp Tự Chọn, 9 Đ. Nguyễn Văn Cừ, Phường An Khánh, Ninh Kiều, Cần Thơ, Việt Nam","Phường An Khánh, Ninh Kiều",9 Đ. Nguyễn Văn Cừ,Cần Thơ,,"Ninh Kiều, Cần Thơ",VN
1278,ChIJBck31j6IoDER3VcZPRdqboE,Trường Mobile,Cửa hàng điện thoại di động,+84 947 274 333,"Trường Mobile, 20T6 Đ. Số 7, KDC Thới Nhật, Ninh Kiều, Cần Thơ, Việt Nam","KDC Thới Nhật, Ninh Kiều",20T6 Đ. Số 7,Cần Thơ,,"Ninh Kiều, Cần Thơ",VN
1298,ChIJeTtZnEqIoDERlpesIuf0E9I,Cửa Hàng Đtdđ Pq,Cửa hàng điện thoại di động,+84 292 3839 164,"Cửa Hàng Đtdđ Pq, 59 Đ. 3 Tháng 2, Hưng Lợi, Ninh Kiều, Cần Thơ, Việt Nam","Hưng Lợi, Ninh Kiều",59 Đ. 3 Tháng 2,Cần Thơ,,"Ninh Kiều, Cần Thơ",VN
1303,ChIJW5E9hEqIoDERPfy7Erm9SCs,Cửa Hàng Vi Phúc,Cửa hàng điện thoại di động,+84 939 688 826,"Cửa Hàng Vi Phúc, 112/3, Đường Ba Tháng Hai Nối Dài, Phường An Bình, Quận Ninh Kiều, Thành Phố Cần Thơ, Việt Nam","Hưng Lợi, Ninh Kiều","112/3, Đường Ba Tháng Hai Nối Dài, Phường An Bình, Quận Ninh Kiều, Thành Phố Cần Thơ",Cần Thơ,,"Ninh Kiều, Cần Thơ",VN
1308,ChIJpdUUiKKJoDERW6tKkVmyO18,Điện máy Nguyễn - Cần Thơ (phụ kiện DT),Cửa hàng điện thoại di động,,"Điện máy Nguyễn - Cần Thơ (phụ kiện DT), đối diện bệnh viện Nhi, Đường Số 3, An Bình, Ninh Kiều, Cần Thơ, Việt Nam","An Bình, Ninh Kiều","đối diện bệnh viện Nhi, Đường Số 3",Cần Thơ,,"Ninh Kiều, Cần Thơ",VN
1310,ChIJ7ZAVnzaIoDERKvuE2gVHGqM,Cửa Hàng ĐTDĐ Sang Iphone,Cửa hàng điện thoại di động,+84 708 547 777,"Cửa Hàng ĐTDĐ Sang Iphone, 26 Hẻm 132 Đ. 3 Tháng 2, Hưng Lợi, Ninh Kiều, Cần Thơ, Việt Nam","Hưng Lợi, Ninh Kiều",26 Hẻm 132 Đ. 3 Tháng 2,Cần Thơ,,"Ninh Kiều, Cần Thơ",VN
1313,ChIJ9QRlEtqJoDERkaN_K2ZvbgM,Kenro Store,Cửa hàng điện thoại di động,+84 942 282 379,"Kenro Store, 70 Đường số 3, Khu Đô Thị Đại Ngân, Ninh Kiều, Cần Thơ 900003, Việt Nam","Khu Đô Thị Đại Ngân, Ninh Kiều",70 Đường số 3,Cần Thơ,900003.0,"Ninh Kiều, Cần Thơ",VN
1314,ChIJuzWiAjWIoDERhcElrScstFI,Cửa Hàng ĐTDĐ Hoàng Tài Mobile,Cửa hàng điện thoại di động,+84 7106281336,"Cửa Hàng ĐTDĐ Hoàng Tài Mobile, 91/19 Hẻm 553, Hưng Lợi, Ninh Kiều, Cần Thơ, Việt Nam","Hưng Lợi, Ninh Kiều",91/19 Hẻm 553,Cần Thơ,,"Ninh Kiều, Cần Thơ",VN
1315,ChIJdQclcEeIoDERTtZo-ht0EIQ,Cửa Hàng ĐTDĐ Phong Phát,Cửa hàng điện thoại di động,+84 916 467 764,"Cửa Hàng ĐTDĐ Phong Phát, 303A Đ. Nguyễn Văn Linh, Phường An Khánh, Ninh Kiều, Cần Thơ, Việt Nam","Phường An Khánh, Ninh Kiều",303A Đ. Nguyễn Văn Linh,Cần Thơ,,"Ninh Kiều, Cần Thơ",VN
1320,ChIJ2a3LbrKJoDERQXv8tjUtHww,Cửa Hàng Điện Thoại Quang Thái,Cửa hàng điện thoại di động,+84 939 154 968,"Cửa Hàng Điện Thoại Quang Thái, 221F Đ. Hoàng Quốc Việt, An Bình, Ninh Kiều, Cần Thơ, Việt Nam","An Bình, Ninh Kiều",221F Đ. Hoàng Quốc Việt,Cần Thơ,,"Ninh Kiều, Cần Thơ",VN
1322,ChIJ5UeKYa2JoDERJ2C9rWVFsuo,Cửa Hàng ĐTDĐ Quang Thái,Cửa hàng điện thoại di động,+84 987 808 628,"Cửa Hàng ĐTDĐ Quang Thái, 221, Đường Cái Sơn Hàng Bàng, Quận Cái Răng, An Bình, Ninh Kiều, Cần Thơ, Việt Nam","An Bình, Ninh Kiều","221, Đường Cái Sơn Hàng Bàng, Quận Cái Răng",Cần Thơ,,"Ninh Kiều, Cần Thơ",VN
1325,ChIJr8lBtcaJoDERfmX6xwWBIGs,Tín Phát Mobile,Cửa hàng điện thoại di động,+84 939 955 656,"Tín Phát Mobile, 100/3 Khu Vực 3, An Bình, Ninh Kiều, Cần Thơ 900000, Việt Nam","An Bình, Ninh Kiều",100/3 Khu Vực 3,Cần Thơ,900000.0,"Ninh Kiều, Cần Thơ",VN
1327,ChIJpWqm2kSIoDEReUt86WGCy5M,Cửa Hàng Thanh Mobile,Cửa hàng điện thoại di động,+84 939 382 638,"2PGX+P3C Cửa Hàng Thanh Mobile, Nguyễn Văn Cừ Nối Dài, Phường An Khánh, Quận Ninh Kiều, Thành Phố Cần Thơ, An Bình, Ninh Kiều, Cần Thơ, Việt Nam","An Bình, Ninh Kiều","2PGX+P3C, Nguyễn Văn Cừ Nối Dài, Phường An Khánh, Quận Ninh Kiều, Thành Phố Cần Thơ",Cần Thơ,,"Ninh Kiều, Cần Thơ",VN
1330,ChIJhzLSabKJoDERp71y-ZvugcY,Cửa Hàng ĐTDĐ Nhật Anh,Cửa hàng điện thoại di động,+84 292 6254 897,"Cửa Hàng ĐTDĐ Nhật Anh, 201, Đường Cái Sơn Hàng Bàng, Quận Cái Răng, An Bình, Ninh Kiều, Cần Thơ, Việt Nam","An Bình, Ninh Kiều","201, Đường Cái Sơn Hàng Bàng, Quận Cái Răng",Cần Thơ,,"Ninh Kiều, Cần Thơ",VN
1331,ChIJ2_lt6kyIoDERPZzMBgn-yp8,Hp Mobile Store,Cửa hàng điện thoại di động,+84 907 346 765,"Hp Mobile Store, 72A Đ. Trần Vĩnh Kiết, An Bình, Ninh Kiều, Cần Thơ, Việt Nam","An Bình, Ninh Kiều",72A Đ. Trần Vĩnh Kiết,Cần Thơ,,"Ninh Kiều, Cần Thơ",VN
1332,ChIJI2yoAbeJoDERhg63rh5vMdc,Ngoc Bich Mobile Shop,Cửa hàng điện thoại di động,+84 909 363 650,"Ngoc Bich Mobile Shop, 80, Hau Thanh My Street, Cai Rang District, Can Tho City, Lê Bình, Cái Răng, Cần Thơ, Việt Nam","Lê Bình, Cái Răng","80, Hau Thanh My Street, Cai Rang District, Can Tho City",Cần Thơ,,"Cái Răng, Cần Thơ",VN
1333,ChIJGcIMdU2JoDERbuxei4_vVWE,Cửa Hàng Điện Thoại Di Động Tâm Như,Cửa hàng điện thoại di động,+84 292 3850 559,"Cửa Hàng Điện Thoại Di Động Tâm Như, 15 Ấp Thị Tứ, Đường Tỉnh Lộ 923, Thị Trấn Phong Điền, Huyện Phong Điền, Nhơn Nghĩa, Phong Điền, Cần Thơ, Việt Nam","Nhơn Nghĩa, Phong Điền","15 Ấp Thị Tứ, Đường Tỉnh Lộ 923, Thị Trấn Phong Điền, Huyện Phong Điền",Cần Thơ,,"Phong Điền, Cần Thơ",VN
1334,ChIJM__HSaKJoDERNZBzbQnlxu4,DUY KHANG MOBILE,Cửa hàng điện thoại di động,+84 339 750 636,"DUY KHANG MOBILE, 190/13 Hẻm 534 Hẻm 553, Hưng Lợi, Ninh Kiều, Cần Thơ 90000, Việt Nam","Hưng Lợi, Ninh Kiều",190/13 Hẻm 534 Hẻm 553,Cần Thơ,90000.0,"Ninh Kiều, Cần Thơ",VN
1335,ChIJR9d2r-WJoDERJnGmc_hKJB0,CỬA HÀNG ĐIỆN THOẠI DI ĐỘNG THIÊN VŨ MOBILE,Cửa hàng bán đồ điện tử,+84 914 415 795,"CỬA HÀNG ĐIỆN THOẠI DI ĐỘNG THIÊN VŨ MOBILE, 86 Ngô Sĩ Liên, kdc metro, Ninh Kiều, Cần Thơ, Việt Nam","kdc metro, Ninh Kiều",86 Ngô Sĩ Liên,Cần Thơ,,"Ninh Kiều, Cần Thơ",VN
1339,ChIJSaFodPSJoDERb8aF9jvAnRo,Phụ Kiện Sinh Viên,Cửa hàng điện thoại di động,+84 939 939 259,"Phụ Kiện Sinh Viên, 78 Nguyễn Văn Cừ Nối Dài, KV4, Ninh Kiều, Cần Thơ, Việt Nam","KV4, Ninh Kiều",78 Nguyễn Văn Cừ Nối Dài,Cần Thơ,,"Ninh Kiều, Cần Thơ",VN
1341,ChIJETyriLSOoDERIwRkgtfUvL4,Cửa Hàng Điện Thoại Di Động Phúc Thịnh,Cửa hàng điện thoại di động,+84 939 386 677,"Cửa Hàng Điện Thoại Di Động Phúc Thịnh, 30 Ấp Thị Tứ, Đường Tỉnh Lộ 923, Thị Trấn Phong Điền, Huyện Phong Điền, Thị trấn Phong Điền, Phong Điền, Cần Thơ, Việt Nam","Thị trấn Phong Điền, Phong Điền","30 Ấp Thị Tứ, Đường Tỉnh Lộ 923, Thị Trấn Phong Điền, Huyện Phong Điền",Cần Thơ,,"Phong Điền, Cần Thơ",VN
1342,ChIJGUSym0qIoDERU585Gy3MNOI,Dung Nga Mobile Store,Cửa hàng,+84 292 3739 197,"Dung Nga Mobile Store, 56A, Street 3/2, Hung Loi Ward, Ninh Kieu District, Can Tho City, Hưng Lợi, Ninh Kiều, Cần Thơ, Việt Nam","Hưng Lợi, Ninh Kiều","56A, Street 3/2, Hung Loi Ward, Ninh Kieu District, Can Tho City",Cần Thơ,,"Ninh Kiều, Cần Thơ",VN
1344,ChIJdVVdy8eJoDERH_50LQNEt94,Phụ Kiện 102,Cửa hàng điện thoại di động,+84 939 977 285,"Phụ Kiện 102, 102 Đ. Trần Hoàng Na, Khu dân cư 91B, Ninh Kiều, Cần Thơ, Việt Nam","Khu dân cư 91B, Ninh Kiều",102 Đ. Trần Hoàng Na,Cần Thơ,,"Ninh Kiều, Cần Thơ",VN
1348,ChIJrfvKhxGJoDERCzrtx9S2EkY,Cửa Hàng ĐTDĐ Hoàng Sang,Cửa hàng điện thoại di động,+84 292 3944 702,"Cửa Hàng ĐTDĐ Hoàng Sang, 237 Ấp Mỹ Phước, Huyện Phong Điền, Mỹ Khánh, Phong Điền, Cần Thơ, Việt Nam","Mỹ Khánh, Phong Điền","237 Ấp Mỹ Phước, Huyện Phong Điền",Cần Thơ,,"Phong Điền, Cần Thơ",VN
1351,ChIJxwlliBOJoDERTyduNQplL8w,Cửa Hàng ĐTDĐ Minh Thiện,Cửa hàng điện thoại di động,+84 907 494 587,"XPW9+73W Cửa Hàng ĐTDĐ Minh Thiện, Lộ Vòng Cung, Mỹ Khánh, Phong Điền, Cần Thơ, Việt Nam","Mỹ Khánh, Phong Điền","XPW9+73W, Lộ Vòng Cung",Cần Thơ,,"Phong Điền, Cần Thơ",VN
1358,ChIJ81WMfuaIoDERh5jMSmawfJI,Cửa Hàng Đtdđ Thành Thủy,Cửa hàng điện thoại di động,,"Cửa Hàng Đtdđ Thành Thủy, Long Tuyền, Bình Thủy, Cần Thơ, Việt Nam","Long Tuyền, Bình Thủy",,Cần Thơ,,"Bình Thủy, Cần Thơ",VN
1359,ChIJL_iPiBGJoDERxdcGUp3HGJo,Cửa Hàng ĐTDĐ Quốc Thịnh,Cửa hàng điện thoại di động,+84 908 146 768,"Cửa Hàng ĐTDĐ Quốc Thịnh, 194 Ấp Mỹ Phước, Huyện Phong Điền, Mỹ Khánh, Phong Điền, Cần Thơ, Việt Nam","Mỹ Khánh, Phong Điền","194 Ấp Mỹ Phước, Huyện Phong Điền",Cần Thơ,,"Phong Điền, Cần Thơ",VN
1365,ChIJcerYM8eOoDERhl7JBjPXRkQ,Cửa Hàng Điện Thoại Di Động Trần Quốc Dũng,Cửa hàng điện thoại di động,+84 917 133 339,"Cửa Hàng Điện Thoại Di Động Trần Quốc Dũng, 112, Ấp Thị Tứ, Thị Trấn Phong Điền, Huyện Phong Điền, Nhơn ái, Phong Điền, Cần Thơ, Việt Nam","Nhơn ái, Phong Điền","112, Ấp Thị Tứ, Thị Trấn Phong Điền, Huyện Phong Điền",Cần Thơ,,"Phong Điền, Cần Thơ",VN
1375,ChIJv7N5OBSJoDERKgXc0t9o4Zw,Cửa Hàng Điện Thoại Tuấn Vũ 2,Cửa hàng điện thoại di động,+84 949 515 115,"XPW8+J5G Cửa Hàng Điện Thoại Tuấn Vũ 2, Chợ Mỹ Khánh, Phong Điền, Cần Thơ, Việt Nam","Chợ Mỹ Khánh, Phong Điền",XPW8+J5G,Cần Thơ,,"Phong Điền, Cần Thơ",VN
1376,ChIJOeTbH3aJoDERCy1GyZqoGKE,BN Phone,Cửa hàng điện thoại di động,+84 397 955 553,"BN Phone, 213 6, Kv8, Ninh Kiều, Cần Thơ, Việt Nam","Kv8, Ninh Kiều",213 6,Cần Thơ,,"Ninh Kiều, Cần Thơ",VN
1381,ChIJsdBg5MOOoDERACjGhYlhy-o,Cửa Hàng Điện Thọai Di Động Hoàng Thọ,Cửa hàng điện thoại di động,+84 292 3850 627,"Cửa Hàng Điện Thọai Di Động Hoàng Thọ, 247 Ấp Thị Tứ, Đường Tỉnh Lộ 923, Thị Trấn Phong Điền, Huyện Phong Điền, Thị trấn Phong Điền, Phong Điền, Cần Thơ, Việt Nam","Thị trấn Phong Điền, Phong Điền","247 Ấp Thị Tứ, Đường Tỉnh Lộ 923, Thị Trấn Phong Điền, Huyện Phong Điền",Cần Thơ,,"Phong Điền, Cần Thơ",VN
1387,ChIJVWRDd7qJoDERVGeN9XdmHs0,Cửa Hàng Đtdđ Hoàng Khanh,Cửa hàng điện thoại di động,+84 292 3911 244,"Cửa Hàng Đtdđ Hoàng Khanh, 423 QL1A, Lê Bình, Cái Răng, Cần Thơ, Việt Nam","Lê Bình, Cái Răng",423 QL1A,Cần Thơ,,"Cái Răng, Cần Thơ",VN
1395,ChIJwU9wjK6JoDERejb6JHyHYrg,Nam Cường Mobile,Cửa hàng điện thoại di động,+84 981 864 864,"Nam Cường Mobile, 5 Lộ Vòng Cung, An Bình, Ninh Kiều, Cần Thơ, Việt Nam","An Bình, Ninh Kiều",5 Lộ Vòng Cung,Cần Thơ,,"Ninh Kiều, Cần Thơ",VN
1397,ChIJG_Sgr4aFoDERr_XN9POYhqk,Điện Thoại Di Động Ý Phương,Cửa hàng điện thoại di động,,"Điện Thoại Di Động Ý Phương, Trường Lạc, Ô Môn, Cần Thơ, Việt Nam","Trường Lạc, Ô Môn",,Cần Thơ,,"Ô Môn, Cần Thơ",VN
1405,ChIJnXTsODmJoDERRTFfFvT6Ku0,Cửa Hàng Điện Thoại Phong Vũ,Cửa hàng điện thoại di động,+84 939 309 709,"Cửa Hàng Điện Thoại Phong Vũ, 231 Lộ Vòng Cung, Ấp Mỹ Phước, Phong Điền, Cần Thơ, Việt Nam","Ấp Mỹ Phước, Phong Điền",231 Lộ Vòng Cung,Cần Thơ,,"Phong Điền, Cần Thơ",VN
1406,ChIJ5cr_VumKoDERGTHJCoPlfzs,Cửa Hàng Điện Thoại Di Động Kim Tỷ,Cửa hàng điện thoại di động,+84 293 3869 061,"Cửa Hàng Điện Thoại Di Động Kim Tỷ, 238, Quốc Lộ 1A, Xã Long Thạnh, Huyện Phụng Hiệp, Thị trấn Cái Tắc, Châu Thành A, Hậu Giang, Việt Nam","Thị trấn Cái Tắc, Châu Thành A","238, Quốc Lộ 1A, Xã Long Thạnh, Huyện Phụng Hiệp",Hậu Giang,,"Châu Thành A, Hậu Giang",VN
1407,ChIJ0f6PjMCJoDERvxskMjBu5wQ,Cửa Hàng Điện Thoại Duy Linh,Cửa hàng điện thoại di động,+84 939 767 995,"XMMQ+QV8 Cửa Hàng Điện Thoại Duy Linh, Chợ Vàm Xáng, ĐT932, Nhơn Nghĩa, Phong Điền, Cần Thơ, Việt Nam","Nhơn Nghĩa, Phong Điền","XMMQ+QV8, Chợ Vàm Xáng, ĐT932",Cần Thơ,,"Phong Điền, Cần Thơ",VN
1422,ChIJsfCBZbqJoDERxP29vX6adns,Cửa Hàng ĐTDĐ Hồng Kỳ,Cửa hàng điện thoại di động,+84 939 790 800,"Cửa Hàng ĐTDĐ Hồng Kỳ, 165/5A QL1A, Tân Phú Thạnh, Cái Răng, Cần Thơ, Việt Nam","Tân Phú Thạnh, Cái Răng",165/5A QL1A,Cần Thơ,,"Cái Răng, Cần Thơ",VN
1434,ChIJrwoFFbGJoDEREBjTZGWE584,Cửa Hàng Đtdđ Hoàng Oanh,Cửa hàng điện thoại di động,+84 292 3910 661,"Cửa Hàng Đtdđ Hoàng Oanh, 2 Lê Thái Tổ, Lê Bình, Cái Răng, Cần Thơ, Việt Nam","Lê Bình, Cái Răng",2 Lê Thái Tổ,Cần Thơ,,"Cái Răng, Cần Thơ",VN
1467,ChIJiRvms7aJoDERltTvZeYOJhs,Điểm Bán Sim Số - Thẻ Cào Nhật Anh,Cửa hàng điện thoại di động,,"Điểm Bán Sim Số - Thẻ Cào Nhật Anh, 18 Ngô Quyền, Lê Bình, Cái Răng, Cần Thơ, Việt Nam","Lê Bình, Cái Răng",18 Ngô Quyền,Cần Thơ,,"Cái Răng, Cần Thơ",VN
1470,ChIJWSbPYrCJoDERWePq3ZJ9ilk,Đại Lý Mobifone Quốc Tuấn,Cửa hàng điện thoại di động,+84 292 3844 554,"Đại Lý Mobifone Quốc Tuấn, 75/12, Nguyễn Trãi, Quận Cái Răng, Thành Phố Cần Thơ, Lê Bình, Cái Răng, Cần Thơ, Việt Nam","Lê Bình, Cái Răng","75/12, Nguyễn Trãi, Quận Cái Răng, Thành Phố Cần Thơ",Cần Thơ,,"Cái Răng, Cần Thơ",VN
1472,ChIJ70rRxpuJoDER0qS_c8ZvpSg,Điểm Bán Thẻ Cào Chín Truyến,Cửa hàng điện thoại di động,,"XPMR+MVF Điểm Bán Thẻ Cào Chín Truyến, Nguyên Hồng, Cái Răng, Cần Thơ, Việt Nam","Nguyên Hồng, Cái Răng",XPMR+MVF,Cần Thơ,,"Cái Răng, Cần Thơ",VN
1488,ChIJFeNYSzeIoDERaEHlvFiWpSA,Cửa Hàng Đtdđ Q - D,Cửa hàng điện thoại di động,+84 919 149 149,"Cửa Hàng Đtdđ Q - D, 1 Đ. Nguyễn Văn Linh, Hưng Lợi, Ninh Kiều, Cần Thơ, Việt Nam","Hưng Lợi, Ninh Kiều",1 Đ. Nguyễn Văn Linh,Cần Thơ,,"Ninh Kiều, Cần Thơ",VN
1521,ChIJqxM_Q7OJoDER8zu-4-O77xk,Công Ty TNHN Nhật Anh,Cửa hàng điện thoại di động,+84 292 3913 709,"Công Ty TNHN Nhật Anh, 90A/3, Quốc Lộ 1A, P. An Bình, Quận Ninh Kiều, An Bình, Ninh Kiều, Cần Thơ, Việt Nam","An Bình, Ninh Kiều","90A/3, Quốc Lộ 1A, P. An Bình, Quận Ninh Kiều",Cần Thơ,,"Ninh Kiều, Cần Thơ",VN
1530,ChIJUVPLa2qJoDERXylq94nBkx4,Huyện Mobile,Cửa hàng điện thoại di động,+84 795 436 878,"Huyện Mobile, 50/50/37E Đ. Trần Hoàng Na, Hưng Lợi, Ninh Kiều, Cần Thơ, Việt Nam","Hưng Lợi, Ninh Kiều",50/50/37E Đ. Trần Hoàng Na,Cần Thơ,,"Ninh Kiều, Cần Thơ",VN
1539,ChIJKftZFEeIoDERqH6voLOdLjY,Trung Tâm ĐTDĐ Didonggiare,Cửa hàng điện thoại di động,+84 763 808 288,"Trung Tâm ĐTDĐ Didonggiare, 1 Đ. Nguyễn Văn Linh, Phường An Khánh, Ninh Kiều, Cần Thơ, Việt Nam","Phường An Khánh, Ninh Kiều",1 Đ. Nguyễn Văn Linh,Cần Thơ,,"Ninh Kiều, Cần Thơ",VN
1545,ChIJ3Q1NWjeIoDERPUGtR20TbCg,Cửa Hàng Đtdđ Hiện Đại 2,Cửa hàng điện thoại di động,+84 292 6744 474,"Cửa Hàng Đtdđ Hiện Đại 2, 9c QL91B, Hưng Lợi, Ninh Kiều, Cần Thơ, Việt Nam","Hưng Lợi, Ninh Kiều",9c QL91B,Cần Thơ,,"Ninh Kiều, Cần Thơ",VN
1563,ChIJ_-M4QTaIoDER2DbWvBcBSJY,Cửa Hàng Ốp Lưng Bé Cà Chua,Cửa hàng điện thoại di động,+84 899 500 750,"Cửa Hàng Ốp Lưng Bé Cà Chua, 132/15 Đ. 3 Tháng 2, Hưng Lợi, Ninh Kiều, Cần Thơ, Việt Nam","Hưng Lợi, Ninh Kiều",132/15 Đ. 3 Tháng 2,Cần Thơ,,"Ninh Kiều, Cần Thơ",VN
1570,ChIJu1hbhziIoDER6MSgzZcS7uU,Điểm Bán Thẻ Cào 404,Cửa hàng điện thoại di động,,"Điểm Bán Thẻ Cào 404, An Khánh, Ninh Kiều, Cần Thơ, Việt Nam","An Khánh, Ninh Kiều",,Cần Thơ,,"Ninh Kiều, Cần Thơ",VN
1576,ChIJ_xWXQjiIoDERkMlyL8Xc4-I,Trung Tâm Sửa Chữa Nhựt Tân,Cửa hàng điện thoại di động,+84 932 822 239,"Trung Tâm Sửa Chữa Nhựt Tân, 48 Đ. Nguyễn Văn Linh, Hưng Lợi, Ninh Kiều, Cần Thơ, Việt Nam","Hưng Lợi, Ninh Kiều",48 Đ. Nguyễn Văn Linh,Cần Thơ,,"Ninh Kiều, Cần Thơ",VN
1587,ChIJZRVWjV2JoDERWjLjw9pJ5B0,Phụ kiện Út Sữa,Cửa hàng điện thoại di động,+84 909 983 565,"Phụ kiện Út Sữa, 58 Hẻm 112 Đ. 3 Tháng 2, Hưng Lợi, Ninh Kiều, Cần Thơ, Việt Nam","Hưng Lợi, Ninh Kiều",58 Hẻm 112 Đ. 3 Tháng 2,Cần Thơ,,"Ninh Kiều, Cần Thơ",VN
1589,ChIJTUD4ZzqIoDERhmO3oo06PQ0,Điểm Cung Cấp Dịch Vụ Viễn Thông Phát Tiến 2,Cửa hàng điện thoại di động,+84 964 924 924,"Điểm Cung Cấp Dịch Vụ Viễn Thông Phát Tiến 2, 55A Đ. 3 Tháng 2, Xuân Khánh, Ninh Kiều, Cần Thơ, Việt Nam","Xuân Khánh, Ninh Kiều",55A Đ. 3 Tháng 2,Cần Thơ,,"Ninh Kiều, Cần Thơ",VN
1602,ChIJ52Cb9zOIoDERyuzlhcqsrEU,Cửa Hàng Đtdđ - Cầm Đồ Hoàng Châu,Cửa hàng điện thoại di động,+84 292 6290 186,"Cửa Hàng Đtdđ - Cầm Đồ Hoàng Châu, 566 Đ. 30 Tháng 4, Hưng Lợi, Ninh Kiều, Cần Thơ, Việt Nam","Hưng Lợi, Ninh Kiều",566 Đ. 30 Tháng 4,Cần Thơ,,"Ninh Kiều, Cần Thơ",VN
1609,ChIJRS09NJhjoDERiLITpoPvD8E,Hào Mobile,Cửa hàng điện thoại di động,+84 943 225 499,"Hào Mobile, 22/1 Đ. Trần Hoàng Na, Hưng Lợi, Ninh Kiều, Cần Thơ 900000, Việt Nam","Hưng Lợi, Ninh Kiều",22/1 Đ. Trần Hoàng Na,Cần Thơ,900000.0,"Ninh Kiều, Cần Thơ",VN
1614,ChIJ3y0WaDGIoDERrTxgO9P1EcE,Cửa Hàng Điện Thoại Nguyễn Minh Tâm,Cửa hàng điện thoại di động,+84 774 395 606,"Cửa Hàng Điện Thoại Nguyễn Minh Tâm, 156, Đường 30 Tháng 4, Phường Hưng Lợi, Quận Ninh Kiều, Hưng Lợi, Ninh Kiều, Cần Thơ, Việt Nam","Hưng Lợi, Ninh Kiều","156, Đường 30 Tháng 4, Phường Hưng Lợi, Quận Ninh Kiều",Cần Thơ,,"Ninh Kiều, Cần Thơ",VN
1631,ChIJgcWY_O2JoDERf5eWnwIUvOc,Gia Bảo Mobifone,Cửa hàng điện thoại di động,,"Gia Bảo Mobifone, 191 Đ. 30 Tháng 4, Hưng Lợi, Ninh Kiều, Cần Thơ, Việt Nam","Hưng Lợi, Ninh Kiều",191 Đ. 30 Tháng 4,Cần Thơ,,"Ninh Kiều, Cần Thơ",VN
1633,ChIJc2pqGgKJoDERqN13dGm5xl0,Cửa hàng điện thoại Nguyễn Hóa,Cửa hàng điện thoại di động,+84 772 811 182,"Cửa hàng điện thoại Nguyễn Hóa, 262 Tầm Vu, Hưng Lợi, Ninh Kiều, Cần Thơ 94000, Việt Nam","Hưng Lợi, Ninh Kiều",262 Tầm Vu,Cần Thơ,94000.0,"Ninh Kiều, Cần Thơ",VN
1636,ChIJiVai_MyJoDERL4BbKhSTXFI,Anh Kieu Mobile Phone Store,Cửa hàng điện thoại di động,+84 939 089 288,"Anh Kieu Mobile Phone Store, 144B Tầm Vu, Hưng Lợi, Ninh Kiều, Cần Thơ, Việt Nam","Hưng Lợi, Ninh Kiều",144B Tầm Vu,Cần Thơ,,"Ninh Kiều, Cần Thơ",VN
1637,ChIJ1QjuCCWIoDERNe4XlJBBzec,Cửa Hàng ĐTDĐ Phương Tùng,Cửa hàng điện thoại di động,+84 7103753753,"Cửa Hàng ĐTDĐ Phương Tùng, 192 Hẻm 553, Hưng Lợi, Ninh Kiều, Cần Thơ, Việt Nam","Hưng Lợi, Ninh Kiều",192 Hẻm 553,Cần Thơ,,"Ninh Kiều, Cần Thơ",VN
1638,ChIJ8TyMh3eJoDERIjuVqUnf77Y,KHẢI MOBILE,Cửa hàng điện thoại di động,+84 948 444 442,"KHẢI MOBILE, 235 Đ. Nguyễn Văn Linh, Hưng Lợi, Ninh Kiều, Cần Thơ, Việt Nam","Hưng Lợi, Ninh Kiều",235 Đ. Nguyễn Văn Linh,Cần Thơ,,"Ninh Kiều, Cần Thơ",VN
1639,ChIJK7E8QjGIoDER2qN_UWGGHrs,Hoang Chau Mobile Store,Cửa hàng,+84 919 334 244,"Hoang Chau Mobile Store, 176, 30/4 Street, Ninh Kieu District, Can Tho City, Hưng Lợi, Ninh Kiều, Cần Thơ, Việt Nam","Hưng Lợi, Ninh Kiều","176, 30/4 Street, Ninh Kieu District, Can Tho City",Cần Thơ,,"Ninh Kiều, Cần Thơ",VN
1672,ChIJu5OwpyaIoDERu8k30m_MA1o,Cửa Hàng Đtdđ Đại Hoàng Gia 3,Cửa hàng điện thoại di động,+84 984 999 063,"Cửa Hàng Đtdđ Đại Hoàng Gia 3, 10 Đ. 30 Tháng 4, Xuân Khánh, Ninh Kiều, Cần Thơ, Việt Nam","Xuân Khánh, Ninh Kiều",10 Đ. 30 Tháng 4,Cần Thơ,,"Ninh Kiều, Cần Thơ",VN
1676,ChIJXyt7yCSJoDERa1l0tDpUdQg,Long Store Cần Thơ,Cửa hàng điện thoại di động,+84 765 844 888,"Long Store Cần Thơ, 37 Đ. Mậu Thân, An Nghiệp, Ninh Kiều, Cần Thơ 94108, Việt Nam","An Nghiệp, Ninh Kiều",37 Đ. Mậu Thân,Cần Thơ,94108.0,"Ninh Kiều, Cần Thơ",VN
1682,ChIJ6RzJpiaIoDERUmFy8D_G9MA,Cửa Hàng Đtdđ At,Cửa hàng điện thoại di động,+84 292 3753 646,"Cửa Hàng Đtdđ At, 185 Đ. 30 Tháng 4, Xuân Khánh, Ninh Kiều, Cần Thơ, Việt Nam","Xuân Khánh, Ninh Kiều",185 Đ. 30 Tháng 4,Cần Thơ,,"Ninh Kiều, Cần Thơ",VN
1685,ChIJqXxxeiGIoDERUUa_HOcWCho,Cửa Hàng Ốp Lưng Đt Zin,Cửa hàng điện thoại di động,+84 1265 286838,"Cửa Hàng Ốp Lưng Đt Zin, 108/49/92C, Bờ Kè, Đ. Mạc Thiên Tích, Xuân Khánh, Ninh Kiều, Cần Thơ, Việt Nam","Xuân Khánh, Ninh Kiều","108/49/92C, Bờ Kè, Đ. Mạc Thiên Tích",Cần Thơ,,"Ninh Kiều, Cần Thơ",VN
1688,ChIJExDLcESJoDERtfs96EK9uCg,Mobile,Cửa hàng điện thoại di động,+84 854 191 595,"Mobile, 152 Đ. Nguyễn Việt Hồng, Xuân Khánh, Ninh Kiều, Cần Thơ 90000, Việt Nam","Xuân Khánh, Ninh Kiều",152 Đ. Nguyễn Việt Hồng,Cần Thơ,90000.0,"Ninh Kiều, Cần Thơ",VN
1694,ChIJ78BeNyWIoDER04wAuZkFnc4,Công Ty Tnhh Thương Mại Dịch Vụ Hưng Phát Mobile - Trung Tâm Bảo Hành,Cửa hàng điện thoại di động,,"Công Ty Tnhh Thương Mại Dịch Vụ Hưng Phát Mobile - Trung Tâm Bảo Hành, 9 Đ. 30 Tháng 4, Xuân Khánh, Ninh Kiều, Cần Thơ, Việt Nam","Xuân Khánh, Ninh Kiều",9 Đ. 30 Tháng 4,Cần Thơ,,"Ninh Kiều, Cần Thơ",VN
1696,ChIJTzfE9n6JoDER5qAbrjGAAfY,Pull Store,Cửa hàng điện thoại di động,+84 939 565 456,"Pull Store, Hẻm 95, 29 Đ. Mậu Thân, An Phú, Ninh Kiều, Cần Thơ, Việt Nam","An Phú, Ninh Kiều","Hẻm 95, 29 Đ. Mậu Thân",Cần Thơ,,"Ninh Kiều, Cần Thơ",VN
1700,ChIJuRtjZiKIoDERxs7Jrnvhfew,Ngọc An Mobile,Cửa hàng điện thoại di động,+84 919 751 975,"Ngọc An Mobile, 21 Đ. 3 Tháng 2, Hưng Lợi, Ninh Kiều, Cần Thơ, Việt Nam","Hưng Lợi, Ninh Kiều",21 Đ. 3 Tháng 2,Cần Thơ,,"Ninh Kiều, Cần Thơ",VN
1702,ChIJB9rvoSaIoDERY_aYomgWzR4,Cửa Hàng A & T,Cửa hàng điện thoại di động,+84 917 936 847,"Cửa Hàng A & T, 185B Đ. 30 Tháng 4, Xuân Khánh, Ninh Kiều, Cần Thơ, Việt Nam","Xuân Khánh, Ninh Kiều",185B Đ. 30 Tháng 4,Cần Thơ,,"Ninh Kiều, Cần Thơ",VN
1735,ChIJPx_E7qFioDERDTzzOweSm4k,Cửa Hàng HT Mobile,Cửa hàng điện thoại di động,+84 934 157 154,"Cửa Hàng HT Mobile, 14 Phan Đình Phùng, Tân An, Ninh Kiều, Cần Thơ, Việt Nam","Tân An, Ninh Kiều",14 Phan Đình Phùng,Cần Thơ,,"Ninh Kiều, Cần Thơ",VN
1743,ChIJ-9NP9x-IoDERWzT02UivbBs,Cửa Hàng Đtdđ Trung Tín,Cửa hàng điện thoại di động,,"Cửa Hàng Đtdđ Trung Tín, 22 Đ. Lý Tự Trọng, An Lạc, Ninh Kiều, Cần Thơ, Việt Nam","An Lạc, Ninh Kiều",22 Đ. Lý Tự Trọng,Cần Thơ,,"Ninh Kiều, Cần Thơ",VN
