,place_id,name,main_category,phone,address,address_ward,address_street,address_city,address_postal_code,address_state,address_country_code,coordinates
0,ChIJGe_B4u2rNTERqTdctAXJzPo,Trạm xăng Petrolimex số 04,Trạm xăng,,"Trạm xăng Petrolimex số 04, 8 Trần Hưng Đạo, Phan Chu Trinh, Hoàn Kiếm, Hà Nội","Phan Chu Trinh, Hoàn Kiếm",8 Trần Hưng Đạo,Hà Nội,,"Hoàn Kiếm, Hà Nội",VN,"21.019094199999998,105.85823959999999"
2,ChIJ9ce6rgOIoDERheJepuOk9qU,Cửa hàng Xăng dầu Petrolimex Số 05,Trạm xăng,0292 3821 565,"Cửa hàng Xăng dầu Petrolimex Số 05, 24 Nguyễn Trãi, Thới Bình, Ninh Kiều, Cần Thơ","Thới Bình, Ninh Kiều",24 Nguyễn Trãi,Cần Thơ,,"Ninh Kiều, Cần Thơ",VN,"10.0449089,105.7806584"
10,ChIJo50hkDWIoDERVmWd4-CgASc,Cửa hàng Xăng dầu Petrolimex Số 10,Trạm xăng,0292 3838 763,"Cửa hàng Xăng dầu Petrolimex Số 10, 79 Đ. 3 Tháng 2, Hưng Lợi, Ninh Kiều, Cần Thơ","Hưng Lợi, Ninh Kiều",79 Đ. 3 Tháng 2,Cần Thơ,,"Ninh Kiều, Cần Thơ",VN,"10.0154942,105.7599283"
25,ChIJC0EGobOJoDER6lL86iojfPY,Xăng dầu Petrolimex,Trạm xăng,0292 3846 033,"2Q62+2HW Xăng dầu Petrolimex, Khu vực Lợi Nguyên, An Bình, Ninh Kiều, Cần Thơ","An Bình, Ninh Kiều","2Q62+2HW, Khu vực Lợi Nguyên",Cần Thơ,,"Ninh Kiều, Cần Thơ",VN,"10.010121999999999,105.751446"
26,ChIJXYMllOOHoDERRpNxUecPgAQ,Cửa hàng Xăng Dầu số 3 Petrolimex,Trạm xăng,0292 3820 063,"Cửa hàng Xăng Dầu số 3 Petrolimex, 248 Đ. Cách Mạng Tháng 8, Bùi Hữu Nghĩa, Bình Thủy, Cần Thơ","Bùi Hữu Nghĩa, Bình Thủy",248 Đ. Cách Mạng Tháng 8,Cần Thơ,,"Bình Thủy, Cần Thơ",VN,"10.0596213,105.7663286"
29,ChIJQyg9uxmrNTER0kKuyp_peVQ,Cửa hàng gas Petrolimex Hà Nội số 24,Công ty ga,0962 273 224,"Cửa hàng gas Petrolimex Hà Nội số 24, 488 Đ. Thụy Khuê, Bưởi, Tây Hồ, Hà Nội","Bưởi, Tây Hồ",488 Đ. Thụy Khuê,Hà Nội,,"Tây Hồ, Hà Nội",VN,"21.048233,105.80956259999999"
31,ChIJseqtn1WJoDERlIWHfWyZ0Kg,Cửa Hàng Gas & Bếp Gas K+ Cần Thơ,Công ty ga,0765 777 123,"Cửa Hàng Gas & Bếp Gas K+ Cần Thơ, 160/20 Tầm Vu, Hưng Lợi, Ninh Kiều, Cần Thơ","Hưng Lợi, Ninh Kiều",160/20 Tầm Vu,Cần Thơ,,"Ninh Kiều, Cần Thơ",VN,"10.0107506,105.7679728"
35,ChIJzZB3zamJoDERXFldLP98v5s,Cửa Hàng Xăng Dầu Nam Cần Thơ,Trạm xăng,0292 6252 566,"Cửa Hàng Xăng Dầu Nam Cần Thơ, 99 đường Nguyễn Văn Cừ Nối Dài, An Bình, Ninh Kiều, Cần Thơ","An Bình, Ninh Kiều",99 đường Nguyễn Văn Cừ Nối Dài,Cần Thơ,,"Ninh Kiều, Cần Thơ",VN,"10.004659,105.7230469"
36,ChIJAzi9TjCrNTEReiSdin-hBZU,Cửa hàng gas Petrolimex Hoàng Quốc Việt,Cửa hàng ga,024 2283 8999,"Cửa hàng gas Petrolimex Hoàng Quốc Việt, 389 Hoàng Quốc Việt, Nghĩa Tân, Cầu Giấy, Hà Nội 100000","Nghĩa Tân, Cầu Giấy",389 Hoàng Quốc Việt,Hà Nội,100000.0,"Cầu Giấy, Hà Nội",VN,"21.0458969,105.79154849999999"
42,ChIJ-dEmtQ-JoDERbxl8dQtXLak,GAS HAMACO CẦN THƠ,Cửa hàng,1800 577734,"GAS HAMACO CẦN THƠ, 55 Tầm Vu, Hưng Lợi, Ninh Kiều, Cần Thơ","Hưng Lợi, Ninh Kiều",55 Tầm Vu,Cần Thơ,,"Ninh Kiều, Cần Thơ",VN,"10.0075183,105.76310699999999"
48,ChIJHStw-bmJoDERKLaW8aKPc_Q,Cửa hàng Gas và Bếp Gas Hakia Cái Răng,Công ty ga,0292 3846 846,"Cửa hàng Gas và Bếp Gas Hakia Cái Răng, 522A Trần Hưng Đạo, Lê Bình, Cái Răng, Cần Thơ","Lê Bình, Cái Răng",522A Trần Hưng Đạo,Cần Thơ,,"Cái Răng, Cần Thơ",VN,"10.0010927,105.752674"
60,ChIJX4No-AaIoDERlZOk0XLTqeo,Cửa hàng Gas-Bếp gas Minh Châu,Cửa hàng,0983 098 197,"Cửa hàng Gas-Bếp gas Minh Châu, 233/34/11 Đ. Nguyễn Văn Cừ, An Hoà, Ninh Kiều, Cần Thơ","An Hoà, Ninh Kiều",233/34/11 Đ. Nguyễn Văn Cừ,Cần Thơ,,"Ninh Kiều, Cần Thơ",VN,"10.046636999999999,105.769312"
63,ChIJcRGwxEsvdTERFtbi-rHDxg4,Công Ty Cp Vận Tải Sản Phẩm Khí Quốc Tế - Gas Shipping,Dịch vụ vận chuyển hàng hóa,028 2220 5388,"Công Ty Cp Vận Tải Sản Phẩm Khí Quốc Tế - Gas Shipping, 10 Đ. Mai Chí Thọ, Thủ Thiêm, Quận 2, Thành phố Hồ Chí Minh","Thủ Thiêm, Quận 2",10 Đ. Mai Chí Thọ,Thành phố Hồ Chí Minh,,"Quận 2, Thành phố Hồ Chí Minh",VN,"10.772088499999999,106.72204629999999"
80,ChIJZytcj7yJoDERe47HCEgQOzo,Cửa hàng Xăng dầu Petrolimex Số 19,Trạm xăng,0292 3846 153,"Cửa hàng Xăng dầu Petrolimex Số 19, 167/4a Phạm Hùng, Lê Bình, Cái Răng, Cần Thơ","Lê Bình, Cái Răng","167/4a Phạm Hùng, Lê Bình",Cần Thơ,,"Cái Răng, Cần Thơ",VN,"9.995541,105.74924299999999"
83,ChIJPV9cEOuRNDERP4NmoIG_jAk,Cửa hàng Gas Cầu Giấy - Gas ABC,Công ty ga,024 3366 3444,"Cửa hàng Gas Cầu Giấy - Gas ABC, 100 P. Trung Kính, Yên Hoà, Cầu Giấy, Hà Nội","Yên Hoà, Cầu Giấy",100 P. Trung Kính,Hà Nội,,"Cầu Giấy, Hà Nội",VN,"21.0160657,105.79468969999999"
84,ChIJT0aMyPCtNDERt29Dr1m8PSI,Cửa Hàng Gas Hoàn Kiếm - Gas ABC,Công ty ga,0962 651 116,"Cửa Hàng Gas Hoàn Kiếm - Gas ABC, 124 Đ. Bạch Đằng, Chương Dương Độ, Hoàn Kiếm, Hà Nội","Chương Dương Độ, Hoàn Kiếm",124 Đ. Bạch Đằng,Hà Nội,,"Hoàn Kiếm, Hà Nội",VN,"21.0290298,105.86040249999999"
85,ChIJYTzI40upNTERBDjTPavxwLA,Cửa hàng gas petrolimex khu Hoàn Kiếm,Cửa hàng ga,,"Cửa hàng gas petrolimex khu Hoàn Kiếm, Số 114 P. Hai Bà Trưng, ​​Q, Hoàn Kiếm, Hà Nội","​​Q, Hoàn Kiếm",Số 114 P. Hai Bà Trưng,Hà Nội,,"Hoàn Kiếm, Hà Nội",VN,"21.0274866,105.8424771"
103,ChIJdWNsNvetNTERN7UeBOi2FhU,Cửa Hàng Gas Số 22,Cửa hàng đồ gia dụng,024 3366 3444,"Cửa Hàng Gas Số 22, 751 Giải Phóng, Giáp Bát, Hoàng Mai, Hà Nội","Giáp Bát, Hoàng Mai",751 Giải Phóng,Hà Nội,,"Hoàng Mai, Hà Nội",VN,"20.9868681,105.8412857"
104,ChIJJ4TJu6FioDERutBoAqBHCBU,Cửa hàng Gas Bình Minh - Cần Thơ 1,Cửa hàng,0292 3735 735,"Cửa hàng Gas Bình Minh - Cần Thơ 1, 151/51A Đ. Trần Hoàng Na, Hưng Lợi, Ninh Kiều, Cần Thơ 900000","Hưng Lợi, Ninh Kiều",151/51A Đ. Trần Hoàng Na,Cần Thơ,900000.0,"Ninh Kiều, Cần Thơ",VN,"10.0124991,105.76390699999999"
114,ChIJXaW5wOKHoDERhUcg5PIafCo,Cửa hàng Gas Bình Minh - Cần Thơ 2,Cửa hàng,0292 3735 736,"Cửa hàng Gas Bình Minh - Cần Thơ 2, C22 Đ. Cách Mạng Tháng 8, An Thới, Bình Thủy, Cần Thơ 900000","An Thới, Bình Thủy",C22 Đ. Cách Mạng Tháng 8,Cần Thơ,900000.0,"Bình Thủy, Cần Thơ",VN,"10.0614426,105.7638029"
115,ChIJKS9-5jqIoDER70kjW7zbufg,Cửa Hàng Gas Petrolimex Số 2,Trạm xăng,,"Cửa Hàng Gas Petrolimex Số 2, 162 Đ. Trần Ngọc Quế, Xuân Khánh, Ninh Kiều, Cần Thơ","Xuân Khánh, Ninh Kiều",162 Đ. Trần Ngọc Quế,Cần Thơ,,"Ninh Kiều, Cần Thơ",VN,"10.0232455,105.7696601"
120,ChIJj9i8l0SsNTERPF3gk7nT_bk,Cửa Hàng Gas Minh Đức,Cửa hàng ga,024 3366 3444,"Cửa Hàng Gas Minh Đức, 67, Trương Định, Quận Hai Bà Trưng, Hoàng Mai, Hà Nội","Giáp Nhị, Hoàng Mai","67, Trương Định, Quận Hai Bà Trưng",Hà Nội,,"Hoàng Mai, Hà Nội",VN,"20.9784261,105.84237399999999"
138,ChIJ6beGwdCJoDERvJledWR8dfo,Cửa Hàng Gas Petrolimex Số 1,Cửa hàng ga,1900 989874,"Cửa Hàng Gas Petrolimex Số 1, 16 Đ. Nguyễn Văn Cừ, An Hoà, Ninh Kiều, Cần Thơ","An Hoà, Ninh Kiều",16 Đ. Nguyễn Văn Cừ,Cần Thơ,,"Ninh Kiều, Cần Thơ",VN,"10.0524223,105.7744932"
139,ChIJ17ApohOIoDER1HweGEQVEG4,Cửa Hàng Gas - Bếp Gas Xuân Hoa,Cửa hàng bán dụng cụ sửa nhà,0292 3891 791,"Cửa Hàng Gas - Bếp Gas Xuân Hoa, 138 Nguyễn Văn Cừ Nối Dài, Phường An Khánh, Ninh Kiều, Cần Thơ","Phường An Khánh, Ninh Kiều",138 Nguyễn Văn Cừ Nối Dài,Cần Thơ,,"Ninh Kiều, Cần Thơ",VN,"10.040755599999999,105.7620681"
144,ChIJ1VvM-RerNTERwg_-5Gyh9KM,Cửa hàng gas ABC số 9,Cửa hàng ga,,"Cửa hàng gas ABC số 9, 133pho P. Thái Hà, Trung Liệt, Đống Đa, Hà Nội","Trung Liệt, Đống Đa",133pho P. Thái Hà,Hà Nội,,"Đống Đa, Hà Nội",VN,"21.0132601,105.8194166"
145,ChIJycfkwmWtNTERDB7bJVMvlAU,Cửa Hàng Gas Petrolimex Hà Nội,Cửa hàng ga,0983 255 286,"Cửa Hàng Gas Petrolimex Hà Nội, 460 Đ. Khương Đình, Hạ Đình, Thanh Xuân, Hà Nội 100000","Hạ Đình, Thanh Xuân",460 Đ. Khương Đình,Hà Nội,100000.0,"Thanh Xuân, Hà Nội",VN,"20.9861643,105.813338"
146,ChIJXZ_wcJWtNTER71L1Iw8yIgI,Đổi gas Petrolimex - Đại lý gas Hưng Thịnh,Cửa hàng,0986 699 755,"Đổi gas Petrolimex - Đại lý gas Hưng Thịnh, 32 Ng. 325 P. Kim Ngưu, Thanh Lương, Hai Bà Trưng, Hà Nội","Thanh Lương, Hai Bà Trưng",32 Ng. 325 P. Kim Ngưu,Hà Nội,,"Hai Bà Trưng, Hà Nội",VN,"21.0033386,105.86375969999999"
175,ChIJ6yLszFyrNTERSSpPcIu5-fk,Trung tâm bán lẻ gas petrovietnam,Cửa hàng ga,024 3834 2266,"Trung tâm bán lẻ gas petrovietnam, 59 Ng. 184 P. Hoa Bằng, Yên Hoà, Cầu Giấy, Hà Nội","Yên Hoà, Cầu Giấy",59 Ng. 184 P. Hoa Bằng,Hà Nội,,"Cầu Giấy, Hà Nội",VN,"21.0257696,105.79414159999999"
176,ChIJySPCK5urNTERZdXW141pzM8,Cửa hàng Gas - Gas Trường Thành,Cửa hàng ga,0913 380 575,"Cửa hàng Gas - Gas Trường Thành, 275 Ng. Văn Chương, Khâm Thiên, Đống Đa, Hà Nội","Khâm Thiên, Đống Đa",275 Ng. Văn Chương,Hà Nội,,"Đống Đa, Hà Nội",VN,"21.020645299999998,105.8365286"
177,ChIJPY0vxg2rNTERwXArHmOGOzA,Đại lý gas petrolimex số 36,Cửa hàng ga,024 3678 9888,"Đại lý gas petrolimex số 36, Số 171 Xuân Thủy, Dịch Vọng Hậu, Cầu Giấy, Hà Nội","Dịch Vọng Hậu, Cầu Giấy",Số 171 Xuân Thủy,Hà Nội,,"Cầu Giấy, Hà Nội",VN,"21.0359788,105.785736"
178,ChIJ85498buJoDERphEsXvgCI4Y,Bếp Gas Sakura Cần Thơ,Cửa hàng đồ gia dụng,0292 3764 441,"Bếp Gas Sakura Cần Thơ, 84 Đ. 3 Tháng 2, Hưng Lợi, Ninh Kiều, Cần Thơ","Hưng Lợi, Ninh Kiều",84 Đ. 3 Tháng 2,Cần Thơ,,"Ninh Kiều, Cần Thơ",VN,"10.0161249,105.7599619"
182,ChIJo3s5PJOtNTER6t67yQepLYU,Đại Lý Gas Petrolimex Hà Nội,Công ty ga,0983 255 286,"Đại Lý Gas Petrolimex Hà Nội, 123 P. Trung Kính, Trung Hoà, Cầu Giấy, Hà Nội 100000","Trung Hoà, Cầu Giấy",123 P. Trung Kính,Hà Nội,100000.0,"Cầu Giấy, Hà Nội",VN,"21.0139453,105.79669109999999"
191,ChIJSxF0SOtjoDERWsAC-PnO-Xk,NSH PETRO,Trạm xăng,,"NSH PETRO, 9A Trần Phú, Cái Khế, Ninh Kiều, Cần Thơ","Cái Khế, Ninh Kiều",9A Trần Phú,Cần Thơ,,"Ninh Kiều, Cần Thơ",VN,"10.0505132,105.7867524"
192,ChIJEd_QcZurNTER44-g7oFFet0,Đại Lý Gas Minh Huyền,Cửa hàng,024 3366 3444,"Đại Lý Gas Minh Huyền, 39 Ng. Văn Chương 2, Văn Chương, Đống Đa, Hà Nội","Văn Chương, Đống Đa",39 Ng. Văn Chương 2,Hà Nội,,"Đống Đa, Hà Nội",VN,"21.0224331,105.8361262"
193,ChIJh0MOYs-tNTERUzO27nJaHE0,Cửa hàng gas petrolimex khu Ba Đình,Cửa hàng ga,024 3678 9999,"Cửa hàng gas petrolimex khu Ba Đình, 665 Đ. La Thành, Thành Công, Ba Đình, Hà Nội","Thành Công, Ba Đình",665 Đ. La Thành,Hà Nội,,"Ba Đình, Hà Nội",VN,"21.0242516,105.81395459999999"
198,ChIJxz-d6W6JoDERHHhtpAAkwwg,PVOIL PETROMEKONG CHXD SỐ 84,Trạm xăng,0943 659 052,"PVOIL PETROMEKONG CHXD SỐ 84, 447 Hẻm 553, Hưng Lợi, Ninh Kiều, Cần Thơ 94116","Hưng Lợi, Ninh Kiều",447 Hẻm 553,Cần Thơ,94116.0,"Ninh Kiều, Cần Thơ",VN,"10.0117623,105.7601043"
201,ChIJlcwCe-mrNTER4jLyV2FImIA,Trạm xăng Petrolimex,Trạm xăng,,"Trạm xăng Petrolimex, 214 Đ. Trần Quang Khải, Tràng Tiền, Hoàn Kiếm, Hà Nội","Tràng Tiền, Hoàn Kiếm",214 Đ. Trần Quang Khải,Hà Nội,,"Hoàn Kiếm, Hà Nội",VN,"21.026079499999998,105.8592592"
204,ChIJN8chHIyrNTERXrixa_uieAc,Cửa hàng Xăng dầu Nguyễn Đình Chiểu,Trạm xăng,,"Cửa hàng Xăng dầu Nguyễn Đình Chiểu, 4 P. Nguyễn Đình Chiểu, Lê Đại Hành, Hai Bà Trưng, Hà Nội","Lê Đại Hành, Hai Bà Trưng",4 P. Nguyễn Đình Chiểu,Hà Nội,,"Hai Bà Trưng, Hà Nội",VN,"21.0146716,105.8469774"
206,ChIJrV77n2KIoDERtiF1Z7WerG4,Cửa hàng xăng dầu Petrolimex Số 9,Trạm xăng,,"Cửa hàng xăng dầu Petrolimex Số 9, 222 QL91B, Long Tuyền, Bình Thủy, Cần Thơ","Long Tuyền, Bình Thủy",222 QL91B,Cần Thơ,,"Bình Thủy, Cần Thơ",VN,"10.0443351,105.7351413"
221,ChIJY_xJWTGIoDERQVMpYCgJnYI,Cây Xăng 199,Trạm xăng,,"Cây Xăng 199, 190 Đ. 30 Tháng 4, Hưng Lợi, Ninh Kiều, Cần Thơ","Hưng Lợi, Ninh Kiều",190 Đ. 30 Tháng 4,Cần Thơ,,"Ninh Kiều, Cần Thơ",VN,"10.0174068,105.7655475"
222,ChIJCcMvm0qIoDERM14Mk73oGa8,Cửa Hàng Xăng Dầu 207,Trạm xăng,,"Cửa Hàng Xăng Dầu 207, 58, 3/2 Street, Hung Loi Ward, Ninh Kieu District, Can Tho City, Hưng Lợi, Ninh Kiều, Cần Thơ","Hưng Lợi, Ninh Kiều","58, 3/2 Street, Hung Loi Ward, Ninh Kieu District, Can Tho City",Cần Thơ,,"Ninh Kiều, Cần Thơ",VN,"10.0141803,105.75817409999999"
224,ChIJOW-eqLuJoDERqh2fiPSQ9Ck,Đại Lý Xăng Dầu Lê Uyên,Trạm xăng,0292 3912 818,"Đại Lý Xăng Dầu Lê Uyên, 313 QL1A, Lê Bình, Cái Răng, Cần Thơ","Lê Bình, Cái Răng",313 QL1A,Cần Thơ,,"Cái Răng, Cần Thơ",VN,"9.998494599999999,105.7501513"
226,ChIJIRyQqBpjoDERpukLDd4cAZo,Cửa hàng Xăng dầu Petrolimex Số 15,Trạm xăng,0292 6295 858,"2Q5R+G2M Cửa hàng Xăng dầu Petrolimex Số 15, Khu dân cư Vạn Phong, Cái Răng, Cần Thơ","Khu dân cư Vạn Phong, Cái Răng",2Q5R+G2M,Cần Thơ,,"Cái Răng, Cần Thơ",VN,"10.0088463,105.7900543"
241,ChIJ1exhMFGIoDER3iyUPV-IxJc,Cây xăng dầu nhà khách Cần Thơ,Trạm xăng,,"2PCR+3MC Cây xăng dầu nhà khách Cần Thơ, An Bình, Ninh Kiều, Cần Thơ","An Bình, Ninh Kiều",2PCR+3MC,Cần Thơ,,"Ninh Kiều, Cần Thơ",VN,"10.020181,105.7416463"
242,ChIJA5ZE0CN9oDERPPXxN8Lj7Qo,Cửa hàng Xăng dầu Petrolimex Số 66,Trạm xăng,,"3RCF+925 Cửa hàng Xăng dầu Petrolimex Số 66, Cái Vồn, Bình Minh, Vĩnh Long","Cái Vồn, Bình Minh",3RCF+925,Vĩnh Long,,"Bình Minh, Vĩnh Long",VN,"10.0708846,105.8226004"
248,ChIJscNpLAmHoDERrIypdT2fbAY,Cửa hàng Xăng dầu Petrolimex Số 65,Trạm xăng,0270 3760 180,"4Q32+M3G Cửa hàng Xăng dầu Petrolimex Số 65, QL54, Tân Qưới, Bình Tân, Vĩnh Long","Tân Qưới, Bình Tân","4Q32+M3G, QL54",Vĩnh Long,,"Bình Tân, Vĩnh Long",VN,"10.104197,105.7501915"
250,ChIJf8jn7k1ANTERDVH5OeB_Yzo,Cửa Hàng Gas Petrolimex,Trạm xăng,024 3350 2922,"Cửa Hàng Gas Petrolimex, 467 Đ. Lĩnh Nam, Lĩnh Nam, Hoàng Mai, Hà Nội","Lĩnh Nam, Hoàng Mai",467 Đ. Lĩnh Nam,Hà Nội,,"Hoàng Mai, Hà Nội",VN,"20.9814731,105.88146979999999"
252,ChIJTT0lurKJoDER-O0UsYFArKg,Cửa hàng xăng dầu Petrolimex Số 16,Trạm xăng,0908 838 525,"Cửa hàng xăng dầu Petrolimex Số 16, 142 Đ. Nguyễn Văn Cừ, Phường An Khánh, Ninh Kiều, Cần Thơ","Phường An Khánh, Ninh Kiều",142 Đ. Nguyễn Văn Cừ,Cần Thơ,,"Ninh Kiều, Cần Thơ",VN,"10.0373833,105.7592399"
264,ChIJVfMJ3J6JoDER8-JzrBE9nGk,Cửa hàng Gas 9 Trãi,Cửa hàng tổng hợp,0908 427 323,"Cửa hàng Gas 9 Trãi, J16 Đường Số 3, Khu Tái định cư văn hoá, Cái Răng, Cần Thơ","Khu Tái định cư văn hoá, Cái Răng",J16 Đường Số 3,Cần Thơ,,"Cái Răng, Cần Thơ",VN,"10.008394599999999,105.78038719999999"
268,ChIJv9jllatioDER3EA0-Sjr59k,Trạm xăng dầu An Bình,Trạm xăng,,"3Q2P+6M9 Trạm xăng dầu An Bình, Trần Phú, Cái Khế, Ninh Kiều, Cần Thơ","Cái Khế, Ninh Kiều","3Q2P+6M9, Trần Phú",Cần Thơ,,"Ninh Kiều, Cần Thơ",VN,"10.0505348,105.7867315"
271,ChIJASGjxjmIoDERYBWxZmOgZDk,SAIGON PETRO- Cửa Hàng Xăng Dầu Số 36,Trạm xăng,0292 3749 431,"SAIGON PETRO- Cửa Hàng Xăng Dầu Số 36, 91b Đ. Nguyễn Văn Linh, Hưng Lợi, Ninh Kiều, Cần Thơ","Hưng Lợi, Ninh Kiều",91b Đ. Nguyễn Văn Linh,Cần Thơ,,"Ninh Kiều, Cần Thơ",VN,"10.0233297,105.7626075"
273,ChIJGdE95meIoDERpcEgmU7RApo,Cửa Hàng Gas An Khánh,Cửa hàng đồ nhà bếp,0292 3894 429,"2PPW+4HC Cửa Hàng Gas An Khánh, QL91B, Phường An Khánh, Ninh Kiều, Cần Thơ","Phường An Khánh, Ninh Kiều","2PPW+4HC, QL91B",Cần Thơ,,"Ninh Kiều, Cần Thơ",VN,"10.035307699999999,105.7464054"
274,ChIJc8W0ywSJoDER7s_0hZHUHmg,Cửa Hàng Gas Việt Phương,Cửa hàng,,"Cửa Hàng Gas Việt Phương, số 91/36 Đ. 30 Tháng 4, Hưng Lợi, Ninh Kiều, Cần Thơ","Hưng Lợi, Ninh Kiều",số 91/36 Đ. 30 Tháng 4,Cần Thơ,,"Ninh Kiều, Cần Thơ",VN,"10.0105649,105.75837879999999"
290,ChIJF2p2ylp9oDER1Le3V0lldWE,Cửa hàng Xăng dầu Petrolimex Số 39,Trạm xăng,0270 2219 273,"3Q8V+CFR Cửa hàng Xăng dầu Petrolimex Số 39, QL54, Thành Lợi, Bình Tân, Vĩnh Long","Thành Lợi, Bình Tân","3Q8V+CFR, QL54",Vĩnh Long,,"Bình Tân, Vĩnh Long",VN,"10.066101399999999,105.7936476"
291,ChIJmVq_4_19oDERoIshAmdXtfY,Cửa hàng Xăng dầu Petrolimex Số 58,Trạm xăng,,"3R6G+2JP Cửa hàng Xăng dầu Petrolimex Số 58, QL54, Đông Thuận, Bình Minh, Vĩnh Long","Đông Thuận, Bình Minh","3R6G+2JP, QL54",Vĩnh Long,,"Bình Minh, Vĩnh Long",VN,"10.060078899999999,105.82657209999999"
308,ChIJKV3I8TmIoDERbrFNBDpQHdo,Bếp Gas- Gas Phát Đạt,Cửa hàng đồ gia dụng,0939 656 505,"Bếp Gas- Gas Phát Đạt, 15d1a, Khu Vực 3, Phường An Khánh, Ninh Kiều, Cần Thơ","Phường An Khánh, Ninh Kiều","15d1a, Khu Vực 3",Cần Thơ,,"Ninh Kiều, Cần Thơ",VN,"10.02733,105.7623891"
318,ChIJ_3KUY11ioDERmk4_Dl0sAWc,Gas Ngọc Thuận 586,Cửa hàng tạp phẩm,0919 366 122,"Gas Ngọc Thuận 586, A38 Số 9, KDC 586Phú Thứ, Cái Răng, Cần Thơ","KDC 586Phú Thứ, Cái Răng",A38 Số 9,Cần Thơ,,"Cái Răng, Cần Thơ",VN,"10.000766299999999,105.80582489999999"
320,ChIJrfqpROKrNTERf_ZyfJw4Qrw,Gas Petrol ABC,Cửa hàng ga,0962 651 116,"Gas Petrol ABC, 145 P. Thái Hà, Trung Liệt, Đống Đa, Hà Nội","Trung Liệt, Đống Đa",145 P. Thái Hà,Hà Nội,,"Đống Đa, Hà Nội",VN,"21.0135988,105.8189158"
332,ChIJu6K7MV-JoDERQN8xB_1tmA4,Cửa hàng Xăng dầu Petrolimex Số 01,Trạm xăng,,"Cửa hàng Xăng dầu Petrolimex Số 01, 66 Đ. Cách Mạng Tháng 8, Thới Bình, Ninh Kiều, Cần Thơ","Thới Bình, Ninh Kiều",66 Đ. Cách Mạng Tháng 8,Cần Thơ,,"Ninh Kiều, Cần Thơ",VN,"10.0474588,105.778286"
335,ChIJC3h-9g2tNTERGKe0p3iTddA,Đại Lý Gas Và Bếp Gas Số 1 Hà Nội (Đổi Gas),Cửa hàng ga,0913 438 346,"Đại Lý Gas Và Bếp Gas Số 1 Hà Nội (Đổi Gas), 168 ngõ 553 Giải Phóng, Giáp Bát, Hoàng Mai, Hà Nội","Giáp Bát, Hoàng Mai",168 ngõ 553 Giải Phóng,Hà Nội,,"Hoàng Mai, Hà Nội",VN,"20.9865374,105.8446154"
341,ChIJG-vTchSJoDERT2X86BVo79g,Cửa hàng Xăng dầu Petrolimex Số 04,Trạm xăng,0292 3847 582,"Cửa hàng Xăng dầu Petrolimex Số 04, 264 Ấp Mỹ Phước, Huyện Phong Điền, Mỹ Khánh, Phong Điền, Cần Thơ","Mỹ Khánh, Phong Điền","264 Ấp Mỹ Phước, Huyện Phong Điền",Cần Thơ,,"Phong Điền, Cần Thơ",VN,"9.995566799999999,105.7176939"
352,ChIJBY8aOtWrNTERXerCPnmyYQc,Cửa hàng Gas và Bếp Gas Quỳnh Liên,Cửa hàng ga,0972 331 116,"Cửa hàng Gas và Bếp Gas Quỳnh Liên, 1 P. Thọ Lão, Đồng Nhân, Hai Bà Trưng, Hà Nội","Đồng Nhân, Hai Bà Trưng",1 P. Thọ Lão,Hà Nội,,"Hai Bà Trưng, Hà Nội",VN,"21.0111687,105.85758729999999"
353,ChIJGVqdvputNTERqYvPSX_Iqvc,Gas Xuân Hùng,Cửa hàng ga,0912 602 069,"Gas Xuân Hùng, số 185b, Hoàng Mai, Hà Nội","Hoàng Văn Thụ, Hoàng Mai",số 185b,Hà Nội,,"Hoàng Mai, Hà Nội",VN,"20.990112699999997,105.8547882"
354,ChIJD204eSiJoDERoBRkCIKevLM,Hệ Thống Gas Lê Uyên,Cửa hàng,0939 750 101,"Hệ Thống Gas Lê Uyên, 313 QL1A, Thường Thạnh, Cái Răng, Cần Thơ","Thường Thạnh, Cái Răng",313 QL1A,Cần Thơ,,"Cái Răng, Cần Thơ",VN,"9.9975654,105.75019569999999"
361,ChIJDXXtAuKtNTERSruHtiI6KyY,Cửa Hàng Gas Petrolimex Hai Bà Trưng,Cửa hàng ga,,"Cửa Hàng Gas Petrolimex Hai Bà Trưng, 112 Ng. 105 Bạch Mai, Thanh Nhàn, Hai Bà Trưng, Hà Nội","Thanh Nhàn, Hai Bà Trưng",112 Ng. 105 Bạch Mai,Hà Nội,,"Hai Bà Trưng, Hà Nội",VN,"21.0066526,105.8520231"
362,ChIJmRZN39dSNDERoun8aL2KV_U,Gas Petrolimex Gần Nhất,Trạm xăng,024 3350 2922,"Gas Petrolimex Gần Nhất, 68 P. Mai Động, phường, Hoàng Mai, Hà Nội","phường, Hoàng Mai",68 P. Mai Động,Hà Nội,,"Hoàng Mai, Hà Nội",VN,"20.9880897,105.85997169999999"
363,ChIJn9ukOnGrNTERvL2Fa3cnMak,Đại Lý Gas Ngọn Lửa Thần,Công ty ga,024 3365 9889,"Đại Lý Gas Ngọn Lửa Thần, 261 P. Giảng Võ, Chợ Dừa, Đống Đa, Hà Nội","Chợ Dừa, Đống Đa",261 P. Giảng Võ,Hà Nội,,"Đống Đa, Hà Nội",VN,"21.0240798,105.82087879999999"
371,ChIJUTYBGuCJoDERp-nvUIxr3j8,Cửa Hàng Gas Khánh Khoa,Cửa hàng,0913 853 349,"Cửa Hàng Gas Khánh Khoa, 1/125 Sông Hậu, Cái Khế, Ninh Kiều, Cần Thơ","Cái Khế, Ninh Kiều",1/125 Sông Hậu,Cần Thơ,,"Ninh Kiều, Cần Thơ",VN,"10.0520047,105.7843307"
372,ChIJA0IQst-HoDERfVXmjS2FaAs,Đại lý Gas - Bếp Gas - Gạo - Văn Hiền,Cửa hàng ga,0929 784 784,"Đại lý Gas - Bếp Gas - Gạo - Văn Hiền, 130D Trần Quang Diệu, An Thới, Bình Thủy, Cần Thơ","An Thới, Bình Thủy",130D Trần Quang Diệu,Cần Thơ,,"Bình Thủy, Cần Thơ",VN,"10.0581377,105.7566466"
373,ChIJXRYrleiHoDERZ9wdg_avCnk,Cửa hàng Xăng dầu Petrolimex Số 02,Trạm xăng,,"Cửa hàng Xăng dầu Petrolimex Số 02, 135 Đ. Cách Mạng Tháng 8, An Thới, Bình Thủy, Cần Thơ","An Thới, Bình Thủy",135 Đ. Cách Mạng Tháng 8,Cần Thơ,,"Bình Thủy, Cần Thơ",VN,"10.069599499999999,105.755692"
388,ChIJL3y2y1OIoDERMbbrtm4ydKo,Đại Lý Xăng Dầu Dntn Vạn Nguyên 2,Trạm xăng,0292 3527 048,"Đại Lý Xăng Dầu Dntn Vạn Nguyên 2, 310 Cái Sơn Hàng Bàng, An Bình, Ninh Kiều, Cần Thơ","An Bình, Ninh Kiều",310 Cái Sơn Hàng Bàng,Cần Thơ,,"Ninh Kiều, Cần Thơ",VN,"10.016922,105.7435912"
401,ChIJxVXEOzCIoDERIzd7nDBdSfA,Đại Lý Gas Bình Minh,Cửa hàng,,"Đại Lý Gas Bình Minh, 280 Đ. 30 Tháng 4, Hưng Lợi, Ninh Kiều, Cần Thơ","Hưng Lợi, Ninh Kiều",280 Đ. 30 Tháng 4,Cần Thơ,,"Ninh Kiều, Cần Thơ",VN,"10.020691399999999,105.7693283"
402,ChIJ2_lTVGt9oDERXCIgpzb5cFI,Cửa hàng Gas Phong,Cửa hàng ga,0939 308 390,"Cửa hàng Gas Phong, 148/389, Khóm 5, P. Thành Phước, TX. Bình Minh, Vĩnh Long","Thuận An, Vĩnh Long","148/389, Khóm 5, P. Thành Phước, TX. Bình Minh",Vĩnh Long,,Vĩnh Long,VN,"10.075650999999999,105.8050019"
403,ChIJ7z6HMCKIoDERoYPRUwcCdOg,Cửa Hàng Gas Cường Thịnh,Cửa hàng tạp phẩm,7103888888,"Cửa Hàng Gas Cường Thịnh, 33 Đ. Mậu Thân, An Phú, Ninh Kiều, Cần Thơ","An Phú, Ninh Kiều",33 Đ. Mậu Thân,Cần Thơ,,"Ninh Kiều, Cần Thơ",VN,"10.0309014,105.7752677"
407,ChIJfWnf4lZjoDERVwkc2ANbMpw,Đại Lý Gas Thịnh Phát,Cửa hàng,0939 090 586,"Đại Lý Gas Thịnh Phát, G5 số 26, đường số 13, khu 586, Đường số 13, Phú Thứ, Cái Răng, Cần Thơ","Phú Thứ, Cái Răng","G5 số 26, đường số 13, khu 586, Đường số 13",Cần Thơ,,"Cái Răng, Cần Thơ",VN,"10.0037978,105.8052161"
412,ChIJZe1YIOmrNTER_dVHnLnoL7o,Cửa Hàng Gas Gia Định,Cửa hàng,,"Cửa Hàng Gas Gia Định, 17 P. Cầu Đất, Chương Dương Độ, Hoàn Kiếm, Hà Nội","Chương Dương Độ, Hoàn Kiếm",17 P. Cầu Đất,Hà Nội,,"Hoàn Kiếm, Hà Nội",VN,"21.0246739,105.8608021"
426,ChIJp1Zyq8qJoDERlAHnTQZgF2U,Cửa Hàng Gas Thành Vinh,Cửa hàng,0292 3739 123,"Cửa Hàng Gas Thành Vinh, 22, Đường 30/4, Quận Ninh Kiều, TP Cần Thơ, Hưng Lợi, Ninh Kiều, Cần Thơ","Hưng Lợi, Ninh Kiều","22, Đường 30/4, Quận Ninh Kiều, TP Cần Thơ",Cần Thơ,,"Ninh Kiều, Cần Thơ",VN,"10.0118245,105.7587475"
429,ChIJc5a4P8qJoDERlHwS1xuEYNE,Gas Việt,Cửa hàng ga,0292 3606 606,"Gas Việt, 33 Đường số 7, Thường Thạnh, Cái Răng, Cần Thơ","Thường Thạnh, Cái Răng",33 Đường số 7,Cần Thơ,,"Cái Răng, Cần Thơ",VN,"9.9855489,105.7596454"
440,ChIJwyuX9i-IoDER6o8ktcR-8lY,Đại Lý Gas - Bếp Gas Hải Lý,Cửa hàng bán dụng cụ sửa nhà,0292 3739 104,"Đại Lý Gas - Bếp Gas Hải Lý, 319 Đ. 30 Tháng 4, Xuân Khánh, Ninh Kiều, Cần Thơ","Xuân Khánh, Ninh Kiều",319 Đ. 30 Tháng 4,Cần Thơ,,"Ninh Kiều, Cần Thơ",VN,"10.022005199999999,105.7714024"
444,ChIJNVMrzVKJoDERgv1LGM6yhSc,Trạm xăng 99,Trạm xăng,,"Trạm xăng 99, 447 Đ. 30 Tháng 4, Hưng Lợi, Ninh Kiều, Cần Thơ","Hưng Lợi, Ninh Kiều",447 Đ. 30 Tháng 4,Cần Thơ,,"Ninh Kiều, Cần Thơ",VN,"10.0145881,105.76300379999999"
457,ChIJq6qqBw-IoDERness_z9Slc0,Cửa Hàng Gas Phương Nam,Cửa hàng,0292 3898 222,"Cửa Hàng Gas Phương Nam, 10A K4 Đ. Nguyễn Văn Cừ, An Hoà, Ninh Kiều, Cần Thơ","An Hoà, Ninh Kiều",10A K4 Đ. Nguyễn Văn Cừ,Cần Thơ,,"Ninh Kiều, Cần Thơ",VN,"10.047019299999999,105.76794439999999"
458,ChIJ3Ts-qSaIoDERuxA4hn1Wm8w,Đại lý gas Hoàng Minh,Cửa hàng,,"Đại lý gas Hoàng Minh, 12 Đ. 30 Tháng 4, Xuân Khánh, Ninh Kiều, Cần Thơ","Xuân Khánh, Ninh Kiều",12 Đ. 30 Tháng 4,Cần Thơ,,"Ninh Kiều, Cần Thơ",VN,"10.0276687,105.77733289999999"
459,ChIJq2UBaGyIoDERX7Yqjvrz7M4,Cửa hàng GAS Thành Đạt,Cửa hàng đồ gia dụng,0939 636 926,"Cửa hàng GAS Thành Đạt, 106 Đ. Phan Huy Chú, Phường An Khánh, Ninh Kiều, Cần Thơ","Phường An Khánh, Ninh Kiều",106 Đ. Phan Huy Chú,Cần Thơ,,"Ninh Kiều, Cần Thơ",VN,"10.040434999999999,105.7557319"
460,ChIJsZUpe_CJoDERpMojnWfyIak,Lê Tú - Đại lý gas - Bếp gas - Gạo,Cửa hàng ga,0939 090 534,"Lê Tú - Đại lý gas - Bếp gas - Gạo, số 1 Đường số 1, Hưng Lợi, Ninh Kiều, Cần Thơ","Hưng Lợi, Ninh Kiều",số 1 Đường số 1,Cần Thơ,,"Ninh Kiều, Cần Thơ",VN,"10.022108399999999,105.7606201"
461,ChIJ-erPSFxjoDER12Y7Zs4TR0Y,Cửa Hàng Gas Tài Phát,Cửa hàng đồ gia dụng,0907 556 539,"2QGQ+GFW Cửa Hàng Gas Tài Phát, Hưng Phú, Cái Răng, Cần Thơ","Hưng Phú, Cái Răng",2QGQ+GFW,Cần Thơ,,"Cái Răng, Cần Thơ",VN,"10.026316,105.7886772"
465,ChIJ-aiWsUVjoDERqD2W_7zKmII,Cửa hàng Xăng dầu Petrolimex Số 24,Trạm xăng,,"XQPR+QF7 Cửa hàng Xăng dầu Petrolimex Số 24, Đương Trương Vĩnh Nguyên, Phú Thứ, Cái Răng, Cần Thơ","Phú Thứ, Cái Răng","XQPR+QF7, Đương Trương Vĩnh Nguyên",Cần Thơ,,"Cái Răng, Cần Thơ",VN,"9.9869085,105.7911673"
471,ChIJf4AshVrPNTERpfikA2T32iU,Gas Khánh Linh,Cửa hàng,0912 214 119,"Gas Khánh Linh, 308 P. Kim Ngưu, Minh Khai, Hai Bà Trưng, Hà Nội","Minh Khai, Hai Bà Trưng",308 P. Kim Ngưu,Hà Nội,,"Hai Bà Trưng, Hà Nội",VN,"20.9985411,105.8616847"
472,ChIJ-Z07BS-tNTERgyJOhXYBcUI,Gas Hưng Thịnh,Cửa hàng ga,0983 041 993,"Gas Hưng Thịnh, 17 phố nhật tảo, Nhân Chính, Thanh Xuân, Hà Nội 100000","Nhân Chính, Thanh Xuân",17 phố nhật tảo,Hà Nội,100000.0,"Thanh Xuân, Hà Nội",VN,"21.0080875,105.8138883"
486,ChIJXeVXgEeIoDERrvmwxQJwpK4,Đại Lý Gas Tuấn Kiệt,Cửa hàng,0292 3500 300,"Đại Lý Gas Tuấn Kiệt, 20 Đ. Nguyễn Hiền, Hưng Lợi, Ninh Kiều, Cần Thơ","Hưng Lợi, Ninh Kiều",20 Đ. Nguyễn Hiền,Cần Thơ,,"Ninh Kiều, Cần Thơ",VN,"10.0247747,105.75763549999999"
487,ChIJQdMgp0KIoDERjbKhaswBwL0,Cuu hang Gas Kim Thi,Cửa hàng,0939 003 798,"2PMX+J5R Cuu hang Gas Kim Thi, Đ. Nguyễn Văn Linh, Phường An Khánh, Ninh Kiều, Cần Thơ","Phường An Khánh, Ninh Kiều","2PMX+J5R, Đ. Nguyễn Văn Linh",Cần Thơ,,"Ninh Kiều, Cần Thơ",VN,"10.034110199999999,105.7478848"
488,ChIJQxW6WUKIoDERQ1xqzBKqXNI,Cửa Hàng Gas Petimex,Cửa hàng,0292 3895 453,"Cửa Hàng Gas Petimex, 329 QL91B, Phường An Khánh, Bình Thủy, Cần Thơ","Phường An Khánh, Bình Thủy",329 QL91B,Cần Thơ,,"Bình Thủy, Cần Thơ",VN,"10.0321737,105.74994269999999"
490,ChIJgfa4is6JoDERwSKQl5xWx7w,Cây xăng hoàng yến,Trạm xăng,,"Cây xăng hoàng yến, 158 Võ Văn Kiệt, An Hoà, Ninh Kiều, Cần Thơ 900000","An Hoà, Ninh Kiều",158 Võ Văn Kiệt,Cần Thơ,900000.0,"Ninh Kiều, Cần Thơ",VN,"10.0463469,105.7616134"
500,ChIJhTzDpyyJoDERdfxFev82aQU,GAS KHẢ VĂN,Cửa hàng tạp phẩm,0901 283 283,"GAS KHẢ VĂN, 103c/3 khu dân cư 3A khu vực 5 P. An Bình Q. NK, Hưng Phú, Cái Răng, Cần Thơ","Hưng Phú, Cái Răng",103c/3 khu dân cư 3A khu vực 5 P. An Bình Q. NK,Cần Thơ,,"Cái Răng, Cần Thơ",VN,"10.0043705,105.7432192"
509,ChIJiwfaI7-JoDERGVPSGx-dskc,Cửa Hàng Gas Petrolimex Cái Răng,Cửa hàng ga,0292 3912 912,"Cửa Hàng Gas Petrolimex Cái Răng, 176a Đ. Phạm Hùng, Lê Bình, Cái Răng, Cần Thơ","Lê Bình, Cái Răng",176a Đ. Phạm Hùng,Cần Thơ,,"Cái Răng, Cần Thơ",VN,"9.9947073,105.748961"
514,ChIJlR2Z-46PoDERdpRn2tgB3w4,Cửa hàng Xăng dầu Petrolimex Số 20,Trạm xăng,0907 521 405,"Cửa hàng Xăng dầu Petrolimex Số 20, 65 ĐT926, Nhơn ái, Phong Điền, Cần Thơ","Nhơn ái, Phong Điền",65 ĐT926,Cần Thơ,,"Phong Điền, Cần Thơ",VN,"9.992455699999999,105.6670371"
560,ChIJBWc9cEeIoDERzgjtSmfVXu4,Cửa Hàng Gas Anh Thơ,Cửa hàng,0292 3894 111,"Cửa Hàng Gas Anh Thơ, 337 QL91B, Hưng Lợi, Ninh Kiều, Cần Thơ","Hưng Lợi, Ninh Kiều",337 QL91B,Cần Thơ,,"Ninh Kiều, Cần Thơ",VN,"10.0262123,105.7576423"
561,ChIJN7LRuBmIoDERM5tl6lk9R4M,Cửa Hàng Gas Quang Nhu,Cửa hàng,,"Cửa Hàng Gas Quang Nhu, 31 Đ. Mậu Thân, Xuân Khánh, Ninh Kiều, Cần Thơ","Xuân Khánh, Ninh Kiều",31 Đ. Mậu Thân,Cần Thơ,,"Ninh Kiều, Cần Thơ",VN,"10.0405588,105.7676183"
562,ChIJH-8j7waIoDERs_p3f5T_R7s,Cửa Hàng Điện Gia Dụng Bếp Gas 125,Cửa hàng,0292 3824 631,"Cửa Hàng Điện Gia Dụng Bếp Gas 125, 125 Đ. Cách Mạng Tháng 8, An Hoà, Ninh Kiều, Cần Thơ 94000","An Hoà, Ninh Kiều",125 Đ. Cách Mạng Tháng 8,Cần Thơ,94000.0,"Ninh Kiều, Cần Thơ",VN,"10.051103,105.77417919999999"
563,ChIJ4_PsBcOJoDERvdta3xUH7hw,Gas Lê Uyên,Công ty ga,0939 750 101,"Gas Lê Uyên, 95 Huỳnh Cương, An Cư, Ninh Kiều, Cần Thơ","An Cư, Ninh Kiều",95 Huỳnh Cương,Cần Thơ,,"Ninh Kiều, Cần Thơ",VN,"10.037552999999999,105.77975479999999"
564,ChIJ4XUHGfWJoDERQwyst4MELQ0,Gas Khánh Văn,Cửa hàng,,"Gas Khánh Văn, 6 Đường Số 10, Phường An Khánh, Ninh Kiều, Cần Thơ","Phường An Khánh, Ninh Kiều",6 Đường Số 10,Cần Thơ,,"Ninh Kiều, Cần Thơ",VN,"10.0434628,105.7551106"
565,ChIJlR2L-kGJoDERZjuCLsSJC9E,Cửa hàng gas - LPG Phương Nam,Cửa hàng,0292 3898 222,"Cửa hàng gas - LPG Phương Nam, 24-20 Nguyễn Văn Cừ Nối Dài, An Bình, Ninh Kiều, Cần Thơ","An Bình, Ninh Kiều",24-20 Nguyễn Văn Cừ Nối Dài,Cần Thơ,,"Ninh Kiều, Cần Thơ",VN,"10.0270739,105.7481701"
566,ChIJk9GC0iKJoDER8ywhTEh31Hs,Cửa hàng Gas Thiên Lộc,Cửa hàng ga,,"Cửa hàng Gas Thiên Lộc, 148/99 Hẻm 132 Đ. 3 Tháng 2, Hưng Lợi, Ninh Kiều, Cần Thơ","Hưng Lợi, Ninh Kiều",148/99 Hẻm 132 Đ. 3 Tháng 2,Cần Thơ,,"Ninh Kiều, Cần Thơ",VN,"10.0209494,105.76229579999999"
567,ChIJ8ZcwW0GIoDER-wdgsrr9lFE,Cửa Hàng Gas Lê Gia,Cửa hàng,0292 6530 078,"Cửa Hàng Gas Lê Gia, 307 Đ. Nguyễn Văn Linh, Phường An Khánh, Ninh Kiều, Cần Thơ","Phường An Khánh, Ninh Kiều",307 Đ. Nguyễn Văn Linh,Cần Thơ,,"Ninh Kiều, Cần Thơ",VN,"10.0293929,105.7535984"
568,ChIJI6YAO-yJEgMR9J_oONtggw4,Gas Biển Ngọc 1,Cửa tiệm bán lẻ trực tiếp,0379 935 999,,,,,,,,"10.035323,105.7555905"
569,ChIJW99_HGiIoDERG2HkqlWrHvE,Cửa Hàng Gas Sơn Hà,Cửa hàng,0292 6783 783,"Cửa Hàng Gas Sơn Hà, 130 KDC Thới Nhựt, Quận Ninh Kiều, Tp Cần Thơ, Phường An Khánh, Ninh Kiều, Cần Thơ","Phường An Khánh, Ninh Kiều","130 KDC Thới Nhựt, Quận Ninh Kiều, Tp Cần Thơ",Cần Thơ,,"Ninh Kiều, Cần Thơ",VN,"10.0346085,105.7477706"
570,ChIJi5w2OVWJoDERtC4BS5bjt5o,Gas,Trạm khí nén thiên nhiên,0973 742 530,"Gas, Đ. Trần Nam Phú, Xuân Khánh, Ninh Kiều, Cần Thơ 94000","Xuân Khánh, Ninh Kiều",Đ. Trần Nam Phú,Cần Thơ,94000.0,"Ninh Kiều, Cần Thơ",VN,"10.0328495,105.7625037"
571,ChIJw1qPkESIoDERGgCAcqz9-LI,Cửa Hàng Gas Miền Tây,Cửa hàng nội thất,0292 6298 298,"Cửa Hàng Gas Miền Tây, 210/AA, Nguyễn Văn Cừ Nối Dài, Khu Vực 4, Phường An Bình, Quận Ninh Kiều, Thành Phố Cần Thơ, Phường An Khánh, Ninh Kiều, Cần Thơ","Phường An Khánh, Ninh Kiều","210/AA, Nguyễn Văn Cừ Nối Dài, Khu Vực 4, Phường An Bình, Quận Ninh Kiều, Thành Phố Cần Thơ",Cần Thơ,,"Ninh Kiều, Cần Thơ",VN,"10.028082,105.74884449999999"
572,ChIJ743Be6lioDERmc_h92mwNE8,Cửa Hàng Gas 15 Phút,Cửa hàng đồ gia dụng,,"Cửa Hàng Gas 15 Phút, Cái Khế, Ninh Kiều, Cần Thơ","Cái Khế, Ninh Kiều",,Cần Thơ,,"Ninh Kiều, Cần Thơ",VN,"10.048023599999999,105.785382"
573,ChIJbxAIMSGIoDER79BOac3Jq4M,Cửa Hàng Gas Petrolimex Số 2,Cửa hàng ga,0292 3812 807,"Cửa Hàng Gas Petrolimex Số 2, 137 Đ. 30 Tháng 4, Xuân Khánh, Ninh Kiều, Cần Thơ","Xuân Khánh, Ninh Kiều",137 Đ. 30 Tháng 4,Cần Thơ,,"Ninh Kiều, Cần Thơ",VN,"10.0277988,105.7782555"
575,ChIJ-2P7tS9joDERaInr62aggxk,Gas Nhật Tiến,Cửa hàng ga,0939 273 955,"Gas Nhật Tiến, M34 Đ. A2, KDC Hưng Phú 1, Cái Răng, Cần Thơ 900000","KDC Hưng Phú 1, Cái Răng",M34 Đ. A2,Cần Thơ,900000.0,"Cái Răng, Cần Thơ",VN,"10.0209216,105.7839561"
579,ChIJdS9iXy2IoDERVMwu4wqjhow,Đại Lý Gas Toàn Phát,Cửa hàng,0292 3918 919,"Đại Lý Gas Toàn Phát, 220 Tầm Vu, Hưng Lợi, Ninh Kiều, Cần Thơ","Hưng Lợi, Ninh Kiều",220 Tầm Vu,Cần Thơ,,"Ninh Kiều, Cần Thơ",VN,"10.0126314,105.77033759999999"
580,ChIJVcubhORjoDERR2tSkm3z0lc,CTY TNHH cơ điện lạnh và gas Khánh Phương Nam,Cửa hàng đồ gia dụng,0911 678 101,"2QCM+GHR CTY TNHH cơ điện lạnh và gas Khánh Phương Nam, Đường Số 16, KDC Hưng Phú 1, Cái Răng, Cần Thơ","KDC Hưng Phú 1, Cái Răng","2QCM+GHR, Đường Số 16",Cần Thơ,,"Cái Răng, Cần Thơ",VN,"10.0213745,105.78387939999999"
586,ChIJucOd7S-IoDERr_pivylAQJE,Đại Lý Gas Anh Hoàng,Cửa hàng nội thất,0292 3894 389,"Đại Lý Gas Anh Hoàng, 141/8B, Đường 30-4, Phường Hưng Lợi, Quận Ninh Kiều, Thành Phố Cần Thơ, Xuân Khánh, Ninh Kiều, Cần Thơ","Xuân Khánh, Ninh Kiều","141/8B, Đường 30-4, Phường Hưng Lợi, Quận Ninh Kiều, Thành Phố Cần Thơ",Cần Thơ,,"Ninh Kiều, Cần Thơ",VN,"10.0217423,105.77145019999999"
588,ChIJqReHKT6IoDERwtTc76gkkL8,Cửa Hàng Petrovietnam Gas,Cửa hàng nội thất,7106528989,"Cửa Hàng Petrovietnam Gas, 39I1/9, Đ. Nguyễn Văn Cừ, Phường An Khánh, Ninh Kiều, Cần Thơ","Phường An Khánh, Ninh Kiều","39I1/9, Đ. Nguyễn Văn Cừ",Cần Thơ,,"Ninh Kiều, Cần Thơ",VN,"10.0334696,105.7619503"
589,ChIJK19tvYdioDERiVplTNJJAt8,Đại Lý Gas Ngọc Thuận,Cửa hàng nội thất,0292 3916 117,"Đại Lý Gas Ngọc Thuận, A38, Khu Dân Cư 586, Đường Số 9, Phường Phú Thứ, Quận Cái Răng, Thành Phố Cần Thơ, Hưng Phú, Cái Răng, Cần Thơ","Hưng Phú, Cái Răng","A38, Khu Dân Cư 586, Đường Số 9, Phường Phú Thứ, Quận Cái Răng, Thành Phố Cần Thơ",Cần Thơ,,"Cái Răng, Cần Thơ",VN,"10.0119761,105.7917693"
590,ChIJBXSa9_mJoDER-3cHCC370b8,Cửa hàng Xăng dầu Petrolimex Số 21,Trạm xăng,,"XQW4+CQ4 Cửa hàng Xăng dầu Petrolimex Số 21, Thường Thạnh, Cái Răng, Cần Thơ","Thường Thạnh, Cái Răng",XQW4+CQ4,Cần Thơ,,"Cái Răng, Cần Thơ",VN,"9.9960525,105.7569292"
591,ChIJR6OWA7mJoDERCHHBazzDsDM,Cửa Hàng Gas - Bếp Gas Huy Hoàng 3,Cửa hàng nội thất,0907 446 702,"Cửa Hàng Gas - Bếp Gas Huy Hoàng 3, 180 Lê Bình, Cái Răng, Cần Thơ","Lê Bình, Cái Răng",180 Lê Bình,Cần Thơ,,"Cái Răng, Cần Thơ",VN,"9.998089,105.7552891"
597,ChIJU1wv4NaJoDERe2U1B5ajHl0,CH Gas Thiên Lộc,Cửa hàng,0292 3912 913,"CH Gas Thiên Lộc, 148 Hẻm 132 Đ. 3 Tháng 2, Hưng Lợi, Ninh Kiều, Cần Thơ","Hưng Lợi, Ninh Kiều",148 Hẻm 132 Đ. 3 Tháng 2,Cần Thơ,,"Ninh Kiều, Cần Thơ",VN,"10.0195748,105.75762329999999"
610,ChIJf1KZB3irNTERP14o6REXmIE,Gas Trần Gia,Cửa hàng ga,,"Gas Trần Gia, 500b P. Xã Đàn, Nam Đồng, Đống Đa, Hà Nội","Nam Đồng, Đống Đa",500b P. Xã Đàn,Hà Nội,,"Đống Đa, Hà Nội",VN,"21.01738,105.8311598"
611,ChIJgXnVhbirNTERGEVOSaLV0gw,Cửa hàng gas PeTroLiMex hùng anh,Cửa hàng,0353 353 337,"Cửa hàng gas PeTroLiMex hùng anh, 37/88 P. Trần Quý Cáp, Văn Chương, Đống Đa, Hà Nội","Văn Chương, Đống Đa",37/88 P. Trần Quý Cáp,Hà Nội,,"Đống Đa, Hà Nội",VN,"21.0252895,105.83994"
639,ChIJN7LRuBmIoDERGkF2iGn6Tr0,Cửa Hàng Gas Anh Thuận,Cửa hàng,,"Cửa Hàng Gas Anh Thuận, 31 Đ. Mậu Thân, Xuân Khánh, Ninh Kiều, Cần Thơ","Xuân Khánh, Ninh Kiều",31 Đ. Mậu Thân,Cần Thơ,,"Ninh Kiều, Cần Thơ",VN,"10.0405588,105.7676183"
660,ChIJIb_LOEiJoDERv_ImNQXvhd4,Đổi Gas - Bếp Gas Gia Hân,Cửa hàng tổng hợp,,"2QP4+WHQ Đổi Gas - Bếp Gas Gia Hân, Đ. Nguyễn Minh Quang, Phường An Khánh, Ninh Kiều, Cần Thơ","Phường An Khánh, Ninh Kiều","2QP4+WHQ, Đ. Nguyễn Minh Quang",Cần Thơ,,"Ninh Kiều, Cần Thơ",VN,"10.0373465,105.756478"
682,ChIJNS2XgciJoDEReL6_v42BZg0,Eagle Gas,Cửa hàng bán đồ điện tử,0782 995 792,"Eagle Gas, 12 Đ. 3 Tháng 2, Hưng Lợi, Ninh Kiều, Cần Thơ","Hưng Lợi, Ninh Kiều",12 Đ. 3 Tháng 2,Cần Thơ,,"Ninh Kiều, Cần Thơ",VN,"10.0155251,105.7543326"
692,ChIJQVqycdmJoDERJoji5etln-Y,Cửa hàng gas gạo Hưng Thịnh,Cửa hàng gạo,0932 838 458,"Cửa hàng gas gạo Hưng Thịnh, Đường huyện 19, Cần Thơ","Phường An Khánh, Ninh Kiều",Đường huyện 19,Cần Thơ,,"Ninh Kiều, Cần Thơ",VN,"10.045161799999999,105.7468535"
695,ChIJO7lS7TSIoDERdPcsa2SY6eU,Đại Lý Gas & Bếp Gas Châu Giang,Cửa hàng bán dụng cụ sửa nhà,0292 3838 661,"Đại Lý Gas & Bếp Gas Châu Giang, 6 Đ. Trần Hoàng Na, Hưng Lợi, Ninh Kiều, Cần Thơ","Hưng Lợi, Ninh Kiều",6 Đ. Trần Hoàng Na,Cần Thơ,,"Ninh Kiều, Cần Thơ",VN,"10.0141165,105.7628148"
699,ChIJkX9IuhCIoDERsGXMMck719U,Công Ty Tnhh Dầu Khí Nam Bộ,Trạm xăng,,"Công Ty Tnhh Dầu Khí Nam Bộ, 4 Đ. Mậu Thân, An Nghiệp, Ninh Kiều, Cần Thơ","An Nghiệp, Ninh Kiều",4 Đ. Mậu Thân,Cần Thơ,,"Ninh Kiều, Cần Thơ",VN,"10.0395828,105.7689331"
702,ChIJO7mV1giJoDEReRuQxzQHv_Y,CH Xăng Dầu Hoàng Yến 9,Trạm xăng,0292 3798 389,"CH Xăng Dầu Hoàng Yến 9, 306 Nguyễn Văn Cừ Nối Dài, An Bình, Ninh Kiều, Cần Thơ","An Bình, Ninh Kiều",306 Nguyễn Văn Cừ Nối Dài,Cần Thơ,,"Ninh Kiều, Cần Thơ",VN,"10.017870499999999,105.7388529"
710,ChIJG-u6I7-JoDERpnfS1pRtQ2U,Cửa Hàng Gas Hừng Sáng,Cửa hàng nội thất,0292 3737 111,"Cửa Hàng Gas Hừng Sáng, 292, Khu Vực Yên Trung, Quốc Lộ 1A, Phường Lê Bình, Quận Cái Răng, Thành Phố Cần Thơ, Thường Thạnh, Cái Răng, Cần Thơ","Thường Thạnh, Cái Răng","292, Khu Vực Yên Trung, Quốc Lộ 1A, Phường Lê Bình, Quận Cái Răng, Thành Phố Cần Thơ",Cần Thơ,,"Cái Răng, Cần Thơ",VN,"9.9948018,105.75615409999999"
711,ChIJgxSmocGJoDERBbXrGwwksQ8,Gas Thành Mới,Cửa hàng ga,0919 334 969,"Gas Thành Mới, Ấp mỹ ái, Phong Điền, Cần Thơ","Ấp mỹ ái, Phong Điền",,Cần Thơ,,"Phong Điền, Cần Thơ",VN,"9.986868,105.712807"
714,ChIJpTRSMzmJoDERgQ21HM6VMTU,Cửa Hàng Gas A Hào,Trạm xăng,0292 3944 942,"Cửa Hàng Gas A Hào, 247, Ấp Mỹ Phước, Xã Mỹ Khánh, Huyện Phong Điền, Thành Phố Cần Thơ, Mỹ Khánh, Phong Điền, Cần Thơ","Mỹ Khánh, Phong Điền","247, Ấp Mỹ Phước, Xã Mỹ Khánh, Huyện Phong Điền, Thành Phố Cần Thơ",Cần Thơ,,"Phong Điền, Cần Thơ",VN,"9.9966402,105.7057607"
717,ChIJQXwLCK-JoDERi4jNZuzr6K0,Cửa Hàng Gas & Bếp Anh Hà,Cửa hàng bán dụng cụ sửa nhà,0292 3527 137,"Cửa Hàng Gas & Bếp Anh Hà, 102 ĐT923, An Bình, Ninh Kiều, Cần Thơ","An Bình, Ninh Kiều",102 ĐT923,Cần Thơ,,"Ninh Kiều, Cần Thơ",VN,"10.0039681,105.74389869999999"
718,ChIJtyGZ50SIoDER_jxaZdNFEBI,Công Ty TNHH TM DV Dương Sao Mai,Trạm xăng,0292 3688 799,"Công Ty TNHH TM DV Dương Sao Mai, 46-AC1, Đường 2, An Bình, Ninh Kiều, Cần Thơ","An Bình, Ninh Kiều","46-AC1, Đường 2",Cần Thơ,,"Ninh Kiều, Cần Thơ",VN,"10.02665,105.74839999999999"
725,ChIJDTgTvf2IoDERnOPY45jxQ0Q,Resolub,Trạm xăng,,"Resolub, Long Tuyền, Bình Thủy, Cần Thơ","Long Tuyền, Bình Thủy",,Cần Thơ,,"Bình Thủy, Cần Thơ",VN,"10.0151077,105.7272471"
736,ChIJqT21S4GJoDERikyBKgP7lOI,Trung Tâm Gas Và Bếp Gas Thu Hà,Cửa hàng bán dụng cụ sửa nhà,,"Trung Tâm Gas Và Bếp Gas Thu Hà, 106 QL1A, Ba Láng, Ninh Kiều, Cần Thơ","Ba Láng, Ninh Kiều",106 QL1A,Cần Thơ,,"Ninh Kiều, Cần Thơ",VN,"9.973851,105.7407219"
737,ChIJOYa7z2SPoDERAbN_gY774M8,Cửa Hàng Gas Ngọc Tính,Cửa hàng ga,0939 707 991,"2MHP+5V2 Cửa Hàng Gas Ngọc Tính, Giai Xuân, Phong Điền, Cần Thơ","Giai Xuân, Phong Điền",2MHP+5V2,Cần Thơ,,"Phong Điền, Cần Thơ",VN,"10.02791,105.68705899999999"
738,ChIJAQCcGwiJoDER11TRYC4Audg,Công Ty TNHH Vận Tải Xăng Dầu Sài Gòn - Cần Thơ,Trạm xăng,0918 727 673,"Công Ty TNHH Vận Tải Xăng Dầu Sài Gòn - Cần Thơ, 151 Nguyễn Văn Trường, Phường An Khánh, Ninh Kiều, Cần Thơ","Phường An Khánh, Ninh Kiều",151 Nguyễn Văn Trường,Cần Thơ,,"Ninh Kiều, Cần Thơ",VN,"10.0015243,105.7346816"
740,ChIJN7v0G5iJoDERo_w_1zrpS2s,Gas 24h,Công ty ga,,"Gas 24h, 286 Khu Vực Yên Hòa - P. Lê Bình - Q, Cái Răng, Cần Thơ 100000","Lê Bình, Cái Răng",286 Khu Vực Yên Hòa - P. Lê Bình - Q,Cần Thơ,100000.0,"Cái Răng, Cần Thơ",VN,"9.9942612,105.7492683"
758,ChIJZXbaLt-JoDER5BGulywgk90,Xăng dầu Ngân Tín,Trạm xăng,,"Xăng dầu Ngân Tín, 1 Võ Tánh, Lê Bình, Cái Răng, Cần Thơ 90000","Lê Bình, Cái Răng",1 Võ Tánh,Cần Thơ,90000.0,"Cái Răng, Cần Thơ",VN,"9.9973964,105.74341659999999"
765,ChIJj8OUKq6JoDERplbdiZaIJog,Chinh Giang 8 Petroleum Store,Trạm xăng,0292 3844 881,"Chinh Giang 8 Petroleum Store, 26/2, Vo Tanh Street, Cai Rang District, Can Tho City, Lê Bình, Cái Răng, Cần Thơ","Lê Bình, Cái Răng","26/2, Vo Tanh Street, Cai Rang District, Can Tho City",Cần Thơ,,"Cái Răng, Cần Thơ",VN,"10.004617399999999,105.74676629999999"
783,ChIJs3evvsyJoDERB7hrZVgoqSo,Đại Lý Gas 4.0,Cửa hàng nội thất,0292 3641 641,"Đại Lý Gas 4.0, 55 Đ. Trần Hoàng Na, Hưng Lợi, Ninh Kiều, Cần Thơ 94000","Hưng Lợi, Ninh Kiều",55 Đ. Trần Hoàng Na,Cần Thơ,94000.0,"Ninh Kiều, Cần Thơ",VN,"10.0106263,105.7655278"
785,ChIJJ2HRpzGIoDERNWYum_6VxBo,Đại Lý Gas Kim Phượng,Cửa hàng,0292 3838 975,"Đại Lý Gas Kim Phượng, 258 Đ. 30 Tháng 4, Hưng Lợi, Ninh Kiều, Cần Thơ","Hưng Lợi, Ninh Kiều",258 Đ. 30 Tháng 4,Cần Thơ,,"Ninh Kiều, Cần Thơ",VN,"10.019084399999999,105.76751689999999"
790,ChIJ-7wq2TmIoDERKdemadNXClI,Cửa Hàng Gas Lê Gia,Cửa hàng,,"Cửa Hàng Gas Lê Gia, 16A QL91B, Hưng Lợi, Ninh Kiều, Cần Thơ","Hưng Lợi, Ninh Kiều",16A QL91B,Cần Thơ,,"Ninh Kiều, Cần Thơ",VN,"10.0228523,105.7625463"
842,ChIJZUVjXy2IoDERNOS4sTTzPIs,Đại Lý Xăng Dầu Toàn Phát 2,Trạm xăng,0292 3839 877,"Đại Lý Xăng Dầu Toàn Phát 2, 220 Tầm Vu, Hưng Lợi, Ninh Kiều, Cần Thơ","Hưng Lợi, Ninh Kiều",220 Tầm Vu,Cần Thơ,,"Ninh Kiều, Cần Thơ",VN,"10.0126736,105.7704751"
867,ChIJI6sj0VSJoDERUgz9XsGMbXo,Cây Xăng Hữu Tỷ,Trạm xăng,,"Cây Xăng Hữu Tỷ, 35 Đ. 3 Tháng 2, Xuân Khánh, Ninh Kiều, Cần Thơ","Xuân Khánh, Ninh Kiều",35 Đ. 3 Tháng 2,Cần Thơ,,"Ninh Kiều, Cần Thơ",VN,"10.0315827,105.773277"
875,ChIJM3PJ-haJoDERXRD7GhFOfJc,Gas Ngọc Trân,Công ty ga,,"Gas Ngọc Trân, 137 Đ. Lý Tự Trọng, An Phú, Ninh Kiều, Cần Thơ","An Phú, Ninh Kiều",137 Đ. Lý Tự Trọng,Cần Thơ,,"Ninh Kiều, Cần Thơ",VN,"10.0365775,105.7773213"
