,place_id,name,main_category,phone,address,address_ward,address_street,address_city,address_postal_code,address_state,address_country_code,coordinates
0,ChIJ2VxpNHerNTERjdLZkNGVG7o,In Tam Tân cơ sở 2,Cửa hàng in ấn,0904 370 010,"In Tam Tân cơ sở 2, 10 ngách 5 360 Đường La Thành, Chợ Dừa, Đống Đa, Hà Nội","Chợ Dừa, Đống Đa",10 ngách 5 360 Đường La Thành,Hà Nội,,"Đống Đa, Hà Nội",VN,"21.022923499999997,105.82335979999999"
1,ChIJaTutKxarNTERgugBpqBkqJU,In Chất Lượng,Cửa hàng in ấn,0901 251 102,"In Chất Lượng, 2 B, Đ. Cầu Giấy, Láng Thượng, Ba Đình, Hà Nội","Láng Thượng, Ba Đình","2 B, Đ. Cầu Giấy",Hà Nội,,"Ba Đình, Hà Nội",VN,"21.0289984,105.8025837"
2,ChIJ0QRxBEKrNTERwokSznMZetM,In Lan Hương,Cửa hàng in ấn,024 3766 3843,"In Lan Hương, 2 Đ. Cầu Giấy, Láng Thượng, Đống Đa, Hà Nội","Láng Thượng, Đống Đa",2 Đ. Cầu Giấy,Hà Nội,,"Đống Đa, Hà Nội",VN,"21.0290695,105.80255149999999"
3,ChIJk8xNPH6rNTERMXFQITUg6Iw,CÔNG TY CỔ PHẦN IN NHANH VIỄN ĐÔNG,Cửa hàng in ấn,,"CÔNG TY CỔ PHẦN IN NHANH VIỄN ĐÔNG, 30 Ng. 178 P. Tây Sơn, Trung Liệt, Đống Đa, Hà Nội 100000","Trung Liệt, Đống Đa",30 Ng. 178 P. Tây Sơn,Hà Nội,100000.0,"Đống Đa, Hà Nội",VN,"21.0104521,105.8247756"
4,ChIJTQMY8J9ioDERiqJpBP62QrA,In Ấn Hải Lưu - In Quảng Cáo Giá Rẻ - CN Hòa Bình,Cửa hàng in ấn,0899 909 997,"In Ấn Hải Lưu - In Quảng Cáo Giá Rẻ - CN Hòa Bình, 19A Đại lộ Hoà Bình, Tân An, Ninh Kiều, Cần Thơ 94000","Tân An, Ninh Kiều",19A Đại lộ Hoà Bình,Cần Thơ,94000.0,"Ninh Kiều, Cần Thơ",VN,"10.0319851,105.7828139"
18,ChIJ2XIT4XCJoDERQw4_N11N9nM,In Ấn Hải Lưu - In Quảng Cáo Giá Rẻ - CN Mậu Thân,Cửa hàng in ấn,0899 909 997,"In Ấn Hải Lưu - In Quảng Cáo Giá Rẻ - CN Mậu Thân, 79B Mậu Thân Phường Xuân Khánh Ninh Kiều Can Tho City, 940000","An Phú, Ninh Kiều",79B Mậu Thân Phường Xuân Khánh Ninh Kiều Can Tho City,Cần Thơ,940000.0,"Ninh Kiều, Cần Thơ",VN,"10.030866999999999,105.7754551"
32,ChIJX7x5L4irNTERtKHDAzvVct4,Inchi in ấn quà tặng theo yêu cầu,Cửa hàng in ấn,0969 880 085,"Inchi in ấn quà tặng theo yêu cầu, Tòa C, 10 P. Chương Dương Độ, Chương Dương Độ, Hoàn Kiếm, Hà Nội","Chương Dương Độ, Hoàn Kiếm","Tòa C, 10 P. Chương Dương Độ",Hà Nội,,"Hoàn Kiếm, Hà Nội",VN,"21.0293644,105.8586167"
33,ChIJI79qzKCsNTERZN8SSBAEsAw,Đỗ In & Photocopy A4 A0,Cửa hàng in ấn,024 3556 3726,"Đỗ In & Photocopy A4 A0, 109 Đ. Trần Duy Hưng, Trung Hoà, Cầu Giấy, Hà Nội","Trung Hoà, Cầu Giấy",109 Đ. Trần Duy Hưng,Hà Nội,,"Cầu Giấy, Hà Nội",VN,"21.0107438,105.8001202"
34,ChIJxbcO10qrNTERFD4TyKnwUEQ,In màu Hà Nội,Văn phòng công ty,0983 837 864,"In màu Hà Nội, 108 P. Trần Quốc Vượng, Dịch Vọng Hậu, Cầu Giấy, Hà Nội","Dịch Vọng Hậu, Cầu Giấy",108 P. Trần Quốc Vượng,Hà Nội,,"Cầu Giấy, Hà Nội",VN,"21.0344382,105.7825786"
35,ChIJgaT_kXasNTERjpAvrcyZxVM,In Thiên Hằng,Cửa hàng in ấn,0975 500 211,"In Thiên Hằng, 85 P. Trần Đại Nghĩa, Bách Khoa, Hai Bà Trưng, Hà Nội 100000","Bách Khoa, Hai Bà Trưng",85 P. Trần Đại Nghĩa,Hà Nội,100000.0,"Hai Bà Trưng, Hà Nội",VN,"21.0042577,105.8456789"
36,ChIJIetRh0aJoDERBNgGvnxD6_c,Cty Hồng Minh Châu,Cửa hàng in ấn,0907 599 010,"Cty Hồng Minh Châu, 62 Trần Bạch Đằng, Phường An Khánh, Ninh Kiều, Cần Thơ 900000","Phường An Khánh, Ninh Kiều",62 Trần Bạch Đằng,Cần Thơ,900000.0,"Ninh Kiều, Cần Thơ",VN,"10.0371936,105.7540806"
49,ChIJJ-jtTEyrNTERXNiajPQzN6g,"In Tem nhãn, in bao bì, in decal, in tem dán - In Thiên Việt",Cửa hàng in ấn,0977 686 363,"In Tem nhãn, in bao bì, in decal, in tem dán - In Thiên Việt, 106 P. Tôn Đức Thắng, Quốc Tử Giám, Đống Đa, Hà Nội 10000","Quốc Tử Giám, Đống Đa",106 P. Tôn Đức Thắng,Hà Nội,10000.0,"Đống Đa, Hà Nội",VN,"21.0269528,105.8336789"
50,ChIJqSC6_AEsdTERaQm437FaMWE,In Nhanh Lấy Ngay Giá Rẻ VinPro,Cửa hàng in ấn,0848 802 888,"In Nhanh Lấy Ngay Giá Rẻ VinPro, 424B Tân Kỳ Tân Quý, P. Phú Thuận, Tân Phú, Thành phố Hồ Chí Minh 700000","P. Phú Thuận, Tân Phú",424B Tân Kỳ Tân Quý,Thành phố Hồ Chí Minh,700000.0,"Tân Phú, Thành phố Hồ Chí Minh",VN,"10.7992049,106.61759479999999"
63,ChIJRxSzOaopdTERQPSbCk-1u8k,In ấn trọn gói - In màu giá rẻ tại Gò Vấp,Cửa hàng in ấn,0961 338 977,"In ấn trọn gói - In màu giá rẻ tại Gò Vấp, 767 Đ. Phan Văn Trị, Phường 7, Gò Vấp, Thành phố Hồ Chí Minh 70000","Phường 7, Gò Vấp",767 Đ. Phan Văn Trị,Thành phố Hồ Chí Minh,70000.0,"Gò Vấp, Thành phố Hồ Chí Minh",VN,"10.82813,106.685339"
76,ChIJF6EVxZerNTERnKoO54CgVgU,IN ALPHA VIỆT NAM,Cửa hàng in ấn,024 3737 3060,"IN ALPHA VIỆT NAM, 460 P. Trần Quý Cáp, Văn Chương, Đống Đa, Hà Nội","Văn Chương, Đống Đa",460 P. Trần Quý Cáp,Hà Nội,,"Đống Đa, Hà Nội",VN,"21.0236432,105.8398495"
77,ChIJY_FFMlKrNTERHAYiIeIa8Hg,Công Ty In Phúc Gia - In Ấn Chuyên Nghiệp,Cửa hàng in ấn,0916 268 199,"Công Ty In Phúc Gia - In Ấn Chuyên Nghiệp, Lô D10-8 Cụm sản xuất làng nghề tập trung, Tân Triều, Thanh Trì, Hà Nội 10000","Tân Triều, Thanh Trì",Lô D10-8 Cụm sản xuất làng nghề tập trung,Hà Nội,10000.0,"Thanh Trì, Hà Nội",VN,"20.977114699999998,105.80742199999999"
78,ChIJW6Il4pOrNTERm_eXZBwO8-A,Cửa hàng in và văn phòng phẩm Thanh Nga,Cửa hàng in ấn,024 3942 8048,"Cửa hàng in và văn phòng phẩm Thanh Nga, 2 P. Dã Tượng, Trần Hưng Đạo, Hoàn Kiếm, Hà Nội","Trần Hưng Đạo, Hoàn Kiếm",2 P. Dã Tượng,Hà Nội,,"Hoàn Kiếm, Hà Nội",VN,"21.0241154,105.8466653"
79,ChIJYYasaDutNTERr2hWPVShEUE,PHOTOCOPY - IN ẤN THU HÀ,Cửa hàng in ấn,0865 366 882,"PHOTOCOPY - IN ẤN THU HÀ, 97 Trương Định, Hai Bà Trưng, Hà Nội","Trương Định, Hai Bà Trưng",97 Trương Định,Hà Nội,,"Hai Bà Trưng, Hà Nội",VN,"20.9931576,105.8496332"
80,ChIJv45PWRCsNTERn7svWXNwuCA,"In Card Visit, In Tờ Rơi Giá Rẻ Lấy Ngay - Thần Tốc & Giá Gốc",Cửa hàng in ấn,0902 472 266,"In Card Visit, In Tờ Rơi Giá Rẻ Lấy Ngay - Thần Tốc & Giá Gốc, 164 Khuất Duy Tiến, Nhân Chính, Thanh Xuân, Hà Nội","Nhân Chính, Thanh Xuân",164 Khuất Duy Tiến,Hà Nội,,"Thanh Xuân, Hà Nội",VN,"20.998742999999997,105.7980685"
81,ChIJD9VI2n6tNTERdt6RRylDumI,Công ty In Hồ Phúc,Cửa hàng in ấn,0936 474 716,"Công ty In Hồ Phúc, 45 P. Lương Định Của, Kim Liên, Đống Đa, Hà Nội 10000","Kim Liên, Đống Đa",45 P. Lương Định Của,Hà Nội,10000.0,"Đống Đa, Hà Nội",VN,"21.0041484,105.8357104"
82,ChIJiW9rjJetNTERM9OfJIr8lz0,In Đoàn Minh - Xưởng In Ấn Giá Gốc,Cửa hàng in ấn,0945 455 588,"In Đoàn Minh - Xưởng In Ấn Giá Gốc, 164 Khuất Duy Tiến, Nhân Chính, Thanh Xuân, Hà Nội 100000","Nhân Chính, Thanh Xuân",164 Khuất Duy Tiến,Hà Nội,100000.0,"Thanh Xuân, Hà Nội",VN,"20.999482699999998,105.7986755"
83,ChIJUzM4aTCJoDERann75HHSeCo,In Linh Cát - In ấn giá rẻ Cần Thơ,Cửa hàng in ấn,0292 3769 533,"In Linh Cát - In ấn giá rẻ Cần Thơ, 144 Đ. Phạm Ngũ Lão, Thới Bình, Ninh Kiều, Cần Thơ","Thới Bình, Ninh Kiều",144 Đ. Phạm Ngũ Lão,Cần Thơ,,"Ninh Kiều, Cần Thơ",VN,"10.0439324,105.77370669999999"
88,ChIJJQuHs_grdTER-3Zlyv3SVes,In Hòa Hiệp chuyên in túi giấy hộp giấy giá rẻ,Cửa hàng in ấn,0933 996 282,"In Hòa Hiệp chuyên in túi giấy hộp giấy giá rẻ, 102 Nguyễn Trường Tộ, Tân Thành, Tân Phú, Thành phố Hồ Chí Minh 700000","Tân Thành, Tân Phú",102 Nguyễn Trường Tộ,Thành phố Hồ Chí Minh,700000.0,"Tân Phú, Thành phố Hồ Chí Minh",VN,"10.792835799999999,106.6344608"
95,ChIJgzUBDjSrNTERePwFAeJwti4,In Tiết Kiệm - Dịch vụ in ấn giá rẻ hàng đầu Hà Nội,Dịch vụ đặt in,0812 445 555,"In Tiết Kiệm - Dịch vụ in ấn giá rẻ hàng đầu Hà Nội, 36 Ngõ 190 Hoàng Quốc Việt, Cổ Nhuế, Cầu Giấy, Hà Nội 11308","Cổ Nhuế, Cầu Giấy",36 Ngõ 190 Hoàng Quốc Việt,Hà Nội,11308.0,"Cầu Giấy, Hà Nội",VN,"21.046366499999998,105.78880529999999"
96,ChIJi9zkY5WrNTERvhUP-CS-tys,In nhanh VDC,Cửa hàng in ấn,024 3825 5674,"In nhanh VDC, 20 P. Phan Huy Ích, Nguyễn Trung Trực, Ba Đình, Hà Nội","Nguyễn Trung Trực, Ba Đình",20 P. Phan Huy Ích,Hà Nội,,"Ba Đình, Hà Nội",VN,"21.041221699999998,105.84569189999999"
108,ChIJj6myWp0vdTERv7ObR3NhEbE,IN CHẤT LƯỢNG CAO VIỆT NAM,Cửa hàng in ấn,1900 2238,"IN CHẤT LƯỢNG CAO VIỆT NAM, 132 Đường số 79, Tân Quy, Quận 7, Thành phố Hồ Chí Minh","Tân Quy, Quận 7",132 Đường số 79,Thành phố Hồ Chí Minh,,"Quận 7, Thành phố Hồ Chí Minh",VN,"10.7406793,106.7066535"
112,ChIJhw_1braJoDERZJ9kZNX_oJU,Thiệp Cưới Độc Lạ 1986 Cần Thơ,Cửa hàng in ấn,0773 320 332,"Thiệp Cưới Độc Lạ 1986 Cần Thơ, 13 Hẻm 14 Đ. Bà Huyện Thanh Quan, Thới Bình, Ninh Kiều, Cần Thơ 94000","Thới Bình, Ninh Kiều",13 Hẻm 14 Đ. Bà Huyện Thanh Quan,Cần Thơ,94000.0,"Ninh Kiều, Cần Thơ",VN,"10.045807499999999,105.7784224"
117,ChIJHwayG0OrNTERDxnYsi9u8Mg,In Lấy Ngay,Cửa hàng in ấn,024 6682 6686,"In Lấy Ngay, Ng. Giếng/27 P. Đông Các, Chợ Dừa, Đống Đa, Hà Nội","Chợ Dừa, Đống Đa",Ng. Giếng/27 P. Đông Các,Hà Nội,,"Đống Đa, Hà Nội",VN,"21.0182885,105.8276236"
123,ChIJx1ky0j5fRyoRwQ--23sj2wA,In Ly Cần Thơ- Bao bì Sắc Màu,Cửa hàng in ấn,0899 678 983,"In Ly Cần Thơ- Bao bì Sắc Màu, Đường số 11, Hưng Phú, Cái Răng, Cần Thơ","Hưng Phú, Cái Răng",Đường số 11,Cần Thơ,,"Cái Răng, Cần Thơ",VN,"10.022889099999999,105.7855467"
126,ChIJRZ_Y7pRIDGMRppWFI3i0LDA,EPrint - In ấn & Thiết kế độc quyền,Cửa hàng in ấn,0862 669 129,"EPrint - In ấn & Thiết kế độc quyền, 23 Ng. 28 P. Nguyên Hồng, Láng Hạ, Đống Đa, Hà Nội 100000","Láng Hạ, Đống Đa",23 Ng. 28 P. Nguyên Hồng,Hà Nội,100000.0,"Đống Đa, Hà Nội",VN,"21.0169668,105.8105482"
130,ChIJF4TUwYeJoDERz3G7_t-dqS4,CTY CP TRUYỀN THÔNG QUẢNG CÁO KTG,Cửa hàng in ấn,0704 851 998,"CTY CP TRUYỀN THÔNG QUẢNG CÁO KTG, 411A Đ. Nguyễn Văn Cừ, An Bình, Ninh Kiều, Cần Thơ","An Bình, Ninh Kiều",411A Đ. Nguyễn Văn Cừ,Cần Thơ,,"Ninh Kiều, Cần Thơ",VN,"10.0207978,105.74231069999999"
132,ChIJQaUX6TEpdTER2zM50ZWwsVM,Invietsun24hn.com - Chuyên in tờ rơi danh thiếp giá xưởng,Dịch vụ in ấn giấy mời,0982 386 316,"Invietsun24hn.com - Chuyên in tờ rơi danh thiếp giá xưởng, 496/32/6 Đường Đ. Dương Quảng Hàm, Phường 6, Gò Vấp, Thành phố Hồ Chí Minh 70000","Phường 6, Gò Vấp",496/32/6 Đường Đ. Dương Quảng Hàm,Thành phố Hồ Chí Minh,70000.0,"Gò Vấp, Thành phố Hồ Chí Minh",VN,"10.836158,106.6850075"
133,ChIJK54LmJGsNTERSaOi1eTLGkA,In Kinh Bắc,Cửa hàng in ấn,0917 230 880,"In Kinh Bắc, 243 P. Vũ Tông Phan, Khương Trung, Thanh Xuân, Hà Nội 100000","Khương Trung, Thanh Xuân",243 P. Vũ Tông Phan,Hà Nội,100000.0,"Thanh Xuân, Hà Nội",VN,"20.9948341,105.81507579999999"
134,ChIJG3-hT2OrNTER0JIYkwFFvg0,In nhanh ánh sáng,Cửa hàng in ấn,0989 391 595,"In nhanh ánh sáng, 344 P. Thái Hà, Chợ Dừa, Đống Đa, Hà Nội 100000","Chợ Dừa, Đống Đa",344 P. Thái Hà,Hà Nội,100000.0,"Đống Đa, Hà Nội",VN,"21.0157861,105.81661469999999"
135,ChIJmX8RQ4isNTERhF5D4aBHLtA,CÔNG TY IN ĐÔNG NAM,Cửa hàng in ấn,024 3566 8470,"CÔNG TY IN ĐÔNG NAM, 76 P. Hoàng Văn Thái, Khương Trung, Thanh Xuân, Hà Nội","Khương Trung, Thanh Xuân",76 P. Hoàng Văn Thái,Hà Nội,,"Thanh Xuân, Hà Nội",VN,"20.996394799999997,105.8268635"
136,ChIJk_Bc9SCIoDERxZmROdl_dGc,Công Ty DNTN In Thủy Nguyên,Cửa hàng,0292 3829 975,"Công Ty DNTN In Thủy Nguyên, 138 Nguyễn Thị Minh Khai, An Lạc, Ninh Kiều, Cần Thơ","An Lạc, Ninh Kiều",138 Nguyễn Thị Minh Khai,Cần Thơ,,"Ninh Kiều, Cần Thơ",VN,"10.0258541,105.781307"
146,ChIJ-_sLovCJoDERdjWUVzsA6OI,In Ảnh Giá Rẻ 1k Cần Thơ,Cửa hàng in ấn,0986 217 006,"In Ảnh Giá Rẻ 1k Cần Thơ, Bờ Hồ Búng Xáng/10a/1 Hẻm 51, Xuân Khánh, Ninh Kiều, Cần Thơ","Xuân Khánh, Ninh Kiều",Bờ Hồ Búng Xáng/10a/1 Hẻm 51,Cần Thơ,,"Ninh Kiều, Cần Thơ",VN,"10.0266124,105.76478399999999"
147,ChIJx1q3cEurNTERQVUYyN-aKT4,In sách giá rẻ - in màu giá rẻ - In Minh Vương,Cửa hàng in ấn,0902 249 828,"In sách giá rẻ - in màu giá rẻ - In Minh Vương, 69 Ng. 66 P. Dịch Vọng Hậu, Dịch Vọng Hậu, Cầu Giấy, Hà Nội 11310","Dịch Vọng Hậu, Cầu Giấy",69 Ng. 66 P. Dịch Vọng Hậu,Hà Nội,11310.0,"Cầu Giấy, Hà Nội",VN,"21.0318988,105.78454119999999"
151,ChIJwWG65S8pdTERF3oc4deZRfw,In Kiến An Phát,Cửa hàng in ấn,0906 716 196,"In Kiến An Phát, 46/10/58, Đ. Nguyễn Cửu Vân, P.17, Bình Thạnh, Thành phố Hồ Chí Minh 700000","P.17, Bình Thạnh","46/10/58, Đ. Nguyễn Cửu Vân",Thành phố Hồ Chí Minh,700000.0,"Bình Thạnh, Thành phố Hồ Chí Minh",VN,"10.7965182,106.70743159999999"
159,ChIJ91VdbBarNTER1QIy7A7LO98,In An Việt,Cửa hàng in ấn,0912 845 156,"In An Việt, 3 Ngách 8 Ngõ 76, Dịch Vọng Hậu, Cầu Giấy, Hà Nội 100000","Dịch Vọng Hậu, Cầu Giấy",3 Ngách 8 Ngõ 76,Hà Nội,100000.0,"Cầu Giấy, Hà Nội",VN,"21.0319351,105.7842948"
160,ChIJpx0cLBOrNTERLsECoay8OSo,"Xưởng in catalogue giá rẻ, in ấn tờ rơi, tem nhãn, card visit nhanh - Công ty in Thủ Đô",Cửa hàng in ấn,0983 828 800,"Xưởng in catalogue giá rẻ, in ấn tờ rơi, tem nhãn, card visit nhanh - Công ty in Thủ Đô, 55 P. Hồ Văn Chương, Thổ Quan, Đống Đa, Hà Nội 100000","Thổ Quan, Đống Đa",55 P. Hồ Văn Chương,Hà Nội,100000.0,"Đống Đa, Hà Nội",VN,"21.0208902,105.833221"
161,ChIJ4QxmgaKsNTER-LH7XSczMTM,Xưởng in Đông Dương,Cửa hàng in ấn,0789 341 666,"Xưởng in Đông Dương, Cạnh Hồ, Số 10 Ngõ 26 Võ Văn Dũng, P. Hoàng Cầu, Chợ Dừa, Đống Đa, Hà Nội","Chợ Dừa, Đống Đa","Cạnh Hồ, Số 10 Ngõ 26 Võ Văn Dũng, P. Hoàng Cầu",Hà Nội,,"Đống Đa, Hà Nội",VN,"21.0156545,105.82387159999999"
167,ChIJhxNb8duJoDERaIXtGXZLuzg,NTD,Cửa hàng in ấn,0813 618 050,"NTD, 9/86, KDC văn minh/324 Đ. 30 Tháng 4, Xuân Khánh, Ninh Kiều, Cần Thơ","Xuân Khánh, Ninh Kiều","9/86, KDC văn minh/324 Đ. 30 Tháng 4",Cần Thơ,,"Ninh Kiều, Cần Thơ",VN,"10.0236313,105.7715324"
173,ChIJfy1-lgmtNTERKGYymFcm55c,In tem nhãn giá rẻ tại Hà Nội - inanhd.com,Cửa hàng in ấn,0941 083 668,"In tem nhãn giá rẻ tại Hà Nội - inanhd.com, ̃79 tổ 1, Ng. 123, Bằng A, Hoàng Mai, Hà Nội 10000","Bằng A, Hoàng Mai","̃79 tổ 1, Ng. 123",Hà Nội,10000.0,"Hoàng Mai, Hà Nội",VN,"20.9598855,105.82161149999999"
174,ChIJIXpIrMGrNTERpRsVA93FoNo,Nhà In Báo Nhân Dân,Cửa hàng in ấn,0976 600 768,"Nhà In Báo Nhân Dân, 15 P. Hàng Tre, Phố cổ Hà Nội, Hoàn Kiếm, Hà Nội 100000","Phố cổ Hà Nội, Hoàn Kiếm",15 P. Hàng Tre,Hà Nội,100000.0,"Hoàn Kiếm, Hà Nội",VN,"21.0328861,105.8554375"
175,ChIJY4Gi_sarNTERQDPSKvSKfAA,In Phúc Lâm,Cửa hàng in ấn,0862 628 896,"In Phúc Lâm, 460 P. Trần Quý Cáp, Văn Chương, Đống Đa, Hà Nội 11500","Văn Chương, Đống Đa",460 P. Trần Quý Cáp,Hà Nội,11500.0,"Đống Đa, Hà Nội",VN,"21.0224719,105.8399235"
181,ChIJqezkxLOJoDERQysPrJamI9w,CÔNG TY TNHH TMDV IN ẤN TRƯƠNG GIA PHƯỚC,Cửa hàng in ấn,0919 845 348,"CÔNG TY TNHH TMDV IN ẤN TRƯƠNG GIA PHƯỚC, 311 Đ. Nguyễn Văn Cừ, An Hoà, Ninh Kiều, Cần Thơ 900000","An Hoà, Ninh Kiều",311 Đ. Nguyễn Văn Cừ,Cần Thơ,900000.0,"Ninh Kiều, Cần Thơ",VN,"10.046208499999999,105.7680759"
182,ChIJw6H2VQAsdTER36F_KFOy2dM,Công Ty Tnhh Tm In Ấn Việt,Cửa hàng in ấn,0932 032 777,"Công Ty Tnhh Tm In Ấn Việt, 414/11F, Tân Kỳ Tân Quý, P. Phú Thuận, Tân Phú, Thành phố Hồ Chí Minh 700000","P. Phú Thuận, Tân Phú","414/11F, Tân Kỳ Tân Quý",Thành phố Hồ Chí Minh,700000.0,"Tân Phú, Thành phố Hồ Chí Minh",VN,"10.8025102,106.63199709999999"
202,ChIJRSSpoB-JoDERcdFp_3hA0ew,Thiệp cưới GIÁ TỐT - Cần Thơ (Mâm Quả GIÁ TỐT - Name Card - Đẹp),Cửa hàng in ấn,0772 822 353,"Thiệp cưới GIÁ TỐT - Cần Thơ (Mâm Quả GIÁ TỐT - Name Card - Đẹp), 41/D7, Đ. Mạc Thiên Tích, Xuân Khánh, Ninh Kiều, Cần Thơ","Xuân Khánh, Ninh Kiều","41/D7, Đ. Mạc Thiên Tích",Cần Thơ,,"Ninh Kiều, Cần Thơ",VN,"10.0287278,105.7735275"
207,ChIJnwaeWDGIoDER2Uvhcdk6M98,Công ty Cổ phần In Tổng Hợp Cần Thơ,Cửa hàng in ấn,0292 3838 852,"Công ty Cổ phần In Tổng Hợp Cần Thơ, 500 Đ. 30 Tháng 4, Hưng Lợi, Ninh Kiều, Cần Thơ","Hưng Lợi, Ninh Kiều",500 Đ. 30 Tháng 4,Cần Thơ,,"Ninh Kiều, Cần Thơ",VN,"10.018198,105.7664561"
208,ChIJ61AOp2KrNTERUktfNSepSsA,Công ty in ấn thiết kế INT,Cửa hàng in ấn,0961 243 824,"Công ty in ấn thiết kế INT, Ng. 83B Tân Triều Mới/4B mới, Tân Triều, Thanh Trì, Hà Nội 100000","Tân Triều, Thanh Trì",Ng. 83B Tân Triều Mới/4B mới,Hà Nội,100000.0,"Thanh Trì, Hà Nội",VN,"20.9774743,105.80450169999999"
213,ChIJzVyuXqovdTERXK0VVN8U9qA,Công Ty In An Đăng,Cửa hàng in ấn,,"Công Ty In An Đăng, 1B1 Cư Xá Đồng Tiến, Phường 14, Quận 10, Thành phố Hồ Chí Minh","Phường 14, Quận 10",1B1 Cư Xá Đồng Tiến,Thành phố Hồ Chí Minh,,"Quận 10, Thành phố Hồ Chí Minh",VN,"10.7700544,106.6645899"
217,ChIJr_C_sh6IoDERcAJNpDXdW2A,Công Ty TNHH Vĩnh Hoàng (Thiệp cưới Vĩnh Hoàng),Cửa hàng in ấn,0913 721 946,"Công Ty TNHH Vĩnh Hoàng (Thiệp cưới Vĩnh Hoàng), 145 Đ. Lý Tự Trọng, An Phú, Ninh Kiều, Cần Thơ 94114","An Phú, Ninh Kiều",145 Đ. Lý Tự Trọng,Cần Thơ,94114.0,"Ninh Kiều, Cần Thơ",VN,"10.036833,105.77702629999999"
222,ChIJnd82JxApdTERSWmqbjhxezM,Xưởng in offset gia công giá rẻ TPHCM,Cửa hàng in ấn,0903 625 966,"Xưởng in offset gia công giá rẻ TPHCM, 9 Vạn Hạnh, Tân Thành, Tân Phú, Thành phố Hồ Chí Minh","Tân Thành, Tân Phú",9 Vạn Hạnh,Thành phố Hồ Chí Minh,,"Tân Phú, Thành phố Hồ Chí Minh",VN,"10.7938166,106.6369971"
230,ChIJnSfyjcOJoDERCqr7zY_ZCP0,Xmagic - In ấn Kỹ thuật số - In ấn Quảng cáo trên mọi chất liệu,Cửa hàng in ấn,0901 524 464,"Xmagic - In ấn Kỹ thuật số - In ấn Quảng cáo trên mọi chất liệu, 107 Hẻm 132 Đ. 3 Tháng 2, Hưng Lợi, Ninh Kiều, Cần Thơ 910000","Hưng Lợi, Ninh Kiều",107 Hẻm 132 Đ. 3 Tháng 2,Cần Thơ,910000.0,"Ninh Kiều, Cần Thơ",VN,"10.0161596,105.7619289"
231,ChIJMdL8hB0pdTERN9hCkZ6IMbg,Công ty In Ấn Đẹp,Cửa hàng in ấn,0975 222 200,"Công ty In Ấn Đẹp, 891/77/4 Nguyễn Kiệm, Phường 3, Gò Vấp, Thành phố Hồ Chí Minh","Phường 3, Gò Vấp",891/77/4 Nguyễn Kiệm,Thành phố Hồ Chí Minh,,"Gò Vấp, Thành phố Hồ Chí Minh",VN,"10.8199971,106.6761982"
258,ChIJbVay8_iJoDERM6i-aKy98VM,In Giá Rẻ Cần Thơ - Công ty in Vĩnh Trị,Cửa hàng in ấn,0903 918 355,"In Giá Rẻ Cần Thơ - Công ty in Vĩnh Trị, TP, 32X4/4, KV3, P, Ninh Kiều, Cần Thơ 900000","P, Ninh Kiều","TP, 32X4/4, KV3",Cần Thơ,900000.0,"Ninh Kiều, Cần Thơ",VN,"10.0284158,105.76009549999999"
264,ChIJQ7rSCYcudTERmziUCzJJ8F4,In Nhanh Rẻ Đẹp,Máy in công nghiệp,0902 619 188,"In Nhanh Rẻ Đẹp, 532/3/33 Kinh Dương Vương, P.An Lạc, Q.Bình Tân, Thành phố Hồ Chí Minh, 700000","An Lạc, Thành phố Hồ Chí Minh","532/3/33 Kinh Dương Vương, P.An Lạc, Q.Bình Tân",Thành phố Hồ Chí Minh,700000.0,Thành phố Hồ Chí Minh,VN,"10.7341576,106.6109323"
268,ChIJW-OulsOJoDER-55jNkP01y0,IN LY CẦN THƠ - CÔNG TY ĐẠI TÍN,Cửa hàng in ấn,0917 274 747,"IN LY CẦN THƠ - CÔNG TY ĐẠI TÍN, 241 Đ. Trần Hoàng Na, Hưng Lợi, Ninh Kiều, Cần Thơ 900000","Hưng Lợi, Ninh Kiều",241 Đ. Trần Hoàng Na,Cần Thơ,900000.0,"Ninh Kiều, Cần Thơ",VN,"10.014886899999999,105.761549"
273,ChIJL5HRHNGJoDERyvq4ZUao0CA,"TƯ VẤN THIẾT KẾ ĐỒ HỌA, IN ẤN QUẢNG CÁO NHẤT TÍN",Nhà thiết kế đồ họa,0907 658 689,"TƯ VẤN THIẾT KẾ ĐỒ HỌA, IN ẤN QUẢNG CÁO NHẤT TÍN, 68/22 Đ. Cách Mạng Tháng 8, Cái Khế, Ninh Kiều, Cần Thơ 900000","Cái Khế, Ninh Kiều",68/22 Đ. Cách Mạng Tháng 8,Cần Thơ,900000.0,"Ninh Kiều, Cần Thơ",VN,"10.0541146,105.7727812"
274,ChIJsX1rgvCHoDERq8wwNCmJSco,in ấn Ngọc Minh - Min Printing,Nhà sản xuất,0902 517 253,"in ấn Ngọc Minh - Min Printing, 444/47c Đ. Cách Mạng Tháng 8, An Thới, Bình Thủy, Cần Thơ","An Thới, Bình Thủy",444/47c Đ. Cách Mạng Tháng 8,Cần Thơ,,"Bình Thủy, Cần Thơ",VN,"10.0688196,105.760088"
279,ChIJxTZQ0pKJoDER4FqrRx4NskU,IN DANH THIẾP CẦN THƠ,Cửa hàng in ấn,,"IN DANH THIẾP CẦN THƠ, 3/11K2/3 Đường vào Sân Cầu Lông, Phường An Khánh, Ninh Kiều, Cần Thơ","Phường An Khánh, Ninh Kiều",3/11K2/3 Đường vào Sân Cầu Lông,Cần Thơ,,"Ninh Kiều, Cần Thơ",VN,"10.0261348,105.76270369999999"
282,ChIJOeBDHeGHoDERGds_-Sn8gP8,Công Ty Tnhh In Ấn Hưng Xương,Nhà xuất bản,,"Công Ty Tnhh In Ấn Hưng Xương, 559A Trần Quang Diệu, An Thới, Bình Thủy, Cần Thơ","An Thới, Bình Thủy",559A Trần Quang Diệu,Cần Thơ,,"Bình Thủy, Cần Thơ",VN,"10.0588783,105.7616286"
288,ChIJZ4c6hSmJoDER8Up3zpjobsE,Công ty TNHH Thiết Kế In Ấn Huỳnh Trấn Hưng,Cửa hàng đồ gia dụng,0903 912 809,"Công ty TNHH Thiết Kế In Ấn Huỳnh Trấn Hưng, 147 Đường B13, Hưng Lợi, Ninh Kiều, Cần Thơ","Hưng Lợi, Ninh Kiều",147 Đường B13,Cần Thơ,,"Ninh Kiều, Cần Thơ",VN,"10.021255199999999,105.7551579"
289,ChIJXbHgYVWIoDERxCEyTsCWgpY,CÔNG TY QUẢNG CÁO ĐẤT LÀNH - Cần Thơ,Cơ quan quảng cáo,0939 043 245,"CÔNG TY QUẢNG CÁO ĐẤT LÀNH - Cần Thơ, Đ. Xuân Hồng, An Bình, Ninh Kiều, Cần Thơ 94000","An Bình, Ninh Kiều",Đ. Xuân Hồng,Cần Thơ,94000.0,"Ninh Kiều, Cần Thơ",VN,"10.018948,105.7391614"
290,ChIJ0Ygmq1YpdTERkqMHFH0k1QE,in nhanh rẻ tân bình,Cửa hàng in ấn,0962 115 577,"in nhanh rẻ tân bình, 44-46 Đ. Trường Chinh, Phường 4, Tân Bình, Thành phố Hồ Chí Minh 008428","Phường 4, Tân Bình",44-46 Đ. Trường Chinh,Thành phố Hồ Chí Minh,8428.0,"Tân Bình, Thành phố Hồ Chí Minh",VN,"10.7935996,106.6526348"
291,ChIJ0YXVkxwpdTERwEQuaV3FKIo,Quảng Cáo - In Ấn SaGo,Cửa hàng in ấn,0966 595 634,"Quảng Cáo - In Ấn SaGo, 263 Đ. Phan Văn Trị, P.11, Bình Thạnh, Thành phố Hồ Chí Minh 700000","P.11, Bình Thạnh",263 Đ. Phan Văn Trị,Thành phố Hồ Chí Minh,700000.0,"Bình Thạnh, Thành phố Hồ Chí Minh",VN,"10.8145505,106.69519009999999"
292,ChIJT1whFAgsdTERpYBHcjaHtGo,CÔNG TY TNHH THIẾT KẾ VÀ IN ẤN BAO BÌ VIỆT NAM,Công ty thiết kế,0934 139 869,"CÔNG TY TNHH THIẾT KẾ VÀ IN ẤN BAO BÌ VIỆT NAM, 90/7 Đỗ Thừa Luông, Tân Quý, Tân Phú, Thành phố Hồ Chí Minh","Tân Quý, Tân Phú",90/7 Đỗ Thừa Luông,Thành phố Hồ Chí Minh,,"Tân Phú, Thành phố Hồ Chí Minh",VN,"10.7927324,106.61612609999999"
305,ChIJj1RL-9GJoDERdR4YdWJqXhI,Vũ Hoà Photocopy In Màu Giá Rẻ Cần Thơ,Cửa hàng in ấn,0704 840 000,"Vũ Hoà Photocopy In Màu Giá Rẻ Cần Thơ, 96/5 Đ. Nguyễn Thần Hiến, P, Ninh Kiều, Cần Thơ 94000","P, Ninh Kiều",96/5 Đ. Nguyễn Thần Hiến,Cần Thơ,94000.0,"Ninh Kiều, Cần Thơ",VN,"10.036168,105.7787852"
308,ChIJscpYWXerNTERnDgIFuCHnUs,In Thiệp Cưới Mã Đại Phúc,Cửa hàng in ấn,0942 979 284,"In Thiệp Cưới Mã Đại Phúc, 358 A Đường, Đ. La Thành, Chợ Dừa, Đống Đa, Hà Nội 100000","Chợ Dừa, Đống Đa","358 A Đường, Đ. La Thành",Hà Nội,100000.0,"Đống Đa, Hà Nội",VN,"21.0223551,105.8235457"
309,ChIJv5aPqgeIoDEReYiEb-_PXzg,Photocopy 26,Cửa hàng in ấn,,"Photocopy 26, 26 Đ. Cách Mạng Tháng 8, Thới Bình, Ninh Kiều, Cần Thơ","Thới Bình, Ninh Kiều",26 Đ. Cách Mạng Tháng 8,Cần Thơ,,"Ninh Kiều, Cần Thơ",VN,"10.0459517,105.7796683"
311,ChIJteGrQnesNTERfIagNFZPLt0,Cơ Sở In Hồ Gươm Siêu Tốc,Cửa hàng in ấn,,"Cơ Sở In Hồ Gươm Siêu Tốc, 43 Giải Phóng, Phương Mai, Hai Bà Trưng, Hà Nội","Phương Mai, Hai Bà Trưng",43 Giải Phóng,Hà Nội,,"Hai Bà Trưng, Hà Nội",VN,"21.0048492,105.8416397"
312,ChIJKRgdhG2JoDERdtJUNuCy-o8,Big Happy - Cửa Hàng Phụ Kiện Trang Trí Tiệc - In Ấn Thiết Kế Theo Yêu Cầu,Cửa hàng,0902 077 006,"Big Happy - Cửa Hàng Phụ Kiện Trang Trí Tiệc - In Ấn Thiết Kế Theo Yêu Cầu, 131 Đ. Mậu Thân, An Hoà, Ninh Kiều, Cần Thơ","An Hoà, Ninh Kiều",131 Đ. Mậu Thân,Cần Thơ,,"Ninh Kiều, Cần Thơ",VN,"10.046195899999999,105.7629008"
315,ChIJ7_xBQEeIoDER9rLdHaA6vQ4,In ấn Văn Thành Nam,Cửa hàng in ấn,0913 539 534,"In ấn Văn Thành Nam, 335 Đ. Nguyễn Văn Linh, Phường An Khánh, Ninh Kiều, Cần Thơ","Phường An Khánh, Ninh Kiều",335 Đ. Nguyễn Văn Linh,Cần Thơ,,"Ninh Kiều, Cần Thơ",VN,"10.0261357,105.75769199999999"
330,ChIJscIaInWsNTER4pDErG2Br78,Công Ty In Phú Hà,Cửa hàng in ấn,024 3863 1674,"Công Ty In Phú Hà, 193 P. Bạch Mai, Thanh Nhàn, Hai Bà Trưng, Hà Nội 10000","Thanh Nhàn, Hai Bà Trưng",193 P. Bạch Mai,Hà Nội,10000.0,"Hai Bà Trưng, Hà Nội",VN,"21.004818,105.851232"
331,ChIJ3dRUoiyJoDERrfqdVebB98E,Công ty Vật tư quảng cáo - in ấn Phát Thành,Cửa hàng,0914 333 713,"Công ty Vật tư quảng cáo - in ấn Phát Thành, 520C8 Nguyễn Văn Linh Cần Thơ Can Tho City, 903148","Long Hoà, Bình Thủy",520C8 Nguyễn Văn Linh Cần Thơ Can Tho City,Cần Thơ,903148.0,"Bình Thủy, Cần Thơ",VN,"10.0393984,105.74195929999999"
334,ChIJ0wQ4y1OJoDERSknMgqrsrH8,Công ty TNHH SX TMDV Hải Minh Phát,Cửa hàng in ấn,0939 180 020,"Công ty TNHH SX TMDV Hải Minh Phát, 162c 4, Đ. Trần Ngọc Quế, Xuân Khánh, Ninh Kiều, Cần Thơ","Xuân Khánh, Ninh Kiều","162c 4, Đ. Trần Ngọc Quế",Cần Thơ,,"Ninh Kiều, Cần Thơ",VN,"10.0247007,105.7684961"
336,ChIJKXPVGvZjoDERke5UIseaL3k,Thiệp Cưới Nguyên Nguyên Đạt Cần Thơ,Dịch vụ in ấn giấy mời,0932 953 650,"Thiệp Cưới Nguyên Nguyên Đạt Cần Thơ, 22 Trần Quang Khải, Cái Khế, Ninh Kiều Cần Thơ Can Tho City, 900000","An Hội, Ninh Kiều","22 Trần Quang Khải, Cái Khế, Ninh Kiều Cần Thơ Can Tho City",Cần Thơ,900000.0,"Ninh Kiều, Cần Thơ",VN,"10.0447422,105.78220239999999"
338,ChIJF2Znq_6HoDERpU-3wsULhrA,CTY IN & QUẢNG CÁO TOÀN THẮNG,Cửa hàng in ấn,0862 502 250,"CTY IN & QUẢNG CÁO TOÀN THẮNG, TP, 581N Trần Quang Diệu, P, Bình Thủy, Cần Thơ 942140","P, Bình Thủy","TP, 581N Trần Quang Diệu",Cần Thơ,942140.0,"Bình Thủy, Cần Thơ",VN,"10.053458,105.74956979999999"
339,ChIJaXpLlJ-rNTER9wjykHnByug,Cửa Hàng Quảng Cáo & In Ấn,Cửa hàng bán biển hiệu,024 3733 2812,"Cửa Hàng Quảng Cáo & In Ấn, 134, Đường Nguyễn Thái Học, Cát Linh, Đống Đa, Hà Nội","Cát Linh, Đống Đa","134, Đường Nguyễn Thái Học",Hà Nội,,"Đống Đa, Hà Nội",VN,"21.031254099999998,105.83075269999999"
340,ChIJtSZiCzSIoDERS2Mh4hCVzy0,Tiệm Photocopy Đoàn,Cửa hàng in ấn,0906 857 037,"Tiệm Photocopy Đoàn, 584 Hẻm 553, Hưng Lợi, Ninh Kiều, Cần Thơ","Hưng Lợi, Ninh Kiều",584 Hẻm 553,Cần Thơ,,"Ninh Kiều, Cần Thơ",VN,"10.0158382,105.7638382"
341,ChIJI2qVq3yJoDERKqjEE8aQnck,Công Ty Tnhh Thương Mại Dịch Vụ In Mỹ Thuật Ntd,Dịch vụ in kỹ thuật số,0292 3733 938,"Công Ty Tnhh Thương Mại Dịch Vụ In Mỹ Thuật Ntd, 9/86, Đ. 30 Tháng 4, Xuân Khánh, Ninh Kiều, Cần Thơ 92000","Xuân Khánh, Ninh Kiều","9/86, Đ. 30 Tháng 4",Cần Thơ,92000.0,"Ninh Kiều, Cần Thơ",VN,"10.0238173,105.77329999999999"
343,ChIJA6SXjCOIoDERDW54WNsFCQs,Công Ty TNHH Một Thành Viên Sản Xuất In Ấn Quảng Cáo Toàn Thắng,Cửa hàng in ấn,0939 083 376,"Công Ty TNHH Một Thành Viên Sản Xuất In Ấn Quảng Cáo Toàn Thắng, 58B Đ. 3/2, Xuân Khánh, Ninh Kiều, Cần Thơ","Xuân Khánh, Ninh Kiều",58B Đ. 3/2,Cần Thơ,,"Ninh Kiều, Cần Thơ",VN,"10.027911,105.7746449"
344,ChIJkWLA8nCJoDERnG8bl8QQCLE,In ấn - Đồng phục Minh Xuân Cần Thơ,Cửa hàng đồng phục,0876 591 799,"2QHF+QVG In ấn - Đồng phục Minh Xuân Cần Thơ, Đ. Mậu Thân, Xuân Khánh, Ninh Kiều, Cần Thơ","Xuân Khánh, Ninh Kiều","2QHF+QVG, Đ. Mậu Thân",Cần Thơ,,"Ninh Kiều, Cần Thơ",VN,"10.0294343,105.7747139"
346,ChIJa9Zn-S-IoDERNlEYsv8i5I8,DNTN Thiết Kế In Ấn Quảng Cáo Ngọc Hùng,Cửa hàng in ấn,0914 492 711,"DNTN Thiết Kế In Ấn Quảng Cáo Ngọc Hùng, 320 Đ. Trần Ngọc Quế, Xuân Khánh, Ninh Kiều, Cần Thơ","Xuân Khánh, Ninh Kiều",320 Đ. Trần Ngọc Quế,Cần Thơ,,"Ninh Kiều, Cần Thơ",VN,"10.022026,105.770797"
357,ChIJt5NYog-IoDEROdTZhKI5Wx4,Công Ty TNHH MTV Lưu Xuân Giang,Cửa hàng in ấn,0976 197 294,"Công Ty TNHH MTV Lưu Xuân Giang, 208 Đ. Nguyễn Văn Cừ, An Hoà, Ninh Kiều, Cần Thơ","An Hoà, Ninh Kiều",208 Đ. Nguyễn Văn Cừ,Cần Thơ,,"Ninh Kiều, Cần Thơ",VN,"10.0463212,105.7687249"
378,ChIJISQzjjaIoDERDb9m48brSFc,Công Ty TNHH TM Quảng Cáo Thành Ngọc,Cửa hàng in ấn,7103822810,"Công Ty TNHH TM Quảng Cáo Thành Ngọc, 137 Hẻm 132 Đ. 3 Tháng 2, Hưng Lợi, Ninh Kiều, Cần Thơ","Hưng Lợi, Ninh Kiều",137 Hẻm 132 Đ. 3 Tháng 2,Cần Thơ,,"Ninh Kiều, Cần Thơ",VN,"10.0182995,105.76238839999999"
385,ChIJDVtpvaBioDERS-nUS127Thc,Công Ty TNHH MTV In Ấn Minh Đăng,Cửa hàng in ấn,0914 211 277,"Công Ty TNHH MTV In Ấn Minh Đăng, 27/8/32/28A, Mạc Đĩnh Chi, Phường An Cư, Quận Ninh Kiều, Thành Phố Cần Thơ, Tân An, Ninh Kiều, Cần Thơ","Tân An, Ninh Kiều","27/8/32/28A, Mạc Đĩnh Chi, Phường An Cư, Quận Ninh Kiều, Thành Phố Cần Thơ",Cần Thơ,,"Ninh Kiều, Cần Thơ",VN,"10.0367002,105.7829119"
386,ChIJEe4gYgKIoDERTkfskt0aeTI,Cơ Sở In Ấn & Quảng Cáo Thảo Nguyên,Cơ quan quảng cáo,0292 3831 674,"Cơ Sở In Ấn & Quảng Cáo Thảo Nguyên, 41 Trần Phú, Thới Bình, Ninh Kiều, Cần Thơ","Thới Bình, Ninh Kiều",41 Trần Phú,Cần Thơ,,"Ninh Kiều, Cần Thơ",VN,"10.0463218,105.7809822"
387,ChIJrWBnlwiIoDERmDCGLxFcE3w,In Photocopy 622,Cửa hàng in ấn,,"In Photocopy 622, 12 Đ. Nguyễn Đệ, An Hoà, Ninh Kiều, Cần Thơ","An Hoà, Ninh Kiều",12 Đ. Nguyễn Đệ,Cần Thơ,,"Ninh Kiều, Cần Thơ",VN,"10.0511491,105.76951369999999"
388,ChIJk7zrxhyIoDERFnacn_stlYM,Cơ Sở In Lụa Đỗ Thị Yến,Cửa hàng in ấn,0766 580 830,"Cơ Sở In Lụa Đỗ Thị Yến, 90 Hùng Vương, An Cư, Ninh Kiều, Cần Thơ","An Cư, Ninh Kiều",90 Hùng Vương,Cần Thơ,,"Ninh Kiều, Cần Thơ",VN,"10.0427388,105.77792559999999"
389,ChIJ6UacLqBioDERQWzl8fp4TEo,Công Ty Tnhh In Ấn Quảng Cáo Nhật Thắng,Cửa hàng in ấn,0907 775 552,"Công Ty Tnhh In Ấn Quảng Cáo Nhật Thắng, Số 88A Nguyễn Thái Học, Tân An, Ninh Kiều, Cần Thơ","Tân An, Ninh Kiều",Số 88A Nguyễn Thái Học,Cần Thơ,,"Ninh Kiều, Cần Thơ",VN,"10.032942,105.78461999999999"
390,ChIJyw9trQ2IoDERI7AJEEbf3TA,Dịch Vụ In Ấn Quảng Cáo Optimus,Cửa hàng in ấn,0292 6512 727,"Dịch Vụ In Ấn Quảng Cáo Optimus, 124A Đ. Mậu Thân, An Hoà, Ninh Kiều, Cần Thơ 901354","An Hoà, Ninh Kiều",124A Đ. Mậu Thân,Cần Thơ,901354.0,"Ninh Kiều, Cần Thơ",VN,"10.047072,105.7621097"
391,ChIJkeLZ6waIoDERk-97LvAbvfA,CÔNG TY TNHH MTV IN ẤN VƯƠNG PHAN,Cửa hàng in ấn,0292 3886 752,,,,,,,,"10.034187,105.75757039999999"
392,ChIJn5O_DDeIoDERH3kS501c7eg,Việt Cường Thiết Kế - In Ấn - Bao Bì,Cửa hàng in ấn,,"Việt Cường Thiết Kế - In Ấn - Bao Bì, Hưng Lợi, Ninh Kiều, Cần Thơ","Hưng Lợi, Ninh Kiều",,Cần Thơ,,"Ninh Kiều, Cần Thơ",VN,"10.0213159,105.7619797"
393,ChIJHf9jYG2IoDERhLaKcPh20Vk,Công Ty Trách Nhiệm Hữu Hạn In Ấn Thiết Kế Quảng Cáo Hoa Hướng Dương,Cửa hàng in ấn,0907 783 107,"Công Ty Trách Nhiệm Hữu Hạn In Ấn Thiết Kế Quảng Cáo Hoa Hướng Dương, 79/4, Vành Đai Phi Trường, Phường An Hòa, Quận Ninh Kiều, Thành Phố Cần Thơ, Phường An Khánh, Ninh Kiều, Cần Thơ","Phường An Khánh, Ninh Kiều","79/4, Vành Đai Phi Trường, Phường An Hòa, Quận Ninh Kiều, Thành Phố Cần Thơ",Cần Thơ,,"Ninh Kiều, Cần Thơ",VN,"10.0444658,105.7570726"
394,ChIJD3LS9jiJoDERhkgFd0M3syQ,Công Ty Cổ Phần Thiết Kế Và In Ấn HD,Cửa hàng in ấn,0913 665 441,"Công Ty Cổ Phần Thiết Kế Và In Ấn HD, 218/32a, 218 Đ. Trần Hưng Đạo, An Phú, Ninh Kiều, Cần Thơ","An Phú, Ninh Kiều","218/32a, 218 Đ. Trần Hưng Đạo",Cần Thơ,,"Ninh Kiều, Cần Thơ",VN,"10.034825099999999,105.7750298"
395,ChIJZ9PUPSCIoDERl1mbjcpHU-w,Cơ sở Thiết Kế - In ấn quảng cáo Quốc Thanh,Cửa hàng in ấn,0939 152 559,"Cơ sở Thiết Kế - In ấn quảng cáo Quốc Thanh, 27 Đ. Nguyễn Việt Hồng, An Lạc, Ninh Kiều, Cần Thơ","An Lạc, Ninh Kiều",27 Đ. Nguyễn Việt Hồng,Cần Thơ,,"Ninh Kiều, Cần Thơ",VN,"10.0316976,105.78043029999999"
396,ChIJ01rqhx2IoDERDFcq23FStMw,Công Ty TNHH MTV Thiết Kế In Ấn Quảng Cáo Nguyễn Phước,Cửa hàng in ấn,0913 616 738,"Công Ty TNHH MTV Thiết Kế In Ấn Quảng Cáo Nguyễn Phước, 109 Đ. Xô Viết Nghệ Tĩnh, An Hội, Ninh Kiều, Cần Thơ","An Hội, Ninh Kiều",109 Đ. Xô Viết Nghệ Tĩnh,Cần Thơ,,"Ninh Kiều, Cần Thơ",VN,"10.040523,105.7816941"
397,ChIJWyMOJ_sn8IcRcJFZJlyXhF0,Công Ty Cổ Phần Thiết Kế Và In Ấn HD,Cửa hàng in ấn,0903 368 836,,,,,,,,"10.035323,105.7555905"
398,ChIJuW3CkKBioDERtY-2hTW_3zE,Cơ Sở In Thảo Long,Cửa hàng in ấn,0292 3821 954,"Cơ Sở In Thảo Long, 3 Hẻm 22 Đ. Mạc Đĩnh Chi, Tân An, Ninh Kiều, Cần Thơ","Tân An, Ninh Kiều",3 Hẻm 22 Đ. Mạc Đĩnh Chi,Cần Thơ,,"Ninh Kiều, Cần Thơ",VN,"10.0361228,105.7829182"
399,ChIJ2_sEXFZjoDERurte6tOvXtc,Công Ty TNHH TM DV Tư Vấn Thiết Kế - In Ấn Sun Design,Nhà thiết kế đồ họa,,"Công Ty TNHH TM DV Tư Vấn Thiết Kế - In Ấn Sun Design, 99, Đường Ngô Đức Kế, Tân An, Ninh Kiều, Cần Thơ","Tân An, Ninh Kiều","99, Đường Ngô Đức Kế",Cần Thơ,,"Ninh Kiều, Cần Thơ",VN,"10.030134,105.7846749"
406,ChIJKSbSRqdioDERiDg0P213r-0,Cơ Sở In Tường Ngân,Cửa hàng in ấn,,"Cơ Sở In Tường Ngân, 43 Đ. Xô Viết Nghệ Tĩnh, An Hội, Ninh Kiều, Cần Thơ","An Hội, Ninh Kiều",43 Đ. Xô Viết Nghệ Tĩnh,Cần Thơ,,"Ninh Kiều, Cần Thơ",VN,"10.038889099999999,105.7831911"
409,ChIJ1VOVYqSJoDEREjvBOcdoqZ4,Cơ sở in ấn HN DECOR,Cửa hàng in ấn,0359 379 700,"Cơ sở in ấn HN DECOR, 62-D15, Đ. D1/62 Khu dân cư Hồng Loan, KV5, Cái Răng, Cần Thơ 94909","KV5, Cái Răng","62-D15, Đ. D1/62 Khu dân cư Hồng Loan",Cần Thơ,94909.0,"Cái Răng, Cần Thơ",VN,"9.999639,105.7715668"
413,ChIJxebTQadioDER1CLjEszxV3U,Dịch Vụ In Thiệp Cưới Thùy Ngân,Cửa hàng in ấn,0292 3763 379,"Dịch Vụ In Thiệp Cưới Thùy Ngân, 43 Đ. Xô Viết Nghệ Tĩnh, An Hội, Ninh Kiều, Cần Thơ","An Hội, Ninh Kiều",43 Đ. Xô Viết Nghệ Tĩnh,Cần Thơ,,"Ninh Kiều, Cần Thơ",VN,"10.038936699999999,105.7832143"
415,ChIJA7r31hyIoDERnfljQVOVkIY,Công Ty TNHH Thiết Kế In Quảng Cáo Đầu Tư TM - DV Và Xuất Nhập Khẩu Khoa My,Cửa hàng in ấn,,"Công Ty TNHH Thiết Kế In Quảng Cáo Đầu Tư TM - DV Và Xuất Nhập Khẩu Khoa My, 16, Đường Đ. Đinh Tiên Hoàng, An Hội, Ninh Kiều, Cần Thơ","An Hội, Ninh Kiều","16, Đường Đ. Đinh Tiên Hoàng",Cần Thơ,,"Ninh Kiều, Cần Thơ",VN,"10.0446083,105.77965979999999"
435,ChIJ-9u8YKhioDERw1vYKtNHX_8,Công Ty Mekong DV,Cửa hàng in ấn,0292 6257 722,"Công Ty Mekong DV, 3 Lý Hồng Thanh, Cái Khế, Ninh Kiều, Cần Thơ","Cái Khế, Ninh Kiều",3 Lý Hồng Thanh,Cần Thơ,,"Ninh Kiều, Cần Thơ",VN,"10.0446539,105.7847408"
439,ChIJj4oiPahioDERzfal9kipD_s,Công Ty TNHH Hồng Khánh Trúc,Cửa hàng in ấn,0909 054 044,"Công Ty TNHH Hồng Khánh Trúc, 14, Ung Văn Khiêm, Phường Cái Khế, Quận Ninh Kiều, Thành Phố Cần Thơ, An Hội, Ninh Kiều, Cần Thơ","An Hội, Ninh Kiều","14, Ung Văn Khiêm, Phường Cái Khế, Quận Ninh Kiều, Thành Phố Cần Thơ",Cần Thơ,,"Ninh Kiều, Cần Thơ",VN,"10.0448773,105.7828469"
466,ChIJLevxy2WJoDER0zTVCmGJM3g,IN ẤN QUẢNG CÁO SẮC VIỆT,Cửa hàng in ấn,0907 051 606,"IN ẤN QUẢNG CÁO SẮC VIỆT, 12b Đ. Phạm Hùng, Lê Bình, Cái Răng, Cần Thơ","Lê Bình, Cái Răng",12b Đ. Phạm Hùng,Cần Thơ,,"Cái Răng, Cần Thơ",VN,"9.997214399999999,105.7495684"
467,ChIJreYu4fOJoDERPXPbYNVDSz8,Cửa Hàng Thiệp Cưới Xinh Xinh,Dịch vụ cưới hỏi,0907 991 233,"Cửa Hàng Thiệp Cưới Xinh Xinh, 75 Hoàng Văn Thụ, An Hội, Ninh Kiều, Cần Thơ","An Hội, Ninh Kiều",75 Hoàng Văn Thụ,Cần Thơ,,"Ninh Kiều, Cần Thơ",VN,"10.0407105,105.78084899999999"
472,ChIJwaL-92yIoDEROMHlyedqRzg,Công Ty TNHH Mực In An Kiên,Cửa hàng in ấn,0939 710 999,"Công Ty TNHH Mực In An Kiên, 90, Ngô Thì Nhậm, Quận Ninh Kiều, Thành Phố Cần Thơ, Phường An Khánh, Ninh Kiều, Cần Thơ","Phường An Khánh, Ninh Kiều","90, Ngô Thì Nhậm, Quận Ninh Kiều, Thành Phố Cần Thơ",Cần Thơ,,"Ninh Kiều, Cần Thơ",VN,"10.0413278,105.755674"
474,ChIJiYbSAgyIoDERDm0E8lCkm2s,Tiệm Photocopy - Văn Phòng Phẩm Lê Gia,Cửa hàng in ấn,0939 763 386,"Tiệm Photocopy - Văn Phòng Phẩm Lê Gia, 74 Đ. Nguyễn Đệ, An Hoà, Bình Thủy, Cần Thơ","An Hoà, Bình Thủy",74 Đ. Nguyễn Đệ,Cần Thơ,,"Bình Thủy, Cần Thơ",VN,"10.049163499999999,105.76413629999999"
491,ChIJL2zJ6UKJoDERBeW36Uil7j0,in giá rẻ cần thơ,Cửa hàng in ấn,0382 153 537,"in giá rẻ cần thơ, 107 cần thơ Can Tho City","Phường An Khánh, Ninh Kiều",107 cần thơ Can Tho City,Cần Thơ,,"Ninh Kiều, Cần Thơ",VN,"10.045161799999999,105.7468535"
509,ChIJ8YG_lEeIoDER-PV-ZTh8k6s,Công Ty TNHH In Di Co CN Cần Thơ,Cửa hàng in ấn,0292 3782 817,"Công Ty TNHH In Di Co CN Cần Thơ, 29A1 Đ. Nguyễn Hiền, Khu dân cư 91B, Ninh Kiều, Cần Thơ","Khu dân cư 91B, Ninh Kiều",29A1 Đ. Nguyễn Hiền,Cần Thơ,,"Ninh Kiều, Cần Thơ",VN,"10.0245184,105.75736649999999"
533,ChIJq_sNskOJoDER2jmbokOL_-A,Photocopy - Tiệm in 695,Cửa hàng in ấn,0886 878 400,"Photocopy - Tiệm in 695, 43 Trần Chiên, Lê Bình, Cái Răng, Cần Thơ","Lê Bình, Cái Răng",43 Trần Chiên,Cần Thơ,,"Cái Răng, Cần Thơ",VN,"9.9998199,105.7590264"
541,ChIJry-aGD-JoDERgXq1CaawrLY,Công ty TNHH TMDV In Mỹ Thuật NTD,Cửa hàng in ấn,0813 618 050,"Công ty TNHH TMDV In Mỹ Thuật NTD, 9/86 KDC Văn Minh 324, KDC/9 Hẻm 553, Xuân Khánh, Ninh Kiều, Cần Thơ 900000","Xuân Khánh, Ninh Kiều","9/86 KDC Văn Minh 324, KDC/9 Hẻm 553",Cần Thơ,900000.0,"Ninh Kiều, Cần Thơ",VN,"10.0112794,105.7603705"
546,ChIJNeA7_DWIoDERroyseguS65M,Tiệm In Lalab,Cửa hàng in ấn,0899 466 229,"2Q85+VHH Tiệm In Lalab, Đ. 3 Tháng 2, Hưng Lợi, Ninh Kiều, Cần Thơ","Hưng Lợi, Ninh Kiều","2Q85+VHH, Đ. 3 Tháng 2",Cần Thơ,,"Ninh Kiều, Cần Thơ",VN,"10.017192999999999,105.7589976"
547,ChIJr1N_fkiIoDERTjMVnpCAx4I,Công Ty TNHH Truyền Thông Quảng Cáo Quả Chanh Dây,Cửa hàng in ấn,0395 418 020,"Công Ty TNHH Truyền Thông Quảng Cáo Quả Chanh Dây, A200 Đ. Nguyễn Hiền, Khu dân cư 91B, Ninh Kiều, Cần Thơ","Khu dân cư 91B, Ninh Kiều",A200 Đ. Nguyễn Hiền,Cần Thơ,,"Ninh Kiều, Cần Thơ",VN,"10.0226588,105.75587689999999"
562,ChIJmQFt6iqJoDERIihVDWA48ro,In Ấn Cần Thơ,Nhà xuất bản,,"In Ấn Cần Thơ, 8 Đ. Trần Vĩnh Kiết, Phường An Khánh, Ninh Kiều, Cần Thơ","Phường An Khánh, Ninh Kiều",8 Đ. Trần Vĩnh Kiết,Cần Thơ,,"Ninh Kiều, Cần Thơ",VN,"10.026234599999999,105.7509632"
566,ChIJDwG_rzGIoDERzP8zCyXKdBM,Cơ sở in Vạn Đạt 2,Cửa hàng in ấn,0292 3838 318,"Cơ sở in Vạn Đạt 2, 238 Đ. 30 Tháng 4, Hưng Lợi, Ninh Kiều, Cần Thơ","Hưng Lợi, Ninh Kiều",238 Đ. 30 Tháng 4,Cần Thơ,,"Ninh Kiều, Cần Thơ",VN,"10.0191385,105.768101"
576,ChIJE1TA9zOIoDERcfOSM_02XQ8,Tiệm Ảnh Màu - Photocopy Trường Sơn,Cửa hàng in ấn,0918 361 349,"Tiệm Ảnh Màu - Photocopy Trường Sơn, 580, Đường 30/4, Phường Hưng Lợi, Quận Ninh Kiều, Thành Phố Cần Thơ, Hưng Lợi, Ninh Kiều, Cần Thơ","Hưng Lợi, Ninh Kiều","580, Đường 30/4, Phường Hưng Lợi, Quận Ninh Kiều, Thành Phố Cần Thơ",Cần Thơ,,"Ninh Kiều, Cần Thơ",VN,"10.016472,105.76450829999999"
584,ChIJVbstZRSJoDERUsn7UuY0FCo,CTY TNHH In Trung Tính,Cửa hàng in ấn,,"2QPC+2P4 CTY TNHH In Trung Tính, Đinh Công Tráng, An Nghiệp, Ninh Kiều, Cần Thơ","An Nghiệp, Ninh Kiều","2QPC+2P4, Đinh Công Tráng",Cần Thơ,,"Ninh Kiều, Cần Thơ",VN,"10.0350024,105.77183439999999"
600,ChIJuw8MLyKIoDER97ZmeO5Jm_k,Cơ Sở In Vạn Đạt,Cửa hàng in ấn,,"Cơ Sở In Vạn Đạt, 81 Đ. Mậu Thân, Xuân Khánh, Ninh Kiều, Cần Thơ","Xuân Khánh, Ninh Kiều",81 Đ. Mậu Thân,Cần Thơ,,"Ninh Kiều, Cần Thơ",VN,"10.0307589,105.7755009"
606,ChIJNZcwKh6IoDERbHOcpRHRXII,Nhà thuốc quang đăng,Cửa hàng in ấn,0939 301 479,"Nhà thuốc quang đăng, 12A Đ. Trương Định, Tân An, Ninh Kiều, Cần Thơ","Tân An, Ninh Kiều",12A Đ. Trương Định,Cần Thơ,,"Ninh Kiều, Cần Thơ",VN,"10.035613399999999,105.78192659999999"
609,ChIJY6JZxx-IoDER7bkYk5fwdNw,Tiệm Quay Phim - Chụp Ảnh Dũng,Cửa hàng in ấn,0913 707 709,"Tiệm Quay Phim - Chụp Ảnh Dũng, 142 Đ. Trương Định, Tân An, Ninh Kiều, Cần Thơ","Tân An, Ninh Kiều",142 Đ. Trương Định,Cần Thơ,,"Ninh Kiều, Cần Thơ",VN,"10.0344538,105.7805394"
610,ChIJndYJl82JoDERyih9__D_eyE,T_print by Truongdesigner,Cửa hàng in ấn,0918 391 091,"T_print by Truongdesigner, 108 Đ. Ng. Hữu Hạnh, Tân An, Ninh Kiều, Cần Thơ","Tân An, Ninh Kiều",108 Đ. Ng. Hữu Hạnh,Cần Thơ,,"Ninh Kiều, Cần Thơ",VN,"10.037973599999999,105.78499319999999"
