,place_id,name,main_category,phone,address,address_ward,address_street,address_city,address_postal_code,address_state,address_country_code
0,ChIJGTlpDn1zCjER0Piagxdbi4o,Viện Thẩm Mỹ Diva - Cần Thơ,Thẩm mỹ viện,1900 2222,"Viện Thẩm Mỹ Diva - Cần Thơ, 111 Đ. Trần Hưng Đạo, An Phú, Ninh Kiều, Cần Thơ 94114","An Phú, Ninh Kiều",111 Đ. Trần Hưng Đạo,Cần Thơ,94114.0,"Ninh Kiều, Cần Thơ",VN
4,ChIJH3_rBt9joDER30XrEntk9Qk,Thẩm Mỹ Viện Mailisa,Thẩm mỹ viện,0932 699 299,"Thẩm Mỹ Viện Mailisa, 67 Phan Đình Phùng, Tân An, Ninh Kiều, Cần Thơ 94112","Tân An, Ninh Kiều",67 Phan Đình Phùng,Cần Thơ,94112.0,"Ninh Kiều, Cần Thơ",VN
9,ChIJO3xWEqhioDERweMNgwdgQIY,Thẩm Mỹ Viện Seoul Center,Thẩm mỹ viện,1800 3333,"Thẩm Mỹ Viện Seoul Center, 329 Đ. Nguyễn Văn Cừ, An Hoà, Ninh Kiều, Cần Thơ","An Hoà, Ninh Kiều",329 Đ. Nguyễn Văn Cừ,Cần Thơ,,"Ninh Kiều, Cần Thơ",VN
10,ChIJG3bwu-1joDERNe9kS4l6UJs,Quỳnh Như Nail - Chuyên Sỉ & Lẻ Dụng Cụ Nail,Nhà cung cấp sản phẩm làm đẹp,0896 686 456,"Quỳnh Như Nail - Chuyên Sỉ & Lẻ Dụng Cụ Nail, 4 Đ. Võ Trường Toản, An Hoà, Ninh Kiều, Cần Thơ 94000","An Hoà, Ninh Kiều",4 Đ. Võ Trường Toản,Cần Thơ,94000.0,"Ninh Kiều, Cần Thơ",VN
11,ChIJoQ98rh6IoDERFDa-90Uz7AY,Thẩm Mỹ Viện Ngọc Hường - Cần Thơ,Thẩm mỹ viện,1900 7067,"Thẩm Mỹ Viện Ngọc Hường - Cần Thơ, 196 Đ. Lý Tự Trọng, P, Ninh Kiều, Cần Thơ 94000","P, Ninh Kiều",196 Đ. Lý Tự Trọng,Cần Thơ,94000.0,"Ninh Kiều, Cần Thơ",VN
16,ChIJHRmqFqhioDERFEUepRkC6ZI,Spa Cát Tiên Cần Thơ,Cơ sở chăm sóc da,0939 365 565,"Spa Cát Tiên Cần Thơ, 105 Trần Văn Khéo, Cái Khế, Ninh Kiều, Cần Thơ","Cái Khế, Ninh Kiều",105 Trần Văn Khéo,Cần Thơ,,"Ninh Kiều, Cần Thơ",VN
18,ChIJ8zUMe3iJoDERxB2eqfkbn-c,"MAY XƯA SPA CẦN THƠ - Massage body, Gội đầu dưỡng sinh, Tắm tẩy tế bào chết, xông hơi, Foot",Spa,0393 599 120,"MAY XƯA SPA CẦN THƠ - Massage body, Gội đầu dưỡng sinh, Tắm tẩy tế bào chết, xông hơi, Foot, 1e Trần Quang Khải, An Hội, Ninh Kiều, Cần Thơ 90000","An Hội, Ninh Kiều",1e Trần Quang Khải,Cần Thơ,90000.0,"Ninh Kiều, Cần Thơ",VN
20,ChIJhce23TaIoDERE1xa5WYpmqw,Thẩm Mỹ Viện Quốc Tế Aura,Thẩm mỹ viện,0833 082 222,"Thẩm Mỹ Viện Quốc Tế Aura, 207 Đ. 30 Tháng 4, Xuân Khánh, Ninh Kiều, Cần Thơ 900000","Xuân Khánh, Ninh Kiều",207 Đ. 30 Tháng 4,Cần Thơ,900000.0,"Ninh Kiều, Cần Thơ",VN
22,ChIJZ1tK6ehjoDER_yj938qWo6o,"Gội Đầu Dưỡng Sinh Cần Thơ, Massage Body - Hannah Spa 2",Spa,0379 080 909,"Gội Đầu Dưỡng Sinh Cần Thơ, Massage Body - Hannah Spa 2, 25 Võ Thị Sáu, Tân An, Ninh Kiều, Cần Thơ 94110","Tân An, Ninh Kiều",25 Võ Thị Sáu,Cần Thơ,94110.0,"Ninh Kiều, Cần Thơ",VN
23,ChIJbcLDsPmJoDERe8_j9T1WhbQ,MAY nail,Tiệm chăm sóc móng,0799 999 037,"MAY nail, MAY Nails, 216 Huỳnh Cương, An Cư, Ninh Kiều, Cần Thơ","An Cư, Ninh Kiều","MAY Nails, 216 Huỳnh Cương",Cần Thơ,,"Ninh Kiều, Cần Thơ",VN
24,ChIJgT_k7h-IoDERvxssFX1Hsdo,Viện Thẩm mỹ Kangnam Cần Thơ,Thẩm mỹ viện,0962 778 866,"Viện Thẩm mỹ Kangnam Cần Thơ, 28 Đ. Lý Tự Trọng, An Cư, Ninh Kiều, Cần Thơ 900000","An Cư, Ninh Kiều",28 Đ. Lý Tự Trọng,Cần Thơ,900000.0,"Ninh Kiều, Cần Thơ",VN
27,ChIJDQY7dHYZVRARo_aP-kX9Bos,Thẩm Mỹ Viện Thu Minh,Thẩm mỹ viện,0292 3653 939,"Thẩm Mỹ Viện Thu Minh, 122 Đ. 30 Tháng 4, An Phú, Ninh Kiều, Cần Thơ","An Phú, Ninh Kiều",122 Đ. 30 Tháng 4,Cần Thơ,,"Ninh Kiều, Cần Thơ",VN
33,ChIJNxfyUlqJoDERLPRzWEBKI9o,MANNAM Spa for men,Spa,0364 899 495,"MANNAM Spa for men, 113 đường 19 Khu dân cư Hồng Loan, lô 5C, Cái Răng, Cần Thơ","lô 5C, Cái Răng",113 đường 19 Khu dân cư Hồng Loan,Cần Thơ,,"Cái Răng, Cần Thơ",VN
34,ChIJvX2M9aBioDERBbBvg1QUyoA,Mỹ Nail Cần Thơ,Tiệm chăm sóc móng,0707 679 979,"Mỹ Nail Cần Thơ, 64 Đ.Xô Viết Nghệ Tĩnh, Tân An, Ninh Kiều, Cần Thơ","Tân An, Ninh Kiều",64 Đ.Xô Viết Nghệ Tĩnh,Cần Thơ,,"Ninh Kiều, Cần Thơ",VN
35,ChIJZRKpuQWJoDERQu_tD0gPhnQ,Tuyết Nhung Beauty & Eyelash,Trường dạy làm đẹp,0947 457 881,"Tuyết Nhung Beauty & Eyelash, 380P3/9, Đ. Trần Nam Phú, Phường An Khánh, Ninh Kiều, Cần Thơ 94117","Phường An Khánh, Ninh Kiều","380P3/9, Đ. Trần Nam Phú",Cần Thơ,94117.0,"Ninh Kiều, Cần Thơ",VN
41,ChIJ9bGDXdiJoDERS1FnOOGsGBY,Thẩm Mỹ Viện Quốc Tế Bắc Mỹ - TP Cần Thơ,Thẩm mỹ viện,0867 385 229,"Thẩm Mỹ Viện Quốc Tế Bắc Mỹ - TP Cần Thơ, 86B Hùng Vương, An Cư, Ninh Kiều, Cần Thơ 94000","An Cư, Ninh Kiều",86B Hùng Vương,Cần Thơ,94000.0,"Ninh Kiều, Cần Thơ",VN
43,ChIJoe-N_MCJoDERmW6NKYxQ32w,Lumimous Nails Cần Thơ,Tiệm chăm sóc móng,0916 599 660,"Lumimous Nails Cần Thơ, KDC Hồng Phát, Đường Số 4/295 Đ. Nguyễn Văn Cừ, An Bình, Ninh Kiều, Cần Thơ 940000","An Bình, Ninh Kiều","KDC Hồng Phát, Đường Số 4/295 Đ. Nguyễn Văn Cừ",Cần Thơ,940000.0,"Ninh Kiều, Cần Thơ",VN
44,ChIJj7Y9S_-JoDERaydXlh8nAGg,Hanavy Beauty & Spa,Chuyên gia làm đẹp,0786 866 960,"Hanavy Beauty & Spa, Hẻm 4 Đ. Mậu Thân, Xuân Khánh, Ninh Kiều, Cần Thơ","Xuân Khánh, Ninh Kiều",Hẻm 4 Đ. Mậu Thân,Cần Thơ,,"Ninh Kiều, Cần Thơ",VN
45,ChIJKzXQApxjoDERa6C2xV1fkKM,Heo Nail Cần Thơ,Tiệm chăm sóc móng,0919 989 947,"Heo Nail Cần Thơ, 107 Trần Văn Khéo, Cái Khế, Ninh Kiều, Cần Thơ 901000","Cái Khế, Ninh Kiều",107 Trần Văn Khéo,Cần Thơ,901000.0,"Ninh Kiều, Cần Thơ",VN
47,ChIJ9woQ_bWJoDERP1C4IL5qUFc,Gội Đầu Dưỡng Sinh Hoàng Nga,Cửa hàng chăm sóc sức khỏe và làm đẹp,0333 373 392,"Gội Đầu Dưỡng Sinh Hoàng Nga, Vincom Shophouse, Xuân Khánh, Ninh Kiều, Cần Thơ 94115","Xuân Khánh, Ninh Kiều",Vincom Shophouse,Cần Thơ,94115.0,"Ninh Kiều, Cần Thơ",VN
48,ChIJ1Yv2OoCJoDERzyt5Jtn7qi8,2T Home - Dược mỹ phẩm làm đẹp Cần Thơ,Cửa hàng mỹ phẩm,0939 515 050,"2T Home - Dược mỹ phẩm làm đẹp Cần Thơ, Trường Đại Học Y Dược, Số 36 Đường Số 7, khu dân cư phía sau, Ninh Kiều, Cần Thơ","khu dân cư phía sau, Ninh Kiều","Trường Đại Học Y Dược, Số 36 Đường Số 7",Cần Thơ,,"Ninh Kiều, Cần Thơ",VN
49,ChIJGTyhHLsvdTER_fxZlNUC33o,Làm Đẹp Cùng Hà,Nhà tư vấn,0834 839 998,"Làm Đẹp Cùng Hà, 157 Đường số 5, Khu dân cư Trung Sơn, Bình Chánh, Thành phố Hồ Chí Minh 700000","Khu dân cư Trung Sơn, Bình Chánh",157 Đường số 5,Thành phố Hồ Chí Minh,700000.0,"Bình Chánh, Thành phố Hồ Chí Minh",VN
50,ChIJXWo8tXBjoDERkeKnSUZ9fvo,Tiệm Nail Moon,Tiệm chăm sóc móng,0899 333 938,"Tiệm Nail Moon, 6a Đ. Trương Định, Tân An, Ninh Kiều, Cần Thơ 94000","Tân An, Ninh Kiều",6a Đ. Trương Định,Cần Thơ,94000.0,"Ninh Kiều, Cần Thơ",VN
51,ChIJl6FJS3qJoDER-wCH_GgztUs,Song Hà - Siêu Thị làm Đẹp,Cửa hàng chăm sóc sức khỏe và làm đẹp,0787 981 198,"Song Hà - Siêu Thị làm Đẹp, 57 Đ. Mậu Thân, Xuân Khánh, Ninh Kiều, Cần Thơ 900000","Xuân Khánh, Ninh Kiều",57 Đ. Mậu Thân,Cần Thơ,900000.0,"Ninh Kiều, Cần Thơ",VN
65,ChIJ9QPfoDaIoDERzOqCnSwo-eY,Viện Thẩm Mỹ Quốc Tế Dencos Luxury Cần Thơ,Thẩm mỹ viện,0907 888 836,"Viện Thẩm Mỹ Quốc Tế Dencos Luxury Cần Thơ, 357 Hẻm 558 -30/4, Hưng Lợi, Ninh Kiều, Cần Thơ","Hưng Lợi, Ninh Kiều",357 Hẻm 558 -30/4,Cần Thơ,,"Ninh Kiều, Cần Thơ",VN
66,ChIJgR6gAAaIoDERW3T0jBQMa3o,chăm sóc da Thu,Cơ sở chăm sóc da,0932 859 584,"chăm sóc da Thu, 120 Trần Phú, Cái Khế, Ninh Kiều, Cần Thơ","Cái Khế, Ninh Kiều",120 Trần Phú,Cần Thơ,,"Ninh Kiều, Cần Thơ",VN
67,ChIJX3-C4lhjoDERkFP2iJGf5EE,Tâm NAIL - GỘI ĐẦU - UỐN MI - Waxing,Tiệm chăm sóc móng,0939 546 983,"Tâm NAIL - GỘI ĐẦU - UỐN MI - Waxing, Hẻm 118-120 Trần Phú, Cái Khế, Ninh Kiều, Cần Thơ","Cái Khế, Ninh Kiều",Hẻm 118-120 Trần Phú,Cần Thơ,,"Ninh Kiều, Cần Thơ",VN
69,ChIJGU2e5waJoDERfvJgIVqBIPo,Thẩm Mỹ Ngọc Duyên,Thẩm mỹ viện,0947 218 335,"Thẩm Mỹ Ngọc Duyên, Hẻm 107, 62/9 Hoàng Văn Thụ, An Cư, Ninh Kiều, Cần Thơ 94000","An Cư, Ninh Kiều","Hẻm 107, 62/9 Hoàng Văn Thụ",Cần Thơ,94000.0,"Ninh Kiều, Cần Thơ",VN
70,ChIJdSU-rI6JoDER_EIY4FJn7HQ,Phun xăm Kiều Nguyễn Cần Thơ,Thẩm mỹ viện,0913 781 575,"Phun xăm Kiều Nguyễn Cần Thơ, 25 Đường B31, Khu dân cư 91B, Ninh Kiều, Cần Thơ 900000","Khu dân cư 91B, Ninh Kiều",25 Đường B31,Cần Thơ,900000.0,"Ninh Kiều, Cần Thơ",VN
71,ChIJ4fp_MO-JoDERmzqKXAV0Zy8,Thẩm mỹ Mộc Thanh Clinic & Spa,Thẩm mỹ viện,0292 3886 686,"Thẩm mỹ Mộc Thanh Clinic & Spa, Số 40 Đường B24, Khu dân cư 91B, Ninh Kiều, Cần Thơ","Khu dân cư 91B, Ninh Kiều",Số 40 Đường B24,Cần Thơ,,"Ninh Kiều, Cần Thơ",VN
72,ChIJeZthgqGJoDER1ZPMwEuSJAU,SPa Phan Thắm - Phun Xâm Thẩm Mĩ,Thẩm mỹ viện,0947 598 878,"SPa Phan Thắm - Phun Xâm Thẩm Mĩ, 88 Ngô Sĩ Liên, Hưng Lợi, Ninh Kiều, Cần Thơ","Hưng Lợi, Ninh Kiều",88 Ngô Sĩ Liên,Cần Thơ,,"Ninh Kiều, Cần Thơ",VN
73,ChIJVeiuYSmJoDERsBVq0a8SAi8,Spa Mai Bena,Spa mặt,0943 948 887,"Spa Mai Bena, 132 Hẻm 132/24, Hưng Lợi, Ninh Kiều, Cần Thơ 70010","Hưng Lợi, Ninh Kiều",132 Hẻm 132/24,Cần Thơ,70010.0,"Ninh Kiều, Cần Thơ",VN
74,ChIJO2ntY5KJoDER_7-J9qRbLKA,VeeVee,Spa,0904 044 919,"VeeVee, 172D Đ. Lê Bình, Hưng Lợi, Ninh Kiều, Cần Thơ","Hưng Lợi, Ninh Kiều",172D Đ. Lê Bình,Cần Thơ,,"Ninh Kiều, Cần Thơ",VN
76,ChIJmbVLjiyJoDERUrIeJgrVeh8,YẾN VY Beauty & Nails - Cần Thơ,Tiệm chăm sóc móng,0798 111 165,"YẾN VY Beauty & Nails - Cần Thơ, 58e Hẻm 58 Đ. 3 Tháng 2, Hưng Lợi, Ninh Kiều, Cần Thơ 92000","Hưng Lợi, Ninh Kiều",58e Hẻm 58 Đ. 3 Tháng 2,Cần Thơ,92000.0,"Ninh Kiều, Cần Thơ",VN
78,ChIJ7a-JV5qJoDERYVOmOMEzxBY,Sức Khoẻ & Sắc Đẹp_Như Hạnh Spa Đông Y,Spa sức khỏe,0706 898 899,"Sức Khoẻ & Sắc Đẹp_Như Hạnh Spa Đông Y, 53 Đ. Hoàng Quốc Việt, P, Ninh Kiều, Cần Thơ 900000","P, Ninh Kiều",53 Đ. Hoàng Quốc Việt,Cần Thơ,900000.0,"Ninh Kiều, Cần Thơ",VN
79,ChIJq8xxz0mIoDERGDLBjWJho7o,Công Ty Cổ Phần Thẩm Mỹ Viện Aura,Thẩm mỹ viện,,"Công Ty Cổ Phần Thẩm Mỹ Viện Aura, 172A Hẻm 132 Đ. 3 Tháng 2, Hưng Lợi, Ninh Kiều, Cần Thơ 900000","Hưng Lợi, Ninh Kiều",172A Hẻm 132 Đ. 3 Tháng 2,Cần Thơ,900000.0,"Ninh Kiều, Cần Thơ",VN
80,ChIJN_g18vWJoDERNagAyY_dOP0,Hair Salon HỒNG ĐẸP,Tiệm chăm sóc móng,,"Hair Salon HỒNG ĐẸP, 11K16/3 Hẻm 3, Khu Vực 3, Phường An Khánh, Ninh Kiều, Cần Thơ","Phường An Khánh, Ninh Kiều","11K16/3 Hẻm 3, Khu Vực 3",Cần Thơ,,"Ninh Kiều, Cần Thơ",VN
81,ChIJx_rwl72JoDER6CNIap1VOnQ,JZANG DE’BEAUTE,Tiệm chăm sóc móng,0866 930 246,"JZANG DE’BEAUTE, 6 Đường số 3, khu dân cư metro p, Ninh Kiều, Cần Thơ","khu dân cư metro p, Ninh Kiều",6 Đường số 3,Cần Thơ,,"Ninh Kiều, Cần Thơ",VN
82,ChIJN8DKIkpjoDERNAS-MS4_U-U,MakeUp & Uốn mi Ngân Nguyễn,Nghệ sĩ trang điểm,0855 599 911,"MakeUp & Uốn mi Ngân Nguyễn, Dãy B, 19 đường Đ. Trần Hoàng Na, Hưng Lợi, Ninh Kiều, Cần Thơ","Hưng Lợi, Ninh Kiều","Dãy B, 19 đường Đ. Trần Hoàng Na",Cần Thơ,,"Ninh Kiều, Cần Thơ",VN
84,ChIJDVniriKJoDERFC1L3X9e6nA,Sun Nail Cần Thơ,Tiệm chăm sóc móng,0777 107 143,"Sun Nail Cần Thơ, 182 Hẻm 553, Xuân Khánh, Ninh Kiều, Cần Thơ","Xuân Khánh, Ninh Kiều",182 Hẻm 553,Cần Thơ,,"Ninh Kiều, Cần Thơ",VN
85,ChIJ9UReBNWJoDERvRhL7vcmbjI,VIỆN THẨM MỸ HD,Thẩm mỹ viện,0981 620 602,"VIỆN THẨM MỸ HD, Số 74 Đ. 3 Tháng 2, Xuân Khánh, Ninh Kiều, Cần Thơ","Xuân Khánh, Ninh Kiều",Số 74 Đ. 3 Tháng 2,Cần Thơ,,"Ninh Kiều, Cần Thơ",VN
86,ChIJb63VyRqJoDERupFE_0dx00o,OLIVA beauty spa,Spa,0388 387 692,"OLIVA beauty spa, 22/23/37 Đ. Mạc Đĩnh Chi, An Cư, Ninh Kiều, Cần Thơ","An Cư, Ninh Kiều",22/23/37 Đ. Mạc Đĩnh Chi,Cần Thơ,,"Ninh Kiều, Cần Thơ",VN
87,ChIJw9KKxRqJoDERtI66qJ5Rok8,Jun Nail Cần Thơ,Tiệm chăm sóc móng,0795 468 486,"Jun Nail Cần Thơ, Hẻm 15 Đ. Trần Văn Hoài, Xuân Khánh, Ninh Kiều, Cần Thơ","Xuân Khánh, Ninh Kiều",Hẻm 15 Đ. Trần Văn Hoài,Cần Thơ,,"Ninh Kiều, Cần Thơ",VN
88,ChIJs-vTCnBjoDERtWbBREPEfMM,"MAM Spa - Body, Foot Massage Thái Trị Liệu - Gội đầu dưỡng sinh",Thẩm mỹ viện,0903 932 578,"MAM Spa - Body, Foot Massage Thái Trị Liệu - Gội đầu dưỡng sinh, 73 Đ. Trần Đại Nghĩa, Cái Khế, Ninh Kiều, Cần Thơ 94000","Cái Khế, Ninh Kiều",73 Đ. Trần Đại Nghĩa,Cần Thơ,94000.0,"Ninh Kiều, Cần Thơ",VN
90,ChIJu8fNSM9joDERPdLD8Qh5Qyo,Massage Hoàng Linh,,0939 508 078,"Massage Hoàng Linh, Cái Khế, Ninh Kiều, Cần Thơ","Cái Khế, Ninh Kiều",,Cần Thơ,,"Ninh Kiều, Cần Thơ",VN
91,ChIJmZfiLnuJoDERcWqTrU1AxVw,Pinky Nails Cần Thơ,Tiệm chăm sóc móng,0762 888 988,"Pinky Nails Cần Thơ, 169 Đ. Nguyễn Việt Hồng, mặt phía sau, Ninh Kiều, Cần Thơ 900000","mặt phía sau, Ninh Kiều",169 Đ. Nguyễn Việt Hồng,Cần Thơ,900000.0,"Ninh Kiều, Cần Thơ",VN
92,ChIJPdbb1KiJoDERUuUhs6WILgs,Phun xăm thẩm mỹ Anna Tran - Phun xăm Cần Thơ,Spa,0901 002 368,"Phun xăm thẩm mỹ Anna Tran - Phun xăm Cần Thơ, 52/1 Hùng Vương, An Hội, Ninh Kiều, Cần Thơ","An Hội, Ninh Kiều",52/1 Hùng Vương,Cần Thơ,,"Ninh Kiều, Cần Thơ",VN
96,ChIJKbpa5lhjoDERZnkd6qN5Baw,PHUONG ANH NAIL & GỘI ĐẦU,Tiệm chăm sóc móng,0349 234 350,"PHUONG ANH NAIL & GỘI ĐẦU, 122/10 Trần Phú, Cái Khế, Ninh Kiều, Cần Thơ","Cái Khế, Ninh Kiều",122/10 Trần Phú,Cần Thơ,,"Ninh Kiều, Cần Thơ",VN
98,ChIJjVQhMEaJoDERHp_g6L6phgI,THẨM MỸ VIỆN QUỐC TẾ YENA CẦN THƠ,Thẩm mỹ viện,0932 811 885,"THẨM MỸ VIỆN QUỐC TẾ YENA CẦN THƠ, 69 Đ. Mậu Thân, An Nghiệp, Ninh Kiều, Cần Thơ","An Nghiệp, Ninh Kiều",69 Đ. Mậu Thân,Cần Thơ,,"Ninh Kiều, Cần Thơ",VN
99,ChIJp5FeNx-IoDERQDfGfg69FgU,Thẩm Mỹ Hồng Đào Allegra,Thẩm mỹ viện,0979 088 882,"Thẩm Mỹ Hồng Đào Allegra, 110A Hùng Vương, An Cư, Ninh Kiều, Cần Thơ 900000","An Cư, Ninh Kiều",110A Hùng Vương,Cần Thơ,900000.0,"Ninh Kiều, Cần Thơ",VN
100,ChIJKfw0wzWJoDERAG9o01R81Y4,Jolie.nails,Chuyên gia làm đẹp,0907 588 738,"Jolie.nails, 171 Đ. Nguyễn Tri Phương, P, Ninh Kiều, Cần Thơ","P, Ninh Kiều",171 Đ. Nguyễn Tri Phương,Cần Thơ,,"Ninh Kiều, Cần Thơ",VN
108,ChIJtw63LIiJoDERl0Ih29lF6ZU,Viện Thẩm Mỹ Cát Tiên By Trâm Nguyễn,Thẩm mỹ viện,0888 186 681,"Viện Thẩm Mỹ Cát Tiên By Trâm Nguyễn, 209 Đ. 30 Tháng 4, Xuân Khánh, Ninh Kiều, Cần Thơ","Xuân Khánh, Ninh Kiều",209 Đ. 30 Tháng 4,Cần Thơ,,"Ninh Kiều, Cần Thơ",VN
110,ChIJwcNXXfOJoDERsCUlXUMk0xU,Thảo Diệp Pmu,Thẩm mỹ viện,,"Thảo Diệp Pmu, 25A Đinh Công Tráng, Xuân Khánh, Ninh Kiều, Cần Thơ 90000","Xuân Khánh, Ninh Kiều",25A Đinh Công Tráng,Cần Thơ,90000.0,"Ninh Kiều, Cần Thơ",VN
113,ChIJAeq73RGJoDEReFwyXdqcD-o,"SPA AMY "" Thiên đường sắc đẹp _ Phục Vụ Tận Tâm """,Spa mặt,,"SPA AMY "" Thiên đường sắc đẹp _ Phục Vụ Tận Tâm "", 40 Đ. Nguyễn Văn Linh, Hưng Lợi, Ninh Kiều, Cần Thơ","Hưng Lợi, Ninh Kiều",40 Đ. Nguyễn Văn Linh,Cần Thơ,,"Ninh Kiều, Cần Thơ",VN
115,ChIJIekcq4CJoDERNmU9b-FztC4,Viện Thẩm Mỹ YOUNG BEAUTY,Thẩm mỹ viện,0901 011 516,"Viện Thẩm Mỹ YOUNG BEAUTY, 40d Đ. Trần Hoàng Na, Hưng Lợi, Ninh Kiều, Cần Thơ","Hưng Lợi, Ninh Kiều",40d Đ. Trần Hoàng Na,Cần Thơ,,"Ninh Kiều, Cần Thơ",VN
120,ChIJYTuxzK5ioDERZv7LEGkU_40,Trung tâm chăm sóc sắc đẹp Aperio,Thẩm mỹ viện,7103769246,"Trung tâm chăm sóc sắc đẹp Aperio, 118/9/43B Trần Văn Khéo, An Hội, Ninh Kiều, Cần Thơ","An Hội, Ninh Kiều",118/9/43B Trần Văn Khéo,Cần Thơ,,"Ninh Kiều, Cần Thơ",VN
126,ChIJzabI1BeJoDERkewberF1TPw,ROSE SPA CẦN THƠ,Thẩm mỹ viện,0706 534 249,"ROSE SPA CẦN THƠ, 17 Đ. Trần Hoàng Na, Hưng Lợi, Ninh Kiều, Cần Thơ 92000","Hưng Lợi, Ninh Kiều",17 Đ. Trần Hoàng Na,Cần Thơ,92000.0,"Ninh Kiều, Cần Thơ",VN
130,ChIJ5YBd_bCJoDERlq7M9wUBpHo,Thẩm Mỹ Ngọc Khởi,Thẩm mỹ viện,0939 013 907,"Thẩm Mỹ Ngọc Khởi, 161 Đ. Phạm Hùng, Lê Bình, Cái Răng, Cần Thơ","Lê Bình, Cái Răng",161 Đ. Phạm Hùng,Cần Thơ,,"Cái Răng, Cần Thơ",VN
131,ChIJyxnijURjoDEReqwC6nTpTY8,Lux Beauty - nails spa,Tiệm chăm sóc móng,0981 570 808,"Lux Beauty - nails spa, 12 Đ. Trần Đại Nghĩa, Cái Khế, Ninh Kiều, Cần Thơ","Cái Khế, Ninh Kiều",12 Đ. Trần Đại Nghĩa,Cần Thơ,,"Ninh Kiều, Cần Thơ",VN
132,ChIJv7K2Fi2JoDERRxC99keeZUg,Kym Spa Cần Thơ,Thẩm mỹ viện,0907 837 081,"Kym Spa Cần Thơ, 52/2 Hùng Vương, Thới Bình, Ninh Kiều, Cần Thơ","Thới Bình, Ninh Kiều",52/2 Hùng Vương,Cần Thơ,,"Ninh Kiều, Cần Thơ",VN
133,ChIJp0cR7V6JoDERZmSydF20dr4,Thẩm mỹ viện Thu Anh,Thẩm mỹ viện,0968 321 992,"Thẩm mỹ viện Thu Anh, 110 Đ. Trần Hoàng Na, Khu dân cư 91B, Ninh Kiều, Cần Thơ 94000","Khu dân cư 91B, Ninh Kiều",110 Đ. Trần Hoàng Na,Cần Thơ,94000.0,"Ninh Kiều, Cần Thơ",VN
135,ChIJbxzAKP5joDERGTOolBlOYZQ,Thẩm Mỹ Khánh Mee Beauty,Thẩm mỹ viện,0966 512 277,"Thẩm Mỹ Khánh Mee Beauty, 138a Đường Nguyễn An Ninh, Tân An, Ninh Kiều, Cần Thơ","Tân An, Ninh Kiều",138a Đường Nguyễn An Ninh,Cần Thơ,,"Ninh Kiều, Cần Thơ",VN
136,ChIJ3d13HgJjoDERXOmbJ0xh9gQ,Băng Tâm Beauty Suite,Thẩm mỹ viện,0973 426 427,"Băng Tâm Beauty Suite, 5 Trần Quang Khải, An Hội, Ninh Kiều, Cần Thơ 900000","An Hội, Ninh Kiều",5 Trần Quang Khải,Cần Thơ,900000.0,"Ninh Kiều, Cần Thơ",VN
139,ChIJHQXjmo2JoDER9a9r_7R1xjs,VINH PHAN Phun Xăm,Thẩm mỹ viện,,"VINH PHAN Phun Xăm, 15 Đường Số 9, khu dân cư, Ninh Kiều, Cần Thơ","khu dân cư, Ninh Kiều",15 Đường Số 9,Cần Thơ,,"Ninh Kiều, Cần Thơ",VN
140,ChIJLwFEROiJoDER7VGD4G6OGsw,HK BEAUTY & ACADEMY,Thẩm mỹ viện,0907 442 402,"HK BEAUTY & ACADEMY, 52b Đường số 25, Phường An Khánh, Ninh Kiều, Cần Thơ","Phường An Khánh, Ninh Kiều",52b Đường số 25,Cần Thơ,,"Ninh Kiều, Cần Thơ",VN
142,ChIJ08M2D7eJoDERZYXaKhTwcrY,Võ Kim Phụng Nails,Tiệm chăm sóc móng,0856 462 166,"Võ Kim Phụng Nails, 88/12 Đ. Đề Thám, An Cư, Ninh Kiều, Cần Thơ","An Cư, Ninh Kiều",88/12 Đ. Đề Thám,Cần Thơ,,"Ninh Kiều, Cần Thơ",VN
143,ChIJjeezWTuJoDERjRinkkIa2UU,Spa Beauty KP,Cửa hàng chăm sóc sức khỏe và làm đẹp,0333 255 355,"Spa Beauty KP, 268 Đ. Đồng Văn Cống, An Thới, Bình Thủy, Cần Thơ","An Thới, Bình Thủy",268 Đ. Đồng Văn Cống,Cần Thơ,,"Bình Thủy, Cần Thơ",VN
144,ChIJByX4XWqJoDER6x9UIA6R9AQ,"Chuyên Trị mụn Cần Thơ chỉ từ 199k, sạch thâm sạch mụn Tại Spa SƠN HÀ",Thẩm mỹ viện,0939 971 998,"Chuyên Trị mụn Cần Thơ chỉ từ 199k, sạch thâm sạch mụn Tại Spa SƠN HÀ, Hẻm 137, An Hoà, Ninh Kiều, Cần Thơ","An Hoà, Ninh Kiều",Hẻm 137,Cần Thơ,,"Ninh Kiều, Cần Thơ",VN
145,ChIJM5pLaoaJoDERwpKRqd4qWTU,Thẩm mỹ viện VICY,Thẩm mỹ viện,0966 660 046,"2QC9+3V5 Thẩm mỹ viện VICY, Hưng Lợi, Ninh Kiều, Cần Thơ","Hưng Lợi, Ninh Kiều",2QC9+3V5,Cần Thơ,,"Ninh Kiều, Cần Thơ",VN
147,ChIJb7iGnPhjoDER0Wg0Q8iN3pY,Angel Beauty,Thẩm mỹ viện,0938 669 004,"Angel Beauty, 131 Trần Văn Khéo, Cái Khế, Ninh Kiều, Cần Thơ 700000","Cái Khế, Ninh Kiều",131 Trần Văn Khéo,Cần Thơ,700000.0,"Ninh Kiều, Cần Thơ",VN
150,ChIJrzOF_F9joDERclzoKpuRm0A,Kassy spa,Thẩm mỹ viện,,"Kassy spa, 22/24 Trần Quang Khải, An Hội, Ninh Kiều, Cần Thơ","An Hội, Ninh Kiều",22/24 Trần Quang Khải,Cần Thơ,,"Ninh Kiều, Cần Thơ",VN
153,ChIJLa7NF-KJoDERASGUa8cXF-E,Thẩm Mỹ HeaVen,Thẩm mỹ viện,0987 170 868,"Thẩm Mỹ HeaVen, 32 Đ. Trần Hoàng Na, Phường An Khánh, Ninh Kiều, Cần Thơ","Phường An Khánh, Ninh Kiều",32 Đ. Trần Hoàng Na,Cần Thơ,,"Ninh Kiều, Cần Thơ",VN
154,ChIJaWg1-0iIoDER_PUbn9EhknE,Beauty Min's,Thẩm mỹ viện,0939 545 458,"Beauty Min's, 56 Đ. Trần Hoàng Na, Phường An Khánh, Ninh Kiều, Cần Thơ 900000","Phường An Khánh, Ninh Kiều",56 Đ. Trần Hoàng Na,Cần Thơ,900000.0,"Ninh Kiều, Cần Thơ",VN
155,ChIJK16XIIeJoDERpeIktU9GBW0,Pink GIRL Nail,Tiệm chăm sóc móng,,"Pink GIRL Nail, 47 Hẻm 86, Tân An, Ninh Kiều, Cần Thơ","Tân An, Ninh Kiều",47 Hẻm 86,Cần Thơ,,"Ninh Kiều, Cần Thơ",VN
157,ChIJ5X25zSCIoDERUxylNyo6i1w,Làm đẹp Bích Ngọc,Thẩm mỹ viện,0989 570 067,"2QHH+2X9 Làm đẹp Bích Ngọc, Hẻm 71 Quang Trung, An Lạc, Ninh Kiều, Cần Thơ","An Lạc, Ninh Kiều","2QHH+2X9, Hẻm 71 Quang Trung",Cần Thơ,,"Ninh Kiều, Cần Thơ",VN
160,ChIJ4UZAKBmIoDERN7zfzXVz8U4,Thẩm Mỹ Viện Kim Linh,Thẩm mỹ viện,0292 6292 144,"Thẩm Mỹ Viện Kim Linh, 11 Đường A1, Cái Khế, Ninh Kiều, Cần Thơ","Cái Khế, Ninh Kiều",11 Đường A1,Cần Thơ,,"Ninh Kiều, Cần Thơ",VN
161,ChIJ-Rcq4BBjoDER7Gcfdacrnq4,Tâm NAIL - GỘI ĐẦU - UỐN MI - Waxing,Tiệm chăm sóc móng,0939 546 983,"Tâm NAIL - GỘI ĐẦU - UỐN MI - Waxing, 40 Đ. Nguyễn Bình, Cái Khế, Ninh Kiều, Cần Thơ","Cái Khế, Ninh Kiều",40 Đ. Nguyễn Bình,Cần Thơ,,"Ninh Kiều, Cần Thơ",VN
162,ChIJHfNZ76lioDERIepAt2f4FVM,Tiệm Makeup Kiwi,Thẩm mỹ viện,0939 071 779,"Tiệm Makeup Kiwi, 71K Trần Phú, Cái Khế, Ninh Kiều, Cần Thơ","Cái Khế, Ninh Kiều",71K Trần Phú,Cần Thơ,,"Ninh Kiều, Cần Thơ",VN
166,ChIJ5wYooKhioDER7-5TX-oaX1k,Trung Tâm Spa UA,Thẩm mỹ viện,0292 3750 289,"Trung Tâm Spa UA, 51 Đ. Phạm Ngọc Thạch, Cái Khế, Ninh Kiều, Cần Thơ","Cái Khế, Ninh Kiều",51 Đ. Phạm Ngọc Thạch,Cần Thơ,,"Ninh Kiều, Cần Thơ",VN
167,ChIJ5dFFJahioDERmjuqGSkKfVE,Tiệm Nail Sài Gòn,Thẩm mỹ viện,0917 979 377,"2QWM+539 Tiệm Nail Sài Gòn, Trần Quang Khải, An Hội, Ninh Kiều, Cần Thơ","An Hội, Ninh Kiều","2QWM+539, Trần Quang Khải",Cần Thơ,,"Ninh Kiều, Cần Thơ",VN
171,ChIJPZ9lJR2IoDERAgnR7yqJKxQ,Thẩm Mỹ Thủy,Thẩm mỹ viện,0292 3826 437,"Thẩm Mỹ Thủy, 1 Hẻm 8 Đinh Tiên Hoàng, An Hội, Ninh Kiều, Cần Thơ","An Hội, Ninh Kiều",1 Hẻm 8 Đinh Tiên Hoàng,Cần Thơ,,"Ninh Kiều, Cần Thơ",VN
172,ChIJq4iX1Q6IoDER8e0AHH7ExaY,Thẩm Mỹ NA Beauty & Clinic,Thẩm mỹ viện,0779 141 000,"Thẩm Mỹ NA Beauty & Clinic, Hẻm 188 Đ. Nguyễn Văn Cừ, An Hoà, Ninh Kiều, Cần Thơ","An Hoà, Ninh Kiều",Hẻm 188 Đ. Nguyễn Văn Cừ,Cần Thơ,,"Ninh Kiều, Cần Thơ",VN
174,ChIJw-LWzVKJoDERV4mWVSL_YPE,Thy Beauty,Thẩm mỹ viện,,"Thy Beauty, 17 Bế Văn Đàn, An Hoà, Ninh Kiều, Cần Thơ","An Hoà, Ninh Kiều",17 Bế Văn Đàn,Cần Thơ,,"Ninh Kiều, Cần Thơ",VN
175,ChIJqQbQT7-JoDERNFw-Sbj6jCI,HƯƠNG KIM SPA,Thẩm mỹ viện,,"HƯƠNG KIM SPA, 49 Đ. Võ Trường Toản, An Hoà, Ninh Kiều, Cần Thơ","An Hoà, Ninh Kiều",49 Đ. Võ Trường Toản,Cần Thơ,,"Ninh Kiều, Cần Thơ",VN
176,ChIJw5LS2beJoDERK1f9F57LWlg,YÊN SPA,Thẩm mỹ viện,,"YÊN SPA, 161/13 tổ 13 Nguyễn Văn Cừ Nối Dài, Phường An Khánh, Ninh Kiều, Cần Thơ","Phường An Khánh, Ninh Kiều",161/13 tổ 13 Nguyễn Văn Cừ Nối Dài,Cần Thơ,,"Ninh Kiều, Cần Thơ",VN
178,ChIJrVsMOpiJoDERScuegLgG9pk,Emmy Beauté,Thẩm mỹ viện,0783 779 968,"Emmy Beauté, 26 A5, KDC Tổ 3A, Ninh Kiều, Cần Thơ","KDC Tổ 3A, Ninh Kiều",26 A5,Cần Thơ,,"Ninh Kiều, Cần Thơ",VN
180,ChIJq_tNjQuJoDERuwLGvUS8jYM,HaKa Chi Spa,Thẩm mỹ viện,0913 722 882,"HaKa Chi Spa, 20 Đường B11, Hưng Lợi, Ninh Kiều, Cần Thơ","Hưng Lợi, Ninh Kiều",20 Đường B11,Cần Thơ,,"Ninh Kiều, Cần Thơ",VN
181,ChIJhx7giyaJoDERmS4-GSKozfs,Tiệm Nail_TiêuVi,Tiệm chăm sóc móng,0939 161 055,"Tiệm Nail_TiêuVi, 42 Đường B22, Hưng Lợi, Ninh Kiều, Cần Thơ 92000","Hưng Lợi, Ninh Kiều",42 Đường B22,Cần Thơ,92000.0,"Ninh Kiều, Cần Thơ",VN
183,ChIJz9GGdY6JoDERVxFxvxFXDDM,Bối Beauty,Thẩm mỹ viện,0938 104 198,"Bối Beauty, 180/16 Hẻm 558 -30/4, Hưng Lợi, Ninh Kiều, Cần Thơ","Hưng Lợi, Ninh Kiều",180/16 Hẻm 558 -30/4,Cần Thơ,,"Ninh Kiều, Cần Thơ",VN
184,ChIJV5SvsjaIoDER-reWfSeKH7g,Beauty House Trâm Anh,Thẩm mỹ viện,,"Beauty House Trâm Anh, 190/8D Đ. 30 Tháng 4, Hưng Lợi, Ninh Kiều, Cần Thơ","Hưng Lợi, Ninh Kiều",190/8D Đ. 30 Tháng 4,Cần Thơ,,"Ninh Kiều, Cần Thơ",VN
185,ChIJezXPVjOIoDERqRgou33mfcc,Cửa Hàng Thẩm Mỹ Viện Mỹ Trinh,Thẩm mỹ viện,0907 706 779,"Cửa Hàng Thẩm Mỹ Viện Mỹ Trinh, 151/26A, Đường Trần Hoàng Na, Quận Ninh Kiều, Tp Cần Thơ, Hưng Lợi, Ninh Kiều, Cần Thơ","Hưng Lợi, Ninh Kiều","151/26A, Đường Trần Hoàng Na, Quận Ninh Kiều, Tp Cần Thơ",Cần Thơ,,"Ninh Kiều, Cần Thơ",VN
188,ChIJ70GBja2JoDERHStNV0tqQnY,Spa Nắng - Gội Đầu Dưỡng Sinh,Chuyên gia làm đẹp,0907 985 987,"Spa Nắng - Gội Đầu Dưỡng Sinh, Tp, 158/63 Đ. Nguyễn Việt Hồng, P, Ninh Kiều, Cần Thơ 90000","P, Ninh Kiều","Tp, 158/63 Đ. Nguyễn Việt Hồng",Cần Thơ,90000.0,"Ninh Kiều, Cần Thơ",VN
189,ChIJ2TjM7sljoDERMofdAb7nVO0,Trinh nails,Tiệm chăm sóc móng,,"Trinh nails, 12n Hẻm 22 Đ. Mạc Đĩnh Chi, Tân An, Ninh Kiều, Cần Thơ","Tân An, Ninh Kiều",12n Hẻm 22 Đ. Mạc Đĩnh Chi,Cần Thơ,,"Ninh Kiều, Cần Thơ",VN
190,ChIJyXr6v6BioDERcIlqjK_DOlE,Trung Tâm Dịch Vụ Xăm Nghệ Thuật Lottoo,Thẩm mỹ viện,0932 888 798,"Trung Tâm Dịch Vụ Xăm Nghệ Thuật Lottoo, 31 Đ. Trương Định, Tân An, Ninh Kiều, Cần Thơ","Tân An, Ninh Kiều",31 Đ. Trương Định,Cần Thơ,,"Ninh Kiều, Cần Thơ",VN
191,ChIJ24u0DKBioDERes9zbG8H310,Tiệm Làm Đẹp Kim Anh,Thẩm mỹ viện,0292 3822 183,"Tiệm Làm Đẹp Kim Anh, 55 Đ. Đề Thám, Tân An, Ninh Kiều, Cần Thơ","Tân An, Ninh Kiều",55 Đ. Đề Thám,Cần Thơ,,"Ninh Kiều, Cần Thơ",VN
192,ChIJE6nUaiyIoDERXeehjNhwwws,Làm Đẹp Phương Anh,Thẩm mỹ viện,,"Làm Đẹp Phương Anh, Hưng Thạnh, Cái Răng, Cần Thơ","Hưng Thạnh, Cái Răng",,Cần Thơ,,"Cái Răng, Cần Thơ",VN
193,ChIJB4KadaBioDERWs2urD1aCxk,Beauty Salon Làm Đẹp,Thẩm mỹ viện,,"Beauty Salon Làm Đẹp, 63 Đ. Đề Thám, Tân An, Ninh Kiều, Cần Thơ","Tân An, Ninh Kiều",63 Đ. Đề Thám,Cần Thơ,,"Ninh Kiều, Cần Thơ",VN
194,ChIJ4ZpM0wWIoDERyrojYjb9o-Y,Tiệm Làm Đẹp Hương Thuỷ,Thẩm mỹ viện,7103897414,"Tiệm Làm Đẹp Hương Thuỷ, 5 Đ. Trần Việt Châu, Thới Bình, Ninh Kiều, Cần Thơ","Thới Bình, Ninh Kiều",5 Đ. Trần Việt Châu,Cần Thơ,,"Ninh Kiều, Cần Thơ",VN
195,ChIJVzww7qdioDER3kFZXEyOwIs,Hoai Anh Beauty Care Center,Thẩm mỹ viện,0909 663 338,"Hoai Anh Beauty Care Center, 2A Nguyễn Trãi, An Hội, Ninh Kiều, Cần Thơ","An Hội, Ninh Kiều",2A Nguyễn Trãi,Cần Thơ,,"Ninh Kiều, Cần Thơ",VN
196,ChIJ658k4PuHoDERm_Z1-YXxi14,"Phun Thêu, Điêu Khắc, Thẩm Mỹ Phương Linh",Thẩm mỹ viện,,"3Q6G+GF2 Phun Thêu, Điêu Khắc, Thẩm Mỹ Phương Linh, Đường Số 12A, Cái Khế, Ninh Kiều, Cần Thơ","Cái Khế, Ninh Kiều","3Q6G+GF2, Đường Số 12A",Cần Thơ,,"Ninh Kiều, Cần Thơ",VN
198,ChIJG50uOZ9ioDERyKqNiQbJofk,Trung Tâm Chăm Sóc Sắc Đẹp Sen Việt,Thẩm mỹ viện,0292 6541 052,"Trung Tâm Chăm Sóc Sắc Đẹp Sen Việt, 38 Đường Châu Văn Liêm, Tân An, Ninh Kiều, Cần Thơ","Tân An, Ninh Kiều",38 Đường Châu Văn Liêm,Cần Thơ,,"Ninh Kiều, Cần Thơ",VN
202,ChIJPRYbSxyIoDERWpeiP75-Zb0,Minh Trang Hair Beauty Salon - Massage,Thẩm mỹ viện,0292 3735 665,"Minh Trang Hair Beauty Salon - Massage, 137 Hoàng Văn Thụ, An Cư, Ninh Kiều, Cần Thơ","An Cư, Ninh Kiều",137 Hoàng Văn Thụ,Cần Thơ,,"Ninh Kiều, Cần Thơ",VN
203,ChIJTfBqxqljoDERwf5K6CFd75Q,PHUN XĂM THẨM MỸ TRANG KIM,Thẩm mỹ viện,,"PHUN XĂM THẨM MỸ TRANG KIM, 1/46 Cầu Ninh Kiều, Tân An, Ninh Kiều, Cần Thơ","Tân An, Ninh Kiều",1/46 Cầu Ninh Kiều,Cần Thơ,,"Ninh Kiều, Cần Thơ",VN
205,ChIJcRTIHKhioDER-pieBfRHNsU,Trung Tâm Chăm Sóc Sắc Đẹp Thanh Thùy,Tiệm chăm sóc móng,0779 975 309,"Trung Tâm Chăm Sóc Sắc Đẹp Thanh Thùy, 62 Trần Quang Khải, An Hội, Ninh Kiều, Cần Thơ","An Hội, Ninh Kiều",62 Trần Quang Khải,Cần Thơ,,"Ninh Kiều, Cần Thơ",VN
209,ChIJjxTMV6lioDERKsw3V3ilrpc,Tiệm Makeup Giang Đặng,Thẩm mỹ viện,0787 809 838,"Tiệm Makeup Giang Đặng, 36 Lê Lợi, Cái Khế, Ninh Kiều, Cần Thơ","Cái Khế, Ninh Kiều",36 Lê Lợi,Cần Thơ,,"Ninh Kiều, Cần Thơ",VN
212,ChIJ8VK2V6lioDERPEO58AzCNbM,Tiệm Hiếu Nail,Thẩm mỹ viện,0961 111 405,"Tiệm Hiếu Nail, 36 Lê Lợi, Cái Khế, Ninh Kiều, Cần Thơ","Cái Khế, Ninh Kiều",36 Lê Lợi,Cần Thơ,,"Ninh Kiều, Cần Thơ",VN
213,ChIJiRwkWahioDERmVK7GQ3irzI,Công Ty Tnhh Mỹ Phẩm Sắc Đẹp Hoàn Vũ,Cửa hàng mỹ phẩm,,"Công Ty Tnhh Mỹ Phẩm Sắc Đẹp Hoàn Vũ, 99 Trần Văn Khéo, Cái Khế, Ninh Kiều, Cần Thơ","Cái Khế, Ninh Kiều",99 Trần Văn Khéo,Cần Thơ,,"Ninh Kiều, Cần Thơ",VN
215,ChIJEdRMt85joDERoaIW7-QnooA,MỸ THO Beauty - Nail - Gội đầu dưỡng sinh,Tiệm chăm sóc móng,0974 329 699,"MỸ THO Beauty - Nail - Gội đầu dưỡng sinh, 75/6 Trần Phú, Cái Khế, Ninh Kiều, Cần Thơ 900000","Cái Khế, Ninh Kiều",75/6 Trần Phú,Cần Thơ,900000.0,"Ninh Kiều, Cần Thơ",VN
218,ChIJhYY-hqxioDERsfBMzyBeY7I,Tiệm Daisy Nails,Thẩm mỹ viện,0949 661 585,"Tiệm Daisy Nails, 79 Trần Phú, Cái Khế, Ninh Kiều, Cần Thơ","Cái Khế, Ninh Kiều",79 Trần Phú,Cần Thơ,,"Ninh Kiều, Cần Thơ",VN
219,ChIJm1JBZalioDERl2OU0RBUY_Y,Tiệm tóc Long Lành,Tiệm chăm sóc móng,0776 505 539,"2QXP+68V Tiệm tóc Long Lành, Cái Khế, Ninh Kiều, Cần Thơ","Cái Khế, Ninh Kiều",2QXP+68V,Cần Thơ,,"Ninh Kiều, Cần Thơ",VN
220,ChIJSRTSR6hioDER30KnJO7vn5M,Tiệm Nails Trâm,Thẩm mỹ viện,0919 989 947,"Tiệm Nails Trâm, 73A1 Đ. Hồ Tùng Mậu, Cái Khế, Ninh Kiều, Cần Thơ","Cái Khế, Ninh Kiều",73A1 Đ. Hồ Tùng Mậu,Cần Thơ,,"Ninh Kiều, Cần Thơ",VN
226,ChIJ-43O3qlioDERFaXPocTVMzM,Beauty Salon Hair Sáu,Thẩm mỹ viện,0292 2211 199,"Beauty Salon Hair Sáu, 4 Trần Phú, Cái Khế, Ninh Kiều, Cần Thơ","Cái Khế, Ninh Kiều",4 Trần Phú,Cần Thơ,,"Ninh Kiều, Cần Thơ",VN
227,ChIJx5xhggKIoDERNj51uJ_PCPw,Thẫm Mỹ Viện Cẩm Vinh,Thẩm mỹ viện,0906 715 678,"Thẫm Mỹ Viện Cẩm Vinh, 85B1, Ung Văn Khiêm, Quận Ninh Kiều, Tp Cần Thơ, An Hội, Ninh Kiều, Cần Thơ","An Hội, Ninh Kiều","85B1, Ung Văn Khiêm, Quận Ninh Kiều, Tp Cần Thơ",Cần Thơ,,"Ninh Kiều, Cần Thơ",VN
230,ChIJS7ZYL6hioDERviEHhXgl17M,Cửa Hàng Kiềm Nghĩa Diễm,Tiệm chăm sóc móng,0916 838 909,"Cửa Hàng Kiềm Nghĩa Diễm, 54B1 Đ. Ung Văn Khiêm, An Hội, Ninh Kiều, Cần Thơ","An Hội, Ninh Kiều",54B1 Đ. Ung Văn Khiêm,Cần Thơ,,"Ninh Kiều, Cần Thơ",VN
234,ChIJAwqYNKhioDERq5WhCh_KyQU,Viện Chăm Sóc Da Nguyễn Quỳnh,Thẩm mỹ viện,0792 872 905,"Viện Chăm Sóc Da Nguyễn Quỳnh, 11A1 Đ. Hồ Tùng Mậu, Cái Khế, Ninh Kiều, Cần Thơ","Cái Khế, Ninh Kiều",11A1 Đ. Hồ Tùng Mậu,Cần Thơ,,"Ninh Kiều, Cần Thơ",VN
236,ChIJ66a0Kx2IoDERK_BV7924D90,Lyn Beauty,Thẩm mỹ viện,0944 157 588,"Lyn Beauty, 8 Đ. Đinh Tiên Hoàng, An Hội, Ninh Kiều, Cần Thơ","An Hội, Ninh Kiều",8 Đ. Đinh Tiên Hoàng,Cần Thơ,,"Ninh Kiều, Cần Thơ",VN
238,ChIJ7S3XFB2IoDERYHAE436ojXg,Tiệm Chăm Sóc Da Mộc,Thẩm mỹ viện,0907 720 418,"Tiệm Chăm Sóc Da Mộc, 27 Đ. Đinh Tiên Hoàng, An Hội, Ninh Kiều, Cần Thơ","An Hội, Ninh Kiều",27 Đ. Đinh Tiên Hoàng,Cần Thơ,,"Ninh Kiều, Cần Thơ",VN
242,ChIJI-na7ByIoDERhHVIsT--AIQ,Thẩm Mỹ Viện Kiều Trang,Thẩm mỹ viện,0939 709 199,"Thẩm Mỹ Viện Kiều Trang, 132C Hùng Vương, An Cư, Ninh Kiều, Cần Thơ","An Cư, Ninh Kiều",132C Hùng Vương,Cần Thơ,,"Ninh Kiều, Cần Thơ",VN
243,ChIJ74aIHAOIoDERGcB6YDzt7zs,Thẩm Mỹ Viện Hồng Nhung,Thẩm mỹ viện,0939 494 641,"Thẩm Mỹ Viện Hồng Nhung, 34/28A Đ. Bà Huyện Thanh Quan, Thới Bình, Ninh Kiều, Cần Thơ","Thới Bình, Ninh Kiều",34/28A Đ. Bà Huyện Thanh Quan,Cần Thơ,,"Ninh Kiều, Cần Thơ",VN
245,ChIJsUoGf9-JoDERNEhAJOEyoa4,PHUN XĂM THẨM MỸ TRANG KIM,Thẩm mỹ viện,0901 219 718,"PHUN XĂM THẨM MỸ TRANG KIM, 13, Đ. Đinh Tiên Hoàng/8B Nguyễn Trãi, An Hội, Ninh Kiều, Cần Thơ","An Hội, Ninh Kiều","13, Đ. Đinh Tiên Hoàng/8B Nguyễn Trãi",Cần Thơ,,"Ninh Kiều, Cần Thơ",VN
246,ChIJKRwuFR2IoDERi4MhxrtzjaU,Tiệm Trang Điểm Mỹ Xuyên,Thẩm mỹ viện,0292 3826 894,"Tiệm Trang Điểm Mỹ Xuyên, 2B, Đinh Tiên Hoàng, Quận Ninh Kiều, Tp Cần Thơ","An Hội, Ninh Kiều","2B, Đinh Tiên Hoàng, Quận Ninh Kiều, Tp Cần Thơ",Cần Thơ,,"Ninh Kiều, Cần Thơ",VN
253,ChIJAXWaJruJoDERxFdBI1btHUk,Phun Xăm Trang Thanh Trang,Thẩm mỹ viện,,"Phun Xăm Trang Thanh Trang, 15 Đ. Phạm Ngũ Lão, Thới Bình, Ninh Kiều, Cần Thơ","Thới Bình, Ninh Kiều",15 Đ. Phạm Ngũ Lão,Cần Thơ,,"Ninh Kiều, Cần Thơ",VN
254,ChIJ75j8Kh2IoDERNq_91MCBngk,Spa & Eyebrows Tủ Trân,Thẩm mỹ viện,,"Spa & Eyebrows Tủ Trân, 12 Đ. Đinh Tiên Hoàng, An Hội, Ninh Kiều, Cần Thơ","An Hội, Ninh Kiều",12 Đ. Đinh Tiên Hoàng,Cần Thơ,,"Ninh Kiều, Cần Thơ",VN
257,ChIJzU1kFQyIoDERsOYecJATJqU,Yii Beauty,Thẩm mỹ viện,0799 630 667,"Yii Beauty, 112 Đ. Nguyễn Đệ, An Hoà, Bình Thủy, Cần Thơ","An Hoà, Bình Thủy",112 Đ. Nguyễn Đệ,Cần Thơ,,"Bình Thủy, Cần Thơ",VN
260,ChIJl-AvRw-IoDERSy78ciL0dSY,Beauty Song Thủy,Thẩm mỹ viện,1228 171779,"Beauty Song Thủy, 17 Bế Văn Đàn, An Hoà, Ninh Kiều, Cần Thơ","An Hoà, Ninh Kiều",17 Bế Văn Đàn,Cần Thơ,,"Ninh Kiều, Cần Thơ",VN
261,ChIJy2s3QwyIoDERer1SyK2_FD4,Beauty Ngọc Thúy,Thẩm mỹ viện,0907 689 736,"Beauty Ngọc Thúy, 158 Đ. Nguyễn Đệ, An Hoà, Bình Thủy, Cần Thơ","An Hoà, Bình Thủy",158 Đ. Nguyễn Đệ,Cần Thơ,,"Bình Thủy, Cần Thơ",VN
262,ChIJPzIziUmJoDERoTio5Rjrxqo,Salon Làm Đẹp,,,"Salon Làm Đẹp, khu cán bộ giáo viên, Đường số 3/30 đại học, Hưng Lợi, Ninh Kiều, Cần Thơ","Hưng Lợi, Ninh Kiều","khu cán bộ giáo viên, Đường số 3/30 đại học",Cần Thơ,,"Ninh Kiều, Cần Thơ",VN
269,ChIJP1YmSTWIoDERG8lvg46gsoE,Tiệm Làm Móng Ngọc Tú,Thẩm mỹ viện,0982 002 671,"Tiệm Làm Móng Ngọc Tú, 66/13, Đường 30/04, Quận Ninh Kiều, Tp Cần Thơ, Hưng Lợi, Ninh Kiều, Cần Thơ","Hưng Lợi, Ninh Kiều","66/13, Đường 30/04, Quận Ninh Kiều, Tp Cần Thơ",Cần Thơ,,"Ninh Kiều, Cần Thơ",VN
270,ChIJEVVOSfGJoDERr-kfUJJANKQ,Trinh Beauty ( Sản Phẩm Giảm Cân_Làm Đẹp).,Cửa hàng mỹ phẩm,0929 644 559,"Trinh Beauty ( Sản Phẩm Giảm Cân_Làm Đẹp)., 226 Đ. Hoàng Quốc Việt, An Bình, Ninh Kiều, Cần Thơ 900000","An Bình, Ninh Kiều",226 Đ. Hoàng Quốc Việt,Cần Thơ,900000.0,"Ninh Kiều, Cần Thơ",VN
272,ChIJLWDSWkSIoDER4DpfjsdkR1A,Thẩm Mỹ Nét Đẹp,Thẩm mỹ viện,,"Thẩm Mỹ Nét Đẹp, 282 Đ. Trần Vĩnh Kiết, Phường An Khánh, Ninh Kiều, Cần Thơ","Phường An Khánh, Ninh Kiều",282 Đ. Trần Vĩnh Kiết,Cần Thơ,,"Ninh Kiều, Cần Thơ",VN
274,ChIJPxOd2VOIoDEROM2hCCW1LV0,Tiệm Nail Ngọc Như,Thẩm mỹ viện,,"2P9V+56C Tiệm Nail Ngọc Như, Đ. Hoàng Quốc Việt, An Bình, Ninh Kiều, Cần Thơ","An Bình, Ninh Kiều","2P9V+56C, Đ. Hoàng Quốc Việt",Cần Thơ,,"Ninh Kiều, Cần Thơ",VN
277,ChIJ9flbMgCJoDERU1LBaXY3-gQ,Sam beauty,Tiệm chăm sóc móng,,"Sam beauty, 16b Đường Số 3, kdc hồng phát, Ninh Kiều, Cần Thơ","kdc hồng phát, Ninh Kiều",16b Đường Số 3,Cần Thơ,,"Ninh Kiều, Cần Thơ",VN
280,ChIJ_y3_kVyJoDER3hXrLnAv3GQ,Ngân Dương makeup Cần Thơ,Chuyên gia làm đẹp,0794 940 818,"Ngân Dương makeup Cần Thơ, 169/5a, 169/5 Đ. Trần Vĩnh Kiết, An Bình, Ninh Kiều, Cần Thơ","An Bình, Ninh Kiều","169/5a, 169/5 Đ. Trần Vĩnh Kiết",Cần Thơ,,"Ninh Kiều, Cần Thơ",VN
286,ChIJoQiBfa2JoDER-FMBi59zaJo,Beauty Salon Giang Nhi,Thẩm mỹ viện,,"Beauty Salon Giang Nhi, 68 Đ. Hoàng Quốc Việt, An Bình, Ninh Kiều, Cần Thơ","An Bình, Ninh Kiều",68 Đ. Hoàng Quốc Việt,Cần Thơ,,"Ninh Kiều, Cần Thơ",VN
290,ChIJDT0ZKkiIoDERi7G6sF0bi-o,Dịch Vụ Thẩm Mỹ Phượng,Thẩm mỹ viện,0939 765 898,"Dịch Vụ Thẩm Mỹ Phượng, 132/26 Đ. 3 Tháng 2, Hưng Lợi, Ninh Kiều, Cần Thơ","Hưng Lợi, Ninh Kiều",132/26 Đ. 3 Tháng 2,Cần Thơ,,"Ninh Kiều, Cần Thơ",VN
293,ChIJv9vhKEiIoDERm6WjfRvIEYo,Ngọc Liên Beauty,Thẩm mỹ viện,0522 092 015,"Ngọc Liên Beauty, 132/30A Đ. 3 Tháng 2, Hưng Lợi, Ninh Kiều, Cần Thơ","Hưng Lợi, Ninh Kiều",132/30A Đ. 3 Tháng 2,Cần Thơ,,"Ninh Kiều, Cần Thơ",VN
294,ChIJ4YpZPLiJoDERjRcfIsc2Tw4,KIỀU Mỹ,Thẩm mỹ viện,0946 639 833,"KIỀU Mỹ, 132/26A Đ. 3 Tháng 2, Hưng Lợi, Ninh Kiều, Cần Thơ","Hưng Lợi, Ninh Kiều",132/26A Đ. 3 Tháng 2,Cần Thơ,,"Ninh Kiều, Cần Thơ",VN
295,ChIJQUSt0EeIoDERx39IQ46I7H4,Tiệm Thẩm Mỹ Anh Ngả,Thẩm mỹ viện,0817 395 136,"Tiệm Thẩm Mỹ Anh Ngả, 104 Đ. Nguyễn Hiền, Khu dân cư 91B, Ninh Kiều, Cần Thơ","Khu dân cư 91B, Ninh Kiều",104 Đ. Nguyễn Hiền,Cần Thơ,,"Ninh Kiều, Cần Thơ",VN
297,ChIJmYlmJXCJoDERymB-xp9c6lg,Thẩm Mỹ Viện Việt Á,Thẩm mỹ viện,0961 580 808,"Thẩm Mỹ Viện Việt Á, 201 Hẻm 132 Đ. 3 Tháng 2, Hưng Lợi, Ninh Kiều, Cần Thơ","Hưng Lợi, Ninh Kiều",201 Hẻm 132 Đ. 3 Tháng 2,Cần Thơ,,"Ninh Kiều, Cần Thơ",VN
298,ChIJKSJC3TeIoDERZoG0xWuike0,Tiệm Nail Trúc,Thẩm mỹ viện,0908 231 994,"2QC5+JP3 Tiệm Nail Trúc, Đường số 3, KDC Metro, Ninh Kiều, Cần Thơ","KDC Metro, Ninh Kiều","2QC5+JP3, Đường số 3",Cần Thơ,,"Ninh Kiều, Cần Thơ",VN
300,ChIJ6bL6vVmJoDER9KRwACQofW4,makeup store LinhCherry,Tiệm chăm sóc móng,0794 255 553,"makeup store LinhCherry, 67 Ngô Sĩ Liên, KDC Metro, Ninh Kiều, Cần Thơ","KDC Metro, Ninh Kiều",67 Ngô Sĩ Liên,Cần Thơ,,"Ninh Kiều, Cần Thơ",VN
303,ChIJy3SXK_yJoDEROf3YKFm_JAA,tiệm nail nhi nhi,Tiệm chăm sóc móng,0794 783 891,"tiệm nail nhi nhi, 112 Hẻm 132 Đ. 3 Tháng 2, Hưng Lợi, Ninh Kiều, Cần Thơ","Hưng Lợi, Ninh Kiều",112 Hẻm 132 Đ. 3 Tháng 2,Cần Thơ,,"Ninh Kiều, Cần Thơ",VN
304,ChIJgxrSPeuJoDERsZweq4dDZ1E,Phụ liệu nail Ngô Hằng,Tiệm chăm sóc móng,0941 606 784,"Phụ liệu nail Ngô Hằng, 12 Hẻm 132 Đ. 3 Tháng 2, Hưng Lợi, Ninh Kiều, Cần Thơ","Hưng Lợi, Ninh Kiều",12 Hẻm 132 Đ. 3 Tháng 2,Cần Thơ,,"Ninh Kiều, Cần Thơ",VN
305,ChIJD5caQoyJoDER9n3J2TCYq20,Trung tâm chăm sóc sức khỏe Đông y dưỡng sinh-Taijisun Cần Thơ,Thẩm mỹ viện,,"Trung tâm chăm sóc sức khỏe Đông y dưỡng sinh-Taijisun Cần Thơ, 66 Đường B24, Phường An Khánh, Ninh Kiều, Cần Thơ","Phường An Khánh, Ninh Kiều",66 Đường B24,Cần Thơ,,"Ninh Kiều, Cần Thơ",VN
309,ChIJd2OzEtuJoDERv4V_bex0i9s,"22b Trần Hoàng Na, An Bình, Ninh Kiều, Cần Thơ",Thẩm mỹ viện,0847 866 833,"22b Trần Hoàng Na, An Bình, Ninh Kiều, Cần Thơ, 22b Đ. Trần Hoàng Na, An Bình, Ninh Kiều, Cần Thơ","An Bình, Ninh Kiều",22b Đ. Trần Hoàng Na,Cần Thơ,,"Ninh Kiều, Cần Thơ",VN
311,ChIJJSx4eNOJoDERbrcLDjDp8CA,Bắp Spa,Thẩm mỹ viện,0902 530 555,"Bắp Spa, Đối diện Mầm non Mặt trời nhỏ, 180/4 hẻm, 558 Hẻm 553, Hưng Lợi, Ninh Kiều, Cần Thơ","Hưng Lợi, Ninh Kiều","Đối diện Mầm non Mặt trời nhỏ, 180/4 hẻm, 558 Hẻm 553",Cần Thơ,,"Ninh Kiều, Cần Thơ",VN
312,ChIJy2e1KriJoDERwBS2xywzjbI,Phê Spa,Thẩm mỹ viện,,"Phê Spa, 449 Đ. 30 Tháng 4, Hưng Lợi, Ninh Kiều, Cần Thơ","Hưng Lợi, Ninh Kiều",449 Đ. 30 Tháng 4,Cần Thơ,,"Ninh Kiều, Cần Thơ",VN
313,ChIJtzvya0aJoDER4vQ-hQEMK9I,Mộc Beauty Spa Cần Thơ,Thẩm mỹ viện,,"Mộc Beauty Spa Cần Thơ, 50/87 Đường Trần Hoàng Na, Hưng Lợi, Ninh Kiều, Cần Thơ","Hưng Lợi, Ninh Kiều",50/87 Đường Trần Hoàng Na,Cần Thơ,,"Ninh Kiều, Cần Thơ",VN
315,ChIJLbihMX2JoDERLI9YF5hCpdc,ANH Spa Cần Thơ,Thẩm mỹ viện,0795 832 017,"ANH Spa Cần Thơ, 16 Dãy A, Đ. Trần Hoàng Na, Hưng Lợi, Ninh Kiều, Cần Thơ","Hưng Lợi, Ninh Kiều","16 Dãy A, Đ. Trần Hoàng Na",Cần Thơ,,"Ninh Kiều, Cần Thơ",VN
316,ChIJ9zs26weJoDERUQ6YLD55LAY,Aqua skin & beauty,Spa mặt,,"Aqua skin & beauty, 21 Đ. 30 Tháng 4, Hưng Lợi, Ninh Kiều, Cần Thơ","Hưng Lợi, Ninh Kiều",21 Đ. 30 Tháng 4,Cần Thơ,,"Ninh Kiều, Cần Thơ",VN
317,ChIJRVY8yK-JoDERLMWr2jmAsh4,Thẩm Mỹ Hồng Hạnh,Thẩm mỹ viện,0907 442 378,"Thẩm Mỹ Hồng Hạnh, 180/16 Hẻm 558 -30/4, Hưng Lợi, Ninh Kiều, Cần Thơ","Hưng Lợi, Ninh Kiều",180/16 Hẻm 558 -30/4,Cần Thơ,,"Ninh Kiều, Cần Thơ",VN
326,ChIJd4EzFPCJoDER0zl3UyI5S_Q,Kim spa,Thẩm mỹ viện,,"Kim spa, Hẻm 51 Hẻm 132 Đ. 3 Tháng 2, Xuân Khánh, Ninh Kiều, Cần Thơ","Xuân Khánh, Ninh Kiều",Hẻm 51 Hẻm 132 Đ. 3 Tháng 2,Cần Thơ,,"Ninh Kiều, Cần Thơ",VN
329,ChIJJ5CiknyJoDERq8NM90lV9G4,Phuong’s Spa Relax - Gội Đầu Dưỡng Sinh,Thẩm mỹ viện,0939 500 134,"Phuong’s Spa Relax - Gội Đầu Dưỡng Sinh, 93 Đ. Trương Định, Tân An, Ninh Kiều, Cần Thơ","Tân An, Ninh Kiều",93 Đ. Trương Định,Cần Thơ,,"Ninh Kiều, Cần Thơ",VN
331,ChIJ9zeHWBRjoDERkrXlNYPBSjA,JD Beauty,Thẩm mỹ viện,0936 522 422,"JD Beauty, 3B Hẻm 22 Đ. Mạc Đĩnh Chi, Tân An, Ninh Kiều, Cần Thơ 90000","Tân An, Ninh Kiều",3B Hẻm 22 Đ. Mạc Đĩnh Chi,Cần Thơ,90000.0,"Ninh Kiều, Cần Thơ",VN
334,ChIJlyP6fqBioDER5NHasafY5LI,An Nhien B. Eyelash Nối Mi Chuyên Nghiệp,Thẩm mỹ viện,,"An Nhien B. Eyelash Nối Mi Chuyên Nghiệp, Hẻm 72 Đ. Đề Thám, Tân An, Ninh Kiều, Cần Thơ","Tân An, Ninh Kiều",Hẻm 72 Đ. Đề Thám,Cần Thơ,,"Ninh Kiều, Cần Thơ",VN
335,ChIJQ4G5F6BioDERxDmPaAxYAfs,Beauty Salon Đăng Thành,Thẩm mỹ viện,0907 890 945,"Beauty Salon Đăng Thành, 10 Đ. Đề Thám, Tân An, Ninh Kiều, Cần Thơ","Tân An, Ninh Kiều",10 Đ. Đề Thám,Cần Thơ,,"Ninh Kiều, Cần Thơ",VN
336,ChIJg82-yx-IoDERi7Pm10riod0,Viện Thẩm Mỹ Cali,Thẩm mỹ viện,0944 844 300,"Viện Thẩm Mỹ Cali, 58 Đ. Lý Tự Trọng, An Cư, Ninh Kiều, Cần Thơ","An Cư, Ninh Kiều",58 Đ. Lý Tự Trọng,Cần Thơ,,"Ninh Kiều, Cần Thơ",VN
337,ChIJbWPZsaBioDERK-sCn8oqFw4,Beauty Salon Nhiên Trần,Thẩm mỹ viện,,"2QQM+428 Beauty Salon Nhiên Trần, Hẻm 22 Đ. Mạc Đĩnh Chi, An Cư, Ninh Kiều, Cần Thơ","An Cư, Ninh Kiều","2QQM+428, Hẻm 22 Đ. Mạc Đĩnh Chi",Cần Thơ,,"Ninh Kiều, Cần Thơ",VN
339,ChIJ_8e7uiGIoDERQyusLnpQCo8,Shop Mỹ Phẩm Thiên Thần Sắc Đẹp,Cửa hàng mỹ phẩm,0916 976 967,"Shop Mỹ Phẩm Thiên Thần Sắc Đẹp, 108 Đ. 30 Tháng 4, An Lạc, Ninh Kiều, Cần Thơ","An Lạc, Ninh Kiều",108 Đ. 30 Tháng 4,Cần Thơ,,"Ninh Kiều, Cần Thơ",VN
340,ChIJTbhumaBioDERT6Oi1b95l8U,Nail Thanh,Tiệm chăm sóc móng,,"Nail Thanh, 21 Hẻm 22 Đ. Mạc Đĩnh Chi, Tân An, Ninh Kiều, Cần Thơ","Tân An, Ninh Kiều",21 Hẻm 22 Đ. Mạc Đĩnh Chi,Cần Thơ,,"Ninh Kiều, Cần Thơ",VN
342,ChIJ_427YKBioDERNijRo7FVS5w,Rosea Crystal Cần Thơ,Thẩm mỹ viện,0346 769 189,"Rosea Crystal Cần Thơ, 16 Đ. Nguyễn Khuyến, Tân An, Ninh Kiều, Cần Thơ","Tân An, Ninh Kiều",16 Đ. Nguyễn Khuyến,Cần Thơ,,"Ninh Kiều, Cần Thơ",VN
