,place_id,name,main_category,phone,address,address_ward,address_street,address_city,address_postal_code,address_state,address_country_code
0,ChIJb4UrIalioDERf-x1-5PA6vU,Khách sạn Đông Hà – Fortuneland,Khách sạn,+84 292 3656 656,"Khách sạn Đông Hà – Fortuneland, 141 Trần Văn Khéo, Cái Khế, Ninh Kiều, Cần Thơ, Việt Nam","Cái Khế, Ninh Kiều",141 Trần Văn Khéo,Cần Thơ,,"Ninh Kiều, Cần Thơ",VN
2,ChIJQ5jLT-WJoDERiRKYnNUrNck,Trường Xuân Cung - Massage cổ truyền - Gội đầu dưỡng sinh,Spa sức khỏe,+84 939 787 901,"Trường Xuân Cung - Massage cổ truyền - Gội đầu dưỡng sinh, 85-87 Đ. Trương Định, Tân An, Ninh Kiều, Cần Thơ 94110, Việt Nam","Tân An, Ninh Kiều",85-87 Đ. Trương Định,Cần Thơ,94110.0,"Ninh Kiều, Cần Thơ",VN
17,ChIJHRmqFqhioDERFEUepRkC6ZI,Spa Cát Tiên Cần Thơ,Cơ sở chăm sóc da,+84 939 365 565,"Spa Cát Tiên Cần Thơ, 105 Trần Văn Khéo, Cái Khế, Ninh Kiều, Cần Thơ, Việt Nam","Cái Khế, Ninh Kiều",105 Trần Văn Khéo,Cần Thơ,,"Ninh Kiều, Cần Thơ",VN
29,ChIJRUDnE6FioDERzhyxqsrTVN8,Life Spa - Massage Gia Đình,Câu lạc bộ spa và sức khỏe,+84 292 3760 221,"Life Spa - Massage Gia Đình, 95A Đ. Xô Viết Nghệ Tĩnh, Tân An, Ninh Kiều, Cần Thơ 94000, Việt Nam","Tân An, Ninh Kiều",95A Đ. Xô Viết Nghệ Tĩnh,Cần Thơ,94000.0,"Ninh Kiều, Cần Thơ",VN
44,ChIJMYULxWRjoDERmVir8gtFsVw,KLC - Cửa Hàng Ghế Massage Chính Hãng,Cửa hàng bán dụng cụ xoa bóp,+84 833 783 946,"KLC - Cửa Hàng Ghế Massage Chính Hãng, 100 Nguyễn Thái Học, Tân An, Ninh Kiều, Cần Thơ 94100, Việt Nam","Tân An, Ninh Kiều",100 Nguyễn Thái Học,Cần Thơ,94100.0,"Ninh Kiều, Cần Thơ",VN
46,ChIJw_f8fvqJoDERE8ZA490kcd8,Phù Dung Các - Gội đầu dưỡng sinh- massage foot &body,,+84 795 886 968,"Phù Dung Các - Gội đầu dưỡng sinh- massage foot &body 75 vào Can Tho City VN, Hẻm 54 Trần Viết Châu, Ninh Kiều, Cần Thơ 94000, Việt Nam","Thới Bình, Ninh Kiều","75 vào Can Tho City VN, Hẻm 54 Trần Viết Châu",Cần Thơ,94000.0,"Ninh Kiều, Cần Thơ",VN
61,ChIJoUqzNS9joDERzd2PGEiP4jA,Winter Spring Homestay,Khách sạn,+84 907 040 033,"Winter Spring Homestay, 75 Đ. Ung Văn Khiêm, An Hội, Ninh Kiều, Cần Thơ 900000, Việt Nam","An Hội, Ninh Kiều",75 Đ. Ung Văn Khiêm,Cần Thơ,900000.0,"Ninh Kiều, Cần Thơ",VN
62,ChIJBcjNz55ioDERd1iDjt-q0jA,Massage Điêu Thuyền Cần Thơ,Bác sĩ trị liệu xoa bóp,+84 706 353 879,"Massage Điêu Thuyền Cần Thơ, 162/18C Đ. Trần Ngọc Quế, Xuân Khánh, Ninh Kiều, Cần Thơ 900000, Việt Nam","Xuân Khánh, Ninh Kiều",162/18C Đ. Trần Ngọc Quế,Cần Thơ,900000.0,"Ninh Kiều, Cần Thơ",VN
77,ChIJYStI68KJoDERhyBWWOHX-n4,"MAY RELAX & SPA CN1 - Gội đầu dưỡng sinh, Massage body Cần Thơ",,+84 356 237 455,"MAY RELAX & SPA CN1 - Gội đầu dưỡng sinh, Massage body Cần Thơ, 13B Đ. Trần Bình Trọng, An Phú, Ninh Kiều, Cần Thơ, Việt Nam","An Phú, Ninh Kiều",13B Đ. Trần Bình Trọng,Cần Thơ,,"Ninh Kiều, Cần Thơ",VN
92,ChIJ8zUMe3iJoDERxB2eqfkbn-c,"MAY XƯA SPA CẦN THƠ - Massage body, Gội đầu dưỡng sinh, Tắm tẩy tế bào chết, xông hơi, Foot",Spa,+84 393 599 120,"MAY XƯA SPA CẦN THƠ - Massage body, Gội đầu dưỡng sinh, Tắm tẩy tế bào chết, xông hơi, Foot, 1e Trần Quang Khải, An Hội, Ninh Kiều, Cần Thơ 90000, Việt Nam","An Hội, Ninh Kiều",1e Trần Quang Khải,Cần Thơ,90000.0,"Ninh Kiều, Cần Thơ",VN
107,ChIJPftv3MyJoDERVsrxeyImFDY,"MAY Relax & Spa CN2 - Gội đầu Dưỡng Sinh Thảo Dược, Massage body Cần Thơ",Spa sức khỏe,+84 292 2249 398,"MAY Relax & Spa CN2 - Gội đầu Dưỡng Sinh Thảo Dược, Massage body Cần Thơ, 390 Đ. Trần Nam Phú, Phường An Khánh, Ninh Kiều, Cần Thơ, Việt Nam","Phường An Khánh, Ninh Kiều",390 Đ. Trần Nam Phú,Cần Thơ,,"Ninh Kiều, Cần Thơ",VN
122,ChIJyX6D9PdjoDERfTRKpKYoHqY,"Gội Đầu Dưỡng Sinh Cần Thơ, Massage Body - Relax Spa Lali",Spa sức khỏe,+84 779 123 789,"Gội Đầu Dưỡng Sinh Cần Thơ, Massage Body - Relax Spa Lali, 58 Trần Văn Khéo, Cái Khế, Ninh Kiều, Cần Thơ 94107, Việt Nam","Cái Khế, Ninh Kiều",58 Trần Văn Khéo,Cần Thơ,94107.0,"Ninh Kiều, Cần Thơ",VN
137,ChIJZ1tK6ehjoDER_yj938qWo6o,"Gội Đầu Dưỡng Sinh Cần Thơ, Massage Body - Hannah Spa 2",Spa,+84 379 080 909,"Gội Đầu Dưỡng Sinh Cần Thơ, Massage Body - Hannah Spa 2, 25 Võ Thị Sáu, Tân An, Ninh Kiều, Cần Thơ 94110, Việt Nam","Tân An, Ninh Kiều",25 Võ Thị Sáu,Cần Thơ,94110.0,"Ninh Kiều, Cần Thơ",VN
152,ChIJXcp1bV1joDERrn9KZKx3A2c,Massage ĐÔNG DƯƠNG Cần Thơ,Nhân viên trị liệu mát-xa kiểu Thái,+84 346 415 225,"Massage ĐÔNG DƯƠNG Cần Thơ, 77A Đ. Phạm Ngọc Thạch, Cái Khế, Ninh Kiều, Cần Thơ, Việt Nam","Cái Khế, Ninh Kiều",77A Đ. Phạm Ngọc Thạch,Cần Thơ,,"Ninh Kiều, Cần Thơ",VN
167,ChIJt_wIpOSJoDER21xXusU1Jf4,"Ghế Massage, Máy Chạy Bộ ABCSport Cần Thơ",Cửa hàng thiết bị thể dục,+84 862 795 989,"Ghế Massage, Máy Chạy Bộ ABCSport Cần Thơ, 2C Mậu Thân, Phường An Nghiệp, Quận Ninh Kiều Cần Thơ Can Tho City, 94000, Việt Nam","An Phú, Ninh Kiều","2C Mậu Thân, Phường An Nghiệp, Quận Ninh Kiều Cần Thơ Can Tho City",Cần Thơ,94000.0,"Ninh Kiều, Cần Thơ",VN
171,ChIJDaYg6wmJoDERZ1h9EslTshE,HB Spa - Cần Thơ (Dưỡng Sinh & Thủ Đạo Thang),Spa,+84 292 2210 266,"HB Spa - Cần Thơ (Dưỡng Sinh & Thủ Đạo Thang), 176B Đ. Trần Hưng Đạo, An Phú, Ninh Kiều, Cần Thơ 900000, Việt Nam","An Phú, Ninh Kiều",176B Đ. Trần Hưng Đạo,Cần Thơ,900000.0,"Ninh Kiều, Cần Thơ",VN
186,ChIJ045IfLyJoDERWyNCUPPYLq4,Cánh Đồng Xanh Care,Spa y tế,+84 907 512 878,"Cánh Đồng Xanh Care, 110 Đ. Lê Lai, An Phú, Ninh Kiều, Cần Thơ 920000, Việt Nam","An Phú, Ninh Kiều",110 Đ. Lê Lai,Cần Thơ,920000.0,"Ninh Kiều, Cần Thơ",VN
188,ChIJLTihkDKJoDERfRlWzYcunr4,Pattaya Thai - Spa Dưỡng Sinh,Spa,+84 866 830 323,"Pattaya Thai - Spa Dưỡng Sinh, 197-199 Đ. Nguyễn Hiền, Khu dân cư 91B, Ninh Kiều, Cần Thơ, Việt Nam","Khu dân cư 91B, Ninh Kiều",197-199 Đ. Nguyễn Hiền,Cần Thơ,,"Ninh Kiều, Cần Thơ",VN
203,ChIJXb0RS-1joDERBN67qBox2j8,Massage khiếm thị THANH TOÀN,Bác sĩ trị liệu xoa bóp,+84 907 163 139,"Massage khiếm thị THANH TOÀN, 33 Đ. Lý Thường Kiệt, Tân An, Ninh Kiều, Cần Thơ, Việt Nam","Tân An, Ninh Kiều",33 Đ. Lý Thường Kiệt,Cần Thơ,,"Ninh Kiều, Cần Thơ",VN
218,ChIJXf-CLgaJoDERYp7a4lYTRXM,Massage Dubai Cần Thơ,Nhân viên trị liệu mát-xa kiểu Thái,+84 844 444 002,"Massage Dubai Cần Thơ, 12 Trần Phú, Thới Bình, Ninh Kiều, Cần Thơ, Việt Nam","Thới Bình, Ninh Kiều",12 Trần Phú,Cần Thơ,,"Ninh Kiều, Cần Thơ",VN
219,ChIJNxfyUlqJoDERLPRzWEBKI9o,MANNAM Spa for men,Spa,+84 364 899 495,"MANNAM Spa for men, 113 đường 19 Khu dân cư Hồng Loan, lô 5C, Cái Răng, Cần Thơ, Việt Nam","lô 5C, Cái Răng",113 đường 19 Khu dân cư Hồng Loan,Cần Thơ,,"Cái Răng, Cần Thơ",VN
248,ChIJC-dbFkeIoDERyYnopBRbWUQ,Phòng Chẩn Trị Y Học Cổ Truyền - Y Sĩ Hồng Tươi,Bác sĩ trị liệu xoa bóp,+84 986 696 469,"Phòng Chẩn Trị Y Học Cổ Truyền - Y Sĩ Hồng Tươi, 82 Đường B30, Khu dân cư 91B, Ninh Kiều, Cần Thơ, Việt Nam","Khu dân cư 91B, Ninh Kiều",82 Đường B30,Cần Thơ,,"Ninh Kiều, Cần Thơ",VN
249,ChIJu2pXp-aJoDERMdxlxxE2YDM,"Kingsport Cần Thơ (Ghế Massage, Máy Chạy Bộ)",Cửa hàng bán dụng cụ xoa bóp,+84 292 2202 121,"Kingsport Cần Thơ (Ghế Massage, Máy Chạy Bộ), 270 Đ. 30 Tháng 4, Xuân Khánh, Ninh Kiều, Cần Thơ 94155, Việt Nam","Xuân Khánh, Ninh Kiều",270 Đ. 30 Tháng 4,Cần Thơ,94155.0,"Ninh Kiều, Cần Thơ",VN
272,ChIJR8plLe-JoDERt69DPM0mEw4,Gà Spa Cần Thơ,Spa,+84 379 773 517,"Gà Spa Cần Thơ, 26 Hùng Vương, Thới Bình, Ninh Kiều, Cần Thơ 900000, Việt Nam","Thới Bình, Ninh Kiều",26 Hùng Vương,Cần Thơ,900000.0,"Ninh Kiều, Cần Thơ",VN
273,ChIJsVZn5B6JoDERMWSWp6fJfMw,SPA - SAUNA CLUB 65 CẦN THƠ (For men),Phòng xông hơi đồng tính nam,+84 987 102 956,"SPA - SAUNA CLUB 65 CẦN THƠ (For men), C26 Đ. Cách Mạng Tháng 8, Cái Khế, Bình Thủy, Cần Thơ, Việt Nam","Cái Khế, Bình Thủy",C26 Đ. Cách Mạng Tháng 8,Cần Thơ,,"Bình Thủy, Cần Thơ",VN
277,ChIJqVBwUfNfoDER1s2AFYqpAGQ,Xông Hơi_Masaage HOÀI NHỚ 1,,+84 984 628 928,"Xông Hơi_Masaage HOÀI NHỚ 1, Hiệp Thành, Ngã Bảy, Hậu Giang, Việt Nam","Hiệp Thành, Ngã Bảy",,Hậu Giang,,"Ngã Bảy, Hậu Giang",VN
279,ChIJZRKpuQWJoDERQu_tD0gPhnQ,Tuyết Nhung Beauty & Eyelash,Trường dạy làm đẹp,+84 947 457 881,"Tuyết Nhung Beauty & Eyelash, 380P3/9, Đ. Trần Nam Phú, Phường An Khánh, Ninh Kiều, Cần Thơ 94117, Việt Nam","Phường An Khánh, Ninh Kiều","380P3/9, Đ. Trần Nam Phú",Cần Thơ,94117.0,"Ninh Kiều, Cần Thơ",VN
281,ChIJvdzNWyWJoDERsNyZ5cxNj2k,"Lynn Spa - Gội đầu dưỡng sinh, Massage Body, Spa, Chăm sóc da Cần Thơ",Spa,+84 916 951 484,"Lynn Spa - Gội đầu dưỡng sinh, Massage Body, Spa, Chăm sóc da Cần Thơ, Đường Bờ Hồ Bún Xáng, P, Ninh Kiều, Cần Thơ 900000, Việt Nam","P, Ninh Kiều",Đường Bờ Hồ Bún Xáng,Cần Thơ,900000.0,"Ninh Kiều, Cần Thơ",VN
296,ChIJr3RJlRSJoDERzqOKgcnPdyM,Rich Hotel,Khách sạn,+84 365 550 024,"Rich Hotel, 86D Hùng Vương, An Cư, Ninh Kiều, Cần Thơ 90000, Việt Nam","An Cư, Ninh Kiều",86D Hùng Vương,Cần Thơ,90000.0,"Ninh Kiều, Cần Thơ",VN
297,ChIJgc7PrBSJoDERIK0geKpsvtg,Mộc Trà Dưỡng Sinh Cần Thơ,Spa sức khỏe,+84 399 163 063,"Mộc Trà Dưỡng Sinh Cần Thơ, 15A Đ. Trần Bình Trọng, An Phú, Ninh Kiều, Cần Thơ, Việt Nam","An Phú, Ninh Kiều",15A Đ. Trần Bình Trọng,Cần Thơ,,"Ninh Kiều, Cần Thơ",VN
298,ChIJF87v73yJoDER2icXdauskKk,Ghế Massage Azado Metro Cần Thơ,Cố vấn sức khỏe,+84 976 446 945,"Ghế Massage Azado Metro Cần Thơ, Đ. Nguyễn Văn Linh, Khu vực 5, Ninh Kiều, Cần Thơ, Việt Nam","Khu vực 5, Ninh Kiều",Đ. Nguyễn Văn Linh,Cần Thơ,,"Ninh Kiều, Cần Thơ",VN
312,ChIJlTjyELiJoDERE2rlUYfUpBY,Lụa dưỡng sinh & Healing,Spa,+84 907 907 902,"Lụa dưỡng sinh & Healing, 78 Đ. Lê Lai, An Phú, Ninh Kiều, Cần Thơ 90000, Việt Nam","An Phú, Ninh Kiều",78 Đ. Lê Lai,Cần Thơ,90000.0,"Ninh Kiều, Cần Thơ",VN
313,ChIJwZzrbt-JoDERLFEK0gsiO6M,LAVIU SPA CẦN THƠ,Spa mặt,+84 898 844 886,"LAVIU SPA CẦN THƠ, 58B Đ. Số 5A, Phường An Khánh, Ninh Kiều, Cần Thơ 90000, Việt Nam","Phường An Khánh, Ninh Kiều",58B Đ. Số 5A,Cần Thơ,90000.0,"Ninh Kiều, Cần Thơ",VN
319,ChIJQfEFayOJoDER687mNyPM_Ic,MASSAGE GIA ĐÌNH CẦN THƠ-MASSAGE PHƯƠNG VY 2,Bác sĩ trị liệu xoa bóp,+84 773 347 755,"MASSAGE GIA ĐÌNH CẦN THƠ-MASSAGE PHƯƠNG VY 2, 53 Võ Văn Kiệt, An Hoà, Ninh Kiều, Cần Thơ 94108, Việt Nam","An Hoà, Ninh Kiều",53 Võ Văn Kiệt,Cần Thơ,94108.0,"Ninh Kiều, Cần Thơ",VN
334,ChIJkRfpoe9joDERTbAiHEJhqr4,MASSAGE MIỀN TÂY,Massage spa,+84 292 2236 789,,,,,,,
335,ChIJdfxWzKyJoDERLe7XaHXYSxE,Massage - Spa Sống Khoẻ Cần Thơ,Spa sức khỏe,+84 868 339 362,"Massage - Spa Sống Khoẻ Cần Thơ, 105a Đ. Nguyễn Văn Cừ, An Hoà, Ninh Kiều, Cần Thơ, Việt Nam","An Hoà, Ninh Kiều",105a Đ. Nguyễn Văn Cừ,Cần Thơ,,"Ninh Kiều, Cần Thơ",VN
337,ChIJud7BuM5joDERXG0WBzJfEXA,Massage Hawaii Cần Thơ,Spa đá nóng,+84 904 478 747,"Massage Hawaii Cần Thơ, 2 Đ. Thủ Khoa Huân, Tân An, Ninh Kiều, Cần Thơ, Việt Nam","Tân An, Ninh Kiều",2 Đ. Thủ Khoa Huân,Cần Thơ,,"Ninh Kiều, Cần Thơ",VN
349,ChIJJWOmxA5joDERcD6omYp5Mv8,Spa Ngọc Tiên,Spa mặt,+84 946 744 448,"Spa Ngọc Tiên, h8 40 đường 15 kdc 586, Cái Răng, Cần Thơ 90000, Việt Nam","Phú Thứ, Cái Răng",h8 40 đường 15 kdc 586,Cần Thơ,90000.0,"Cái Răng, Cần Thơ",VN
359,ChIJUzazANVjoDERMEDYD6jL6Po,MASSAGE GIA ĐÌNH TÂY NAM,,+84 967 606 464,"MASSAGE GIA ĐÌNH TÂY NAM, 02 Nguyễn Trãi, P, Ninh Kiều, Cần Thơ, Việt Nam","P, Ninh Kiều",02 Nguyễn Trãi,Cần Thơ,,"Ninh Kiều, Cần Thơ",VN
360,ChIJs0mTOlFjoDERrDzPBb4JZJs,Massage King Room Cần Thơ,Câu lạc bộ spa và sức khỏe,+84 904 401 411,"Massage King Room Cần Thơ, 34 Đ. Phạm Ngọc Thạch, Cái Khế, Ninh Kiều, Cần Thơ, Việt Nam","Cái Khế, Ninh Kiều",34 Đ. Phạm Ngọc Thạch,Cần Thơ,,"Ninh Kiều, Cần Thơ",VN
363,ChIJPVLVmOiJoDERlODJklwOQhs,HYTA SPA,Spa,+84 774 190 190,"HYTA SPA, TP, 106 Đ. Lê Lai, P, Ninh Kiều, Cần Thơ, Việt Nam","P, Ninh Kiều","TP, 106 Đ. Lê Lai",Cần Thơ,,"Ninh Kiều, Cần Thơ",VN
393,ChIJi1mfhu-JoDER7OrH-6nCGgU,"Gội Đầu Dưỡng Sinh Cần Thơ, Massage Body - Helen Spa",Spa,+84 899 886 696,"Gội Đầu Dưỡng Sinh Cần Thơ, Massage Body - Helen Spa, 29 Đ. Trần Bình Trọng, An Phú, TP, Cần Thơ 94000, Việt Nam","An Phú, TP",29 Đ. Trần Bình Trọng,Cần Thơ,94000.0,"TP, Cần Thơ",VN
402,ChIJwbtj-WBjoDERynVjgkozt7o,MASSAGE GIA ĐÌNH CẦN THƠ-MASSAGE PHƯƠNG VY 1,Bác sĩ trị liệu xoa bóp,+84 773 347 755,"MASSAGE GIA ĐÌNH CẦN THƠ-MASSAGE PHƯƠNG VY 1, 71 Trần Phú, Cái Khế, Ninh Kiều, Cần Thơ 94152, Việt Nam","Cái Khế, Ninh Kiều",71 Trần Phú,Cần Thơ,94152.0,"Ninh Kiều, Cần Thơ",VN
403,ChIJFbms-IpjoDERQa2pdoPbpo0,Foot Body Massage - Lotus Spa Cần Thơ,,+84 908 790 869,"Foot Body Massage - Lotus Spa Cần Thơ, 8 Đ. Trần Đại Nghĩa, Cái Khế, Ninh Kiều, Cần Thơ 94107, Việt Nam","Cái Khế, Ninh Kiều",8 Đ. Trần Đại Nghĩa,Cần Thơ,94107.0,"Ninh Kiều, Cần Thơ",VN
404,ChIJYdIqSKhioDERZ8z-i2Wsi0c,Massage & Hotel Quý Phi Cần Thơ,Khách sạn,+84 886 079 079,"Massage & Hotel Quý Phi Cần Thơ, 65-67 Đ. Hồ Tùng Mậu, Cái Khế, Ninh Kiều, Cần Thơ 94107, Việt Nam","Cái Khế, Ninh Kiều",65-67 Đ. Hồ Tùng Mậu,Cần Thơ,94107.0,"Ninh Kiều, Cần Thơ",VN
437,ChIJIwMFIAWJoDERylFUbrY1oCQ,Massage Cạo Gió Giác Hơi Ngọc Thùy,Bác sĩ trị liệu xoa bóp,+84 326 896 282,"Massage Cạo Gió Giác Hơi Ngọc Thùy, 393A Lê Bình, Cái Răng, Cần Thơ 94906, Việt Nam","Lê Bình, Cái Răng",393A Lê Bình,Cần Thơ,94906.0,"Cái Răng, Cần Thơ",VN
439,ChIJJaO-IaJioDERYi94YTUoLfY,Mekong Foot Massage Cần Thơ,,+84 292 3733 002,"Mekong Foot Massage Cần Thơ, 8 Đ. Ngô Quyền, Tân An, Ninh Kiều, Cần Thơ, Việt Nam","Tân An, Ninh Kiều",8 Đ. Ngô Quyền,Cần Thơ,,"Ninh Kiều, Cần Thơ",VN
454,ChIJn5FrPH1ioDERxZHVn9S5Y34,Massage Tô Châu,,+84 901 622 655,"Massage Tô Châu, 79 Quang Trung, Hưng Phú, Cái Răng, Cần Thơ, Việt Nam","Hưng Phú, Cái Răng",79 Quang Trung,Cần Thơ,,"Cái Răng, Cần Thơ",VN
469,ChIJyRVYoyGJoDER96iJ3G2aCK0,"GINKGO SPA - Gội Đầu Dưỡng Sinh Thảo Mộc, Massage Body, Chăm Sóc, Điều Trị Da",Spa,+84 907 448 830,"GINKGO SPA - Gội Đầu Dưỡng Sinh Thảo Mộc, Massage Body, Chăm Sóc, Điều Trị Da, 49D Nguyễn Văn Trỗi, An Nghiệp, Ninh Kiều, Cần Thơ 900000, Việt Nam","An Nghiệp, Ninh Kiều",49D Nguyễn Văn Trỗi,Cần Thơ,900000.0,"Ninh Kiều, Cần Thơ",VN
484,ChIJ8QT2kKtioDERrq3CbYJDjao,Massage Gia Đình KQ,Bác sĩ trị liệu xoa bóp,+84 292 3761 313,"Massage Gia Đình KQ, 77c Trần Phú, Cái Khế, Ninh Kiều, Cần Thơ, Việt Nam","Cái Khế, Ninh Kiều",77c Trần Phú,Cần Thơ,,"Ninh Kiều, Cần Thơ",VN
499,ChIJs-vTCnBjoDERtWbBREPEfMM,"MAM Spa - Body, Foot Massage Thái Trị Liệu - Gội đầu dưỡng sinh",Thẩm mỹ viện,+84 903 932 578,"MAM Spa - Body, Foot Massage Thái Trị Liệu - Gội đầu dưỡng sinh, 73 Đ. Trần Đại Nghĩa, Cái Khế, Ninh Kiều, Cần Thơ 94000, Việt Nam","Cái Khế, Ninh Kiều",73 Đ. Trần Đại Nghĩa,Cần Thơ,94000.0,"Ninh Kiều, Cần Thơ",VN
514,ChIJu8fNSM9joDERPdLD8Qh5Qyo,Massage Hoàng Linh,,+84 939 508 078,"Massage Hoàng Linh, Cái Khế, Ninh Kiều, Cần Thơ, Việt Nam","Cái Khế, Ninh Kiều",,Cần Thơ,,"Ninh Kiều, Cần Thơ",VN
529,ChIJaXlWw0iJoDERaIfZ0sajheU,Massage SEOUL-cần thơ,Bác sĩ trị liệu xoa bóp,+84 916 668 039,"Massage SEOUL-cần thơ, 290 Đ. Lê Bình, Hưng Lợi, Ninh Kiều, Cần Thơ, Việt Nam","Hưng Lợi, Ninh Kiều",290 Đ. Lê Bình,Cần Thơ,,"Ninh Kiều, Cần Thơ",VN
544,ChIJWZ1ix3vOOTERjKlRLQZN2ys,Máy Chạy Bộ Thể Dục KAITASHI chính hãng ở Cần Thơ,Cửa hàng,+84 965 329 438,"Máy Chạy Bộ Thể Dục KAITASHI chính hãng ở Cần Thơ, 110B Đ. Mậu Thân, An Nghiệp, Ninh Kiều, Cần Thơ 900000, Việt Nam","An Nghiệp, Ninh Kiều",110B Đ. Mậu Thân,Cần Thơ,900000.0,"Ninh Kiều, Cần Thơ",VN
545,ChIJL-W2ctljoDERPeMkXaG2xDU,"Nhà nghỉ Ngọc Lợi( cơ sở đang trong giai đoạn sửa chửa, sau khi sửa chửa xong, trong tháng 7, kinh doanh cơ sở massager.",,+84 292 6292 999,"Nhà nghỉ Ngọc Lợi( cơ sở đang trong giai đoạn sửa chửa, sau khi sửa chửa xong, trong tháng 7, kinh doanh cơ sở massager., 38 Đường B15, KDC Hưng Phú 1, Cái Răng, Cần Thơ, Việt Nam","KDC Hưng Phú 1, Cái Răng",38 Đường B15,Cần Thơ,,"Cái Răng, Cần Thơ",VN
552,ChIJ8UnkEDqJoDERGLc8OBMcjNU,Kiều Mỵ Beauty & Academy,Spa,+84 374 668 772,"Kiều Mỵ Beauty & Academy, 12B Đường Số 4, Phường An Khánh, Ninh Kiều, Cần Thơ, Việt Nam","Phường An Khánh, Ninh Kiều",12B Đường Số 4,Cần Thơ,,"Ninh Kiều, Cần Thơ",VN
556,ChIJRzp0MR9foDERONBCkw-fdXU,Massage HAPPY,,+84 907 780 168,"Massage HAPPY, 113 Nguyễn Minh Quang, Ngã Bảy, Hậu Giang, Việt Nam",Ngã Bảy,113 Nguyễn Minh Quang,Hậu Giang,,"Ngã Bảy, Hậu Giang",VN
559,ChIJTUtJE1xjoDERvQnrPgZUgpw,Karaoke - Massage Tokyo,Quán bar karaoke,+84 292 3767 000,"Karaoke - Massage Tokyo, 76 Đ. Lương Định Của, Cái Khế, Ninh Kiều, Cần Thơ, Việt Nam","Cái Khế, Ninh Kiều",76 Đ. Lương Định Của,Cần Thơ,,"Ninh Kiều, Cần Thơ",VN
566,ChIJ3-Ya-RtjoDERrG_QbJKYDuM,Massage Luxury,Thẩm mỹ viện,+84 965 696 212,"Massage Luxury, 77D Đ. Phạm Ngọc Thạch, Cái Khế, Ninh Kiều, Cần Thơ, Việt Nam","Cái Khế, Ninh Kiều",77D Đ. Phạm Ngọc Thạch,Cần Thơ,,"Ninh Kiều, Cần Thơ",VN
569,ChIJAeq73RGJoDEReFwyXdqcD-o,"SPA AMY "" Thiên đường sắc đẹp _ Phục Vụ Tận Tâm """,Spa mặt,,"SPA AMY "" Thiên đường sắc đẹp _ Phục Vụ Tận Tâm "", 40 Đ. Nguyễn Văn Linh, Hưng Lợi, Ninh Kiều, Cần Thơ, Việt Nam","Hưng Lợi, Ninh Kiều",40 Đ. Nguyễn Văn Linh,Cần Thơ,,"Ninh Kiều, Cần Thơ",VN
579,ChIJf1iEdPFjoDERPXL6Pk4Xtwg,Massage Việt Nhật,,+84 965 696 212,"Massage Việt Nhật, 42 Đ. Phạm Ngọc Thạch, Cái Khế, Ninh Kiều, Cần Thơ 90000, Việt Nam","Cái Khế, Ninh Kiều",42 Đ. Phạm Ngọc Thạch,Cần Thơ,90000.0,"Ninh Kiều, Cần Thơ",VN
594,ChIJnY6gcR9joDEREFrSneHdbC0,Massage TOKYO,,+84 292 3767 000,"Massage TOKYO, 76-78 Đ. Lương Định Của, Cái Khế, Ninh Kiều, Cần Thơ, Việt Nam","Cái Khế, Ninh Kiều",76-78 Đ. Lương Định Của,Cần Thơ,,"Ninh Kiều, Cần Thơ",VN
595,ChIJvUHfiSwrdTEReMNmx4jP6cg,Massage Quốc tế - International,,+84 936 271 333,"Massage Quốc tế - International, 12 Đường Hai Bà Trưng, Tân An, Ninh Kiều, Cần Thơ, Việt Nam","Tân An, Ninh Kiều",12 Đường Hai Bà Trưng,Cần Thơ,,"Ninh Kiều, Cần Thơ",VN
596,ChIJ9SRpyCBjoDERgnRZW6LzJS4,Massage K5 Pro,,+84 948 738 936,"Massage K5 Pro, K5 Đường số 24, KHU DÂN CƯ ĐÔ THỊ MỚI HƯNG PHÚ, Cái Răng, Cần Thơ 900000, Việt Nam","KHU DÂN CƯ ĐÔ THỊ MỚI HƯNG PHÚ, Cái Răng",K5 Đường số 24,Cần Thơ,900000.0,"Cái Răng, Cần Thơ",VN
597,ChIJfXco4t1joDERs9FB27c87ZA,Gardens Lotus Spa,,+84 938 692 016,"Gardens Lotus Spa, 72 Đ. Trần Văn Trà, Hưng Phú, Cái Răng, Cần Thơ, Việt Nam","Hưng Phú, Cái Răng",72 Đ. Trần Văn Trà,Cần Thơ,,"Cái Răng, Cần Thơ",VN
626,ChIJjbPW7TqIoDERjMHf6zzH1q0,New Star Massage Service,Cửa hàng bán dụng cụ xoa bóp,+84 913 245 887,"New Star Massage Service, 164/8 Đ. Trần Ngọc Quế, Xuân Khánh, Ninh Kiều, Cần Thơ, Việt Nam","Xuân Khánh, Ninh Kiều",164/8 Đ. Trần Ngọc Quế,Cần Thơ,,"Ninh Kiều, Cần Thơ",VN
661,ChIJoyR1iuJ9oDERrkOO9BK5Oto,Massage Vạn Phát,,+84 969 210 079,"Massage Vạn Phát, 2 Đ. Nguyễn Văn Cừ, Cái Khế, Ninh Kiều, Cần Thơ, Việt Nam","Cái Khế, Ninh Kiều",2 Đ. Nguyễn Văn Cừ,Cần Thơ,,"Ninh Kiều, Cần Thơ",VN
676,ChIJnQdePuuJoDERxaFuDfi51Cc,OLA SPA ACADEMY,Spa mặt,+84 833 538 508,"OLA SPA ACADEMY, 15 Đ. Số 7, Khu giảng viên, Ninh Kiều, Cần Thơ 94000, Việt Nam","Khu giảng viên, Ninh Kiều",15 Đ. Số 7,Cần Thơ,94000.0,"Ninh Kiều, Cần Thơ",VN
685,ChIJecAmPQBjoDERvOY6hXCnHsM,Cty Massage Hoàng Linh 2,,+84 939 508 078,"Cty Massage Hoàng Linh 2, 10 Đ. Nguyễn Bình, Cái Khế, Ninh Kiều, Cần Thơ 94000, Việt Nam","Cái Khế, Ninh Kiều",10 Đ. Nguyễn Bình,Cần Thơ,94000.0,"Ninh Kiều, Cần Thơ",VN
686,ChIJ-cWEW9BjoDERLJD86sj5YNg,Mekong Foot Massage Hưng Phú,Bác sĩ trị liệu xoa bóp,+84 939 059 999,"Mekong Foot Massage Hưng Phú, 57 Đ. Lý Thái Tổ, KDC Hưng Phú 1, Cái Răng, Cần Thơ, Việt Nam","KDC Hưng Phú 1, Cái Răng",57 Đ. Lý Thái Tổ,Cần Thơ,,"Cái Răng, Cần Thơ",VN
697,ChIJURHkn2yJoDERNlVxKpyDr5w,Spa An Nhiên cần Thơ,Spa mặt,+84 921 206 232,"Spa An Nhiên cần Thơ, Phường An Khánh, Ninh Kiều, Cần Thơ, Việt Nam","Phường An Khánh, Ninh Kiều",,Cần Thơ,,"Ninh Kiều, Cần Thơ",VN
708,ChIJdWLYi1WJoDER1JTdYey9jfM,Massage người khiếm thị Hoa Khai,Bác sĩ trị liệu xoa bóp,,"Massage người khiếm thị Hoa Khai, 154 Nguyễn Thị Minh Khai, An Lạc, Ninh Kiều, Cần Thơ, Việt Nam","An Lạc, Ninh Kiều",154 Nguyễn Thị Minh Khai,Cần Thơ,,"Ninh Kiều, Cần Thơ",VN
718,ChIJHU9im7qNkUoRz9yTs8Z1c1I,Hum Spa CanTho,Spa,+84 931 860 638,,,,,,,
726,ChIJLc2YvMBjoDER-5aT2STTYRk,Massage body foot MENSY,,+84 981 318 040,"Massage body foot MENSY, 120H Trần Phú, Cái Khế, Ninh Kiều, Cần Thơ, Việt Nam","Cái Khế, Ninh Kiều",120H Trần Phú,Cần Thơ,,"Ninh Kiều, Cần Thơ",VN
727,ChIJJ_Ho6puJoDERGLQ-jc7XJBo,Massage Gia đình SỨC SỐNG,,+84 913 363 767,"Massage Gia đình SỨC SỐNG, 45 Đ. Nguyễn Văn Cừ, An Hoà, Ninh Kiều, Cần Thơ, Việt Nam","An Hoà, Ninh Kiều",45 Đ. Nguyễn Văn Cừ,Cần Thơ,,"Ninh Kiều, Cần Thơ",VN
728,ChIJsZ6jycxjoDERQIl63Lf979Q,MASSAGE KIZZ,,+84 946 764 991,"MASSAGE KIZZ, 27 Đ. Phạm Ngọc Thạch, Cái Khế, Ninh Kiều, Cần Thơ, Việt Nam","Cái Khế, Ninh Kiều",27 Đ. Phạm Ngọc Thạch,Cần Thơ,,"Ninh Kiều, Cần Thơ",VN
729,ChIJSyB9BYRjoDERT8HHscmuPmw,Massage Vườn Mai,,+84 794 323 632,"Massage Vườn Mai, 16 Đ. Lý Thường Kiệt, Tân An, Ninh Kiều, Cần Thơ, Việt Nam","Tân An, Ninh Kiều",16 Đ. Lý Thường Kiệt,Cần Thơ,,"Ninh Kiều, Cần Thơ",VN
730,ChIJ2dwCfDWIoDER4eu_FRQq62U,Cơ Sở Massage Ngọc Ân,,+84 292 3840 576,"Cơ Sở Massage Ngọc Ân, 65 Đ. 3 Tháng 2, Hưng Lợi, Ninh Kiều, Cần Thơ, Việt Nam","Hưng Lợi, Ninh Kiều",65 Đ. 3 Tháng 2,Cần Thơ,,"Ninh Kiều, Cần Thơ",VN
734,ChIJFzO2WINjoDER7dWqr18-bPI,Massage international,Hộp đêm,,"Massage international, 7 Đ. Trần Quốc Toản, Tân An, Ninh Kiều, Cần Thơ, Việt Nam","Tân An, Ninh Kiều",7 Đ. Trần Quốc Toản,Cần Thơ,,"Ninh Kiều, Cần Thơ",VN
762,ChIJyUa_ZJCJoDERFJt2SVk4D1U,Blue sky spa,Spa mặt,+84 949 693 579,"Blue sky spa, 53 Đường Số 3, khu tái định cư 923, Ninh Kiều, Cần Thơ, Việt Nam","khu tái định cư 923, Ninh Kiều",53 Đường Số 3,Cần Thơ,,"Ninh Kiều, Cần Thơ",VN
777,ChIJGSzBlSCJoDERDYdY0j-lUqg,Lá Nhỏ Spa,Spa,+84 945 052 505,"Lá Nhỏ Spa, 30/39c Đ. Nguyễn Văn Linh, Hưng Lợi, Ninh Kiều, Cần Thơ, Việt Nam","Hưng Lợi, Ninh Kiều",30/39c Đ. Nguyễn Văn Linh,Cần Thơ,,"Ninh Kiều, Cần Thơ",VN
790,ChIJFSjjuUKHoDERAxSYHjFECUY,Khách sạn massage Hoài An,,+84 995 688 886,"Khách sạn massage Hoài An, Vào hẻm Hải sản BA CUA, 178/1 Đ. Cách Mạng Tháng 8, Bùi Hữu Nghĩa, Bình Thủy, Cần Thơ 900000, Việt Nam","Bùi Hữu Nghĩa, Bình Thủy","Vào hẻm Hải sản BA CUA, 178/1 Đ. Cách Mạng Tháng 8",Cần Thơ,900000.0,"Bình Thủy, Cần Thơ",VN
791,ChIJkf3mK6hjoDERQQmhU4Ye2A0,Ti Spa,,+84 768 079 585,"2QHM+QCV Ti Spa, Nguyễn Thị Minh Khai, Tân An, Ninh Kiều, Cần Thơ, Việt Nam","Tân An, Ninh Kiều","2QHM+QCV, Nguyễn Thị Minh Khai",Cần Thơ,,"Ninh Kiều, Cần Thơ",VN
792,ChIJCRF7RXmJoDERvxrQ7DDx-kc,Massage Điêu thuyền 162 Trần Ngọc quế . P.Xuân Khánh Ninh kiều. Cần thơ,Nhân viên trị liệu mát-xa kiểu Thái,,"Massage Điêu thuyền 162 Trần Ngọc quế . P.Xuân Khánh Ninh kiều. Cần thơ, 162 Đ. Trần Ngọc Quế, P, Ninh Kiều, Cần Thơ, Việt Nam","P, Ninh Kiều",162 Đ. Trần Ngọc Quế,Cần Thơ,,"Ninh Kiều, Cần Thơ",VN
810,ChIJdcq0_uiJoDERNWjfnTKrwfk,"Nhà Min Spa & Nails - Gội đầu dưỡng sinh, Massage body, Nails, Chăm sóc da",Spa,+84 879 716 789,"Nhà Min Spa & Nails - Gội đầu dưỡng sinh, Massage body, Nails, Chăm sóc da, 56 Đ. Trần Hoàng Na, Khu dân cư 91B, Ninh Kiều, Cần Thơ 900000, Việt Nam","Khu dân cư 91B, Ninh Kiều",56 Đ. Trần Hoàng Na,Cần Thơ,900000.0,"Ninh Kiều, Cần Thơ",VN
816,ChIJf21UeHCJoDERFYX98-bxvvU,Chăm Sóc Da & Gội Đầu Nhi,Spa mặt,,"Chăm Sóc Da & Gội Đầu Nhi, 51 QL1A, KV1 P, Cái Răng, Cần Thơ 94000, Việt Nam","KV1 P, Cái Răng",51 QL1A,Cần Thơ,94000.0,"Cái Răng, Cần Thơ",VN
830,ChIJjYNzTKArdTERDKbF8bDkVhU,GHẾ MASSAGE SHIKA CẦN THƠ,Cửa hàng bán dụng cụ xoa bóp,+84 941 869 119,"GHẾ MASSAGE SHIKA CẦN THƠ, 112B Hẻm 132 Đ. 3 Tháng 2, Hưng Lợi, Ninh Kiều, Cần Thơ, Việt Nam","Hưng Lợi, Ninh Kiều",112B Hẻm 132 Đ. 3 Tháng 2,Cần Thơ,,"Ninh Kiều, Cần Thơ",VN
837,ChIJf5wAYgGIoDERrz-2sMPnTMg,Tiệm Massage Nữ Phương Liên,Bác sĩ trị liệu xoa bóp,+84 292 4086 818,"Tiệm Massage Nữ Phương Liên, 88/7, Đường Cách Mạng Tháng 8, Quận Ninh Kiều, Tp Cần Thơ, Cái Khế, Ninh Kiều, Cần Thơ, Việt Nam","Cái Khế, Ninh Kiều","88/7, Đường Cách Mạng Tháng 8, Quận Ninh Kiều, Tp Cần Thơ",Cần Thơ,,"Ninh Kiều, Cần Thơ",VN
838,ChIJS-SvoahioDERmrMsF9hb1xo,Massage Aura,Bác sĩ y học tự nhiên,,"Massage Aura, 79B Đ. Phạm Ngọc Thạch, Cái Khế, Ninh Kiều, Cần Thơ, Việt Nam","Cái Khế, Ninh Kiều",79B Đ. Phạm Ngọc Thạch,Cần Thơ,,"Ninh Kiều, Cần Thơ",VN
847,ChIJK-Cr-R-JoDER-ocrxNffmw8,Như Tuyết Spa,Spa mặt,+84 393 968 338,"Như Tuyết Spa, 345 Đ. Tú Xương, kdc, Ninh Kiều, Cần Thơ, Việt Nam","kdc, Ninh Kiều",345 Đ. Tú Xương,Cần Thơ,,"Ninh Kiều, Cần Thơ",VN
848,ChIJWxu9NaGJoDERjuvhGIIvc-E,"Spa The Men,massage bấm huyệt, Cần Thơ",,+84 337 163 536,"Spa The Men,massage bấm huyệt, Cần Thơ, 131 Đ. Nguyễn Hiền, Khu dân cư 91B, Ninh Kiều, Cần Thơ 90000, Việt Nam","Khu dân cư 91B, Ninh Kiều",131 Đ. Nguyễn Hiền,Cần Thơ,90000.0,"Ninh Kiều, Cần Thơ",VN
851,ChIJ7UmBuLeOoDER5QhdP57gShU,Cơ Sở Massage Huyền Mỹ,Bác sĩ trị liệu xoa bóp,+84 772 655 088,"XMVH+2C5 Cơ Sở Massage Huyền Mỹ, Lộ Vòng Cung, Thị trấn Phong Điền, Phong Điền, Cần Thơ, Việt Nam","Thị trấn Phong Điền, Phong Điền","XMVH+2C5, Lộ Vòng Cung",Cần Thơ,,"Phong Điền, Cần Thơ",VN
858,ChIJHRr3mCGIoDERey9RRTVX-xE,Cơ Sở Massage Thùy Oanh,Bác sĩ trị liệu xoa bóp,,"Cơ Sở Massage Thùy Oanh, 52 Đ. Nguyễn Việt Hồng, An Lạc, Ninh Kiều, Cần Thơ, Việt Nam","An Lạc, Ninh Kiều",52 Đ. Nguyễn Việt Hồng,Cần Thơ,,"Ninh Kiều, Cần Thơ",VN
860,ChIJbXfOHc6JoDERnX8ZjOvFcXI,Massage Gia Đình Huỳnh Nguyễn,,+84 937 113 443,"Massage Gia Đình Huỳnh Nguyễn, 26B Đ. Nguyễn Đệ, An Hoà, Ninh Kiều, Cần Thơ, Việt Nam","An Hoà, Ninh Kiều",26B Đ. Nguyễn Đệ,Cần Thơ,,"Ninh Kiều, Cần Thơ",VN
861,ChIJM7ceRCWJoDERSl7gcwq3jIk,MASSAGE MÂY,,+84 789 555 293,"MASSAGE MÂY, 515 Đ. Nguyễn Đệ, An Hoà, Ninh Kiều, Cần Thơ, Việt Nam","An Hoà, Ninh Kiều",515 Đ. Nguyễn Đệ,Cần Thơ,,"Ninh Kiều, Cần Thơ",VN
862,ChIJ8RtB_0F3oDER8zm3-e78aKA,Massage Hồng Tươi 1,,+84 769 805 098,"Massage Hồng Tươi 1, Tổ 1 khóm 4, phường thành Phước, Bình Minh, Vĩnh Long, Việt Nam","phường thành Phước, Bình Minh",Tổ 1 khóm 4,Vĩnh Long,,"Bình Minh, Vĩnh Long",VN
863,ChIJ_Vo53duJoDERt0wgyianHFY,Massage Khải Hoàn 2,,,"Massage Khải Hoàn 2, 59 Trần Phú, Thới Bình, Ninh Kiều, Cần Thơ, Việt Nam","Thới Bình, Ninh Kiều",59 Trần Phú,Cần Thơ,,"Ninh Kiều, Cần Thơ",VN
864,ChIJl--BJKJioDERJgHOz5Zhk7w,Gia Phan Foot Massage,Spa,,"2QMQ+J97 Gia Phan Foot Massage, Đường Hai Bà Trưng, Tân An, Ninh Kiều, Cần Thơ, Việt Nam","Tân An, Ninh Kiều","2QMQ+J97, Đường Hai Bà Trưng",Cần Thơ,,"Ninh Kiều, Cần Thơ",VN
873,ChIJZXYiSkOJoDERBCBvz9mJq5o,MASSAGE HOÀNG GIA,,+84 879 720 565,"MASSAGE HOÀNG GIA, 232 Võ Văn Kiệt, An Hoà, Ninh Kiều, Cần Thơ, Việt Nam","An Hoà, Ninh Kiều",232 Võ Văn Kiệt,Cần Thơ,,"Ninh Kiều, Cần Thơ",VN
874,ChIJlcr4Vw-IoDERahV-pd2Xa7w,Dịch Vụ Xoa Bóp - Massage Thiên Ngọc,Bác sĩ trị liệu xoa bóp,+84 933 187 898,"Dịch Vụ Xoa Bóp - Massage Thiên Ngọc, 186 Đ. Nguyễn Văn Cừ, An Hoà, Ninh Kiều, Cần Thơ, Việt Nam","An Hoà, Ninh Kiều",186 Đ. Nguyễn Văn Cừ,Cần Thơ,,"Ninh Kiều, Cần Thơ",VN
879,ChIJKxdc1lWJoDERPpcBu6AJ8KU,Massage Ngọc Bích,Hiệu làm tóc,,"2PFV+5QG Massage Ngọc Bích, An Bình, Ninh Kiều, Cần Thơ, Việt Nam","An Bình, Ninh Kiều",2PFV+5QG,Cần Thơ,,"Ninh Kiều, Cần Thơ",VN
881,ChIJJWKeiEiIoDERCJOE2aclBJ0,Spa Phúc Ngân,Spa,+84 945 279 367,"Spa Phúc Ngân, 164 Đ. Nguyễn Hiền, Khu dân cư 91B, Ninh Kiều, Cần Thơ, Việt Nam","Khu dân cư 91B, Ninh Kiều",164 Đ. Nguyễn Hiền,Cần Thơ,,"Ninh Kiều, Cần Thơ",VN
882,ChIJq8V9uTWIoDERuS-7YHTGWw4,Trung Tâm Massage Thúy Duy,Bác sĩ trị liệu xoa bóp,+84 292 3740 258,"Trung Tâm Massage Thúy Duy, 80, Đường 3/2, Quận Ninh Kiều, Tp Cần Thơ, Hưng Lợi, Ninh Kiều, Cần Thơ, Việt Nam","Hưng Lợi, Ninh Kiều","80, Đường 3/2, Quận Ninh Kiều, Tp Cần Thơ",Cần Thơ,,"Ninh Kiều, Cần Thơ",VN
886,ChIJNYa18gKIoDERniWagv1bqio,Tiệm Massage Style Phương Đông,Bác sĩ trị liệu xoa bóp,+84 888 888 326,"Tiệm Massage Style Phương Đông, 12-14-16 Trần Phú, Thới Bình, Ninh Kiều, Cần Thơ, Việt Nam","Thới Bình, Ninh Kiều",12-14-16 Trần Phú,Cần Thơ,,"Ninh Kiều, Cần Thơ",VN
887,ChIJD6cec3SIoDEROgt8HKCHl_E,Massage Phương Thùy,,+84 939 931 966,"Massage Phương Thùy, 387:, MASSAGE PHƯƠNG THÙY dưới dóc cầu bà bộ, Võ Văn Kiệt, Bình Thủy, Cần Thơ 94000, Việt Nam","Phường An Khánh, Bình Thủy","387:, MASSAGE PHƯƠNG THÙY dưới dóc cầu bà bộ, Võ Văn Kiệt",Cần Thơ,94000.0,"Bình Thủy, Cần Thơ",VN
889,ChIJoQDtyCGJoDERUwgzKw1lpSg,MASSAGE GIA ĐÌNH HONEY,,+84 939 161 055,"2QF4+F46 MASSAGE GIA ĐÌNH HONEY, Đường B22, Hưng Lợi, Ninh Kiều, Cần Thơ, Việt Nam","Hưng Lợi, Ninh Kiều","2QF4+F46, Đường B22",Cần Thơ,,"Ninh Kiều, Cần Thơ",VN
893,ChIJWeIcMDaIoDER9bniDpE4pE4,Nguyễn Oanh Massage Mặt Thiên Nhiên,,,"Nguyễn Oanh Massage Mặt Thiên Nhiên, Hưng Lợi, Ninh Kiều, Cần Thơ, Việt Nam","Hưng Lợi, Ninh Kiều",,Cần Thơ,,"Ninh Kiều, Cần Thơ",VN
894,ChIJ03_3Q1eJoDERwhLpOpMscBY,Massage VIỆT-HÀN,,+84 984 807 948,"Massage VIỆT-HÀN, 164 Đ. Trần Ngọc Quế, Xuân Khánh, Ninh Kiều, Cần Thơ, Việt Nam","Xuân Khánh, Ninh Kiều",164 Đ. Trần Ngọc Quế,Cần Thơ,,"Ninh Kiều, Cần Thơ",VN
895,ChIJvVe7bjSIoDERAo9rBDecdyQ,Massage Thiên Kim,,,"Massage Thiên Kim, 592 Đ. 30 Tháng 4, Hưng Lợi, Ninh Kiều, Cần Thơ, Việt Nam","Hưng Lợi, Ninh Kiều",592 Đ. 30 Tháng 4,Cần Thơ,,"Ninh Kiều, Cần Thơ",VN
896,ChIJbUam6jWIoDERP8e1ifWxCeY,Dv Xoa Bóp Giác Hơi Lê Duyên 3,,+84 292 3754 445,"Dv Xoa Bóp Giác Hơi Lê Duyên 3, 86 Đ. 3 Tháng 2, Hưng Lợi, Ninh Kiều, Cần Thơ, Việt Nam","Hưng Lợi, Ninh Kiều",86 Đ. 3 Tháng 2,Cần Thơ,,"Ninh Kiều, Cần Thơ",VN
