,place_id,name,main_category,phone,address,address_ward,address_street,address_city,address_postal_code,address_state,address_country_code
0,ChIJ2xb_cz-rNTERzD7Ax7-Lz-w,Nail Kitchen 3,Tiệm chăm sóc móng,0979 368 166,"Nail Kitchen 3, 37 P. Đường Thành, Cửa Đông, Hoàn Kiếm, Hà Nội 111000","Cửa Đông, Hoàn Kiếm",37 P. Đường Thành,Hà Nội,111000.0,"Hoàn Kiếm, Hà Nội",VN
4,ChIJZayqsuqrNTER-Fvm1NoePmk,The Garden Nail Spa,Tiệm chăm sóc móng,0969 393 126,"The Garden Nail Spa, 29 P. Nhà Chung, Hàng Trống, Hoàn Kiếm, Hà Nội 11000","Hàng Trống, Hoàn Kiếm",29 P. Nhà Chung,Hà Nội,11000.0,"Hoàn Kiếm, Hà Nội",VN
7,ChIJD6X0crYvdTERhzwzskZOJSM,Hari Nail Studio - Tiệm Nail Gội Đầu Dưỡng Sinh,Tiệm chăm sóc móng,0777 776 938,"Hari Nail Studio - Tiệm Nail Gội Đầu Dưỡng Sinh, 75 Đ. Trần Hưng Đạo, Phường 6, Quận 5, Thành phố Hồ Chí Minh 700000","Phường 6, Quận 5",75 Đ. Trần Hưng Đạo,Thành phố Hồ Chí Minh,700000.0,"Quận 5, Thành phố Hồ Chí Minh",VN
8,ChIJxTtTo1yrNTERAZQTD3QSr1M,"Paradise Nails, eyelashes & waxing",Tiệm chăm sóc móng,0982 111 699,"Paradise Nails, eyelashes & waxing, 03 P. Lương Ngọc Quyến, Hàng Buồm, Hoàn Kiếm, Hà Nội 100000","Hàng Buồm, Hoàn Kiếm",03 P. Lương Ngọc Quyến,Hà Nội,100000.0,"Hoàn Kiếm, Hà Nội",VN
11,ChIJtVrgMKqrNTERHirsnYTTEbo,Mei Nails-메이네일,Tiệm chăm sóc móng,0904 522 833,"Mei Nails-메이네일, 45 P. Hàng Hòm, Hàng Gai, Hoàn Kiếm, Hà Nội","Hàng Gai, Hoàn Kiếm",45 P. Hàng Hòm,Hà Nội,,"Hoàn Kiếm, Hà Nội",VN
14,ChIJVWozederNTERKGkocYlJffw,Cosmo Nail Spa,Tiệm chăm sóc móng,0888 800 488,"Cosmo Nail Spa, 30 P. Hàng Vôi, French Quarter, Hoàn Kiếm, Hà Nội","French Quarter, Hoàn Kiếm",30 P. Hàng Vôi,Hà Nội,,"Hoàn Kiếm, Hà Nội",VN
17,ChIJ06eXsFerNTERcmnonvk-Wo4,TTL.NAILS,Tiệm chăm sóc móng,0974 710 098,"TTL.NAILS, 8 P. Cửa Đông, Hàng Bồ, Hoàn Kiếm, Hà Nội 100000","Hàng Bồ, Hoàn Kiếm",8 P. Cửa Đông,Hà Nội,100000.0,"Hoàn Kiếm, Hà Nội",VN
18,ChIJazJjtpMvdTERmLkLLhyOPeQ,Trang Nail Care & Beauty 3 - Tiệm nail chất lượng nhất quận 7,Tiệm chăm sóc móng,0908 489 080,"Trang Nail Care & Beauty 3 - Tiệm nail chất lượng nhất quận 7, 163 Đ Tôn Dật Tiên, Tân Phong, Quận 7, Thành phố Hồ Chí Minh","Tân Phong, Quận 7",163 Đ Tôn Dật Tiên,Thành phố Hồ Chí Minh,,"Quận 7, Thành phố Hồ Chí Minh",VN
19,ChIJbcLDsPmJoDERe8_j9T1WhbQ,MAY nail,Tiệm chăm sóc móng,0799 999 037,"MAY nail, MAY Nails, 216 Huỳnh Cương, An Cư, Ninh Kiều, Cần Thơ","An Cư, Ninh Kiều","MAY Nails, 216 Huỳnh Cương",Cần Thơ,,"Ninh Kiều, Cần Thơ",VN
30,ChIJ3xd2bLaJoDERi1dVyKPJP2g,Tiệm Nail Trong Hẻm,Tiệm chăm sóc móng,0352 900 991,"Tiệm Nail Trong Hẻm, 103/152, Đ. Võ Văn Kiệt, Phường An Khánh, Ninh Kiều, Cần Thơ 900000","Phường An Khánh, Ninh Kiều","103/152, Đ. Võ Văn Kiệt",Cần Thơ,900000.0,"Ninh Kiều, Cần Thơ",VN
33,ChIJ8-5hsU8vdTER2nO9HD_XsE8,"Phần mềm quản lý Spa, Salon, Nails, TMV - MYSPA.VN",Công ty phần mềm,0343 131 003,"Phần mềm quản lý Spa, Salon, Nails, TMV - MYSPA.VN, Zeta Building, 117-119 Đ Trần Nguyên Đán, Phường 3, Bình Thạnh, Thành phố Hồ Chí Minh 70000","Phường 3, Bình Thạnh","Zeta Building, 117-119 Đ Trần Nguyên Đán",Thành phố Hồ Chí Minh,70000.0,"Bình Thạnh, Thành phố Hồ Chí Minh",VN
37,ChIJmXVNrTaIoDERVqxGMiM-xuI,MoonRy Nail Cần Thơ,Tiệm chăm sóc móng,0907 786 261,"MoonRy Nail Cần Thơ, Số 27d Đường Châu Văn Liêm, Tân An, Ninh Kiều, Cần Thơ 94100","Tân An, Ninh Kiều",Số 27d Đường Châu Văn Liêm,Cần Thơ,94100.0,"Ninh Kiều, Cần Thơ",VN
46,ChIJa4liGmmJoDERCJAkfwq-tBg,NhyNhi Nails - Nails Cần Thơ,Tiệm chăm sóc móng,0907 588 369,"NhyNhi Nails - Nails Cần Thơ, Tham Tướng, 180D Đ. Mạc Thiên Tích, Xuân Khánh, Ninh Kiều, Cần Thơ","Xuân Khánh, Ninh Kiều","Tham Tướng, 180D Đ. Mạc Thiên Tích",Cần Thơ,,"Ninh Kiều, Cần Thơ",VN
50,ChIJvX2M9aBioDERBbBvg1QUyoA,Mỹ Nail Cần Thơ,Tiệm chăm sóc móng,0707 679 979,"Mỹ Nail Cần Thơ, 64 Đ.Xô Viết Nghệ Tĩnh, Tân An, Ninh Kiều, Cần Thơ","Tân An, Ninh Kiều",64 Đ.Xô Viết Nghệ Tĩnh,Cần Thơ,,"Ninh Kiều, Cần Thơ",VN
60,ChIJt_s7v-mJoDERnbDXAbzEJ3g,Honey Nail & Spa,Tiệm chăm sóc móng,0903 858 593,"Honey Nail & Spa, 54 Đ. Lý Tự Trọng, An Cư, Ninh Kiều, Cần Thơ 94110","An Cư, Ninh Kiều",54 Đ. Lý Tự Trọng,Cần Thơ,94110.0,"Ninh Kiều, Cần Thơ",VN
69,ChIJ5Vd51E9joDERk10GFKWCdUQ,IU NAILS Lounge,Tiệm chăm sóc móng,0704 575 898,"IU NAILS Lounge, 96 Đ. Nguyễn Việt Hồng, An Phú, Ninh Kiều, Cần Thơ 900000","An Phú, Ninh Kiều",96 Đ. Nguyễn Việt Hồng,Cần Thơ,900000.0,"Ninh Kiều, Cần Thơ",VN
73,ChIJoe-N_MCJoDERmW6NKYxQ32w,Lumimous Nails Cần Thơ,Tiệm chăm sóc móng,0916 599 660,"Lumimous Nails Cần Thơ, KDC Hồng Phát, Đường Số 4/295 Đ. Nguyễn Văn Cừ, An Bình, Ninh Kiều, Cần Thơ 940000","An Bình, Ninh Kiều","KDC Hồng Phát, Đường Số 4/295 Đ. Nguyễn Văn Cừ",Cần Thơ,940000.0,"Ninh Kiều, Cần Thơ",VN
76,ChIJtQMOcm-JoDERbcJqWjPidN0,Vie.nails,Tiệm chăm sóc móng,0985 851 751,"Vie.nails, 65 Đ. Nguyễn Văn Cừ, An Hoà, Ninh Kiều, Cần Thơ","An Hoà, Ninh Kiều",65 Đ. Nguyễn Văn Cừ,Cần Thơ,,"Ninh Kiều, Cần Thơ",VN
82,ChIJMbyhLgeJoDERUueEsk92xhY,Talia Nail & Gội Dưỡng Sinh,Tiệm chăm sóc móng,0782 822 003,"Talia Nail & Gội Dưỡng Sinh, 71/5 Đ. Nguyễn Việt Hồng, An Phú, Ninh Kiều, Cần Thơ","An Phú, Ninh Kiều",71/5 Đ. Nguyễn Việt Hồng,Cần Thơ,,"Ninh Kiều, Cần Thơ",VN
83,ChIJKzXQApxjoDERa6C2xV1fkKM,Heo Nail Cần Thơ,Tiệm chăm sóc móng,0919 989 947,"Heo Nail Cần Thơ, 107 Trần Văn Khéo, Cái Khế, Ninh Kiều, Cần Thơ 901000","Cái Khế, Ninh Kiều",107 Trần Văn Khéo,Cần Thơ,901000.0,"Ninh Kiều, Cần Thơ",VN
87,ChIJVfoHTNyJoDERTor2r9aKark,TN Nails,Tiệm chăm sóc móng,0343 135 300,"TN Nails, 188/29 Đ. Nguyễn Văn Cừ, An Hoà, Ninh Kiều, Cần Thơ","An Hoà, Ninh Kiều",188/29 Đ. Nguyễn Văn Cừ,Cần Thơ,,"Ninh Kiều, Cần Thơ",VN
90,ChIJhf0wVLGJoDERazaidxGfcNw,HangOi Nails - Mi - Gội Đầu Dưỡng Sinh,Tiệm chăm sóc móng,0355 555 555,"HangOi Nails - Mi - Gội Đầu Dưỡng Sinh, bên trái, sát chân cầu, 60 Đ. Trần Hoàng Na, Hưng Lợi, Ninh Kiều, Cần Thơ","Hưng Lợi, Ninh Kiều","bên trái, sát chân cầu, 60 Đ. Trần Hoàng Na",Cần Thơ,,"Ninh Kiều, Cần Thơ",VN
92,ChIJGSJFQuyJoDERa31FPCpnzII,Ngọc Phú Nail,Tiệm chăm sóc móng,0907 399 107,"Ngọc Phú Nail, 34A Đ. Bà Huyện Thanh Quan, Thới Bình, Ninh Kiều, Cần Thơ","Thới Bình, Ninh Kiều",34A Đ. Bà Huyện Thanh Quan,Cần Thơ,,"Ninh Kiều, Cần Thơ",VN
93,ChIJXWo8tXBjoDERkeKnSUZ9fvo,Tiệm Nail Moon,Tiệm chăm sóc móng,0899 333 938,"Tiệm Nail Moon, 6a Đ. Trương Định, Tân An, Ninh Kiều, Cần Thơ 94000","Tân An, Ninh Kiều",6a Đ. Trương Định,Cần Thơ,94000.0,"Ninh Kiều, Cần Thơ",VN
109,ChIJFyGW7g6IoDEREFnl_1upvWY,Tiệm Nail Linh Ruby,Tiệm chăm sóc móng,0939 833 211,"Tiệm Nail Linh Ruby, Cơ sở 1 : 46 Võ Trường Toản p.An Hòa q.Ninh Kiều Cơ Sở 2 : 191 Đồng Văn Cống p.An Thới, Ninh Kiều, Cần Thơ 901000","An Hoà, Ninh Kiều",Cơ sở 1 : 46 Võ Trường Toản p.An Hòa q.Ninh Kiều Cơ Sở 2 : 191 Đồng Văn Cống p.An Thới,Cần Thơ,901000.0,"Ninh Kiều, Cần Thơ",VN
119,ChIJj7y4AvmJoDERbgeAb8NSca4,1992.nails,Tiệm chăm sóc móng,0967 979 005,"1992.nails, 2QV5+9F9,Khu Vực 1, Ninh Kiều, Cần Thơ 90000, Cần Thơ, 94000","Phường An Khánh, Cần Thơ","2QV5+9F9,Khu Vực 1, Ninh Kiều, Cần Thơ 90000",Cần Thơ,94000.0,Cần Thơ,VN
120,ChIJG5sJAFqJoDERElVh5bhKoiM,MON.nail,Tiệm chăm sóc móng,0939 181 299,"MON.nail, 2/19 Hẻm 6 Bùi Thị Xuân, An Hội, Ninh Kiều, Cần Thơ","An Hội, Ninh Kiều",2/19 Hẻm 6 Bùi Thị Xuân,Cần Thơ,,"Ninh Kiều, Cần Thơ",VN
121,ChIJX3-C4lhjoDERkFP2iJGf5EE,Tâm NAIL - GỘI ĐẦU - UỐN MI - Waxing,Tiệm chăm sóc móng,0939 546 983,"Tâm NAIL - GỘI ĐẦU - UỐN MI - Waxing, Hẻm 118-120 Trần Phú, Cái Khế, Ninh Kiều, Cần Thơ","Cái Khế, Ninh Kiều",Hẻm 118-120 Trần Phú,Cần Thơ,,"Ninh Kiều, Cần Thơ",VN
130,ChIJm_i4XFiJoDERE43S-9DlezI,Sun Nail Cần Thơ,Tiệm chăm sóc móng,,"Sun Nail Cần Thơ, 182 Đ. 30 Tháng 4, Xuân Khánh, Ninh Kiều, Cần Thơ","Xuân Khánh, Ninh Kiều",182 Đ. 30 Tháng 4,Cần Thơ,,"Ninh Kiều, Cần Thơ",VN
133,ChIJmbVLjiyJoDERUrIeJgrVeh8,YẾN VY Beauty & Nails - Cần Thơ,Tiệm chăm sóc móng,0798 111 165,"YẾN VY Beauty & Nails - Cần Thơ, 58e Hẻm 58 Đ. 3 Tháng 2, Hưng Lợi, Ninh Kiều, Cần Thơ 92000","Hưng Lợi, Ninh Kiều",58e Hẻm 58 Đ. 3 Tháng 2,Cần Thơ,92000.0,"Ninh Kiều, Cần Thơ",VN
135,ChIJYcnHxkOJoDER_WDnATCJYjo,Dream Nail,Tiệm chăm sóc móng,0939 556 199,"Dream Nail, 93B Đ. Mạc Thiên Tích, Xuân Khánh, Ninh Kiều, Cần Thơ","Xuân Khánh, Ninh Kiều",93B Đ. Mạc Thiên Tích,Cần Thơ,,"Ninh Kiều, Cần Thơ",VN
144,ChIJr0WfNyCIoDERG6OYZgN2Yzw,Salon Hair - Nail Thanh Tiếm,Người tạo mẫu,0909 161 904,"Salon Hair - Nail Thanh Tiếm, 50m về hướng, 139/39 Đường 30 Tháng 4 Xuân Khánh Ngay đầu bờ kè cách chợ, Đại lộ Hoà Bình, Xuân Khánh, Ninh Kiều, Cần Thơ","Xuân Khánh, Ninh Kiều","50m về hướng, 139/39 Đường 30 Tháng 4 Xuân Khánh Ngay đầu bờ kè cách chợ, Đại lộ Hoà Bình",Cần Thơ,,"Ninh Kiều, Cần Thơ",VN
147,ChIJOzWTlF6JoDER4jG_8K-Mujg,Huỳnh Nails,Tiệm chăm sóc móng,0763 884 902,"Huỳnh Nails, 18 Đ. Võ Trường Toản, An Hoà, Ninh Kiều, Cần Thơ","An Hoà, Ninh Kiều",18 Đ. Võ Trường Toản,Cần Thơ,,"Ninh Kiều, Cần Thơ",VN
148,ChIJ_722nZ-JoDERWXPvHOEs870,Nail và nối mi Trân Trân,Tiệm chăm sóc móng,0764 431 825,"Nail và nối mi Trân Trân, 60 Đ. Phạm Thế Hiển, Phường An Khánh, Ninh Kiều, Cần Thơ 90000","Phường An Khánh, Ninh Kiều",60 Đ. Phạm Thế Hiển,Cần Thơ,90000.0,"Ninh Kiều, Cần Thơ",VN
150,ChIJN32dSGeJoDERZ6m_aEQRTM8,Nail Kiều Anh,Tiệm chăm sóc móng,0706 670 459,"Nail Kiều Anh, 11 Đ. Nguyễn Văn Linh, Phường An Khánh, Ninh Kiều, Cần Thơ 90000","Phường An Khánh, Ninh Kiều",11 Đ. Nguyễn Văn Linh,Cần Thơ,90000.0,"Ninh Kiều, Cần Thơ",VN
151,ChIJDVniriKJoDERFC1L3X9e6nA,Sun Nail Cần Thơ,Tiệm chăm sóc móng,0777 107 143,"Sun Nail Cần Thơ, 182 Hẻm 553, Xuân Khánh, Ninh Kiều, Cần Thơ","Xuân Khánh, Ninh Kiều",182 Hẻm 553,Cần Thơ,,"Ninh Kiều, Cần Thơ",VN
153,ChIJJ9AOmICJoDERQwDFwiyt9qo,Y Nails,Tiệm chăm sóc móng,0939 087 540,"Y Nails, 30 F2, KDC3A, Ninh Kiều, Cần Thơ 94118","KDC3A, Ninh Kiều",30 F2,Cần Thơ,94118.0,"Ninh Kiều, Cần Thơ",VN
155,ChIJQ0XpIgeJoDERs9IczmiltH4,Kim Nail,Tiệm chăm sóc móng,0778 136 303,"Kim Nail, 3 Hẻm 132 Đ. 3 Tháng 2, phường, Ninh Kiều, Cần Thơ","phường, Ninh Kiều",3 Hẻm 132 Đ. 3 Tháng 2,Cần Thơ,,"Ninh Kiều, Cần Thơ",VN
165,ChIJvTot_YGJoDERu3vo1pX6C7g,Như Daisy Nails - Cần Thơ,Tiệm chăm sóc móng,0902 776 947,"Như Daisy Nails - Cần Thơ, 385v9, Đ. Trần Nam Phú, Phường An Khánh, Ninh Kiều, Cần Thơ 900000","Phường An Khánh, Ninh Kiều","385v9, Đ. Trần Nam Phú",Cần Thơ,900000.0,"Ninh Kiều, Cần Thơ",VN
166,ChIJI9kMifKrNTERkdf9Wrn-fJ4,D.D nails,Tiệm chăm sóc móng,0842 405 333,"D.D nails, 53 P. Bùi Thị Xuân, Bùi Thị Xuân, Hai Bà Trưng, Hà Nội","Bùi Thị Xuân, Hai Bà Trưng",53 P. Bùi Thị Xuân,Hà Nội,,"Hai Bà Trưng, Hà Nội",VN
169,ChIJw9KKxRqJoDERtI66qJ5Rok8,Jun Nail Cần Thơ,Tiệm chăm sóc móng,0795 468 486,"Jun Nail Cần Thơ, Hẻm 15 Đ. Trần Văn Hoài, Xuân Khánh, Ninh Kiều, Cần Thơ","Xuân Khánh, Ninh Kiều",Hẻm 15 Đ. Trần Văn Hoài,Cần Thơ,,"Ninh Kiều, Cần Thơ",VN
173,ChIJmZfiLnuJoDERcWqTrU1AxVw,Pinky Nails Cần Thơ,Tiệm chăm sóc móng,0762 888 988,"Pinky Nails Cần Thơ, 169 Đ. Nguyễn Việt Hồng, mặt phía sau, Ninh Kiều, Cần Thơ 900000","mặt phía sau, Ninh Kiều",169 Đ. Nguyễn Việt Hồng,Cần Thơ,900000.0,"Ninh Kiều, Cần Thơ",VN
176,ChIJZxVteOovdTERA4MZi0rfzD8,Nail - Tiệm Nhà Nấm,Chuyên gia làm đẹp,0984 082 280,"Nail - Tiệm Nhà Nấm, 86 Đ. Lê Thị Riêng, Phường Phạm Ngũ Lão, Quận 1, Thành phố Hồ Chí Minh 700000","Phường Phạm Ngũ Lão, Quận 1",86 Đ. Lê Thị Riêng,Thành phố Hồ Chí Minh,700000.0,"Quận 1, Thành phố Hồ Chí Minh",VN
180,ChIJKbpa5lhjoDERZnkd6qN5Baw,PHUONG ANH NAIL & GỘI ĐẦU,Tiệm chăm sóc móng,0349 234 350,"PHUONG ANH NAIL & GỘI ĐẦU, 122/10 Trần Phú, Cái Khế, Ninh Kiều, Cần Thơ","Cái Khế, Ninh Kiều",122/10 Trần Phú,Cần Thơ,,"Ninh Kiều, Cần Thơ",VN
187,ChIJKfw0wzWJoDERAG9o01R81Y4,Jolie.nails,Chuyên gia làm đẹp,0907 588 738,"Jolie.nails, 171 Đ. Nguyễn Tri Phương, P, Ninh Kiều, Cần Thơ","P, Ninh Kiều",171 Đ. Nguyễn Tri Phương,Cần Thơ,,"Ninh Kiều, Cần Thơ",VN
190,ChIJnasqd0OJoDERiSN1zSbEpQ8,Iu nails boutique,Tiệm chăm sóc móng,0939 985 983,"Iu nails boutique, 140b Đ. Nguyễn Văn Cừ, Phường An Khánh, Ninh Kiều, Cần Thơ","Phường An Khánh, Ninh Kiều",140b Đ. Nguyễn Văn Cừ,Cần Thơ,,"Ninh Kiều, Cần Thơ",VN
192,ChIJ79rFQ6aJoDERWFmgHK4iBFQ,Tiệm Nail Lan su,Tiệm chăm sóc móng,,"Tiệm Nail Lan su, 12 Đường số 22, Phường An Khánh, Ninh Kiều, Cần Thơ","Phường An Khánh, Ninh Kiều",12 Đường số 22,Cần Thơ,,"Ninh Kiều, Cần Thơ",VN
193,ChIJVTXk8tqJoDERdYiPeMX0ue8,Merci Nail,Tiệm chăm sóc móng,0932 999 822,"Merci Nail, 51/5 Hẻm 51, Xuân Khánh, Ninh Kiều, Cần Thơ","Xuân Khánh, Ninh Kiều",51/5 Hẻm 51,Cần Thơ,,"Ninh Kiều, Cần Thơ",VN
207,ChIJv--rjrGJoDER1kJw8NqYRtM,Bee.nails,Tiệm chăm sóc móng,0396 467 796,"Bee.nails, 14b Đ. Trần Nam Phú, Phường An Khánh, Ninh Kiều, Cần Thơ","Phường An Khánh, Ninh Kiều",14b Đ. Trần Nam Phú,Cần Thơ,,"Ninh Kiều, Cần Thơ",VN
208,ChIJL0HhIoyJoDERdEK3vS4MDHQ,NhyNhi Nails - Hẻm 51,Tiệm chăm sóc móng,0907 588 369,"NhyNhi Nails - Hẻm 51, 49C Hẻm 51, Xuân Khánh, Ninh Kiều, Cần Thơ 900000","Xuân Khánh, Ninh Kiều",49C Hẻm 51,Cần Thơ,900000.0,"Ninh Kiều, Cần Thơ",VN
211,ChIJyxnijURjoDEReqwC6nTpTY8,Lux Beauty - nails spa,Tiệm chăm sóc móng,0981 570 808,"Lux Beauty - nails spa, 12 Đ. Trần Đại Nghĩa, Cái Khế, Ninh Kiều, Cần Thơ","Cái Khế, Ninh Kiều",12 Đ. Trần Đại Nghĩa,Cần Thơ,,"Ninh Kiều, Cần Thơ",VN
216,ChIJbVnzjomJoDERraZcLt-I2ZQ,Quyên Nail Art,Tiệm chăm sóc móng,0383 133 827,"Quyên Nail Art, City, 331/03 Đ. Nguyễn Văn Linh, Phường An Khánh, Bình Thủy, Cần Thơ","Phường An Khánh, Bình Thủy","City, 331/03 Đ. Nguyễn Văn Linh",Cần Thơ,,"Bình Thủy, Cần Thơ",VN
217,ChIJ08M2D7eJoDERZYXaKhTwcrY,Võ Kim Phụng Nails,Tiệm chăm sóc móng,0856 462 166,"Võ Kim Phụng Nails, 88/12 Đ. Đề Thám, An Cư, Ninh Kiều, Cần Thơ","An Cư, Ninh Kiều",88/12 Đ. Đề Thám,Cần Thơ,,"Ninh Kiều, Cần Thơ",VN
218,ChIJd4J5WAtjoDEReDHo4HRvOt0,VyVy Nail-mi-gộiđầu,Tiệm chăm sóc móng,0907 947 605,"VyVy Nail-mi-gộiđầu, 26 Đ. Lý Thường Kiệt, p, Ninh Kiều, Cần Thơ","p, Ninh Kiều",26 Đ. Lý Thường Kiệt,Cần Thơ,,"Ninh Kiều, Cần Thơ",VN
219,ChIJ83MMtR-JoDERpTDiBxhzyvw,Tiệm Quỳnh Nail,Tiệm chăm sóc móng,0772 245 689,"Tiệm Quỳnh Nail, 3040b Đ. Nguyễn Văn Linh, Hưng Lợi, Ninh Kiều, Cần Thơ 900000","Hưng Lợi, Ninh Kiều",3040b Đ. Nguyễn Văn Linh,Cần Thơ,900000.0,"Ninh Kiều, Cần Thơ",VN
224,ChIJGUsktaSJoDER4YZ2PtTrQbc,COCO nails studio,Tiệm chăm sóc móng,0939 946 417,"COCO nails studio, 55 Đ. Trần Bình Trọng, An Phú, Ninh Kiều, Cần Thơ 900000","An Phú, Ninh Kiều",55 Đ. Trần Bình Trọng,Cần Thơ,900000.0,"Ninh Kiều, Cần Thơ",VN
229,ChIJH0QyDsmJoDERkE1LsdVa-_4,Ngọc Tuyền Nail,Tiệm chăm sóc móng,0918 934 993,"Ngọc Tuyền Nail, 22 Đường B2, Khu dân cư 91B, Ninh Kiều, Cần Thơ 94000","Khu dân cư 91B, Ninh Kiều",22 Đường B2,Cần Thơ,94000.0,"Ninh Kiều, Cần Thơ",VN
230,ChIJbYHI9uKJoDERBCWHeReOvQE,Châu nails,Tiệm chăm sóc móng,0353 053 837,"Châu nails, 247 Đ. Hoàng Quốc Việt, An Bình, Ninh Kiều, Cần Thơ","An Bình, Ninh Kiều",247 Đ. Hoàng Quốc Việt,Cần Thơ,,"Ninh Kiều, Cần Thơ",VN
247,ChIJy7SBtTiJoDERKBph6M1ErNg,Hoa Phạm’s Nail,Tiệm chăm sóc móng,0888 120 667,"Hoa Phạm’s Nail, 60a Đ. Lê Anh Xuân, An Cư, Ninh Kiều, Cần Thơ","An Cư, Ninh Kiều",60a Đ. Lê Anh Xuân,Cần Thơ,,"Ninh Kiều, Cần Thơ",VN
248,ChIJK16XIIeJoDERpeIktU9GBW0,Pink GIRL Nail,Tiệm chăm sóc móng,,"Pink GIRL Nail, 47 Hẻm 86, Tân An, Ninh Kiều, Cần Thơ","Tân An, Ninh Kiều",47 Hẻm 86,Cần Thơ,,"Ninh Kiều, Cần Thơ",VN
251,ChIJk-I0RhmJoDER1M_37OfWdKk,BCN Nail Cần Thơ,Tiệm chăm sóc móng,0373 393 484,"BCN Nail Cần Thơ, 25 Hẻm 3 Mậu Thân, Xuân Khánh, Ninh Kiều, Cần Thơ","Xuân Khánh, Ninh Kiều",25 Hẻm 3 Mậu Thân,Cần Thơ,,"Ninh Kiều, Cần Thơ",VN
263,ChIJdQNjFL-JoDERmLntV9GWIrA,BẢO BÌ NAILS,Tiệm chăm sóc móng,0868 103 968,"BẢO BÌ NAILS, Hẻm 388 Đ. Nguyễn Văn Cừ, Phường An Khánh, Ninh Kiều, Cần Thơ","Phường An Khánh, Ninh Kiều",Hẻm 388 Đ. Nguyễn Văn Cừ,Cần Thơ,,"Ninh Kiều, Cần Thơ",VN
266,ChIJpSOLSbGJoDERRs62v1mGfOM,Nail Trương Hân,Tiệm chăm sóc móng,0942 566 579,"Nail Trương Hân, Lê Bình, Cái Răng, Cần Thơ","Lê Bình, Cái Răng",,Cần Thơ,,"Cái Răng, Cần Thơ",VN
267,ChIJh2k337mJoDER351IGkkNbp0,Thủy Nail,Tiệm chăm sóc móng,0367 489 998,"2Q66+745 Thủy Nail, Hẻm 553, Hưng Lợi, Ninh Kiều, Cần Thơ","Hưng Lợi, Ninh Kiều","2Q66+745, Hẻm 553",Cần Thơ,,"Ninh Kiều, Cần Thơ",VN
286,ChIJtV9Stm6JoDER5CZjTP58vBA,Sương Nail,Tiệm chăm sóc móng,0939 474 611,"Sương Nail, 182/4 Đ. Trần Hưng Đạo, An Cư, Ninh Kiều, Cần Thơ","An Cư, Ninh Kiều",182/4 Đ. Trần Hưng Đạo,Cần Thơ,,"Ninh Kiều, Cần Thơ",VN
287,ChIJD2xuHbSJoDERqHalrFTda4A,Gem Nail,Tiệm chăm sóc móng,0945 688 988,"Gem Nail, 58 Đ. Mạc Thiên Tích, Xuân Khánh, Ninh Kiều, Cần Thơ","Xuân Khánh, Ninh Kiều",58 Đ. Mạc Thiên Tích,Cần Thơ,,"Ninh Kiều, Cần Thơ",VN
288,ChIJ-Rcq4BBjoDER7Gcfdacrnq4,Tâm NAIL - GỘI ĐẦU - UỐN MI - Waxing,Tiệm chăm sóc móng,0939 546 983,"Tâm NAIL - GỘI ĐẦU - UỐN MI - Waxing, 40 Đ. Nguyễn Bình, Cái Khế, Ninh Kiều, Cần Thơ","Cái Khế, Ninh Kiều",40 Đ. Nguyễn Bình,Cần Thơ,,"Ninh Kiều, Cần Thơ",VN
289,ChIJu95kS0CJoDERL2QvEiunvaM,Sunshine nail-gội đầu dưỡng sinh,Tiệm chăm sóc móng,,"Sunshine nail-gội đầu dưỡng sinh, 140b/5a Đ. Nguyễn Văn Cừ, An Hoà, Ninh Kiều, Cần Thơ","An Hoà, Ninh Kiều",140b/5a Đ. Nguyễn Văn Cừ,Cần Thơ,,"Ninh Kiều, Cần Thơ",VN
291,ChIJy4ssMIqJoDERUZTdBYL0AT4,Hoàng mun nail,Tiệm chăm sóc móng,,"Hoàng mun nail, 110/12 Đ. Lý Tự Trọng, An Cư, Ninh Kiều, Cần Thơ","An Cư, Ninh Kiều",110/12 Đ. Lý Tự Trọng,Cần Thơ,,"Ninh Kiều, Cần Thơ",VN
293,ChIJ2WnKKLiJoDERiFWu1-JY4d8,Nail T&T (Thái Thảo Food),Tiệm chăm sóc móng,0939 917 914,"Nail T&T (Thái Thảo Food), 76 Đ. 30 Tháng 4, An Phú, Ninh Kiều, Cần Thơ","An Phú, Ninh Kiều",76 Đ. 30 Tháng 4,Cần Thơ,,"Ninh Kiều, Cần Thơ",VN
294,ChIJESYMbAGJoDERVUiEG0qOL0s,The Stellar Nail Bar,Tiệm chăm sóc móng,,"The Stellar Nail Bar, 13 Đ. 3 Tháng 2, An Phú, Ninh Kiều, Cần Thơ","An Phú, Ninh Kiều",13 Đ. 3 Tháng 2,Cần Thơ,,"Ninh Kiều, Cần Thơ",VN
301,ChIJ5dFFJahioDERmjuqGSkKfVE,Tiệm Nail Sài Gòn,Thẩm mỹ viện,0917 979 377,"2QWM+539 Tiệm Nail Sài Gòn, Trần Quang Khải, An Hội, Ninh Kiều, Cần Thơ","An Hội, Ninh Kiều","2QWM+539, Trần Quang Khải",Cần Thơ,,"Ninh Kiều, Cần Thơ",VN
312,ChIJCz4lnDiJoDERAqhLSTqzIq0,Phụng Nail,Tiệm chăm sóc móng,0914 567 366,"Phụng Nail, 23b Đường số 25, Phường An Khánh, Ninh Kiều, Cần Thơ","Phường An Khánh, Ninh Kiều",23b Đường số 25,Cần Thơ,,"Ninh Kiều, Cần Thơ",VN
316,ChIJCTSJg8uJoDER-sj1UlktFEo,Chang's Nails,Tiệm chăm sóc móng,0977 909 050,"Chang's Nails, 59 Đ. Số 2, KDC Đại Ngân, Ninh Kiều, Cần Thơ 700000","KDC Đại Ngân, Ninh Kiều",59 Đ. Số 2,Cần Thơ,700000.0,"Ninh Kiều, Cần Thơ",VN
321,ChIJZTDiqeOJoDERioeEU6ijbxY,Salon Nail Băng Tuyền,Tiệm chăm sóc móng,0908 070 333,"Salon Nail Băng Tuyền, 5/1 Khu vực 3, An Bình, Ninh Kiều, Cần Thơ","An Bình, Ninh Kiều",5/1 Khu vực 3,Cần Thơ,,"Ninh Kiều, Cần Thơ",VN
331,ChIJjazXtMmJoDERHZeRFgOGOx0,Nails,Tiệm chăm sóc móng,,"2QG9+WW3 Nails, Xuân Khánh, Ninh Kiều, Cần Thơ","Xuân Khánh, Ninh Kiều",2QG9+WW3,Cần Thơ,,"Ninh Kiều, Cần Thơ",VN
332,ChIJadeVyfSJoDERk0wPjlHHybY,Tiệm Nail - Mi Quỳnh Quỳnh,Tiệm chăm sóc móng,0906 339 357,"Tiệm Nail - Mi Quỳnh Quỳnh, Hẻm 5 6 7 Đ. Hồ Bún Xáng, Phường An Khánh, Ninh Kiều, Cần Thơ","Phường An Khánh, Ninh Kiều",Hẻm 5 6 7 Đ. Hồ Bún Xáng,Cần Thơ,,"Ninh Kiều, Cần Thơ",VN
338,ChIJ2TjM7sljoDERMofdAb7nVO0,Trinh nails,Tiệm chăm sóc móng,,"Trinh nails, 12n Hẻm 22 Đ. Mạc Đĩnh Chi, Tân An, Ninh Kiều, Cần Thơ","Tân An, Ninh Kiều",12n Hẻm 22 Đ. Mạc Đĩnh Chi,Cần Thơ,,"Ninh Kiều, Cần Thơ",VN
342,ChIJjaNW-02JoDERdw6lUCyy5VU,Nails Tuyết Mai,Tiệm chăm sóc móng,,"Nails Tuyết Mai, 158 Đ. Nguyễn Việt Hồng, An Phú, Ninh Kiều, Cần Thơ","An Phú, Ninh Kiều",158 Đ. Nguyễn Việt Hồng,Cần Thơ,,"Ninh Kiều, Cần Thơ",VN
344,ChIJi9E3ChKJoDER4XttnB6EbkM,Thy Thy Nail,Tiệm chăm sóc móng,0901 518 844,"3Q3F+P47 Thy Thy Nail, Cái Khế, Ninh Kiều, Cần Thơ","Cái Khế, Ninh Kiều",3Q3F+P47,Cần Thơ,,"Ninh Kiều, Cần Thơ",VN
345,ChIJocqqieOHoDERAppZwITPXR4,Sương Nail,Tiệm chăm sóc móng,,"Sương Nail, Bùi Hữu Nghĩa, Bình Thủy, Cần Thơ","Bùi Hữu Nghĩa, Bình Thủy",,Cần Thơ,,"Bình Thủy, Cần Thơ",VN
346,ChIJhdLENj2JoDERz9oQOp19GT0,Nail Thảo Nguyễn CT,Tiệm chăm sóc móng,0979 881 156,"Nail Thảo Nguyễn CT, Nail Thảo Nguyễn, Hẻm 311 Đ. Nguyễn Văn Cừ, An Hoà, Ninh Kiều, Cần Thơ","An Hoà, Ninh Kiều","Nail Thảo Nguyễn, Hẻm 311 Đ. Nguyễn Văn Cừ",Cần Thơ,,"Ninh Kiều, Cần Thơ",VN
347,ChIJTbhumaBioDERT6Oi1b95l8U,Nail Thanh,Tiệm chăm sóc móng,,"Nail Thanh, 21 Hẻm 22 Đ. Mạc Đĩnh Chi, Tân An, Ninh Kiều, Cần Thơ","Tân An, Ninh Kiều",21 Hẻm 22 Đ. Mạc Đĩnh Chi,Cần Thơ,,"Ninh Kiều, Cần Thơ",VN
348,ChIJEdRMt85joDERoaIW7-QnooA,MỸ THO Beauty - Nail - Gội đầu dưỡng sinh,Tiệm chăm sóc móng,0974 329 699,"MỸ THO Beauty - Nail - Gội đầu dưỡng sinh, 75/6 Trần Phú, Cái Khế, Ninh Kiều, Cần Thơ 900000","Cái Khế, Ninh Kiều",75/6 Trần Phú,Cần Thơ,900000.0,"Ninh Kiều, Cần Thơ",VN
349,ChIJy0dBSCyJoDER4gt_ZTLeQnQ,Nail Hân Nguyễn,Tiệm chăm sóc móng,,"Nail Hân Nguyễn, 4 Đ. Nguyễn Văn Cừ, An Hoà, Ninh Kiều, Cần Thơ","An Hoà, Ninh Kiều",4 Đ. Nguyễn Văn Cừ,Cần Thơ,,"Ninh Kiều, Cần Thơ",VN
350,ChIJmVrvpkaJoDERnFy9WMJqIdo,TRANG NAIL,Tiệm chăm sóc móng,0911 656 486,"TRANG NAIL, 137/27 Hoàng Văn Thụ, An Cư, Ninh Kiều, Cần Thơ","An Cư, Ninh Kiều",137/27 Hoàng Văn Thụ,Cần Thơ,,"Ninh Kiều, Cần Thơ",VN
351,ChIJoR2cTvdjoDERTW__D7q8QeE,Tiệm Nail Thư Su,Tiệm chăm sóc móng,0783 800 762,"2QHP+9GG Tiệm Nail Thư Su, Phường An Khánh, Ninh Kiều, Cần Thơ","Phường An Khánh, Ninh Kiều",2QHP+9GG,Cần Thơ,,"Ninh Kiều, Cần Thơ",VN
352,ChIJt6FkB_iJoDERBlKwYBn-BIE,Nail NiNa,Tiệm chăm sóc móng,,"Nail NiNa, 86/16 Đ. Lý Tự Trọng, An Cư, Ninh Kiều, Cần Thơ","An Cư, Ninh Kiều",86/16 Đ. Lý Tự Trọng,Cần Thơ,,"Ninh Kiều, Cần Thơ",VN
353,ChIJMe8n3j2JoDERYxcEV0l-VUc,Tiệm nail ngọc khánh,Tiệm chăm sóc móng,,"Tiệm nail ngọc khánh, 4 Hẻm 7, An Phú, Ninh Kiều, Cần Thơ","An Phú, Ninh Kiều",4 Hẻm 7,Cần Thơ,,"Ninh Kiều, Cần Thơ",VN
355,ChIJiTSjWcSJoDERzmXS5DZCNT8,Nail. Mi Hạnh Hồ,Tiệm chăm sóc móng,,"Nail. Mi Hạnh Hồ, 150 Đ. Lê Anh Xuân, An Nghiệp, Ninh Kiều, Cần Thơ","An Nghiệp, Ninh Kiều",150 Đ. Lê Anh Xuân,Cần Thơ,,"Ninh Kiều, Cần Thơ",VN
356,ChIJiVuzb0-JoDERBI5NcH34UeY,Tiệm Nail Nhà Ngọt,Tiệm chăm sóc móng,0783 979 754,"Tiệm Nail Nhà Ngọt, Nguyễn Văn Trỗi, An Nghiệp, Ninh Kiều, Cần Thơ","An Nghiệp, Ninh Kiều",Nguyễn Văn Trỗi,Cần Thơ,,"Ninh Kiều, Cần Thơ",VN
358,ChIJKarQvCGIoDERDQsIzfG4D30,Như S Nail Shop,Tiệm chăm sóc móng,0919 655 288,"Như S Nail Shop, 95/91, Đường Đ. Nguyễn Việt Hồng, An Lạc, Ninh Kiều, Cần Thơ","An Lạc, Ninh Kiều","95/91, Đường Đ. Nguyễn Việt Hồng",Cần Thơ,,"Ninh Kiều, Cần Thơ",VN
360,ChIJbZpRgKtioDERbcoVRbDRJKc,Oxo Beauty Nail - Eyelash - Studio,Thẩm mỹ viện,,"Oxo Beauty Nail - Eyelash - Studio, Cái Khế, Ninh Kiều, Cần Thơ","Cái Khế, Ninh Kiều",,Cần Thơ,,"Ninh Kiều, Cần Thơ",VN
364,ChIJVa76HR2JoDERq2ye1N34Q5I,Kim Nail,Tiệm chăm sóc móng,0913 564 027,"Kim Nail, Cạnh 2/121C, Hẻm 311 Đ. Nguyễn Văn Cừ, An Hoà, Ninh Kiều, Cần Thơ","An Hoà, Ninh Kiều","Cạnh 2/121C, Hẻm 311 Đ. Nguyễn Văn Cừ",Cần Thơ,,"Ninh Kiều, Cần Thơ",VN
369,ChIJvRLP00KJoDER-7MyxhWmazM,T10.nail,Tiệm chăm sóc móng,0939 365 131,"T10.nail, 2 12 mậu thân, An Hoà, Ninh Kiều, Cần Thơ","An Hoà, Ninh Kiều",2 12 mậu thân,Cần Thơ,,"Ninh Kiều, Cần Thơ",VN
370,ChIJ07wvG2WJoDERVdKjDJoM4wE,Nhi Nail,Tiệm chăm sóc móng,,"Nhi Nail, 46 Đường Yết Kiêu, Thới Bình, Ninh Kiều, Cần Thơ","Thới Bình, Ninh Kiều",46 Đường Yết Kiêu,Cần Thơ,,"Ninh Kiều, Cần Thơ",VN
385,ChIJs0neEg6JoDER2GbZb9M4gW4,nails Như ý,Tiệm chăm sóc móng,0794 901 216,"nails Như ý, Hẻm 65 Đ. Trần Phú, Thới Bình, Ninh Kiều, Cần Thơ","Thới Bình, Ninh Kiều",Hẻm 65 Đ. Trần Phú,Cần Thơ,,"Ninh Kiều, Cần Thơ",VN
386,ChIJd8nInBuIoDERNCnR5EALIXk,Kia Nails,Tiệm chăm sóc móng,,"Kia Nails, Thới Binh, Ninh Kiều, Cần Thơ","Thới Binh, Ninh Kiều",,Cần Thơ,,"Ninh Kiều, Cần Thơ",VN
388,ChIJ7c2qoSRSsE8RsTH9JLXSYwo,Nails,Tiệm chăm sóc móng,0907 967 704,,,,,,,
393,ChIJU2yRpv6JoDERgXpFGjuUy0g,Tiệm Nail Ngọc Hân,Tiệm chăm sóc móng,0917 234 657,"Tiệm Nail Ngọc Hân, 1/24 Hẻm 1, Đ. Lý Tự Trọng, An Lạc, Ninh Kiều, Cần Thơ 94110","An Lạc, Ninh Kiều","1/24 Hẻm 1, Đ. Lý Tự Trọng",Cần Thơ,94110.0,"Ninh Kiều, Cần Thơ",VN
399,ChIJJ3k1vBSIoDERhv2C3hdUf5k,Nhu Nail,Tiệm chăm sóc móng,,"Nhu Nail, An Khánh, Ninh Kiều, Cần Thơ","An Khánh, Ninh Kiều",,Cần Thơ,,"Ninh Kiều, Cần Thơ",VN
401,ChIJjed8dNOJoDERCUuMzxwJg9I,TT NAIL,Tiệm chăm sóc móng,0939 575 208,"TT NAIL, 191 Đ. Phan Huy Chú, Phường An Khánh, Ninh Kiều, Cần Thơ 94000","Phường An Khánh, Ninh Kiều",191 Đ. Phan Huy Chú,Cần Thơ,94000.0,"Ninh Kiều, Cần Thơ",VN
406,ChIJJ3e4QJqJoDEROMr_36M71Zc,NAIL- MAKEUP-SPA HẠNHl,Tiệm chăm sóc móng,,"NAIL- MAKEUP-SPA HẠNHl, 388/H46 Nguyễn Văn Cừ Nối Dài, Phường An Khánh, Ninh Kiều, Cần Thơ","Phường An Khánh, Ninh Kiều",388/H46 Nguyễn Văn Cừ Nối Dài,Cần Thơ,,"Ninh Kiều, Cần Thơ",VN
407,ChIJSfpFTyuJoDERmA_sPgKMmcw,Tiệm Nail Nhà Kelly,Tiệm chăm sóc móng,,"2QQ3+Q3Q Tiệm Nail Nhà Kelly, Đ. Nguyễn Minh Quang Hẻm 4, Phường An Khánh, Ninh Kiều, Cần Thơ","Phường An Khánh, Ninh Kiều","2QQ3+Q3Q, Đ. Nguyễn Minh Quang Hẻm 4",Cần Thơ,,"Ninh Kiều, Cần Thơ",VN
408,ChIJNfNOoyWJoDERljRertneu5Y,Kiều Linh ( Nail - Nối Mi - Gội Đầu ),Tiệm chăm sóc móng,0786 230 232,"Kiều Linh ( Nail - Nối Mi - Gội Đầu ), 86 Đ. Nguyễn Minh Quang, Phường An Khánh, Ninh Kiều, Cần Thơ","Phường An Khánh, Ninh Kiều",86 Đ. Nguyễn Minh Quang,Cần Thơ,,"Ninh Kiều, Cần Thơ",VN
411,ChIJoSfnLL2JoDERvLpW1HKLyJg,Neko nails,Tiệm chăm sóc móng,0795 228 739,"2QV6+884 Neko nails, Hẻm liên tổ, Phường An Khánh, Ninh Kiều, Cần Thơ","Phường An Khánh, Ninh Kiều","2QV6+884, Hẻm liên tổ",Cần Thơ,,"Ninh Kiều, Cần Thơ",VN
412,ChIJzxlk8dOJoDER-laZuWieMfI,CỎ NAILS,Tiệm chăm sóc móng,0795 966 377,"CỎ NAILS, 139, 31 Đ. Đồng Văn Cống, Phường An Khánh, Ninh Kiều, Cần Thơ","Phường An Khánh, Ninh Kiều","139, 31 Đ. Đồng Văn Cống",Cần Thơ,,"Ninh Kiều, Cần Thơ",VN
413,ChIJ7Ve4KmaJoDERmynmjsHdNBQ,Miu Nails,Tiệm chăm sóc móng,0931 046 163,"Miu Nails, 151A Ngô Thì Nhậm, Phường An Khánh, Ninh Kiều, Cần Thơ","Phường An Khánh, Ninh Kiều",151A Ngô Thì Nhậm,Cần Thơ,,"Ninh Kiều, Cần Thơ",VN
416,ChIJW_xFL2OJoDER28LvHyipM3E,Nail Kiều Linh,Tiệm chăm sóc móng,0902 635 482,"Nail Kiều Linh, 92 Đường số 15, Phường An Khánh, Ninh Kiều, Cần Thơ","Phường An Khánh, Ninh Kiều",92 Đường số 15,Cần Thơ,,"Ninh Kiều, Cần Thơ",VN
421,ChIJpzFu34CJoDER-c_ytAiZ4l4,Ngân Nail,Tiệm chăm sóc móng,0907 467 472,"Ngân Nail, 175 Đường Trần Minh Sơn, Phường An Khánh, Ninh Kiều, Cần Thơ","Phường An Khánh, Ninh Kiều",175 Đường Trần Minh Sơn,Cần Thơ,,"Ninh Kiều, Cần Thơ",VN
422,ChIJs4V899-JoDERxGmQzBI8EgA,Tiệm Nail Tiên Tiên,Tiệm chăm sóc móng,0399 626 436,"2PJX+CQ9 Tiệm Nail Tiên Tiên, Hẻm Tổ 3, Phường An Khánh, Ninh Kiều, Cần Thơ","Phường An Khánh, Ninh Kiều","2PJX+CQ9, Hẻm Tổ 3",Cần Thơ,,"Ninh Kiều, Cần Thơ",VN
425,ChIJKYWLCUaIoDERfdf8chkzPBw,Ngà Nail - Làm Móng,Tiệm chăm sóc móng,,"Ngà Nail - Làm Móng, Khu dân cư 91B, An Khánh, Ninh Kiều, Cần Thơ","Khu dân cư 91B, An Khánh, Ninh Kiều",,Cần Thơ,,"Ninh Kiều, Cần Thơ",VN
426,ChIJe4Yf8s6JoDERwkweScQ5p_g,Ngọc Nail - Trần Vĩnh Kiết,Tiệm chăm sóc móng,0931 091 726,"Ngọc Nail - Trần Vĩnh Kiết, 117A Đ. Trần Vĩnh Kiết, An Bình, Ninh Kiều, Cần Thơ 900000","An Bình, Ninh Kiều",117A Đ. Trần Vĩnh Kiết,Cần Thơ,900000.0,"Ninh Kiều, Cần Thơ",VN
428,ChIJ46f3rX-JoDERm6eDZ1b_jzE,Tuyến nail,Tiệm chăm sóc móng,0858 769 568,"Tuyến nail, 275/8 Đ. Trần Vĩnh Kiết, An Bình, Ninh Kiều, Cần Thơ","An Bình, Ninh Kiều",275/8 Đ. Trần Vĩnh Kiết,Cần Thơ,,"Ninh Kiều, Cần Thơ",VN
429,ChIJgxrSPeuJoDERsZweq4dDZ1E,Phụ liệu nail Ngô Hằng,Tiệm chăm sóc móng,0941 606 784,"Phụ liệu nail Ngô Hằng, 12 Hẻm 132 Đ. 3 Tháng 2, Hưng Lợi, Ninh Kiều, Cần Thơ","Hưng Lợi, Ninh Kiều",12 Hẻm 132 Đ. 3 Tháng 2,Cần Thơ,,"Ninh Kiều, Cần Thơ",VN
430,ChIJF9TW5I-JoDERulxTryGQkx4,Pink nail,Tiệm chăm sóc móng,0939 498 831,"Pink nail, 331 Đ. Nguyễn Văn Linh, Phường An Khánh, Ninh Kiều, Cần Thơ 900000","Phường An Khánh, Ninh Kiều",331 Đ. Nguyễn Văn Linh,Cần Thơ,900000.0,"Ninh Kiều, Cần Thơ",VN
431,ChIJEV7YJs0eyqsR8LYhfbqtf8U,Salon Nail Băng Tuyền,Tiệm chăm sóc móng,0908 070 333,,,,,,,
433,ChIJXYXXj0KJoDERuQ4tV-KjDE4,tiệm nail Kiều Quyên,Tiệm chăm sóc móng,,"tiệm nail Kiều Quyên, 301B/4, 301 Đ. Nguyễn Văn Linh, Phường An Khánh, Ninh Kiều, Cần Thơ 900000","Phường An Khánh, Ninh Kiều","301B/4, 301 Đ. Nguyễn Văn Linh",Cần Thơ,900000.0,"Ninh Kiều, Cần Thơ",VN
437,ChIJM_auqZCJoDERZAijyrDtTsA,Nail Điệp Nguyễn,Tiệm chăm sóc móng,,"2Q32+79W Nail Điệp Nguyễn, Nguyễn Trãi, Lê Bình, Cái Răng, Cần Thơ","Lê Bình, Cái Răng","2Q32+79W, Nguyễn Trãi",Cần Thơ,,"Cái Răng, Cần Thơ",VN
439,ChIJQcAO8XqJoDERhR86Y7wldoE,Tiệm Nail Kim Chi,Tiệm chăm sóc móng,,"Tiệm Nail Kim Chi, 284 Đ.Xuân Thủy, Phường An Khánh, Ninh Kiều, Cần Thơ","Phường An Khánh, Ninh Kiều",284 Đ.Xuân Thủy,Cần Thơ,,"Ninh Kiều, Cần Thơ",VN
440,ChIJBSuzAV2JoDERcCEpaGWw4as,Nail 93,Tiệm chăm sóc móng,,"Nail 93, 102 Hẻm 132 Đ. 3 Tháng 2, Hưng Lợi, Ninh Kiều, Cần Thơ","Hưng Lợi, Ninh Kiều",102 Hẻm 132 Đ. 3 Tháng 2,Cần Thơ,,"Ninh Kiều, Cần Thơ",VN
441,ChIJCT2taR6JoDERuE4aoH_gHZY,Nail châu châu,Tiệm chăm sóc móng,0855 080 952,"Nail châu châu, 4a1 Hẻm 132 Đ. 3 Tháng 2, Hưng Lợi, Ninh Kiều, Cần Thơ","Hưng Lợi, Ninh Kiều",4a1 Hẻm 132 Đ. 3 Tháng 2,Cần Thơ,,"Ninh Kiều, Cần Thơ",VN
442,ChIJK_xCzLeJoDERbq2gm3kJh6c,Nail Kiều Quyên,Tiệm chăm sóc móng,,"Nail Kiều Quyên, 301b/4 Hẻm Liên Tổ 4-5, Phường An Khánh, Ninh Kiều, Cần Thơ","Phường An Khánh, Ninh Kiều",301b/4 Hẻm Liên Tổ 4-5,Cần Thơ,,"Ninh Kiều, Cần Thơ",VN
443,ChIJffaQsSSJoDERFT8oJ4V_qK8,Tuyết trinh nail,Tiệm chăm sóc móng,,"Tuyết trinh nail, 18 Ngô Quyền, Lê Bình, Cái Răng, Cần Thơ","Lê Bình, Cái Răng",18 Ngô Quyền,Cần Thơ,,"Cái Răng, Cần Thơ",VN
444,ChIJ6TzVJcqJoDERWFoffsqOKC4,Ngọc Kiều Nail,Tiệm chăm sóc móng,,"Ngọc Kiều Nail, Đường Trần Hưng Đạo, Lê Bình, Cái Răng, Cần Thơ","Lê Bình, Cái Răng",Đường Trần Hưng Đạo,Cần Thơ,,"Cái Răng, Cần Thơ",VN
445,ChIJmwNih7-JoDERitgEpyJGrQ4,Huỳnh Nail,Tiệm chăm sóc móng,,"Huỳnh Nail, Thường Thạnh, Cái Răng, Cần Thơ","Thường Thạnh, Cái Răng",,Cần Thơ,,"Cái Răng, Cần Thơ",VN
455,ChIJy3SXK_yJoDEROf3YKFm_JAA,tiệm nail nhi nhi,Tiệm chăm sóc móng,0794 783 891,"tiệm nail nhi nhi, 112 Hẻm 132 Đ. 3 Tháng 2, Hưng Lợi, Ninh Kiều, Cần Thơ","Hưng Lợi, Ninh Kiều",112 Hẻm 132 Đ. 3 Tháng 2,Cần Thơ,,"Ninh Kiều, Cần Thơ",VN
460,ChIJP0ja5baJoDERuYGHCspJ1L0,Tiệm Nail Nhà Nhi,Tiệm chăm sóc móng,,"Tiệm Nail Nhà Nhi, 95/5 Hẻm 553, Hưng Lợi, Ninh Kiều, Cần Thơ","Hưng Lợi, Ninh Kiều",95/5 Hẻm 553,Cần Thơ,,"Ninh Kiều, Cần Thơ",VN
462,ChIJO_4bGSmJoDERW8G65ke8DnQ,Thư Thư Nail,Tiệm chăm sóc móng,0835 990 808,"Thư Thư Nail, 278 33/16, Hưng Lợi, Ninh Kiều, Cần Thơ","Hưng Lợi, Ninh Kiều",278 33/16,Cần Thơ,,"Ninh Kiều, Cần Thơ",VN
464,ChIJHcsHjwuJoDERzUb2HfmiVjA,Tiệm Nail.Spa,Tiệm chăm sóc móng,,"Tiệm Nail.Spa, 25A Trần Chiên, P, Cái Răng, Cần Thơ","P, Cái Răng",25A Trần Chiên,Cần Thơ,,"Cái Răng, Cần Thơ",VN
465,ChIJq0dpsLCJoDERU9gfaiCQkP4,Hạnh Nail,Tiệm chăm sóc móng,,"Hạnh Nail, 539 Trần Hưng Đạo, Lê Bình, Cái Răng, Cần Thơ","Lê Bình, Cái Răng",539 Trần Hưng Đạo,Cần Thơ,,"Cái Răng, Cần Thơ",VN
470,ChIJDQxtfTCIoDER3iYbY_8HT5o,Tiệm Nail P & T,Tiệm chăm sóc móng,0939 636 061,"Tiệm Nail P & T, 12/30, Ba Tháng Hai, Phường Hưng Lợi, Quận Ninh Kiều, Thành Phố Cần Thơ, Hưng Lợi, Ninh Kiều, Cần Thơ","Hưng Lợi, Ninh Kiều","12/30, Ba Tháng Hai, Phường Hưng Lợi, Quận Ninh Kiều, Thành Phố Cần Thơ",Cần Thơ,,"Ninh Kiều, Cần Thơ",VN
480,ChIJg2ri9NeJoDERgc-OLssepTg,Trinh’S Nail,Tiệm chăm sóc móng,0939 909 597,"Trinh’S Nail, 174/6 Đ. Lê Bình, Hưng Lợi, Ninh Kiều, Cần Thơ","Hưng Lợi, Ninh Kiều",174/6 Đ. Lê Bình,Cần Thơ,,"Ninh Kiều, Cần Thơ",VN
489,ChIJC5aBTpuJoDER7k0hcWJX3y0,CH Nails,Tiệm chăm sóc móng,0939 516 061,"CH Nails, 49/7 Đ. Trần Hoàng Na, Hưng Lợi, Ninh Kiều, Cần Thơ","Hưng Lợi, Ninh Kiều",49/7 Đ. Trần Hoàng Na,Cần Thơ,,"Ninh Kiều, Cần Thơ",VN
500,ChIJSb9H9NaJoDERBnDUnFAe_bY,An Nail,Tiệm chăm sóc móng,,"An Nail, 124/30 Đ. Mạc Thiên Tích, Xuân Khánh, Ninh Kiều, Cần Thơ","Xuân Khánh, Ninh Kiều",124/30 Đ. Mạc Thiên Tích,Cần Thơ,,"Ninh Kiều, Cần Thơ",VN
504,ChIJB9KCJDyJoDERF7a6fE2c-AE,Nhuy Nails,Tiệm chăm sóc móng,,"Nhuy Nails, 44 Đ. 30 Tháng 4, Hưng Lợi, Ninh Kiều, Cần Thơ","Hưng Lợi, Ninh Kiều",44 Đ. 30 Tháng 4,Cần Thơ,,"Ninh Kiều, Cần Thơ",VN
506,ChIJVwZ_SdCJoDERD1B54hYdBv0,Hoàng Nhi Beauty & Nails,Tiệm chăm sóc móng,,"Hoàng Nhi Beauty & Nails, 160/5 Tầm Vu, Hưng Lợi, Ninh Kiều, Cần Thơ","Hưng Lợi, Ninh Kiều",160/5 Tầm Vu,Cần Thơ,,"Ninh Kiều, Cần Thơ",VN
508,ChIJNx9HEQOJoDERckR8yYCE5Y0,TP Nails Cần Thơ - Sóc Trăng,Tiệm chăm sóc móng,0943 047 647,"TP Nails Cần Thơ - Sóc Trăng, 8 Đ. Mậu Thân, Xuân Khánh, Ninh Kiều, Cần Thơ","Xuân Khánh, Ninh Kiều",8 Đ. Mậu Thân,Cần Thơ,,"Ninh Kiều, Cần Thơ",VN
518,ChIJpSo8z8BjoDERUnvmAvBj4t0,Nail Chúc Linh,Tiệm chăm sóc móng,0783 772 220,"Nail Chúc Linh, 6 Nguyễn Thị Minh Khai, Tân An, Ninh Kiều, Cần Thơ","Tân An, Ninh Kiều",6 Nguyễn Thị Minh Khai,Cần Thơ,,"Ninh Kiều, Cần Thơ",VN
