,place_id,name,main_category,phone,address,address_ward,address_street,address_city,address_postal_code,address_state,address_country_code
0,ChIJJ1FXlB-IoDER26cdQVfFjA8,Nhà Thuốc Trung Sơn,Hiệu thuốc,0292 3828 732,"Nhà Thuốc Trung Sơn, 86/3 Đ. Lý Tự Trọng, An Cư, Ninh Kiều, Cần Thơ","An Cư, Ninh Kiều",86/3 Đ. Lý Tự Trọng,Cần Thơ,,"Ninh Kiều, Cần Thơ",VN
5,ChIJ9W2cSkGIoDERvU8-c3MV5BQ,Nhà Thuốc Trung Sơn,Hiệu thuốc,0865 967 068,"Nhà Thuốc Trung Sơn, 133 Đ. Nguyễn Văn Linh, Hưng Lợi, Ninh Kiều, Cần Thơ 920000","Hưng Lợi, Ninh Kiều",133 Đ. Nguyễn Văn Linh,Cần Thơ,920000.0,"Ninh Kiều, Cần Thơ",VN
11,ChIJ_bL8Jt-JoDERuEu0qEGE0JM,Nhà thuốc Pharmacity,Cửa hàng bán thuốc,1800 6821,"Nhà thuốc Pharmacity, 36/24A Trần Việt Châu, Phường An Hòa Quận Ninh Kiều Can Tho City, 36/24 Đ. Trần Việt Châu, An Hoà, Ninh Kiều, Cần Thơ 94108","An Hoà, Ninh Kiều","36/24A Trần Việt Châu, Phường An Hòa Quận Ninh Kiều Can Tho City, 36/24 Đ. Trần Việt Châu",Cần Thơ,94108.0,"Ninh Kiều, Cần Thơ",VN
15,ChIJ_71fsSaIoDERirvOdN3MUmE,Nhà Thuốc Trung Sơn,Hiệu thuốc,0865 947 068,"Nhà Thuốc Trung Sơn, 161 Đ. 30 Tháng 4, Xuân Khánh, Ninh Kiều, Cần Thơ","Xuân Khánh, Ninh Kiều",161 Đ. 30 Tháng 4,Cần Thơ,,"Ninh Kiều, Cần Thơ",VN
16,ChIJRwu2AHGJoDER5UGyoojx4L8,Nhà thuốc Pharmacity,Cửa hàng bán thuốc,1800 6821,"Nhà thuốc Pharmacity, 147 Đ. Trần Hưng Đạo, An Phú, Ninh Kiều, Cần Thơ 900000","An Phú, Ninh Kiều",147 Đ. Trần Hưng Đạo,Cần Thơ,900000.0,"Ninh Kiều, Cần Thơ",VN
17,ChIJR0rjhYSJoDERGwtsSQRHd68,Nhà thuốc Pharmacity,Cửa hàng bán thuốc,1800 6821,"Nhà thuốc Pharmacity, 167I Đ. Nguyễn Văn Cừ, Phường An Khánh, Ninh Kiều, Cần Thơ","Phường An Khánh, Ninh Kiều",167I Đ. Nguyễn Văn Cừ,Cần Thơ,,"Ninh Kiều, Cần Thơ",VN
27,ChIJk5s7hMqJoDERN3smJjuaVNM,Nhà thuốc Pharmacity,Hiệu thuốc,1800 6821,"Nhà thuốc Pharmacity, 01 Đ. Võ Trường Toản, An Hoà, Ninh Kiều, Cần Thơ 900000","An Hoà, Ninh Kiều",01 Đ. Võ Trường Toản,Cần Thơ,900000.0,"Ninh Kiều, Cần Thơ",VN
28,ChIJX0a_exqJoDERbof8ph4ktOw,Nhà thuốc Pharmacity,Cửa hàng bán thuốc,1800 6821,"Nhà thuốc Pharmacity, 123 Đ. Đề Thám, Tân An, Ninh Kiều, Cần Thơ","Tân An, Ninh Kiều",123 Đ. Đề Thám,Cần Thơ,,"Ninh Kiều, Cần Thơ",VN
35,ChIJpadH1YuJoDERin09wQXqwK0,Nhà thuốc Pharmacity,Cửa hàng bán thuốc,1800 6821,"Nhà thuốc Pharmacity, 610 Đ. 30 Tháng 4, Hưng Lợi, Ninh Kiều, Cần Thơ 900000","Hưng Lợi, Ninh Kiều",610 Đ. 30 Tháng 4,Cần Thơ,900000.0,"Ninh Kiều, Cần Thơ",VN
42,ChIJ5UJq9POJoDERSrR3ZCBymB4,Nhà thuốc Pharmacity,Cửa hàng bán thuốc,1800 6821,"Nhà thuốc Pharmacity, 81 Đ. 30 Tháng 4, Hưng Lợi, Ninh Kiều, Cần Thơ 700000","Hưng Lợi, Ninh Kiều",81 Đ. 30 Tháng 4,Cần Thơ,700000.0,"Ninh Kiều, Cần Thơ",VN
45,ChIJNZUry1WIoDERIr_6nT5UvZM,Nhà Thuốc Trung Sơn,Hiệu thuốc,0865 960 068,"Nhà Thuốc Trung Sơn, 379 Tổ 9, KV6, đường, Nguyễn Văn Cừ Nối Dài, An Bình, Ninh Kiều, Cần Thơ 900000","An Bình, Ninh Kiều","379 Tổ 9, KV6, đường, Nguyễn Văn Cừ Nối Dài",Cần Thơ,900000.0,"Ninh Kiều, Cần Thơ",VN
49,ChIJ_QU-3uVjoDERkVrVaZjUYKs,Nhà thuốc Pharmacity,Cửa hàng bán thuốc,1800 6821,"Nhà thuốc Pharmacity, 16 Nguyễn Thị Minh Khai, Tân An, Ninh Kiều, Cần Thơ","Tân An, Ninh Kiều",16 Nguyễn Thị Minh Khai,Cần Thơ,,"Ninh Kiều, Cần Thơ",VN
50,ChIJS_-HIKlioDERrc5LSfB4Ff0,Nhà Thuốc Trung Sơn,Hiệu thuốc,0865 827 068,"Nhà Thuốc Trung Sơn, 122a Trần Văn Khéo, Cái Khế, Ninh Kiều, Cần Thơ","Cái Khế, Ninh Kiều",122a Trần Văn Khéo,Cần Thơ,,"Ninh Kiều, Cần Thơ",VN
55,ChIJ9SYL-T2JoDERJxGZpl_HvT0,Nhà thuốc Pharmacity,Cửa hàng bán thuốc,1800 6821,"Nhà thuốc Pharmacity, 54A Hùng Vương, Phường, Ninh Kiều, Cần Thơ 900000","Phường, Ninh Kiều",54A Hùng Vương,Cần Thơ,900000.0,"Ninh Kiều, Cần Thơ",VN
58,ChIJBxAxU8mJoDERuGks-m4OO-4,Nhà Thuốc FPT Long Châu,Hiệu thuốc,1800 6928,"Nhà Thuốc FPT Long Châu, 125 Quang Trung, Xuân Khánh, Ninh Kiều, Cần Thơ 900000","Xuân Khánh, Ninh Kiều",125 Quang Trung,Cần Thơ,900000.0,"Ninh Kiều, Cần Thơ",VN
59,ChIJdTcqmY-JoDERpKxUI9OZHMo,Nhà Thuốc FPT Long Châu,Hiệu thuốc,1800 6928,"Nhà Thuốc FPT Long Châu, 312A-313 Nguyễn Văn Linh, P. An Khánh, Q. Ninh Kiều, TP. Cần Thơ Phường An Khánh Quận Ninh Kiều Can Tho City, 900000","Phường An Khánh, Ninh Kiều","312A-313 Nguyễn Văn Linh, P. An Khánh, Q. Ninh Kiều, TP. Cần Thơ Phường An Khánh Quận Ninh Kiều Can Tho City",Cần Thơ,900000.0,"Ninh Kiều, Cần Thơ",VN
67,ChIJOS7TXJ2JoDER1-qsppZSDZ0,Nhà Thuốc Trung Sơn,Hiệu thuốc,1800 558898,"Nhà Thuốc Trung Sơn, 171A/7 Nguyễn Văn Cừ Nối Dài, KV1, Ninh Kiều, Cần Thơ 900000","KV1, Ninh Kiều",171A/7 Nguyễn Văn Cừ Nối Dài,Cần Thơ,900000.0,"Ninh Kiều, Cần Thơ",VN
69,ChIJs8Dn3N2JoDERRoVkXLcvQZs,Nhà thuốc An Phát 176,Hiệu thuốc,0946 910 212,"Nhà thuốc An Phát 176, 176 Đ. Hoàng Quốc Việt, An Bình, Ninh Kiều, Cần Thơ","An Bình, Ninh Kiều",176 Đ. Hoàng Quốc Việt,Cần Thơ,,"Ninh Kiều, Cần Thơ",VN
74,ChIJP2_rP7KJoDERUEZF3Z041RM,Nhà thuốc Pharmacity,Cửa hàng bán thuốc,1800 6821,"Nhà thuốc Pharmacity, 9 Đ. Nguyễn Văn Linh, Phường An Khánh, Ninh Kiều, Cần Thơ 900000","Phường An Khánh, Ninh Kiều",9 Đ. Nguyễn Văn Linh,Cần Thơ,900000.0,"Ninh Kiều, Cần Thơ",VN
76,ChIJcYZ8UyCJoDERpiJNnYekhrw,Nhà Thuốc Tấn Minh,Hiệu thuốc,0937 556 655,"Nhà Thuốc Tấn Minh, 232 Đường D4, Hưng Thành, Cái Răng, Cần Thơ 94000","Hưng Thành, Cái Răng",232 Đường D4,Cần Thơ,94000.0,"Cái Răng, Cần Thơ",VN
78,ChIJ9xp5Oi2JoDERE_JWl22vf4k,Nhà thuốc Pharmacity,Cửa hàng bán thuốc,1800 6821,"Nhà thuốc Pharmacity, 65B Đ. Cách Mạng Tháng 8, Thới Bình, Ninh Kiều, Cần Thơ","Thới Bình, Ninh Kiều",65B Đ. Cách Mạng Tháng 8,Cần Thơ,,"Ninh Kiều, Cần Thơ",VN
79,ChIJZxvfggaIoDERC803FqTkbgs,Nhà Thuốc Trung Sơn,Hiệu thuốc,0865 942 068,"Nhà Thuốc Trung Sơn, 36/50 Đ. Trần Việt Châu, An Hoà, Ninh Kiều, Cần Thơ 920000","An Hoà, Ninh Kiều",36/50 Đ. Trần Việt Châu,Cần Thơ,920000.0,"Ninh Kiều, Cần Thơ",VN
80,ChIJdwjGAWKHoDER3KNjLaeCVSo,Nhà Thuốc Trung Sơn,Hiệu thuốc,0865 932 068,"Nhà Thuốc Trung Sơn, 23 Đ. Cách Mạng Tháng 8, An Thới, Bình Thủy, Cần Thơ 900000","An Thới, Bình Thủy",23 Đ. Cách Mạng Tháng 8,Cần Thơ,900000.0,"Bình Thủy, Cần Thơ",VN
89,ChIJ4_oKw7CJoDERvIdLbOB53jM,Nhà Thuốc Trung Sơn,Hiệu thuốc,1800 558898,"Nhà Thuốc Trung Sơn, KV, Nguyễn Trãi/562 Yên Hạ, Lê Bình, Cái Răng, Cần Thơ 900000","Lê Bình, Cái Răng","KV, Nguyễn Trãi/562 Yên Hạ",Cần Thơ,900000.0,"Cái Răng, Cần Thơ",VN
90,ChIJW1k6mkmJoDERswtra0wJkbw,Nhà Thuốc FPT Long Châu,Hiệu thuốc,1800 6928,"Nhà Thuốc FPT Long Châu, LK3, 01 Nguyễn Văn Cừ Nối Dài, An Bình, Bình Thủy, Cần Thơ 900000","An Bình, Bình Thủy","LK3, 01 Nguyễn Văn Cừ Nối Dài",Cần Thơ,900000.0,"Bình Thủy, Cần Thơ",VN
92,ChIJLY5RzCmJoDERpBh-4FYtmrM,Nhà thuốc Pharmacity,Cửa hàng bán thuốc,1800 6821,"Nhà thuốc Pharmacity, 715 Đ. 3 Tháng 2, An Bình, Ninh Kiều, Cần Thơ","An Bình, Ninh Kiều",715 Đ. 3 Tháng 2,Cần Thơ,,"Ninh Kiều, Cần Thơ",VN
94,ChIJ1Z_hHWaJoDERfP27-iKDpIA,Nhà thuốc Pharmacity,Cửa hàng bán thuốc,1800 6821,"Nhà thuốc Pharmacity, 224 đường Đ. 3 Tháng 2, Hưng Lợi, Ninh Kiều, Cần Thơ","Hưng Lợi, Ninh Kiều",224 đường Đ. 3 Tháng 2,Cần Thơ,,"Ninh Kiều, Cần Thơ",VN
95,ChIJI7IyJWqJoDERH23g91drmRM,Nhà Thuốc Trung Sơn,Hiệu thuốc,1800 558898,"Nhà Thuốc Trung Sơn, Số 47B Đ. 3 Tháng 2, Xuân Khánh, Ninh Kiều, Cần Thơ 94000","Xuân Khánh, Ninh Kiều",Số 47B Đ. 3 Tháng 2,Cần Thơ,94000.0,"Ninh Kiều, Cần Thơ",VN
101,ChIJ4eVi9MaJoDER-ocauti9uC0,Nhà thuốc Pharmacity,Cửa hàng bán thuốc,1800 6821,"Nhà thuốc Pharmacity, 133 -135A đường Nguyễn Văn Cừ, Khu vực 2, Phường An Bình, Ninh Kiều Cần Thơ Can Tho City, 94118","Phường An Khánh, Ninh Kiều","133 -135A đường Nguyễn Văn Cừ, Khu vực 2, Phường An Bình, Ninh Kiều Cần Thơ Can Tho City",Cần Thơ,94118.0,"Ninh Kiều, Cần Thơ",VN
110,ChIJiX4WMxOJoDERp7BvEOD-QOI,Nhà thuốc Pharmacity,Cửa hàng bán thuốc,1800 6821,"Nhà thuốc Pharmacity, 164/2 Đ. Phạm Hùng, Lê Bình, Cái Răng, Cần Thơ 94906","Lê Bình, Cái Răng",164/2 Đ. Phạm Hùng,Cần Thơ,94906.0,"Cái Răng, Cần Thơ",VN
117,ChIJZZdVQaGJoDER8V-LjPayYwU,Nhà Thuốc FPT Long Châu,Hiệu thuốc,1800 6928,"Nhà Thuốc FPT Long Châu, 20-22 Lý Tự Trọng, P. An Cư, Q. Ninh Kiều, TP. Cần Thơ Phường An Cư Quận Ninh Kiều Can Tho City, 900000","An Lạc, Ninh Kiều","20-22 Lý Tự Trọng, P. An Cư, Q. Ninh Kiều, TP. Cần Thơ Phường An Cư Quận Ninh Kiều Can Tho City",Cần Thơ,900000.0,"Ninh Kiều, Cần Thơ",VN
120,ChIJMcqd1IiJoDERra_AfwO8zJw,Nhà thuốc Pharmacity,Cửa hàng bán thuốc,1800 6821,"Nhà thuốc Pharmacity, 84 Bis Đ. Mậu Thân, An Hoà, Ninh Kiều, Cần Thơ 900000","An Hoà, Ninh Kiều",84 Bis Đ. Mậu Thân,Cần Thơ,900000.0,"Ninh Kiều, Cần Thơ",VN
123,ChIJtVAfw6-JoDERSuV_rnqog0Y,Nhà thuốc Trung Sơn 90,Hiệu thuốc,0862 960 068,"Nhà thuốc Trung Sơn 90, Số 96 Đ. 3 Tháng 2, Xuân Khánh, Ninh Kiều, Cần Thơ 900000","Xuân Khánh, Ninh Kiều",Số 96 Đ. 3 Tháng 2,Cần Thơ,900000.0,"Ninh Kiều, Cần Thơ",VN
125,ChIJPeNlai6JoDERYnguOZqDnUo,Nhà thuốc An Khang,Hiệu thuốc,1900 1572,"Nhà thuốc An Khang, 311 Đ. Nguyễn Văn Linh, Phường An Khánh, Ninh Kiều, Cần Thơ 94000","Phường An Khánh, Ninh Kiều",311 Đ. Nguyễn Văn Linh,Cần Thơ,94000.0,"Ninh Kiều, Cần Thơ",VN
127,ChIJ9ZFq9CeJoDER-EYZb7DDFxY,Nhà Thuốc Trung Sơn,Hiệu thuốc,1800 558898,"Nhà Thuốc Trung Sơn, 166 Đ. Phạm Hùng, Lê Bình, Cái Răng, Cần Thơ 900000","Lê Bình, Cái Răng",166 Đ. Phạm Hùng,Cần Thơ,900000.0,"Cái Răng, Cần Thơ",VN
136,ChIJ-wj2QlmJoDER_-mMOcCYXdM,Nhà thuốc Pharmacity,Cửa hàng bán thuốc,1800 6821,"Nhà thuốc Pharmacity, 76 Đ. Lý Tự Trọng, An Cư, Ninh Kiều, Cần Thơ","An Cư, Ninh Kiều",76 Đ. Lý Tự Trọng,Cần Thơ,,"Ninh Kiều, Cần Thơ",VN
138,ChIJxTJ8ah2JoDERJOKLnHcogYE,NHÀ THUỐC HUỲNH PHƯƠNG,Hiệu thuốc,0292 3894 035,"NHÀ THUỐC HUỲNH PHƯƠNG, 139 Đ. Trần Việt Châu, An Hoà, Ninh Kiều, Cần Thơ 900000","An Hoà, Ninh Kiều",139 Đ. Trần Việt Châu,Cần Thơ,900000.0,"Ninh Kiều, Cần Thơ",VN
139,ChIJWYTPUCGIoDERZVIvg5Fe-3c,Nhà Thuốc Cần Thơ,Hiệu thuốc,0292 3884 999,"Nhà Thuốc Cần Thơ, 3 Đ. Mậu Thân, Xuân Khánh, Ninh Kiều, Cần Thơ","Xuân Khánh, Ninh Kiều",3 Đ. Mậu Thân,Cần Thơ,,"Ninh Kiều, Cần Thơ",VN
140,ChIJrcPPM1NjoDERRn_gw8G_Aj0,Nhà thuốc Pharmacity,Cửa hàng bán thuốc,1800 6821,"Nhà thuốc Pharmacity, 40 Trần Văn Khéo, An Hội, Ninh Kiều, Cần Thơ","An Hội, Ninh Kiều",40 Trần Văn Khéo,Cần Thơ,,"Ninh Kiều, Cần Thơ",VN
160,ChIJMSbdSZ-JoDERJyP_bHyab3Y,Nhà Thuốc Trung Sơn,Hiệu thuốc,0865 941 068,"Nhà Thuốc Trung Sơn, 17B Đ. Nguyễn Văn Linh, Hưng Lợi, Ninh Kiều, Cần Thơ 900000","Hưng Lợi, Ninh Kiều",17B Đ. Nguyễn Văn Linh,Cần Thơ,900000.0,"Ninh Kiều, Cần Thơ",VN
161,ChIJV3Gb4sGJoDERal_824Capq0,Nhà thuốc Pharmacity,Cửa hàng bán thuốc,1800 6821,"Nhà thuốc Pharmacity, 56 Đ. 3 Tháng 2, Hưng Lợi, Ninh Kiều, Cần Thơ 900000","Hưng Lợi, Ninh Kiều",56 Đ. 3 Tháng 2,Cần Thơ,900000.0,"Ninh Kiều, Cần Thơ",VN
164,ChIJhdvn0IiJoDERg8iQ57giuHo,Wellcare Pharmacy - Nhà thuốc Wellcare chi nhánh Cần Thơ,Hiệu thuốc,0336 455 839,"Wellcare Pharmacy - Nhà thuốc Wellcare chi nhánh Cần Thơ, 224A Đ. Trần Hưng Đạo, An Nghiệp, Ninh Kiều, Cần Thơ 90000","An Nghiệp, Ninh Kiều",224A Đ. Trần Hưng Đạo,Cần Thơ,90000.0,"Ninh Kiều, Cần Thơ",VN
170,ChIJWfgRxdSJoDERw3yJZ631sDA,Nhà Thuốc FPT Long Châu,Hiệu thuốc,1800 6928,"Nhà Thuốc FPT Long Châu, 1705 Đ. Bùi Hữu Nghĩa, Long Tuyền, Bình Thủy, Cần Thơ","Long Tuyền, Bình Thủy",1705 Đ. Bùi Hữu Nghĩa,Cần Thơ,,"Bình Thủy, Cần Thơ",VN
171,ChIJH825paFioDERjFLqYNgoPeI,Nhà thuốc Trung Sơn,Hiệu thuốc,1800 558898,"Nhà thuốc Trung Sơn, 190 Đường Nguyễn An Ninh, An Lạc, Ninh Kiều, Cần Thơ 920000","An Lạc, Ninh Kiều",190 Đường Nguyễn An Ninh,Cần Thơ,920000.0,"Ninh Kiều, Cần Thơ",VN
172,ChIJb-UqBphioDERpVaE0uUFzd0,Nhà Thuốc Khánh Trang,Hiệu thuốc,0292 3836 366,"Nhà Thuốc Khánh Trang, 962 TO 10 KV2 962 Tổ 10, KV2, Cần Thơ 70000","KV2, Cái Răng",962 TO 10 KV2 962 Tổ 10,Cần Thơ,70000.0,"Cái Răng, Cần Thơ",VN
173,ChIJSzOA2teJoDEREWC4YtFAWrw,Nhà Thuốc FPT Long Châu,Hiệu thuốc,1800 6928,"Nhà Thuốc FPT Long Châu, 102 Đ. Trần Hưng Đạo, An Phú, Ninh Kiều, Cần Thơ","An Phú, Ninh Kiều",102 Đ. Trần Hưng Đạo,Cần Thơ,,"Ninh Kiều, Cần Thơ",VN
176,ChIJLSH87RGIoDERLVojE2L9rsk,Nhà Thuốc Trung Sơn,Hiệu thuốc,1800 558898,"Nhà Thuốc Trung Sơn, 97A Đ. Mậu Thân, An Hoà, Ninh Kiều, Cần Thơ 900000","An Hoà, Ninh Kiều",97A Đ. Mậu Thân,Cần Thơ,900000.0,"Ninh Kiều, Cần Thơ",VN
178,ChIJMeFtY9yJoDERAOA1rFQz8gQ,Nhà Thuốc Trung Sơn,Hiệu thuốc,1800 558898,"Nhà Thuốc Trung Sơn, 399 Nguyễn Văn Cừ Nối Dài, Phường An Khánh, Ninh Kiều, Cần Thơ 900000","Phường An Khánh, Ninh Kiều",399 Nguyễn Văn Cừ Nối Dài,Cần Thơ,900000.0,"Ninh Kiều, Cần Thơ",VN
184,ChIJGb3DwluJoDER1HlhYWle7RI,Nhà Thuốc Trung Sơn,Hiệu thuốc,0866 735 068,"Nhà Thuốc Trung Sơn, 412 Đ. Nguyễn Văn Cừ, An Hoà, Ninh Kiều, Cần Thơ 900000","An Hoà, Ninh Kiều",412 Đ. Nguyễn Văn Cừ,Cần Thơ,900000.0,"Ninh Kiều, Cần Thơ",VN
185,ChIJL7QsWDN9oDER5SLI-WmyUz4,Nhà Thuốc Mỹ Xuân,Hiệu thuốc,,"Nhà Thuốc Mỹ Xuân, Tổ 12 Khóm 1 Phường Thành Phước, Tx. Bình Minh, Vĩnh Long 85509","Cái Vồn, Thị xã Bình Minh",Tổ 12 Khóm 1 Phường Thành Phước,Vĩnh Long,85509.0,"Tx. Bình Minh, Vĩnh Long",VN
189,ChIJX-eKqJWJoDERTkcz77astWA,Nhà Thuốc Trung Sơn,Hiệu thuốc,0865 574 168,"Nhà Thuốc Trung Sơn, 457 Đ. 30 Tháng 4, Hưng Lợi, Ninh Kiều, Cần Thơ","Hưng Lợi, Ninh Kiều",457 Đ. 30 Tháng 4,Cần Thơ,,"Ninh Kiều, Cần Thơ",VN
191,ChIJedr5WaWJoDEROChSFCBzZNg,Nhà thuốc Trinh Trinh,Hiệu thuốc,0918 864 499,"Nhà thuốc Trinh Trinh, Số 370 Đ. 30 Tháng 4, Xuân Khánh, Ninh Kiều, Cần Thơ","Xuân Khánh, Ninh Kiều",Số 370 Đ. 30 Tháng 4,Cần Thơ,,"Ninh Kiều, Cần Thơ",VN
194,ChIJB30kbSCIoDER4QpWFwpjvh4,NHÀ THUỐC PHƯỚC BẢO,Hiệu thuốc,0292 3898 471,"NHÀ THUỐC PHƯỚC BẢO, 22/1, KV3, Ninh Kiều, Cần Thơ 900000","KV3, Ninh Kiều",22/1,Cần Thơ,900000.0,"Ninh Kiều, Cần Thơ",VN
196,ChIJY-Q5UzaHoDERPLUl_88Fipc,Nhà Thuốc FPT Long Châu,Hiệu thuốc,1800 6928,"Nhà Thuốc FPT Long Châu, 294A Đ. Cách Mạng Tháng 8, Bùi Hữu Nghĩa, Bình Thủy, Cần Thơ","Bùi Hữu Nghĩa, Bình Thủy",294A Đ. Cách Mạng Tháng 8,Cần Thơ,,"Bình Thủy, Cần Thơ",VN
197,ChIJH4IV4ixjoDERcw2oUvYuY64,Nhà Thuốc Trung Sơn,Hiệu thuốc,1800 558898,"Nhà Thuốc Trung Sơn, 194 Phan Đình Phùng, Tân An, Ninh Kiều, Cần Thơ 920000","Tân An, Ninh Kiều",194 Phan Đình Phùng,Cần Thơ,920000.0,"Ninh Kiều, Cần Thơ",VN
198,ChIJJa2Mm5mJoDER52RueCvY3Vc,Nhà Thuốc Trung Sơn,Hiệu thuốc,0866 549 068,"Nhà Thuốc Trung Sơn, 109A, Xô Viết Nghệ Tĩnh, phường An Cư, quận Ninh Kiều, TP Cần Thơ Cần Thơ Can Tho City, 920000","An Hội, Ninh Kiều","109A, Xô Viết Nghệ Tĩnh, phường An Cư, quận Ninh Kiều, TP Cần Thơ Cần Thơ Can Tho City",Cần Thơ,920000.0,"Ninh Kiều, Cần Thơ",VN
199,ChIJ5edveu-JoDER7rJ_5JqdXng,Nhà Thuốc FPT Long Châu,Hiệu thuốc,1800 6928,"Nhà Thuốc FPT Long Châu, 112 Đ. Mậu Thân, An Nghiệp, Ninh Kiều, Cần Thơ","An Nghiệp, Ninh Kiều",112 Đ. Mậu Thân,Cần Thơ,,"Ninh Kiều, Cần Thơ",VN
202,ChIJAQiidN2JoDERh113sAkJoIE,Nhà Thuốc Ngọc Luân,Hiệu thuốc,0352 338 456,"Nhà Thuốc Ngọc Luân, 152C1/16 Hẻm liên tổ 12-20, Đường Đ. Nguyễn Văn Cừ, Phường An Khánh, Ninh Kiều, Cần Thơ","Phường An Khánh, Ninh Kiều","152C1/16 Hẻm liên tổ 12-20, Đường Đ. Nguyễn Văn Cừ",Cần Thơ,,"Ninh Kiều, Cần Thơ",VN
203,ChIJR607XDCJoDERYRT7_lPOtvw,Nhà Thuốc Bình Châu,Hiệu thuốc,0969 000 369,"Nhà Thuốc Bình Châu, 10 Đ. Nguyễn Văn Linh, Phường An Khánh, Ninh Kiều, Cần Thơ","Phường An Khánh, Ninh Kiều",10 Đ. Nguyễn Văn Linh,Cần Thơ,,"Ninh Kiều, Cần Thơ",VN
205,ChIJs87_cjqJoDER32dqN7evfSQ,Nhà Thuốc FPT Long Châu,Hiệu thuốc,1800 6928,"Nhà Thuốc FPT Long Châu, 302A1/12, Đ. Nguyễn Văn Linh, Phường An Khánh, Ninh Kiều, Cần Thơ","Phường An Khánh, Ninh Kiều","302A1/12, Đ. Nguyễn Văn Linh",Cần Thơ,,"Ninh Kiều, Cần Thơ",VN
208,ChIJHcf6dSuJoDERROwX2TrPFRA,Nhà thuốc An Khang,Hiệu thuốc,1900 1572,"Nhà thuốc An Khang, 1 Đ. Nguyễn Hiền, Hưng Lợi, Ninh Kiều, Cần Thơ 94000","Hưng Lợi, Ninh Kiều",1 Đ. Nguyễn Hiền,Cần Thơ,94000.0,"Ninh Kiều, Cần Thơ",VN
210,ChIJK8t6R4eJoDERpCHXNZGtUtY,Nhà Thuốc Trung Sơn,Hiệu thuốc,0292 3872 666,"Nhà Thuốc Trung Sơn, 108 Hẻm 132 Đ. 3 Tháng 2, Hưng Lợi, Ninh Kiều, Cần Thơ 940000","Hưng Lợi, Ninh Kiều",108 Hẻm 132 Đ. 3 Tháng 2,Cần Thơ,940000.0,"Ninh Kiều, Cần Thơ",VN
219,ChIJ8Vu31GaJoDERssXch4E72MA,Nhà thuốc An Khang,Hiệu thuốc,1900 1572,"Nhà thuốc An Khang, 14 Đ. Cách Mạng Tháng 8, Cái Khế, Ninh Kiều, Cần Thơ 70000","Cái Khế, Ninh Kiều",14 Đ. Cách Mạng Tháng 8,Cần Thơ,70000.0,"Ninh Kiều, Cần Thơ",VN
220,ChIJUXF_u2mHoDERRvYD1lDn-GY,Nhà thuốc An Khang,Hiệu thuốc,1900 1572,"Nhà thuốc An Khang, 292 Đ. Cách Mạng Tháng 8, Bùi Hữu Nghĩa, Bình Thủy, Cần Thơ 900000","Bùi Hữu Nghĩa, Bình Thủy",292 Đ. Cách Mạng Tháng 8,Cần Thơ,900000.0,"Bình Thủy, Cần Thơ",VN
221,ChIJ6707M4djoDERX5lo72f85m4,Nhà thuốc An Khang,Hiệu thuốc,1900 1572,"Nhà thuốc An Khang, 4 Trần Văn Khéo, An Hội, Ninh Kiều, Cần Thơ 94000","An Hội, Ninh Kiều",4 Trần Văn Khéo,Cần Thơ,94000.0,"Ninh Kiều, Cần Thơ",VN
229,ChIJx95NkmuIoDERUZeKpKBDJIk,Nhà Thuốc Công Thắng,Hiệu thuốc,0292 3821 339,"Nhà Thuốc Công Thắng, Số 2 đường 18, Phường An Khánh, Ninh Kiều, Cần Thơ","Phường An Khánh, Ninh Kiều",Số 2 đường 18,Cần Thơ,,"Ninh Kiều, Cần Thơ",VN
232,ChIJYcQe7VGJoDERTVi_eigFeh4,Nhà thuốc An Khang,Hiệu thuốc,1900 1572,"Nhà thuốc An Khang, Khu vực 2, Đ. Nguyễn Văn Cừ, Phường An Khánh, Ninh Kiều, Cần Thơ 94000","Phường An Khánh, Ninh Kiều","Khu vực 2, Đ. Nguyễn Văn Cừ",Cần Thơ,94000.0,"Ninh Kiều, Cần Thơ",VN
233,ChIJC9AhF3GJoDERGgO7IU8GUdg,Nhà thuốc An Khang,Hiệu thuốc,1900 1572,"Nhà thuốc An Khang, 76 Nguyễn Văn Cừ Nối Dài, An Bình, Ninh Kiều, Cần Thơ 700000","An Bình, Ninh Kiều",76 Nguyễn Văn Cừ Nối Dài,Cần Thơ,700000.0,"Ninh Kiều, Cần Thơ",VN
234,ChIJKZCDK7mJoDERPPKBzQnUtGE,Nhà Thuốc FPT Long Châu,Hiệu thuốc,1800 6928,"Nhà Thuốc FPT Long Châu, 24 Đ. Nguyễn Hiền, Hưng Lợi, Ninh Kiều, Cần Thơ","Hưng Lợi, Ninh Kiều",24 Đ. Nguyễn Hiền,Cần Thơ,,"Ninh Kiều, Cần Thơ",VN
235,ChIJjyl8JJCJoDERGNPFgZLf4fQ,Nhà thuốc Hồng Ngân Ninh Kiều,Hiệu thuốc,0919 750 574,"Nhà thuốc Hồng Ngân Ninh Kiều, 82 Đ. Trần Hoàng Na, Khu dân cư 91B, Ninh Kiều, Cần Thơ 00000","Khu dân cư 91B, Ninh Kiều",82 Đ. Trần Hoàng Na,Cần Thơ,0.0,"Ninh Kiều, Cần Thơ",VN
236,ChIJu9e_1R2JoDERctJXmC3mIUw,Nhà Thuốc ĐẠT PHÁT,Cửa hàng bán thuốc,0901 061 159,"Nhà Thuốc ĐẠT PHÁT, 246b/6 khu vực 5, An Bình, Ninh Kiều, Cần Thơ 90000","An Bình, Ninh Kiều",246b/6 khu vực 5,Cần Thơ,90000.0,"Ninh Kiều, Cần Thơ",VN
249,ChIJd5d7h8SJoDERpZPaLGKU74k,Nhà Thuốc Trung Sơn,Hiệu thuốc,0866 519 068,"Nhà Thuốc Trung Sơn, Tp, 12 Đ. Cách Mạng Tháng 8, Cái Khế, Ninh Kiều, Cần Thơ","Cái Khế, Ninh Kiều","Tp, 12 Đ. Cách Mạng Tháng 8",Cần Thơ,,"Ninh Kiều, Cần Thơ",VN
250,ChIJecCxy7SJoDERPfYIL2hvoaU,NHÀ THUỐC HUỲNH THY,Hiệu thuốc,0848 107 772,"NHÀ THUỐC HUỲNH THY, 6 Đ. Nguyễn Văn Cừ, An Hoà, Ninh Kiều, Cần Thơ","An Hoà, Ninh Kiều",6 Đ. Nguyễn Văn Cừ,Cần Thơ,,"Ninh Kiều, Cần Thơ",VN
251,ChIJcWuzPA6IoDERUyxBrqrtGts,Nhà thuốc An Phúc,Hiệu thuốc,0909 556 325,"Nhà thuốc An Phúc, 482 Đ. Nguyễn Văn Cừ, An Hoà, Ninh Kiều, Cần Thơ 90000","An Hoà, Ninh Kiều",482 Đ. Nguyễn Văn Cừ,Cần Thơ,90000.0,"Ninh Kiều, Cần Thơ",VN
252,ChIJsYEY8AaHoDERAd5MkAhoj7A,Nhà thuốc An Khang,Hiệu thuốc,1900 1572,"Nhà thuốc An Khang, 563A Trần Quang Diệu, An Thới, Bình Thủy, Cần Thơ 94000","An Thới, Bình Thủy",563A Trần Quang Diệu,Cần Thơ,94000.0,"Bình Thủy, Cần Thơ",VN
253,ChIJg0bRWcpjoDERJ2BXC1i7XF0,Nhà Thuốc Trung Sơn,Hiệu thuốc,0866 453 168,"Nhà Thuốc Trung Sơn, 70 Đường Hai Bà Trưng, Tân An, Ninh Kiều, Cần Thơ 900000","Tân An, Ninh Kiều",70 Đường Hai Bà Trưng,Cần Thơ,900000.0,"Ninh Kiều, Cần Thơ",VN
268,ChIJi-FPB--JoDER-wnRchm7OO8,NHÀ THUỐC NHÃ THY,Hiệu thuốc,0292 6506 677,"NHÀ THUỐC NHÃ THY, 30/1 Đ. Nguyễn Văn Cừ, An Hoà, Ninh Kiều, Cần Thơ","An Hoà, Ninh Kiều",30/1 Đ. Nguyễn Văn Cừ,Cần Thơ,,"Ninh Kiều, Cần Thơ",VN
272,ChIJa2DLBWSJoDERrQ5XK5Go4UQ,Nhà thuốc An Khang,Hiệu thuốc,1900 1572,"Nhà thuốc An Khang, Cạnh 141, Khu vực 2, Ninh Kiều, Cần Thơ 94000","Khu vực 2, Ninh Kiều",Cạnh 141,Cần Thơ,94000.0,"Ninh Kiều, Cần Thơ",VN
277,ChIJv710e7iJoDERyUGZW0uzf48,Nhà Thuốc Trung Sơn,Hiệu thuốc,0292 3644 468,"Nhà Thuốc Trung Sơn, Số 197AA, Đ. Nguyễn Văn Cừ, KV2, Ninh Kiều, Cần Thơ 920000","KV2, Ninh Kiều","Số 197AA, Đ. Nguyễn Văn Cừ",Cần Thơ,920000.0,"Ninh Kiều, Cần Thơ",VN
282,ChIJvWvKaVqHoDERWHLUzE62OVo,Nhà thuốc An Khang,Hiệu thuốc,1900 1572,"Nhà thuốc An Khang, Nguyễn Chí Thanh, Trà Nóc, Bình Thủy, Cần Thơ 700000","Trà Nóc, Bình Thủy",Nguyễn Chí Thanh,Cần Thơ,700000.0,"Bình Thủy, Cần Thơ",VN
287,ChIJgf7NbeCJoDERxoYi5JdH1YI,Nhà Thuốc Trung Sơn,Hiệu thuốc,0865 841 068,"Nhà Thuốc Trung Sơn, Số 02 Đ. Nguyễn Hiền, Khu dân cư 91B, Ninh Kiều, Cần Thơ 920000","Khu dân cư 91B, Ninh Kiều",Số 02 Đ. Nguyễn Hiền,Cần Thơ,920000.0,"Ninh Kiều, Cần Thơ",VN
292,ChIJz6adz_OJoDERIxP6mEEWMhI,Nhà Thuốc Trung Sơn,Hiệu thuốc,0842 381 968,"Nhà Thuốc Trung Sơn, 30N Đ. Mậu Thân, An Phú, Ninh Kiều, Cần Thơ 900000","An Phú, Ninh Kiều",30N Đ. Mậu Thân,Cần Thơ,900000.0,"Ninh Kiều, Cần Thơ",VN
294,ChIJ1ZUbTGSJoDERGLifrVXLDKs,Nhà thuốc Tô Gia,Cửa hàng bán thuốc,0919 130 117,"Nhà thuốc Tô Gia, Số 11 Đ. 30 Tháng 4, An Lạc, Ninh Kiều, Cần Thơ","An Lạc, Ninh Kiều",Số 11 Đ. 30 Tháng 4,Cần Thơ,,"Ninh Kiều, Cần Thơ",VN
296,ChIJxSOMuLqJoDER06wjuybi0YI,Nhà Thuốc Trung Sơn,Hiệu thuốc,0816 629 090,"Nhà Thuốc Trung Sơn, 28 Đ. 30 Tháng 4, An Lạc, Ninh Kiều, Cần Thơ","An Lạc, Ninh Kiều",28 Đ. 30 Tháng 4,Cần Thơ,,"Ninh Kiều, Cần Thơ",VN
299,ChIJ03YeGASIoDER8jL9jfql8tg,Nhà Thuốc Đình Yên,Hiệu thuốc,0292 3831 174,"Nhà Thuốc Đình Yên, An Hòa, Ninh Kiều, Cần Thơ","An Hòa, Ninh Kiều",,Cần Thơ,,"Ninh Kiều, Cần Thơ",VN
306,ChIJaweSqQaIoDERKztCRHrJXlU,Nhà Thuốc Trung Sơn 3,Hiệu thuốc,,"Nhà Thuốc Trung Sơn 3, 2 Đ. Cách Mạng Tháng 8, Cái Khế, Ninh Kiều, Cần Thơ","Cái Khế, Ninh Kiều",2 Đ. Cách Mạng Tháng 8,Cần Thơ,,"Ninh Kiều, Cần Thơ",VN
310,ChIJs9Ve_WeIoDEREKdC72ywbck,Nhà Thuốc Tài An,Hiệu thuốc,0947 456 740,"Nhà Thuốc Tài An, 302 Đ. Nguyễn Văn Linh, Phường An Khánh, Ninh Kiều, Cần Thơ","Phường An Khánh, Ninh Kiều",302 Đ. Nguyễn Văn Linh,Cần Thơ,,"Ninh Kiều, Cần Thơ",VN
311,ChIJHdRTsdCHoDERf_vl4lHltYw,NHÀ THUỐC KHOA DƯỢC,Hiệu thuốc,,"NHÀ THUỐC KHOA DƯỢC, Bình Thuỷ, Bình Thủy, Cần Thơ","Bình Thuỷ, Bình Thủy",,Cần Thơ,,"Bình Thủy, Cần Thơ",VN
325,ChIJF3el9KFioDERhtrOgMzdW6g,Nhà Thuốc Vạn Tế Sanh,Hiệu thuốc,0292 3820 435,"Nhà Thuốc Vạn Tế Sanh, 4 Đ. Lê Thánh Tôn, Tân An, Ninh Kiều, Cần Thơ","Tân An, Ninh Kiều",4 Đ. Lê Thánh Tôn,Cần Thơ,,"Ninh Kiều, Cần Thơ",VN
327,ChIJq6g0uwKIoDERadc4iOgxpxU,Nhà Thuốc,Hiệu thuốc,0292 3761 463,"Nhà Thuốc, 4A Nguyễn Trãi, An Hội, Ninh Kiều, Cần Thơ","An Hội, Ninh Kiều",4A Nguyễn Trãi,Cần Thơ,,"Ninh Kiều, Cần Thơ",VN
333,ChIJLVKZxSCIoDERrXKcM7nFn1I,Nhà Thuốc Bình Tân 2,Hiệu thuốc,0292 3753 899,"Nhà Thuốc Bình Tân 2, 83 Quang Trung, An Lạc, Ninh Kiều, Cần Thơ","An Lạc, Ninh Kiều",83 Quang Trung,Cần Thơ,,"Ninh Kiều, Cần Thơ",VN
340,ChIJsSwgZzGIoDER4EHUFZQJ-UY,Nhà Thuốc Kim Lợi,Hiệu thuốc,,"Nhà Thuốc Kim Lợi, 192 Đ. 30 Tháng 4, Hưng Lợi, Ninh Kiều, Cần Thơ","Hưng Lợi, Ninh Kiều",192 Đ. 30 Tháng 4,Cần Thơ,,"Ninh Kiều, Cần Thơ",VN
346,ChIJXUvfLqJioDER3wT_YFCVars,Nhà thuốc Vạn Tế Hưng - Đặc trị tiểu đường,Hiệu thuốc,0967 778 688,"Nhà thuốc Vạn Tế Hưng - Đặc trị tiểu đường, 22 Đ. Thủ Khoa Huân, Tân An, Ninh Kiều, Cần Thơ","Tân An, Ninh Kiều",22 Đ. Thủ Khoa Huân,Cần Thơ,,"Ninh Kiều, Cần Thơ",VN
350,ChIJIQ8W_AaIoDERaRkSGBHjM_8,Nhà Thuốc Y Học Cổ Truyền Tế Sanh Đường,Hiệu thuốc,0292 3827 483,"Nhà Thuốc Y Học Cổ Truyền Tế Sanh Đường, 43 Đ. Nguyễn Văn Cừ, An Hoà, Ninh Kiều, Cần Thơ","An Hoà, Ninh Kiều",43 Đ. Nguyễn Văn Cừ,Cần Thơ,,"Ninh Kiều, Cần Thơ",VN
351,ChIJe_BciqFioDERQ2MRRZXXWKs,Nhà Thuốc Y Học Cổ Truyền Trường Thọ Đường,Hiệu thuốc,0292 3821 759,"Nhà Thuốc Y Học Cổ Truyền Trường Thọ Đường, 22 Đ. Ngô Quyền, Tân An, Ninh Kiều, Cần Thơ","Tân An, Ninh Kiều",22 Đ. Ngô Quyền,Cần Thơ,,"Ninh Kiều, Cần Thơ",VN
352,ChIJI46A9KFioDERei1JSa9-tu8,Nhà Thuốc Vạn Trường Sanh,Hiệu thuốc,0913 759 636,"Nhà Thuốc Vạn Trường Sanh, Đường Đ. Lê Thánh Tôn, Tân An, Ninh Kiều, Cần Thơ","Tân An, Ninh Kiều",Đường Đ. Lê Thánh Tôn,Cần Thơ,,"Ninh Kiều, Cần Thơ",VN
359,ChIJKdRwAeSHoDERaOrtXKn4he4,Nhà Thuốc An Thới,Hiệu thuốc,0292 3883 297,"Nhà Thuốc An Thới, 294 Đ. Cách Mạng Tháng 8, Bùi Hữu Nghĩa, Bình Thủy, Cần Thơ","Bùi Hữu Nghĩa, Bình Thủy",294 Đ. Cách Mạng Tháng 8,Cần Thơ,,"Bình Thủy, Cần Thơ",VN
360,ChIJp1ZdNUGIoDER7Jpp_qSaepQ,Nhà Thuốc Thái Hân,Hiệu thuốc,0292 3739 446,"Nhà Thuốc Thái Hân, 313 Đ. Nguyễn Văn Linh, Phường An Khánh, Ninh Kiều, Cần Thơ","Phường An Khánh, Ninh Kiều",313 Đ. Nguyễn Văn Linh,Cần Thơ,,"Ninh Kiều, Cần Thơ",VN
361,ChIJF2oj6Z9ioDERfGmxuaPs1eA,Nhà Thuốc Mai Lưu,Hiệu thuốc,0292 3828 793,"Nhà Thuốc Mai Lưu, 178 Đường Nguyễn An Ninh, An Lạc, Ninh Kiều, Cần Thơ 900000","An Lạc, Ninh Kiều",178 Đường Nguyễn An Ninh,Cần Thơ,900000.0,"Ninh Kiều, Cần Thơ",VN
370,ChIJDyHlbAyJoDERrjNGIcb9zrQ,Nhà Thuốc Anh Huy,Hiệu thuốc,,"Nhà Thuốc Anh Huy, 87 ĐT923, Mỹ Khánh, Phong Điền, Cần Thơ","Mỹ Khánh, Phong Điền",87 ĐT923,Cần Thơ,,"Phong Điền, Cần Thơ",VN
380,ChIJVYrBap9ioDERj0U7UTfH_z4,Nhà Thuốc Mai Thảo,Hiệu thuốc,0292 3820 414,"Nhà Thuốc Mai Thảo, 31 Đường Châu Văn Liêm, Tân An, Ninh Kiều, Cần Thơ","Tân An, Ninh Kiều",31 Đường Châu Văn Liêm,Cần Thơ,,"Ninh Kiều, Cần Thơ",VN
381,ChIJneg8fadioDERR9DPUWimxx0,Nhà Thuốc Minh Đăng,Hiệu thuốc,0292 2484 111,"Nhà Thuốc Minh Đăng, 170 Đ.Xô Viết Nghệ Tĩnh, An Hội, Ninh Kiều, Cần Thơ","An Hội, Ninh Kiều",170 Đ.Xô Viết Nghệ Tĩnh,Cần Thơ,,"Ninh Kiều, Cần Thơ",VN
386,ChIJTYYl0hCJoDERazEIzvvSb7A,Nhà thuốc Hạnh Quỳnh,Hiệu thuốc,0936 654 499,"Nhà thuốc Hạnh Quỳnh, 2 Đ. Phan Văn Trị, An Lạc, Ninh Kiều, Cần Thơ","An Lạc, Ninh Kiều",2 Đ. Phan Văn Trị,Cần Thơ,,"Ninh Kiều, Cần Thơ",VN
390,ChIJl4QcYQaIoDERTulH7w8ERNY,Nhà Thuốc Tây Cần Thơ 4,Hiệu thuốc,0292 3893 979,"Nhà Thuốc Tây Cần Thơ 4, 165 Đ. Trần Việt Châu, An Hoà, Ninh Kiều, Cần Thơ","An Hoà, Ninh Kiều",165 Đ. Trần Việt Châu,Cần Thơ,,"Ninh Kiều, Cần Thơ",VN
391,ChIJfxRkVP-JoDERKvBBkY6DLEI,Nhà thuốc Minh Anh,Hiệu thuốc,,"Nhà thuốc Minh Anh, 54/1 Hùng Vương, An Hội, Ninh Kiều, Cần Thơ","An Hội, Ninh Kiều",54/1 Hùng Vương,Cần Thơ,,"Ninh Kiều, Cần Thơ",VN
392,ChIJK1pTuUyGoDERYO42StjjuWM,Nhà Thuốc HỒI LỰC,Hiệu thuốc,0942 854 545,"Nhà Thuốc HỒI LỰC, 2 Đ. Huỳnh Phan Hộ, Bình Thuỷ, Bình Thủy, Cần Thơ","Bình Thuỷ, Bình Thủy",2 Đ. Huỳnh Phan Hộ,Cần Thơ,,"Bình Thủy, Cần Thơ",VN
393,ChIJoc5ZiKFioDER1VwaqLbaWys,Nhà Thuốc Đức Hưng Đường,Hiệu thuốc,0292 3817 478,"Nhà Thuốc Đức Hưng Đường, 40 Đ. Lý Thường Kiệt, Tân An, Ninh Kiều, Cần Thơ","Tân An, Ninh Kiều",40 Đ. Lý Thường Kiệt,Cần Thơ,,"Ninh Kiều, Cần Thơ",VN
404,ChIJfWCsJVGIoDERcP8_2QmoI3g,Nhà Thuốc Thanh Sơn,Hiệu thuốc,0918 008 424,"Nhà Thuốc Thanh Sơn, 229 Nguyễn Văn Cừ Nối Dài, An Bình, Ninh Kiều, Cần Thơ","An Bình, Ninh Kiều",229 Nguyễn Văn Cừ Nối Dài,Cần Thơ,,"Ninh Kiều, Cần Thơ",VN
405,ChIJSaC4L1SIoDER0DMzX2mobpA,Nhà Thuốc PHƯỚC HẢI 3,Hiệu thuốc,0906 225 577,"Nhà Thuốc PHƯỚC HẢI 3, 345M Đường Nguyễn Văn Cừ, An Bình, Ninh Kiều","An Bình, Ninh Kiều",345M Đường Nguyễn Văn Cừ,Cần Thơ,,"Ninh Kiều, Cần Thơ",VN
412,ChIJObBC-7yJoDERCZNhbqNXJrQ,Nhà Thuốc 68,Hiệu thuốc,0987 942 876,"Nhà Thuốc 68, 285 Đ. Phạm Hùng, Lê Bình, Cái Răng, Cần Thơ","Lê Bình, Cái Răng",285 Đ. Phạm Hùng,Cần Thơ,,"Cái Răng, Cần Thơ",VN
416,ChIJjxRKNrKJoDERfiNoqJz2Ew0,Nhà Thuốc Gia Phúc,Hiệu thuốc,0918 126 124,"Nhà Thuốc Gia Phúc, 157/4, Đường Lộ Vòng Cung, Quận Ninh Kiều, An Bình, Ninh Kiều, Cần Thơ","An Bình, Ninh Kiều","157/4, Đường Lộ Vòng Cung, Quận Ninh Kiều",Cần Thơ,,"Ninh Kiều, Cần Thơ",VN
418,ChIJx5wd1jWIoDERhsgUGyEt4Hs,Nhà Thuốc Phương Trinh,Hiệu thuốc,0913 136 097,"Nhà Thuốc Phương Trinh, 110 Đ. 3 Tháng 2, Hưng Lợi, Ninh Kiều, Cần Thơ","Hưng Lợi, Ninh Kiều",110 Đ. 3 Tháng 2,Cần Thơ,,"Ninh Kiều, Cần Thơ",VN
420,ChIJCev1hJSJoDERXcPdz8A23H0,Nhà thuốc Đức An,Hiệu thuốc,0948 870 887,"Nhà thuốc Đức An, C10 Đ. Trần Khánh Dư, Xuân Khánh, Ninh Kiều, Cần Thơ","Xuân Khánh, Ninh Kiều",C10 Đ. Trần Khánh Dư,Cần Thơ,,"Ninh Kiều, Cần Thơ",VN
423,ChIJ-T84Fv6HoDERy8Shh8GpANw,Nhà Thuốc Tây Hồng Gấm 2,Hiệu thuốc,0918 660 054,"Nhà Thuốc Tây Hồng Gấm 2, 6/60 Cầu Cồn Khương, Cái Khế, Ninh Kiều, Cần Thơ","Cái Khế, Ninh Kiều",6/60 Cầu Cồn Khương,Cần Thơ,,"Ninh Kiều, Cần Thơ",VN
424,ChIJmeez0alioDERvJu4rxg38l4,Nhà Thuốc Nguyệt Thu,Hiệu thuốc,0292 3823 745,"Nhà Thuốc Nguyệt Thu, 15 Đường A1, Cái Khế, Ninh Kiều, Cần Thơ","Cái Khế, Ninh Kiều",15 Đường A1,Cần Thơ,,"Ninh Kiều, Cần Thơ",VN
425,ChIJt-XmmMljoDERiyYGayaXKEs,Nhà thuốc Phạm Tâm,Hiệu thuốc,0945 112 285,"Nhà thuốc Phạm Tâm, M30 Đ. Số 6, KDC Hưng Phú 1, Cái Răng, Cần Thơ","KDC Hưng Phú 1, Cái Răng",M30 Đ. Số 6,Cần Thơ,,"Cái Răng, Cần Thơ",VN
426,ChIJOYOVi6FioDERJ7BnYfFaK-E,Nhà Thuốc Ngô Quyền,Hiệu thuốc,0292 6542 528,"Nhà Thuốc Ngô Quyền, 29 Đ. Ngô Quyền, Tân An, Ninh Kiều, Cần Thơ","Tân An, Ninh Kiều",29 Đ. Ngô Quyền,Cần Thơ,,"Ninh Kiều, Cần Thơ",VN
427,ChIJj0EUSiGIoDERFTilP--yPW8,Nhà Thuốc Đông Y Đức Vinh Phát,Hiệu thuốc,0292 3820 417,"Nhà Thuốc Đông Y Đức Vinh Phát, 186 Đ. 30 Tháng 4, Xuân Khánh, Ninh Kiều, Cần Thơ","Xuân Khánh, Ninh Kiều",186 Đ. 30 Tháng 4,Cần Thơ,,"Ninh Kiều, Cần Thơ",VN
432,ChIJTUyM6hmIoDERcVpL4IvU2xg,Nhà Thuốc Thành Trang,Hiệu thuốc,,"Nhà Thuốc Thành Trang, Xuân Khánh, Ninh Kiều, Cần Thơ","Xuân Khánh, Ninh Kiều",,Cần Thơ,,"Ninh Kiều, Cần Thơ",VN
440,ChIJd_OZFgyIoDERVt4LDA6lwdY,Nhà Thuốc Nghĩa Ngọc,Hiệu thuốc,0913 824 514,"Nhà Thuốc Nghĩa Ngọc, 110 Đ. Nguyễn Đệ, An Hoà, Bình Thủy, Cần Thơ","An Hoà, Bình Thủy",110 Đ. Nguyễn Đệ,Cần Thơ,,"Bình Thủy, Cần Thơ",VN
441,ChIJdYwGK3OIoDERgBld_0AE_rM,Nhà Thuốc Trí Khôi 2,Hiệu thuốc,,"Nhà Thuốc Trí Khôi 2, An Thới, Ninh Kiều, Cần Thơ","An Thới, Ninh Kiều",,Cần Thơ,,"Ninh Kiều, Cần Thơ",VN
448,ChIJodtoOkGIoDERHd56DVNQ2nY,Nhà Thuốc Thu Thuỷ,Hiệu thuốc,0902 029 096,"Nhà Thuốc Thu Thuỷ, 317A, Nguyễn Văn Linh, Phường An Khánh, Quận Ninh Kiều, Thành Phố Cần Thơ, Phường An Khánh, Ninh Kiều, Cần Thơ","Phường An Khánh, Ninh Kiều","317A, Nguyễn Văn Linh, Phường An Khánh, Quận Ninh Kiều, Thành Phố Cần Thơ",Cần Thơ,,"Ninh Kiều, Cần Thơ",VN
449,ChIJ-01yobeJoDERckH_Wn7rdLM,Nhà Thuốc Lê Bình,Hiệu thuốc,0987 700 098,"Nhà Thuốc Lê Bình, 60/3, Đường Hậu Thạnh Mỹ, Quận Cái Răng, Lê Bình, Cái Răng, Cần Thơ","Lê Bình, Cái Răng","60/3, Đường Hậu Thạnh Mỹ, Quận Cái Răng",Cần Thơ,,"Cái Răng, Cần Thơ",VN
451,ChIJfb6h3_yJoDERpXFEmle6Sj0,Nhà Thuốc Ngọc Thủy,Hiệu thuốc,0983 010 683,"Nhà Thuốc Ngọc Thủy, 13/27 Đ. Trần Vĩnh Kiết, An Bình, Ninh Kiều, Cần Thơ","An Bình, Ninh Kiều",13/27 Đ. Trần Vĩnh Kiết,Cần Thơ,,"Ninh Kiều, Cần Thơ",VN
453,ChIJtbVCFbGJoDER33qoz6nrl98,Nhà Thuốc Y Học Cổ Truyền Dân Hòa Hưng,Hiệu thuốc,0292 3846 026,"Nhà Thuốc Y Học Cổ Truyền Dân Hòa Hưng, 56 Duy Tân, Lê Bình, Cái Răng, Cần Thơ","Lê Bình, Cái Răng",56 Duy Tân,Cần Thơ,,"Cái Răng, Cần Thơ",VN
457,ChIJSVtX1zGIoDERV08Wm6RVerE,Nhà Thuốc Hưng An,Hiệu thuốc,0292 2463 181,"Nhà Thuốc Hưng An, 9c QL91B, Hưng Lợi, Ninh Kiều, Cần Thơ","Hưng Lợi, Ninh Kiều",9c QL91B,Cần Thơ,,"Ninh Kiều, Cần Thơ",VN
465,ChIJQRplRZyJoDERKlfQaKSUbG0,NHÀ THUỐC DANH LƯU,Hiệu thuốc,,"2QWF+X53 NHÀ THUỐC DANH LƯU, Đ. Nguyễn Văn Cừ, Thới Bình, Ninh Kiều, Cần Thơ","Thới Bình, Ninh Kiều","2QWF+X53, Đ. Nguyễn Văn Cừ",Cần Thơ,,"Ninh Kiều, Cần Thơ",VN
466,ChIJ__MLtBCIoDERkfZzXfbcV2o,Nhà Thuốc Cần Thơ,Hiệu thuốc,0292 3834 399,"Nhà Thuốc Cần Thơ, 3 Đ. Mậu Thân, An Nghiệp, Ninh Kiều, Cần Thơ","An Nghiệp, Ninh Kiều",3 Đ. Mậu Thân,Cần Thơ,,"Ninh Kiều, Cần Thơ",VN
467,ChIJYxaIsw-IoDER-5oFIFHp_0Y,Nhà Thuốc Minh Khang,Hiệu thuốc,0292 3890 579,"Nhà Thuốc Minh Khang, 321 Đ. Nguyễn Văn Cừ, An Hoà, Ninh Kiều, Cần Thơ","An Hoà, Ninh Kiều",321 Đ. Nguyễn Văn Cừ,Cần Thơ,,"Ninh Kiều, Cần Thơ",VN
468,ChIJeT29_t6HoDEROxN5vvLmBkc,Nhà Thuốc Diễm Thi,Hiệu thuốc,0792 986 111,"Nhà Thuốc Diễm Thi, 407 Trần Quang Diệu, An Thới, Bình Thủy, Cần Thơ","An Thới, Bình Thủy",407 Trần Quang Diệu,Cần Thơ,,"Bình Thủy, Cần Thơ",VN
469,ChIJiYbPwrCJoDER31l-wu9VzHg,Nhà Thuốc Tây Thanh Tùng,Hiệu thuốc,0939 619 525,"Nhà Thuốc Tây Thanh Tùng, 74 Trần Hưng Đạo, Lê Bình, Cái Răng, Cần Thơ","Lê Bình, Cái Răng",74 Trần Hưng Đạo,Cần Thơ,,"Cái Răng, Cần Thơ",VN
470,ChIJm8Py36FioDERzbGd5mqHFUo,Nhà Thuốc Tân Hương,Hiệu thuốc,0292 3751 789,"Nhà Thuốc Tân Hương, 36 Nguyễn Thái Học, Tân An, Ninh Kiều, Cần Thơ","Tân An, Ninh Kiều",36 Nguyễn Thái Học,Cần Thơ,,"Ninh Kiều, Cần Thơ",VN
471,ChIJs3IU1xiIoDER9QRb7zFe444,Nhà Thuốc Ngọc Ngân,Hiệu thuốc,0292 3820 794,"Nhà Thuốc Ngọc Ngân, 27 Hẻm 22 Đ. Mạc Đĩnh Chi, Tân An, Ninh Kiều, Cần Thơ","Tân An, Ninh Kiều",27 Hẻm 22 Đ. Mạc Đĩnh Chi,Cần Thơ,,"Ninh Kiều, Cần Thơ",VN
472,ChIJRdFqh6FioDERDMHWD69xLMU,Nhà Thuốc Thúy Nga,Hiệu thuốc,0292 3814 153,"Nhà Thuốc Thúy Nga, 30 Đ. Thủ Khoa Huân, Tân An, Ninh Kiều, Cần Thơ","Tân An, Ninh Kiều",30 Đ. Thủ Khoa Huân,Cần Thơ,,"Ninh Kiều, Cần Thơ",VN
480,ChIJQQwWZRyIoDER5NKwKl9apAc,Nhà Thuốc Bảo Ngọc,Hiệu thuốc,0292 3731 908,"Nhà Thuốc Bảo Ngọc, Đường Đ. Huỳnh Thúc Kháng, An Cư, Ninh Kiều, Cần Thơ","An Cư, Ninh Kiều",Đường Đ. Huỳnh Thúc Kháng,Cần Thơ,,"Ninh Kiều, Cần Thơ",VN
481,ChIJdxhjhhxjoDERTSVjE5M_DB0,Nhà Thuốc NHÃ HUỲNH Pharmacy,Hiệu thuốc,,"Nhà Thuốc NHÃ HUỲNH Pharmacy, 118 Đ.Xô Viết Nghệ Tĩnh, An Hội, Ninh Kiều, Cần Thơ","An Hội, Ninh Kiều",118 Đ.Xô Viết Nghệ Tĩnh,Cần Thơ,,"Ninh Kiều, Cần Thơ",VN
484,ChIJbTmGzS6JoDERoTI9grv8q3E,Nhà Thuốc Phúc Hưng,Hiệu thuốc,0908 969 942,"2QXC+RCR Nhà Thuốc Phúc Hưng, Đ. Nguyễn Văn Cừ, An Hoà, Ninh Kiều, Cần Thơ","An Hoà, Ninh Kiều","2QXC+RCR, Đ. Nguyễn Văn Cừ",Cần Thơ,,"Ninh Kiều, Cần Thơ",VN
485,ChIJ48J27IqJoDERlAusj8yTb1w,Nhà thuốc Ngọc Anh,Hiệu thuốc,,"Nhà thuốc Ngọc Anh, 116 Đ. Nguyễn Văn Cừ, An Hoà, Ninh Kiều, Cần Thơ","An Hoà, Ninh Kiều",116 Đ. Nguyễn Văn Cừ,Cần Thơ,,"Ninh Kiều, Cần Thơ",VN
487,ChIJGy-lNQ6IoDERWNGgb84iK8Q,Nhà Thuốc Quang Vinh,Hiệu thuốc,0292 2460 317,"Nhà Thuốc Quang Vinh, 351 Đ. Nguyễn Văn Cừ, An Hoà, Ninh Kiều, Cần Thơ","An Hoà, Ninh Kiều",351 Đ. Nguyễn Văn Cừ,Cần Thơ,,"Ninh Kiều, Cần Thơ",VN
490,ChIJU3fZqrWJoDERHMvaU3iIrEI,Nhà Thuốc Tây Kỳ Minh,Hiệu thuốc,0796 834 435,"Nhà Thuốc Tây Kỳ Minh, 44 Đ. Nguyễn Tri Phương, Phường An Khánh, Ninh Kiều, Cần Thơ","Phường An Khánh, Ninh Kiều",44 Đ. Nguyễn Tri Phương,Cần Thơ,,"Ninh Kiều, Cần Thơ",VN
492,ChIJg-dbtCeJoDER882KxyNQZ2Y,Nhà Thuốc Bảo Thi 2,Hiệu thuốc,,"2QQ3+9R7 Nhà Thuốc Bảo Thi 2, Phường An Khánh, Ninh Kiều, Cần Thơ","Phường An Khánh, Ninh Kiều",2QQ3+9R7,Cần Thơ,,"Ninh Kiều, Cần Thơ",VN
497,ChIJkxMJSrKJoDERpEtxhpyGJqg,Nhà Thuốc Vy Quân,Hiệu thuốc,0935 705 289,"Nhà Thuốc Vy Quân, 140/4, khu vực 3, Ninh Kiều, Cần Thơ","khu vực 3, Ninh Kiều",140/4,Cần Thơ,,"Ninh Kiều, Cần Thơ",VN
499,ChIJE9gFjUSIoDERMf7L26SOZv4,Nhà Thuốc Ngọc Huy 3,Hiệu thuốc,0968 007 667,"Nhà Thuốc Ngọc Huy 3, 287 Đ. Nguyễn Văn Cừ, Phường An Khánh, Ninh Kiều, Cần Thơ","Phường An Khánh, Ninh Kiều",287 Đ. Nguyễn Văn Cừ,Cần Thơ,,"Ninh Kiều, Cần Thơ",VN
500,ChIJR80rOrKJoDERG5PTj_59KUs,Nhà Thuốc Hoàng An,Hiệu thuốc,0292 3527 999,"Nhà Thuốc Hoàng An, 161 ĐT923, An Bình, Ninh Kiều, Cần Thơ","An Bình, Ninh Kiều",161 ĐT923,Cần Thơ,,"Ninh Kiều, Cần Thơ",VN
508,ChIJjeReI9OHoDERZAgNOqgQEHQ,Nhà Thuốc Tâm Nga,Hiệu thuốc,,"Nhà Thuốc Tâm Nga, 532, Võ Văn Kiệt, Phường Bình Thuỷ, Quận Bình Thuỷ, Thành Phố Cần Thơ, Bình Thuỷ, Bình Thủy, Cần Thơ","Bình Thuỷ, Bình Thủy","532, Võ Văn Kiệt, Phường Bình Thuỷ, Quận Bình Thuỷ, Thành Phố Cần Thơ",Cần Thơ,,"Bình Thủy, Cần Thơ",VN
510,ChIJDa0UKRaHoDERHQGfsKr-zp8,Nhà thuốc 369,Hiệu thuốc,0332 177 773,"Nhà thuốc 369, 16/17 Đ. Huỳnh Phan Hộ, Bình Thuỷ, Bình Thủy, Cần Thơ","Bình Thuỷ, Bình Thủy",16/17 Đ. Huỳnh Phan Hộ,Cần Thơ,,"Bình Thủy, Cần Thơ",VN
512,ChIJyZF2fa-JoDERS0VuFZ3Ands,Nhà Thuốc Ngọc Huy,Hiệu thuốc,0968 077 667,"Nhà Thuốc Ngọc Huy, An Bình, Ninh Kiều, Cần Thơ","An Bình, Ninh Kiều",,Cần Thơ,,"Ninh Kiều, Cần Thơ",VN
524,ChIJWSCOdLmJoDER4L_rulzJjX0,Nhà Thuốc Nguyên Thảo,Hiệu thuốc,,"Nhà Thuốc Nguyên Thảo, 372 Lê Bình, Cái Răng, Cần Thơ","Lê Bình, Cái Răng",372 Lê Bình,Cần Thơ,,"Cái Răng, Cần Thơ",VN
526,ChIJN6S-6EiIoDER5S13-AUQZ_0,Nhà Thuốc Lan Chi 2,Hiệu thuốc,0938 135 599,"Nhà Thuốc Lan Chi 2, 8, Đường A3, Quận Cái Răng, Thành Phố Cần Thơ","Khu dân cư 91B, Ninh Kiều","8, Đường A3, Quận Cái Răng, Thành Phố Cần Thơ",Cần Thơ,,"Ninh Kiều, Cần Thơ",VN
527,ChIJ4-sI2jmIoDERd4-6hSEvLrI,Nhà Thuốc Thiên Kim,Hiệu thuốc,0292 2225 999,"Nhà Thuốc Thiên Kim, 21 QL91B, Hưng Lợi, Ninh Kiều, Cần Thơ","Hưng Lợi, Ninh Kiều",21 QL91B,Cần Thơ,,"Ninh Kiều, Cần Thơ",VN
531,ChIJP9EQWjeIoDERjWyzN4_QXCM,Nhà Thuốc Quế Anh,Hiệu thuốc,,"Nhà Thuốc Quế Anh, 24 A1 Đ. Nguyễn Văn Linh, Khu dân cư 91B, Ninh Kiều, Cần Thơ","Khu dân cư 91B, Ninh Kiều",24 A1 Đ. Nguyễn Văn Linh,Cần Thơ,,"Ninh Kiều, Cần Thơ",VN
536,ChIJR2YOUSOIoDERNAQkZZV6sG4,Nhà Thuốc Ngọc Thắm,Hiệu thuốc,0292 3831 881,"Nhà Thuốc Ngọc Thắm, 128 Đ. 3 Tháng 2, Xuân Khánh, Ninh Kiều, Cần Thơ","Xuân Khánh, Ninh Kiều",128 Đ. 3 Tháng 2,Cần Thơ,,"Ninh Kiều, Cần Thơ",VN
543,ChIJ_3l3Ah-IoDERPMvDULUmwBI,Nhà Thuốc Trung Sơn Alpha,Hiệu thuốc,0292 3735 588,"Nhà Thuốc Trung Sơn Alpha, 90 Đ. Lý Tự Trọng, An Cư, Ninh Kiều, Cần Thơ","An Cư, Ninh Kiều",90 Đ. Lý Tự Trọng,Cần Thơ,,"Ninh Kiều, Cần Thơ",VN
544,ChIJLxH_IwSIoDERj5izKG6kqvY,Nhà thuốc Phương Uyên,Hiệu thuốc,0292 3895 555,"Nhà thuốc Phương Uyên, 36/55 Đ. Trần Việt Châu, An Hoà, Ninh Kiều, Cần Thơ","An Hoà, Ninh Kiều",36/55 Đ. Trần Việt Châu,Cần Thơ,,"Ninh Kiều, Cần Thơ",VN
545,ChIJl3fIK-CHoDERWQ0DFSsR6W8,Nhà Thuốc Vân Yến,Hiệu thuốc,0919 811 177,"Nhà Thuốc Vân Yến, 420, Vành Đai Phi Trường, Phường An Thới, Quận Bình Thuỷ, Thành Phố Cần Thơ, An Thới, Bình Thủy, Cần Thơ","An Thới, Bình Thủy","420, Vành Đai Phi Trường, Phường An Thới, Quận Bình Thuỷ, Thành Phố Cần Thơ",Cần Thơ,,"Bình Thủy, Cần Thơ",VN
546,ChIJA_niiQKIoDERuK18eatbYWg,Nhà Thuốc Y Học Thiên Phước Đường,Hiệu thuốc,,"Nhà Thuốc Y Học Thiên Phước Đường, 52 Trần Phú, Thới Bình, Ninh Kiều, Cần Thơ","Thới Bình, Ninh Kiều",52 Trần Phú,Cần Thơ,,"Ninh Kiều, Cần Thơ",VN
547,ChIJK3HVhQOIoDERn5jnWYb6FJg,Nhà Thuốc Bông Sao,Hiệu thuốc,,"Nhà Thuốc Bông Sao, 10 Đ. Trần Việt Châu, Thới Bình, Ninh Kiều, Cần Thơ","Thới Bình, Ninh Kiều",10 Đ. Trần Việt Châu,Cần Thơ,,"Ninh Kiều, Cần Thơ",VN
548,ChIJLd54sQ-IoDER1411LjEb1TY,Nhà Thuốc Quỳnh Như,Hiệu thuốc,,"Nhà Thuốc Quỳnh Như, 258A Đ. Nguyễn Văn Cừ, An Hoà, Ninh Kiều, Cần Thơ","An Hoà, Ninh Kiều",258A Đ. Nguyễn Văn Cừ,Cần Thơ,,"Ninh Kiều, Cần Thơ",VN
549,ChIJ07YwU-aHoDERV2xC_NiWytc,Nhà Thuốc Quang Minh,Hiệu thuốc,0292 3883 445,"Nhà Thuốc Quang Minh, 75 Đ. Cách Mạng Tháng 8, Bùi Hữu Nghĩa, Bình Thủy, Cần Thơ","Bùi Hữu Nghĩa, Bình Thủy",75 Đ. Cách Mạng Tháng 8,Cần Thơ,,"Bình Thủy, Cần Thơ",VN
550,ChIJ7UR1C-GHoDER8JtX-V7mPTM,Nhà Thuốc 174,Hiệu thuốc,0292 3886 881,"Nhà Thuốc 174, 174, Đường Trần Quang Diệu, Quận Bình Thủy, Tp Cần Thơ, An Thới, Bình Thủy, Cần Thơ","An Thới, Bình Thủy","174, Đường Trần Quang Diệu, Quận Bình Thủy, Tp Cần Thơ",Cần Thơ,,"Bình Thủy, Cần Thơ",VN
551,ChIJ5zh_JA6IoDERGJCib5HPYA8,Nhà Thuốc Thái An 2,Hiệu thuốc,1258 373474,"Nhà Thuốc Thái An 2, 371A Đ. Nguyễn Văn Cừ, An Hoà, Ninh Kiều, Cần Thơ","An Hoà, Ninh Kiều",371A Đ. Nguyễn Văn Cừ,Cần Thơ,,"Ninh Kiều, Cần Thơ",VN
552,ChIJyyGT0qBioDERqN-S-tmnJFI,Nhà Thuốc Tân Nga,Hiệu thuốc,0292 3831 589,"Nhà Thuốc Tân Nga, 5 Đ.Xô Viết Nghệ Tĩnh, An Hội, Ninh Kiều, Cần Thơ","An Hội, Ninh Kiều",5 Đ.Xô Viết Nghệ Tĩnh,Cần Thơ,,"Ninh Kiều, Cần Thơ",VN
553,ChIJqwYj7XSIoDERMBOxEtsaXl0,Nhà Thuốc 79A,Hiệu thuốc,0913 196 736,"Nhà Thuốc 79A, 79A Đ. Đồng Văn Cống, An Thới, Bình Thủy, Cần Thơ","An Thới, Bình Thủy",79A Đ. Đồng Văn Cống,Cần Thơ,,"Bình Thủy, Cần Thơ",VN
554,ChIJD8iSwKZioDERrSuEXJhu1mk,Nhà Thuốc Thúy Nga,Hiệu thuốc,,"Nhà Thuốc Thúy Nga, 31 Nguyễn Trãi, An Hội, Ninh Kiều, Cần Thơ","An Hội, Ninh Kiều",31 Nguyễn Trãi,Cần Thơ,,"Ninh Kiều, Cần Thơ",VN
555,ChIJG51ydDxjoDERK3J5oZMIPrU,Nhà thuốc tây Phú Cường,Hiệu thuốc,,"Nhà thuốc tây Phú Cường, 159 Đường Hai Bà Trưng, Tân An, Ninh Kiều, Cần Thơ","Tân An, Ninh Kiều",159 Đường Hai Bà Trưng,Cần Thơ,,"Ninh Kiều, Cần Thơ",VN
556,ChIJKa_OmaFioDERvcVrN1ZIyNs,Nhà Thuốc Hoàng Yến,Hiệu thuốc,0292 3831 286,"Nhà Thuốc Hoàng Yến, 48 Đ. Ngô Quyền, Tân An, Ninh Kiều, Cần Thơ 94112","Tân An, Ninh Kiều",48 Đ. Ngô Quyền,Cần Thơ,94112.0,"Ninh Kiều, Cần Thơ",VN
559,ChIJZUyBAKdioDERIB_q-f1qneA,Nhà Thuốc Thái Nguyệt,Hiệu thuốc,0292 3822 857,"Nhà Thuốc Thái Nguyệt, 72 Nguyễn Trãi, An Hội, Ninh Kiều, Cần Thơ 90000","An Hội, Ninh Kiều",72 Nguyễn Trãi,Cần Thơ,90000.0,"Ninh Kiều, Cần Thơ",VN
560,ChIJOfsmH6JioDERNTXY-YHmPuU,Nhà Thuốc Y Học Dân Tộc Vĩnh Thành,Hiệu thuốc,0292 3823 608,"Nhà Thuốc Y Học Dân Tộc Vĩnh Thành, 56 Đường Hai Bà Trưng, Tân An, Ninh Kiều, Cần Thơ","Tân An, Ninh Kiều",56 Đường Hai Bà Trưng,Cần Thơ,,"Ninh Kiều, Cần Thơ",VN
561,ChIJzRhOL6BioDERStb6yYCL2b4,Nhà Thuốc Bảo Thành,Hiệu thuốc,,"Nhà Thuốc Bảo Thành, 111 Nguyễn Thái Học, Tân An, Thốt Nốt, Cần Thơ","Tân An, Thốt Nốt",111 Nguyễn Thái Học,Cần Thơ,,"Thốt Nốt, Cần Thơ",VN
563,ChIJi6RwM6JioDERg0YDr3qGAPE,Nhà Thuốc Trí Nhân,Hiệu thuốc,0292 3815 666,"Nhà Thuốc Trí Nhân, 4 Đường Hai Bà Trưng, Tân An, Ninh Kiều, Cần Thơ","Tân An, Ninh Kiều",4 Đường Hai Bà Trưng,Cần Thơ,,"Ninh Kiều, Cần Thơ",VN
566,ChIJn4fOvqBioDER2LCy1IIq9tM,Lien Que Anh Pharmacy,Hiệu thuốc,0933 936 767,"Lien Que Anh Pharmacy, 71A1, Cai Khe Trading Center, Ninh Kieu District, Tân An, Ninh Kiều, Cần Thơ","Tân An, Ninh Kiều","71A1, Cai Khe Trading Center, Ninh Kieu District",Cần Thơ,,"Ninh Kiều, Cần Thơ",VN
568,ChIJl_iDNKhioDERVm4i-RwRWvA,Nhà Thuốc Minh Phụng,Hiệu thuốc,0292 3822 188,"Nhà Thuốc Minh Phụng, 47 Đường A1, Cái Khế, Ninh Kiều, Cần Thơ","Cái Khế, Ninh Kiều",47 Đường A1,Cần Thơ,,"Ninh Kiều, Cần Thơ",VN
569,ChIJ2QwUSKhioDERsbDnSDyTNM4,Nhà Thuốc Thiên Ân,Hiệu thuốc,0292 2246 316,"Nhà Thuốc Thiên Ân, 71 Đ. Hồ Tùng Mậu, Cái Khế, Ninh Kiều, Cần Thơ 901740","Cái Khế, Ninh Kiều",71 Đ. Hồ Tùng Mậu,Cần Thơ,901740.0,"Ninh Kiều, Cần Thơ",VN
590,ChIJc2oPgR2IoDERV2ZTL4nPfgg,Nhà Thuốc Ngọc Ánh,Hiệu thuốc,,"Nhà Thuốc Ngọc Ánh, 178 Đ.Xô Viết Nghệ Tĩnh, An Hội, Ninh Kiều, Cần Thơ","An Hội, Ninh Kiều",178 Đ.Xô Viết Nghệ Tĩnh,Cần Thơ,,"Ninh Kiều, Cần Thơ",VN
592,ChIJHSAC1hiIoDERLh7HuzLmUes,Nhà thuốc THÁI TRÂN 1,Hiệu thuốc,,"Nhà thuốc THÁI TRÂN 1, 151 Đ. Trần Hưng Đạo, An Phú, Ninh Kiều, Cần Thơ","An Phú, Ninh Kiều",151 Đ. Trần Hưng Đạo,Cần Thơ,,"Ninh Kiều, Cần Thơ",VN
601,ChIJP114phGIoDER7-4B-YwuuTo,Nhà Thuốc Phúc An,Hiệu thuốc,0949 000 118,"Nhà Thuốc Phúc An, 41G Đ. Mậu Thân, An Hoà, Ninh Kiều, Cần Thơ","An Hoà, Ninh Kiều",41G Đ. Mậu Thân,Cần Thơ,,"Ninh Kiều, Cần Thơ",VN
605,ChIJpZqr2WqIoDER-qF6ghncuTg,Nhà Thuốc Tấn Tài,Hiệu thuốc,0939 513 816,"Nhà Thuốc Tấn Tài, 212 Nguyễn Văn Cừ Nối Dài, Phường An Khánh, Ninh Kiều, Cần Thơ","Phường An Khánh, Ninh Kiều",212 Nguyễn Văn Cừ Nối Dài,Cần Thơ,,"Ninh Kiều, Cần Thơ",VN
608,ChIJqatPJFGIoDER8AHuTbPHZqg,Nhà thuốc Song An 2,Hiệu thuốc,0292 3898 345,"Nhà thuốc Song An 2, 404 Nguyễn Văn Cừ Nối Dài, An Bình, Ninh Kiều, Cần Thơ","An Bình, Ninh Kiều",404 Nguyễn Văn Cừ Nối Dài,Cần Thơ,,"Ninh Kiều, Cần Thơ",VN
609,ChIJbZzdhV2JoDERS4kWMCe1ipM,Nhà Thuốc Ngọc Huy,Hiệu thuốc vi lượng đồng căn,,"Nhà Thuốc Ngọc Huy, 287 Nguyễn Văn Cừ Nối Dài, An Bình, Ninh Kiều, Cần Thơ","An Bình, Ninh Kiều",287 Nguyễn Văn Cừ Nối Dài,Cần Thơ,,"Ninh Kiều, Cần Thơ",VN
610,ChIJ4_sB7gCJoDERPDfq609fq9c,Nhà Thuốc Sen Hồng,Hiệu thuốc,0815 685 076,"Nhà Thuốc Sen Hồng, 16 Đ. Nguyễn Hiền, Hưng Lợi, Ninh Kiều, Cần Thơ","Hưng Lợi, Ninh Kiều",16 Đ. Nguyễn Hiền,Cần Thơ,,"Ninh Kiều, Cần Thơ",VN
611,ChIJ9ePqwUiIoDERFS7Jxas0jbk,Nhà Thuốc Hoàng Trang 2,Hiệu thuốc,0292 3841 072,"Nhà Thuốc Hoàng Trang 2, 84A3, Đ. Nguyễn Hiền, Khu dân cư 91B, Ninh Kiều, Cần Thơ","Khu dân cư 91B, Ninh Kiều","84A3, Đ. Nguyễn Hiền",Cần Thơ,,"Ninh Kiều, Cần Thơ",VN
612,ChIJwVOJ0lKIoDERzuqCC2h1zbI,Nhà thuốc Khoa Khôi,Hiệu thuốc,0939 668 316,"Nhà thuốc Khoa Khôi, 136/20 Đ. Hoàng Quốc Việt, An Bình, Ninh Kiều, Cần Thơ","An Bình, Ninh Kiều",136/20 Đ. Hoàng Quốc Việt,Cần Thơ,,"Ninh Kiều, Cần Thơ",VN
613,ChIJPw3HrWeIoDERRi2-jOb5Wd8,Nhà Thuốc Cần Thơ 2,Hiệu thuốc,0933 474 723,"Nhà Thuốc Cần Thơ 2, 9 QL91B, Phường An Khánh, Bình Thủy, Cần Thơ","Phường An Khánh, Bình Thủy",9 QL91B,Cần Thơ,,"Bình Thủy, Cần Thơ",VN
614,ChIJlQZ3eb-JoDERf7FqhNRIowM,Nhà thuốc Ngọc Thư,Hiệu thuốc,0939 657 073,"Nhà thuốc Ngọc Thư, 18E KV Thạnh Mỹ, Thường Thạnh, Cái Răng, Cần Thơ","Thường Thạnh, Cái Răng",18E KV Thạnh Mỹ,Cần Thơ,,"Cái Răng, Cần Thơ",VN
623,ChIJYT-OLCKIoDER6BKT0kA7Zf0,Nha thuoc Anh Thu,Hiệu thuốc,0948 999 562,"Nha thuoc Anh Thu, 67 Đ. Mậu Thân, Xuân Khánh, Ninh Kiều, Cần Thơ","Xuân Khánh, Ninh Kiều",67 Đ. Mậu Thân,Cần Thơ,,"Ninh Kiều, Cần Thơ",VN
627,ChIJ2X4cl6WJoDERkro-jAFAf40,Nhà Thuốc Minh Vương,Hiệu thuốc,,"Nhà Thuốc Minh Vương, An Bình, Ninh Kiều, Cần Thơ","An Bình, Ninh Kiều",,Cần Thơ,,"Ninh Kiều, Cần Thơ",VN
628,ChIJCXTHdbuJoDERIOBbFHSzHoA,Nhà Thuốc Nguyễn Khánh,Hiệu thuốc,0939 190 220,"Nhà Thuốc Nguyễn Khánh, 167 QL1A, Lê Bình, Cái Răng, Cần Thơ","Lê Bình, Cái Răng",167 QL1A,Cần Thơ,,"Cái Răng, Cần Thơ",VN
637,ChIJEzvUCkWJoDERK9vpyxiWKco,Nhà thuốc ĐẮC LỢI,Hiệu thuốc,,"2Q43+3H9 Nhà thuốc ĐẮC LỢI, KV Thạnh Mỹ, Thường Thạnh, Cái Răng, Cần Thơ","Thường Thạnh, Cái Răng","2Q43+3H9, KV Thạnh Mỹ",Cần Thơ,,"Cái Răng, Cần Thơ",VN
638,ChIJ_4a5UkuIoDERwoe7pOaUCN4,Nhà Thuốc Hoàn Huy 2,Hiệu thuốc,0292 3837 282,"Nhà Thuốc Hoàn Huy 2, 153/4A, Quốc Lộ 1A, P. Lê Bình, Quận Cái Răng, Hưng Lợi, Ninh Kiều, Cần Thơ","Hưng Lợi, Ninh Kiều","153/4A, Quốc Lộ 1A, P. Lê Bình, Quận Cái Răng",Cần Thơ,,"Ninh Kiều, Cần Thơ",VN
640,ChIJ8dCuELaJoDER05M_J0nXfwE,Nhà thuốc Kim Liên,Hiệu thuốc,,"Nhà thuốc Kim Liên, Hưng Lợi, Ninh Kiều, Cần Thơ","Hưng Lợi, Ninh Kiều",,Cần Thơ,,"Ninh Kiều, Cần Thơ",VN
642,ChIJ4TAGK7qJoDEROYIRIZ8Fo7U,Nhà Thuốc Kim Oanh,Hiệu thuốc,,"Nhà Thuốc Kim Oanh, 387 Lê Bình, Cái Răng, Cần Thơ","Lê Bình, Cái Răng",387 Lê Bình,Cần Thơ,,"Cái Răng, Cần Thơ",VN
643,ChIJrfTA-TSIoDERO_7NQ6TmFx8,Nhà Thuốc Thanh Vân,Hiệu thuốc,0939 641 909,"Nhà Thuốc Thanh Vân, 632 Đ. 30 Tháng 4, Hưng Lợi, Ninh Kiều, Cần Thơ","Hưng Lợi, Ninh Kiều",632 Đ. 30 Tháng 4,Cần Thơ,,"Ninh Kiều, Cần Thơ",VN
644,ChIJw9e9_LiJoDERfkcrG4eZFco,Nhà thuốc Cát Tường,Hiệu thuốc,,"Nhà thuốc Cát Tường, 377 Lê Bình, Cái Răng, Cần Thơ","Lê Bình, Cái Răng",377 Lê Bình,Cần Thơ,,"Cái Răng, Cần Thơ",VN
648,ChIJGYQlQp6JoDEReq7_DJkdkxE,Nhà Thuốc Tâm Anh,Hiệu thuốc,,"Nhà Thuốc Tâm Anh, 10 Hẻm 132, Hưng Lợi, Ninh Kiều, Cần Thơ","Hưng Lợi, Ninh Kiều",10 Hẻm 132,Cần Thơ,,"Ninh Kiều, Cần Thơ",VN
650,ChIJnZEoxgeJoDERzDBtCRtFOLA,Nhà Thuốc Thảo Lâm,Hiệu thuốc,0918 629 509,"Nhà Thuốc Thảo Lâm, 12 Đ. Nguyễn Văn Linh, Hưng Lợi, Ninh Kiều, Cần Thơ","Hưng Lợi, Ninh Kiều",12 Đ. Nguyễn Văn Linh,Cần Thơ,,"Ninh Kiều, Cần Thơ",VN
653,ChIJyV_a_TqIoDER9rY_FMCEr38,Nhà Thuốc Ngọc Linh,Hiệu thuốc,0913 888 727,"Nhà Thuốc Ngọc Linh, 45 Đ. 3 Tháng 2, Xuân Khánh, Ninh Kiều, Cần Thơ","Xuân Khánh, Ninh Kiều",45 Đ. 3 Tháng 2,Cần Thơ,,"Ninh Kiều, Cần Thơ",VN
657,ChIJ0Vc3vTSIoDERhmqa_dwjEvY,Nhà Thuốc Ngọc Lan,Hiệu thuốc,0292 3508 001,"Nhà Thuốc Ngọc Lan, 151 Đ. Trần Hoàng Na, Hưng Lợi, Ninh Kiều, Cần Thơ","Hưng Lợi, Ninh Kiều",151 Đ. Trần Hoàng Na,Cần Thơ,,"Ninh Kiều, Cần Thơ",VN
658,ChIJu5jgOTWIoDERSftbqlOHKEM,Nhà Thuốc Ánh Nguyệt,Hiệu thuốc,0292 3801 334,"Nhà Thuốc Ánh Nguyệt, 54 Đ. 30 Tháng 4, Hưng Lợi, Ninh Kiều, Cần Thơ","Hưng Lợi, Ninh Kiều",54 Đ. 30 Tháng 4,Cần Thơ,,"Ninh Kiều, Cần Thơ",VN
660,ChIJh1468TCIoDERxzrSaCz9768,Nhà Thuốc Tây Mai Văn Gương,Hiệu thuốc,0771 128 935,"Nhà Thuốc Tây Mai Văn Gương, 30, Đường Nguyễn Văn Linh, Phường Hưng Lợi, Quận Ninh Kiều, Hưng Lợi, Ninh Kiều, Cần Thơ","Hưng Lợi, Ninh Kiều","30, Đường Nguyễn Văn Linh, Phường Hưng Lợi, Quận Ninh Kiều",Cần Thơ,,"Ninh Kiều, Cần Thơ",VN
663,ChIJe6fMTbWJoDERjK52pvRcJxw,Nhà Thuốc Gia Hưng 2,Hiệu thuốc,0292 6253 445,"Nhà Thuốc Gia Hưng 2, 57 Đ. 30 Tháng 4, Hưng Lợi, Ninh Kiều, Cần Thơ","Hưng Lợi, Ninh Kiều",57 Đ. 30 Tháng 4,Cần Thơ,,"Ninh Kiều, Cần Thơ",VN
664,ChIJXWMvJSKIoDERtMmQj2l5D2A,Nhà Thuốc Xuân Mai,Hiệu thuốc,0292 3834 969,"Nhà Thuốc Xuân Mai, 85 Đ. Mậu Thân, Xuân Khánh, Ninh Kiều, Cần Thơ","Xuân Khánh, Ninh Kiều",85 Đ. Mậu Thân,Cần Thơ,,"Ninh Kiều, Cần Thơ",VN
666,ChIJ-f6yVhiIoDERiu7YWxSCQss,Nhà Thuốc Phương Anh,Hiệu thuốc,0292 3834 285,"Nhà Thuốc Phương Anh, 30 Đ. Mậu Thân, An Phú, Ninh Kiều, Cần Thơ","An Phú, Ninh Kiều",30 Đ. Mậu Thân,Cần Thơ,,"Ninh Kiều, Cần Thơ",VN
671,ChIJi8LlPTuIoDERR9wd5g5sBVM,Nhà Thuốc Lan Hương,Hiệu thuốc,0292 3730 385,"Nhà Thuốc Lan Hương, 152 Đ. 3 Tháng 2, Xuân Khánh, Ninh Kiều, Cần Thơ","Xuân Khánh, Ninh Kiều",152 Đ. 3 Tháng 2,Cần Thơ,,"Ninh Kiều, Cần Thơ",VN
673,ChIJNSCN0qBioDERviJFf_pxbz4,Nhà Thuốc Tây Sơn Linh,Hiệu thuốc,0292 3822 591,"Nhà Thuốc Tây Sơn Linh, 5 Đ.Xô Viết Nghệ Tĩnh, Tân An, Ninh Kiều, Cần Thơ","Tân An, Ninh Kiều",5 Đ.Xô Viết Nghệ Tĩnh,Cần Thơ,,"Ninh Kiều, Cần Thơ",VN
680,ChIJvxVV659ioDERQWR462pBXWQ,Nhà Thuốc Hồng Thắm,Hiệu thuốc,,"Nhà Thuốc Hồng Thắm, 156 Đường Nguyễn An Ninh, Tân An, Ninh Kiều, Cần Thơ","Tân An, Ninh Kiều",156 Đường Nguyễn An Ninh,Cần Thơ,,"Ninh Kiều, Cần Thơ",VN
683,ChIJe118Bv-HoDER1oF41NLmH_E,Nhà Thuốc 168,Hiệu thuốc,0869 293 907,"Nhà Thuốc 168, 39 Đ. Nguyễn Văn Cừ, An Hoà, Ninh Kiều, Cần Thơ","An Hoà, Ninh Kiều",39 Đ. Nguyễn Văn Cừ,Cần Thơ,,"Ninh Kiều, Cần Thơ",VN
684,ChIJH1Yv_QWIoDERDE_WoUBtnDI,Nhà thuốc Minh Học,Hiệu thuốc,0292 3892 899,"Nhà thuốc Minh Học, 20 Đ. Nguyễn Văn Cừ, An Hoà, Ninh Kiều, Cần Thơ","An Hoà, Ninh Kiều",20 Đ. Nguyễn Văn Cừ,Cần Thơ,,"Ninh Kiều, Cần Thơ",VN
685,ChIJK7a6FQyIoDERoIRACrQZJeI,Nhà Thuốc Thuỳ Linh,Hiệu thuốc,0913 974 674,"Nhà Thuốc Thuỳ Linh, 147D Đ. Nguyễn Đệ, An Hoà, Ninh Kiều, Cần Thơ","An Hoà, Ninh Kiều",147D Đ. Nguyễn Đệ,Cần Thơ,,"Ninh Kiều, Cần Thơ",VN
686,ChIJ03YeGASIoDERigBGNc6jhmQ,Nhà Thuốc Cần Thơ,Hiệu thuốc,0292 3889 179,"Nhà Thuốc Cần Thơ, 16 Đ. Trần Việt Châu, Thới Bình, Ninh Kiều, Cần Thơ","Thới Bình, Ninh Kiều",16 Đ. Trần Việt Châu,Cần Thơ,,"Ninh Kiều, Cần Thơ",VN
687,ChIJ9zLVCwaIoDERTxRL-54j-dg,Nhà Thuốc Số 11,Hiệu thuốc,0292 3894 260,"Nhà Thuốc Số 11, 117 Đ. Nguyễn Văn Cừ, An Hoà, Ninh Kiều, Cần Thơ","An Hoà, Ninh Kiều",117 Đ. Nguyễn Văn Cừ,Cần Thơ,,"Ninh Kiều, Cần Thơ",VN
688,ChIJY5pk-waIoDER5S6SKgzTcsY,NHÀ THUỐC MINH TRUNG,Hiệu thuốc,,"NHÀ THUỐC MINH TRUNG, 162 Đ. Cách Mạng Tháng 8, Cái Khế, Ninh Kiều, Cần Thơ","Cái Khế, Ninh Kiều",162 Đ. Cách Mạng Tháng 8,Cần Thơ,,"Ninh Kiều, Cần Thơ",VN
689,ChIJoeG9seKHoDER5a63KRp-31I,Hiệu Thuốc Đức Minh,Hiệu thuốc,,"Hiệu Thuốc Đức Minh, 144 Đ. Cách Mạng Tháng 8, Cái Khế, Bình Thủy, Cần Thơ","Cái Khế, Bình Thủy",144 Đ. Cách Mạng Tháng 8,Cần Thơ,,"Bình Thủy, Cần Thơ",VN
690,ChIJ0arahwOIoDERGtTeyNxau3U,Nhà Thuốc Tư Nhân Thanh Thảo,Hiệu thuốc,0292 3765 893,"Nhà Thuốc Tư Nhân Thanh Thảo, 22 Đ. Trần Việt Châu, Thới Bình, Ninh Kiều, Cần Thơ","Thới Bình, Ninh Kiều",22 Đ. Trần Việt Châu,Cần Thơ,,"Ninh Kiều, Cần Thơ",VN
691,ChIJ8_2OugaIoDERfBOsnvtjFDg,Nhà Thuốc Tân Trào,Hiệu thuốc,0292 3824 537,"Nhà Thuốc Tân Trào, 67 Đ. Cách Mạng Tháng 8, Cái Khế, Ninh Kiều, Cần Thơ","Cái Khế, Ninh Kiều",67 Đ. Cách Mạng Tháng 8,Cần Thơ,,"Ninh Kiều, Cần Thơ",VN
692,ChIJaeI3nQaIoDER34HFb7nrK5o,Nhà Thuốc Tây Đình Hào,Hiệu thuốc,,"Nhà Thuốc Tây Đình Hào, 117 Đ. Trần Việt Châu, An Hoà, Ninh Kiều, Cần Thơ","An Hoà, Ninh Kiều",117 Đ. Trần Việt Châu,Cần Thơ,,"Ninh Kiều, Cần Thơ",VN
693,ChIJ5YtADahioDERQPY7QLUBM-A,Nhà Thuốc Hà Giang,Cửa hàng bán thuốc,0987 700 099,"Nhà Thuốc Hà Giang, 47 Trần Văn Khéo, An Hội, Ninh Kiều, Cần Thơ","An Hội, Ninh Kiều",47 Trần Văn Khéo,Cần Thơ,,"Ninh Kiều, Cần Thơ",VN
694,ChIJz2rC_AWIoDER99wvw65x9Es,Nhà Thuốc Phú Lộc,Hiệu thuốc,0292 3831 016,"Nhà Thuốc Phú Lộc, 155 Đ. Nguyễn Văn Cừ, An Hoà, Ninh Kiều, Cần Thơ","An Hoà, Ninh Kiều",155 Đ. Nguyễn Văn Cừ,Cần Thơ,,"Ninh Kiều, Cần Thơ",VN
695,ChIJQWskvgiIoDERVSsaD45zVYY,Nhà Thuốc Hoàng Diệu,Hiệu thuốc,,"3Q29+8FX Nhà Thuốc Hoàng Diệu, Đ. Nguyễn Đệ, An Hoà, Ninh Kiều, Cần Thơ","An Hoà, Ninh Kiều","3Q29+8FX, Đ. Nguyễn Đệ",Cần Thơ,,"Ninh Kiều, Cần Thơ",VN
696,ChIJi8UZuuOHoDERYhmjEsVj6eg,Nhà Thuốc Hồng Minh,Hiệu thuốc,0918 005 660,"Nhà Thuốc Hồng Minh, 45 3 Tháng 2, An Thới, Bình Thủy, Cần Thơ","An Thới, Bình Thủy",45 3 Tháng 2,Cần Thơ,,"Bình Thủy, Cần Thơ",VN
697,ChIJ_yCLXQaIoDER3csNuCrtu-c,Nhà Thuốc Khỏe 2,Hiệu thuốc,0292 3855 656,"Nhà Thuốc Khỏe 2, 36 Đ. Trần Việt Châu, An Hoà, Ninh Kiều, Cần Thơ","An Hoà, Ninh Kiều",36 Đ. Trần Việt Châu,Cần Thơ,,"Ninh Kiều, Cần Thơ",VN
698,ChIJGXHQD-GHoDERz1jV1gl0oNU,Nhà Thuốc Mai Xuân,Hiệu thuốc,0292 3888 431,"Nhà Thuốc Mai Xuân, 565 Trần Quang Diệu, An Thới, Bình Thủy, Cần Thơ 900000","An Thới, Bình Thủy",565 Trần Quang Diệu,Cần Thơ,900000.0,"Bình Thủy, Cần Thơ",VN
699,ChIJWQQlYgOIoDERjtdvUBOKQtM,Nhà Thuốc Trọng Khiêm,Hiệu thuốc,0292 3823 583,"Nhà Thuốc Trọng Khiêm, 77 Đ. Phạm Ngũ Lão, Thới Bình, Ninh Kiều, Cần Thơ 94000","Thới Bình, Ninh Kiều",77 Đ. Phạm Ngũ Lão,Cần Thơ,94000.0,"Ninh Kiều, Cần Thơ",VN
700,ChIJq6qqBw-IoDERXXSRjvgY4Vs,Tiệm Thuốc Tây Hoàng Vũ,Hiệu thuốc,0918 670 557,"Tiệm Thuốc Tây Hoàng Vũ, 340, Đường Nguyễn Văn Cừ, Quận Ninh Kiều, Tp Cần Thơ, An Hoà, Ninh Kiều, Cần Thơ","An Hoà, Ninh Kiều","340, Đường Nguyễn Văn Cừ, Quận Ninh Kiều, Tp Cần Thơ",Cần Thơ,,"Ninh Kiều, Cần Thơ",VN
701,ChIJJ3997hGIoDER6B7GOkzvz4s,Nhà Thuốc Hồng Châu,Hiệu thuốc,,"Nhà Thuốc Hồng Châu, 85 Đ. Mậu Thân, An Hoà, Ninh Kiều, Cần Thơ","An Hoà, Ninh Kiều",85 Đ. Mậu Thân,Cần Thơ,,"Ninh Kiều, Cần Thơ",VN
702,ChIJa_MZl6BioDERh0oZsxapNGw,Nhà Thuốc Hoàn Huy 1,Hiệu thuốc,0292 3915 477,"Nhà Thuốc Hoàn Huy 1, 27/3, Đường Ngô Quyền, Quận Cái Răng, Tân An, Ninh Kiều, Cần Thơ","Tân An, Ninh Kiều","27/3, Đường Ngô Quyền, Quận Cái Răng",Cần Thơ,,"Ninh Kiều, Cần Thơ",VN
703,ChIJnXJRwemJoDERUSM0nDnwX7o,Nhà Thuốc Phương Huỳnh,Hiệu thuốc,,"Nhà Thuốc Phương Huỳnh, 108A Đ. Mậu Thân, An Hoà, Ninh Kiều, Cần Thơ","An Hoà, Ninh Kiều",108A Đ. Mậu Thân,Cần Thơ,,"Ninh Kiều, Cần Thơ",VN
704,ChIJo42lpBOIoDEReoXEUGS8sPE,Nhà Thuốc Tây Minh Ngọc,Hiệu thuốc,0292 3892 899,"Nhà Thuốc Tây Minh Ngọc, 138 Đ. Nguyễn Văn Cừ, Phường An Khánh, Ninh Kiều, Cần Thơ","Phường An Khánh, Ninh Kiều",138 Đ. Nguyễn Văn Cừ,Cần Thơ,,"Ninh Kiều, Cần Thơ",VN
705,ChIJ2egfvJRjoDERx1ilUDOt_VU,Nhà Thuốc Tây Minh Khánh,Hiệu thuốc,,"Nhà Thuốc Tây Minh Khánh, 35 Trần Phú, Cái Khế, Ninh Kiều, Cần Thơ","Cái Khế, Ninh Kiều",35 Trần Phú,Cần Thơ,,"Ninh Kiều, Cần Thơ",VN
706,ChIJtwxElR-IoDERPj1npZO-N2Q,Nhà Thuốc Nguyệt Thu,Hiệu thuốc,,"Nhà Thuốc Nguyệt Thu, 86/3 Đ. Lý Tự Trọng, Tân An, Ninh Kiều, Cần Thơ","Tân An, Ninh Kiều",86/3 Đ. Lý Tự Trọng,Cần Thơ,,"Ninh Kiều, Cần Thơ",VN
707,ChIJ5wEiAKFioDERmUxCMzLHZOE,Nhà Thuốc Song Minh,Hiệu thuốc,0292 3822 147,"Nhà Thuốc Song Minh, 51 Đ. Ngô Quyền, Tân An, Ninh Kiều, Cần Thơ","Tân An, Ninh Kiều",51 Đ. Ngô Quyền,Cần Thơ,,"Ninh Kiều, Cần Thơ",VN
708,ChIJHQbDE6BioDER-_L_iEB3b7c,Nhà Thuốc Số 15,Hiệu thuốc,,"Nhà Thuốc Số 15, 25 Đ. Đề Thám, Tân An, Ninh Kiều, Cần Thơ","Tân An, Ninh Kiều",25 Đ. Đề Thám,Cần Thơ,,"Ninh Kiều, Cần Thơ",VN
709,ChIJyf-zehyIoDER1WYTA3qoLVg,Nhà Thuốc Tây Phi Nga,Hiệu thuốc,0292 3832 092,"Nhà Thuốc Tây Phi Nga, 12 Đ. Huỳnh Thúc Kháng, An Cư, Ninh Kiều, Cần Thơ","An Cư, Ninh Kiều",12 Đ. Huỳnh Thúc Kháng,Cần Thơ,,"Ninh Kiều, Cần Thơ",VN
710,ChIJQZiKlZ9ioDERO5MlK0uAqXo,Nhà Thuốc Tây Tân Hương,Hiệu thuốc,,"Nhà Thuốc Tây Tân Hương, 143 Đường Châu Văn Liêm, Tân An, Ninh Kiều, Cần Thơ","Tân An, Ninh Kiều",143 Đường Châu Văn Liêm,Cần Thơ,,"Ninh Kiều, Cần Thơ",VN
711,ChIJLww-DZ9ioDERVa5DtRZOORQ,Nhà Thuốc Hoàng Châu,Hiệu thuốc,0292 3813 358,"Nhà Thuốc Hoàng Châu, 97 Đ. Đề Thám, Tân An, Ninh Kiều, Cần Thơ 94100","Tân An, Ninh Kiều",97 Đ. Đề Thám,Cần Thơ,94100.0,"Ninh Kiều, Cần Thơ",VN
712,ChIJkd8HciCIoDERNn_XwCdhqW8,Nhà Thuốc Nhật Tân,Hiệu thuốc,0292 3819 222,"Nhà Thuốc Nhật Tân, 12 Đ. 30 Tháng 4, An Lạc, Ninh Kiều, Cần Thơ","An Lạc, Ninh Kiều",12 Đ. 30 Tháng 4,Cần Thơ,,"Ninh Kiều, Cần Thơ",VN
713,ChIJux7V5yCIoDERl-LVmGka8M8,Nhà Thuốc Tây Bảo Nguyệt,Hiệu thuốc,,"Nhà Thuốc Tây Bảo Nguyệt, 113 Quang Trung, An Lạc, Ninh Kiều, Cần Thơ","An Lạc, Ninh Kiều",113 Quang Trung,Cần Thơ,,"Ninh Kiều, Cần Thơ",VN
714,ChIJ7R0_LmuIoDEREXsftvUSM3w,Tiệm Thuốc Tây Ngữ Đăng,Hiệu thuốc,0292 3895 642,"Tiệm Thuốc Tây Ngữ Đăng, 256/10, Đường Nguyễn Văn Cừ, Quận Ninh Kiều, Phường An Khánh, Ninh Kiều, Cần Thơ","Phường An Khánh, Ninh Kiều","256/10, Đường Nguyễn Văn Cừ, Quận Ninh Kiều",Cần Thơ,,"Ninh Kiều, Cần Thơ",VN
715,ChIJPTu4pfWJoDERlj1LGHrLPOA,Nhà thuốc Hồng Vy,Hiệu thuốc,0902 246 494,"Nhà thuốc Hồng Vy, 65 Trần Phú, Thới Bình, Ninh Kiều, Cần Thơ 94152","Thới Bình, Ninh Kiều",65 Trần Phú,Cần Thơ,94152.0,"Ninh Kiều, Cần Thơ",VN
716,ChIJnyC56ahioDERXiZ_7dl5Oko,Nhà Thuốc Tư Nhân Minh Hạnh,Hiệu thuốc,0292 3500 950,"Nhà Thuốc Tư Nhân Minh Hạnh, 3 Đ. Lương Định Của, Cái Khế, Ninh Kiều, Cần Thơ","Cái Khế, Ninh Kiều",3 Đ. Lương Định Của,Cần Thơ,,"Ninh Kiều, Cần Thơ",VN
717,ChIJ8yQzNalioDERerzm3CoTWxg,Nhà Thuốc Hòa Đào,Hiệu thuốc,0292 3851 624,"Nhà Thuốc Hòa Đào, 168, Đường Lê Lợi, Phường Thốt Nốt, Quận Thốt Nốt, Cái Khế, Ninh Kiều, Cần Thơ","Cái Khế, Ninh Kiều","168, Đường Lê Lợi, Phường Thốt Nốt, Quận Thốt Nốt",Cần Thơ,,"Ninh Kiều, Cần Thơ",VN
718,ChIJ_47Kn-VjoDERCCJpYYVvVrs,Nhà Thuốc Minh Khánh,Hiệu thuốc,,"Nhà Thuốc Minh Khánh, 84 Lê Lợi, Cái Khế, Ninh Kiều, Cần Thơ","Cái Khế, Ninh Kiều",84 Lê Lợi,Cần Thơ,,"Ninh Kiều, Cần Thơ",VN
723,ChIJT3dcdahioDERw0hGGuvZQXw,Nhà Thuốc Nguyễn khoa,Hiệu thuốc,0292 3781 275,"Nhà Thuốc Nguyễn khoa, 8B1, Ung Văn Khiêm, Quận Ninh Kiều, An Hội, Ninh Kiều, Cần Thơ","An Hội, Ninh Kiều","8B1, Ung Văn Khiêm, Quận Ninh Kiều",Cần Thơ,,"Ninh Kiều, Cần Thơ",VN
724,ChIJwf8aTqFioDERDhIKvlm-zUg,Nhà Thuốc Đổ Chiểu,Hiệu thuốc,,"Nhà Thuốc Đổ Chiểu, An Hội, Ninh Kiều, Cần Thơ","An Hội, Ninh Kiều",,Cần Thơ,,"Ninh Kiều, Cần Thơ",VN
725,ChIJC31ZMadioDERzwRNqVpmQrw,Nhà Thuốc Cẩm Thu,Hiệu thuốc,0292 3821 614,"Nhà Thuốc Cẩm Thu, 38 Đ.Xô Viết Nghệ Tĩnh, An Hội, Ninh Kiều, Cần Thơ","An Hội, Ninh Kiều",38 Đ.Xô Viết Nghệ Tĩnh,Cần Thơ,,"Ninh Kiều, Cần Thơ",VN
726,ChIJG3HPjlGJoDEREFfBBuYqXv4,Nhà thuốc Hiếu Trang,Hiệu thuốc,,"2QPJ+VCH Nhà thuốc Hiếu Trang, Hẻm 107/60, An Cư, Ninh Kiều, Cần Thơ","An Cư, Ninh Kiều","2QPJ+VCH, Hẻm 107/60",Cần Thơ,,"Ninh Kiều, Cần Thơ",VN
729,ChIJVzww7qdioDERxlfzpRSkZaI,Binh An Pharmacy,Hiệu thuốc,0292 3765 115,"Binh An Pharmacy, 9A, Nguyen Trai Street, Cai Khe Ward, Ninh Kieu District, Can Tho City, An Hội, Ninh Kiều, Cần Thơ","An Hội, Ninh Kiều","9A, Nguyen Trai Street, Cai Khe Ward, Ninh Kieu District, Can Tho City",Cần Thơ,,"Ninh Kiều, Cần Thơ",VN
731,ChIJl5gfMB2IoDERDc8iDjWZ08M,Nhà Thuốc Lệ Uyên II,Hiệu thuốc,0292 3642 999,"Nhà Thuốc Lệ Uyên II, 16 Đ. Đinh Tiên Hoàng, An Hội, Ninh Kiều, Cần Thơ","An Hội, Ninh Kiều",16 Đ. Đinh Tiên Hoàng,Cần Thơ,,"Ninh Kiều, Cần Thơ",VN
733,ChIJ15RvdqBioDER_HtX2FOZ658,Nhà Thuốc Hoàng Liên,Hiệu thuốc,0974 578 687,"Nhà Thuốc Hoàng Liên, 86 Đ. Đề Thám, Tân An, Ninh Kiều, Cần Thơ","Tân An, Ninh Kiều",86 Đ. Đề Thám,Cần Thơ,,"Ninh Kiều, Cần Thơ",VN
737,ChIJCbOd0Z5ioDER56AxFliDjBk,Nhà Thuốc Châu An,Hiệu thuốc,0292 3831 471,"Nhà Thuốc Châu An, 48 Đường Hai Bà Trưng, Tân An, Ninh Kiều, Cần Thơ","Tân An, Ninh Kiều",48 Đường Hai Bà Trưng,Cần Thơ,,"Ninh Kiều, Cần Thơ",VN
739,ChIJYc61KyCIoDEROrfbz_tbhxE,Nhà Thuốc Bảo Trân,Hiệu thuốc,0292 3831 267,"Nhà Thuốc Bảo Trân, 2 Đ. Lê Lai, An Lạc, Ninh Kiều, Cần Thơ","An Lạc, Ninh Kiều",2 Đ. Lê Lai,Cần Thơ,,"Ninh Kiều, Cần Thơ",VN
744,ChIJdcTGxp1ioDERSGnuFe4ZZY0,Nhà Thuốc Hà Giang,Hiệu thuốc,,"Nhà Thuốc Hà Giang, 73 Nguyễn Thị Minh Khai, An Lạc, Ninh Kiều, Cần Thơ","An Lạc, Ninh Kiều",73 Nguyễn Thị Minh Khai,Cần Thơ,,"Ninh Kiều, Cần Thơ",VN
751,ChIJ9yhs7KlioDERmrViFnUNRHY,Nhà Thuốc Thảo Nguyên,Hiệu thuốc,,"Nhà Thuốc Thảo Nguyên, 112 Trần Phú, Cái Khế, Ninh Kiều, Cần Thơ 900000","Cái Khế, Ninh Kiều",112 Trần Phú,Cần Thơ,900000.0,"Ninh Kiều, Cần Thơ",VN
753,ChIJizhCDqhioDERHlsw4LpRGQ0,Nhà Thuốc Ánh Toàn,Hiệu thuốc,0292 3764 758,"Nhà Thuốc Ánh Toàn, Đường Trần Văn Khéo, An Hội, Ninh Kiều, Cần Thơ","An Hội, Ninh Kiều",Đường Trần Văn Khéo,Cần Thơ,,"Ninh Kiều, Cần Thơ",VN
758,ChIJU1Nwax2IoDERcy7AHeuYyP4,Nhà Thuốc Ngô Quyền,Hiệu thuốc,,"2QRJ+Q75 Nhà Thuốc Ngô Quyền, Đ. Đinh Tiên Hoàng, An Hội, Ninh Kiều, Cần Thơ","An Hội, Ninh Kiều","2QRJ+Q75, Đ. Đinh Tiên Hoàng",Cần Thơ,,"Ninh Kiều, Cần Thơ",VN
764,ChIJoSVIHKJioDERiKYPf9XPCRc,Nhà Thuốc Tân Tế Hòa,Hiệu thuốc,0292 3821 859,"Nhà Thuốc Tân Tế Hòa, 70 Đường Hai Bà Trưng, Tân An, Ninh Kiều, Cần Thơ","Tân An, Ninh Kiều",70 Đường Hai Bà Trưng,Cần Thơ,,"Ninh Kiều, Cần Thơ",VN
766,ChIJ1XSq3QOIoDERrJgsS3SN6Yw,Nhà Thuốc Nguyễn Khoa,Hiệu thuốc,0292 3761 275,"Nhà Thuốc Nguyễn Khoa, 6 Đ. Ung Văn Khiêm, Thới Bình, Ninh Kiều, Cần Thơ","Thới Bình, Ninh Kiều",6 Đ. Ung Văn Khiêm,Cần Thơ,,"Ninh Kiều, Cần Thơ",VN
770,ChIJBV6M1AKIoDER1aeSfLl57wo,Minh Khanh Pharmacy No.2,Hiệu thuốc,0292 3816 890,"Minh Khanh Pharmacy No.2, City, 4/2/48 Đ. Đinh Tiên Hoàng, Street, Ninh Kiều, Cần Thơ","Street, Ninh Kiều","City, 4/2/48 Đ. Đinh Tiên Hoàng",Cần Thơ,,"Ninh Kiều, Cần Thơ",VN
790,ChIJST708gKIoDERye5d2Qln2Uw,Nhà Thuốc Thiên Phú 2,Hiệu thuốc,0939 328 599,"Nhà Thuốc Thiên Phú 2, 7 Trần Phú, Thới Bình, Ninh Kiều, Cần Thơ","Thới Bình, Ninh Kiều",7 Trần Phú,Cần Thơ,,"Ninh Kiều, Cần Thơ",VN
792,ChIJ8yswb96JoDERJMJe1agBGuQ,Nhà thuốc Nhật Anh-NPP Mầm lúa mạch,Hiệu thuốc,0907 368 076,"Nhà thuốc Nhật Anh-NPP Mầm lúa mạch, 98 Hùng Vương, An Cư, Ninh Kiều, Cần Thơ","An Cư, Ninh Kiều",98 Hùng Vương,Cần Thơ,,"Ninh Kiều, Cần Thơ",VN
796,ChIJW7w23wKIoDEReXw0bUdnQw0,Nhà Thuốc Vĩnh Hội,Hiệu thuốc,0292 3822 104,"Nhà Thuốc Vĩnh Hội, 22 Hùng Vương, Thới Bình, Ninh Kiều, Cần Thơ","Thới Bình, Ninh Kiều",22 Hùng Vương,Cần Thơ,,"Ninh Kiều, Cần Thơ",VN
797,ChIJn8TLJwOIoDER3NyB3OTkgoM,Nhà Thuốc Gia Cường,Hiệu thuốc,0292 6280 703,"Nhà Thuốc Gia Cường, 40 Hùng Vương, An Hội, Ninh Kiều, Cần Thơ","An Hội, Ninh Kiều",40 Hùng Vương,Cần Thơ,,"Ninh Kiều, Cần Thơ",VN
801,ChIJ3cc1KAOIoDERkQ7YnKBrHGA,Nhà Thuốc Lan Chi,Hiệu thuốc,0938 153 399,"Nhà Thuốc Lan Chi, 41 Hùng Vương, An Hội, Ninh Kiều, Cần Thơ","An Hội, Ninh Kiều",41 Hùng Vương,Cần Thơ,,"Ninh Kiều, Cần Thơ",VN
805,ChIJL-nd0hyIoDER_iW7QuAY3Aw,Nhà Thuốc Imexpharm,Hiệu thuốc,0292 3769 974,"Nhà Thuốc Imexpharm, 69 Hùng Vương, An Hội, Ninh Kiều, Cần Thơ","An Hội, Ninh Kiều",69 Hùng Vương,Cần Thơ,,"Ninh Kiều, Cần Thơ",VN
813,ChIJr_n-vOuJoDERNjTuSGJ1ZIg,Nhà thuốc Thuận Nguyên,Hiệu thuốc,,"Nhà thuốc Thuận Nguyên, 4 Đ. Trần Hưng Đạo, An Cư, Ninh Kiều, Cần Thơ","An Cư, Ninh Kiều",4 Đ. Trần Hưng Đạo,Cần Thơ,,"Ninh Kiều, Cần Thơ",VN
831,ChIJWWixdJeJoDERMoK36fYStzs,Nhà Thuốc Ds Lê Minh Thành,Hiệu thuốc,0988 233 650,"Nhà Thuốc Ds Lê Minh Thành, 01 Đ. Trần Hưng Đạo, An Cư, Ninh Kiều, Cần Thơ","An Cư, Ninh Kiều",01 Đ. Trần Hưng Đạo,Cần Thơ,,"Ninh Kiều, Cần Thơ",VN
834,ChIJH7UhqwSIoDERei8bl6bKfGs,Nhà Thuốc Phong Phú,Hiệu thuốc,,"2QVG+G9Q Nhà Thuốc Phong Phú, Hẻm 132/42, Thới Bình, Ninh Kiều, Cần Thơ","Thới Bình, Ninh Kiều","2QVG+G9Q, Hẻm 132/42",Cần Thơ,,"Ninh Kiều, Cần Thơ",VN
840,ChIJ1yVdcxyIoDER_dN6PP18iCQ,Nhà Thuốc Tường Nguyên,Hiệu thuốc,0292 6220 810,"Nhà Thuốc Tường Nguyên, 6 Đ. Trần Hưng Đạo, An Cư, Ninh Kiều, Cần Thơ","An Cư, Ninh Kiều",6 Đ. Trần Hưng Đạo,Cần Thơ,,"Ninh Kiều, Cần Thơ",VN
843,ChIJq74GYx6IoDERzt-Fx2J51f4,Nhà Thuốc Lâm Anh,Hiệu thuốc,0944 099 799,"2QPH+WPP Nhà Thuốc Lâm Anh, An Cư, Ninh Kiều, Cần Thơ","An Cư, Ninh Kiều",2QPH+WPP,Cần Thơ,,"Ninh Kiều, Cần Thơ",VN
844,ChIJP_jHsR6IoDERNDfACiUddIA,Nhà Thuốc Trung Tín,Hiệu thuốc,0292 3829 113,"Nhà Thuốc Trung Tín, 174 Đ. Lý Tự Trọng, An Cư, Ninh Kiều, Cần Thơ","An Cư, Ninh Kiều",174 Đ. Lý Tự Trọng,Cần Thơ,,"Ninh Kiều, Cần Thơ",VN
848,ChIJCcCKbXqJoDERSvcK-RzCNYo,Nhà Thuốc Bảo Thi 4,Hiệu thuốc,,"2QG8+2W6 Nhà Thuốc Bảo Thi 4, Xuân Khánh, Ninh Kiều, Cần Thơ","Xuân Khánh, Ninh Kiều",2QG8+2W6,Cần Thơ,,"Ninh Kiều, Cần Thơ",VN
849,ChIJ43FSqA6IoDERdd4ddmrMYXQ,Nhà Thuốc Hiếu Phạm,Hiệu thuốc,0907 917 596,"Nhà Thuốc Hiếu Phạm, 76 Đ. Nguyễn Đệ, An Hoà, Bình Thủy, Cần Thơ","An Hoà, Bình Thủy",76 Đ. Nguyễn Đệ,Cần Thơ,,"Bình Thủy, Cần Thơ",VN
850,ChIJPW83wwiIoDERgvGU2f7PhzA,Nhà Thuốc Anh Tuấn,Hiệu thuốc,0292 6252 606,"Nhà Thuốc Anh Tuấn, 42 Đ. Nguyễn Đệ, An Hoà, Ninh Kiều, Cần Thơ","An Hoà, Ninh Kiều",42 Đ. Nguyễn Đệ,Cần Thơ,,"Ninh Kiều, Cần Thơ",VN
851,ChIJS071GgyIoDERtOGuwsJ2hVE,Nhà Thuốc Như Ngọc,Hiệu thuốc,0292 3887 779,"Nhà Thuốc Như Ngọc, 58 Vành Đai Phi Trường, An Hoà, Ninh Kiều, Cần Thơ","An Hoà, Ninh Kiều",58 Vành Đai Phi Trường,Cần Thơ,,"Ninh Kiều, Cần Thơ",VN
852,ChIJEdggAwyIoDERRA30MsFM-Vo,Nhà Thuốc Hoàng Châu,Hiệu thuốc,0292 3896 257,"Nhà Thuốc Hoàng Châu, 48 Vành Đai Phi Trường, An Hoà, Ninh Kiều, Cần Thơ","An Hoà, Ninh Kiều",48 Vành Đai Phi Trường,Cần Thơ,,"Ninh Kiều, Cần Thơ",VN
854,ChIJ8cmudMuJoDERXsBUNQ2OmqY,Nhà Thuốc Good@pharmacy,Hiệu thuốc,,"Nhà Thuốc Good@pharmacy, 127d Đ. Mậu Thân, An Hoà, Ninh Kiều, Cần Thơ","An Hoà, Ninh Kiều",127d Đ. Mậu Thân,Cần Thơ,,"Ninh Kiều, Cần Thơ",VN
856,ChIJq6qqBw-IoDERABCUuBgidYE,Tiệm Thuốc Tây An Khánh,Hiệu thuốc,0292 2220 316,"Tiệm Thuốc Tây An Khánh, 138, Nguyễn Văn Cừ, Quận Ninh Kiều, Tp Cần Thơ, An Hoà, Ninh Kiều, Cần Thơ","An Hoà, Ninh Kiều","138, Nguyễn Văn Cừ, Quận Ninh Kiều, Tp Cần Thơ",Cần Thơ,,"Ninh Kiều, Cần Thơ",VN
859,ChIJZR9VhDqHoDERhXVJPyz9UTo,Nhà thuốc Thanh Ngân,Hiệu thuốc,,"Nhà thuốc Thanh Ngân, 563 Trần Quang Diệu, An Thới, Bình Thủy, Cần Thơ","An Thới, Bình Thủy",563 Trần Quang Diệu,Cần Thơ,,"Bình Thủy, Cần Thơ",VN
860,ChIJu25FVQ6IoDERdwjJLuzUY5w,Nhà Thuốc Ngữ Đăng,Hiệu thuốc,,"Nhà Thuốc Ngữ Đăng, 256 Đ. Võ Trường Toản, An Hoà, Ninh Kiều, Cần Thơ","An Hoà, Ninh Kiều",256 Đ. Võ Trường Toản,Cần Thơ,,"Ninh Kiều, Cần Thơ",VN
861,ChIJmxKDCA2IoDERhqKXVYo7cEc,Nhà Thuốc Minh Nguyệt,Hiệu thuốc,,"Nhà Thuốc Minh Nguyệt, An Hòa, Ninh Kiều, Cần Thơ","An Hòa, Ninh Kiều",,Cần Thơ,,"Ninh Kiều, Cần Thơ",VN
862,ChIJq6qqBw-IoDERQynle3xwq_Y,Nhà Thuốc Đức Mạnh,Hiệu thuốc,0953 776 716,"Nhà Thuốc Đức Mạnh, 10 Đ. Nguyễn Văn Cừ, An Hoà, Ninh Kiều, Cần Thơ","An Hoà, Ninh Kiều",10 Đ. Nguyễn Văn Cừ,Cần Thơ,,"Ninh Kiều, Cần Thơ",VN
865,ChIJzTcimQ2IoDERo_gbMtZHO-Y,Nhà Thuốc Tuấn Kiệt,Hiệu thuốc,0906 304 248,"Nhà Thuốc Tuấn Kiệt, 111 Võ Văn Kiệt, An Hoà, Ninh Kiều, Cần Thơ","An Hoà, Ninh Kiều",111 Võ Văn Kiệt,Cần Thơ,,"Ninh Kiều, Cần Thơ",VN
866,ChIJOfyG4gWIoDERTP4Rzk6QQgk,Nhà Thuốc Ngọc Trân,Hiệu thuốc,0292 3899 005,"Nhà Thuốc Ngọc Trân, 139 Đ. Nguyễn Văn Cừ, An Hoà, Ninh Kiều, Cần Thơ","An Hoà, Ninh Kiều",139 Đ. Nguyễn Văn Cừ,Cần Thơ,,"Ninh Kiều, Cần Thơ",VN
867,ChIJK5L6jA2IoDER-JnwpS-EzfI,Nhà Thuốc Hạnh Phúc,Hiệu thuốc,,"Nhà Thuốc Hạnh Phúc, An Hòa, Ninh Kiều, Cần Thơ","An Hòa, Ninh Kiều",,Cần Thơ,,"Ninh Kiều, Cần Thơ",VN
868,ChIJZ-dwMrOJoDERWfgzf65q2VM,Nhà thuốc Nguyễn Lê,Hiệu thuốc,,"Nhà thuốc Nguyễn Lê, 67 Đ. Nguyễn Văn Cừ, An Hoà, Ninh Kiều, Cần Thơ","An Hoà, Ninh Kiều",67 Đ. Nguyễn Văn Cừ,Cần Thơ,,"Ninh Kiều, Cần Thơ",VN
869,ChIJo41pGHWIoDERSUiQvPhRL0o,Nhà Thuốc Bảo Hà,Hiệu thuốc,,"Nhà Thuốc Bảo Hà, 400 Đ. Đồng Văn Cống, An Thới, Bình Thủy, Cần Thơ","An Thới, Bình Thủy",400 Đ. Đồng Văn Cống,Cần Thơ,,"Bình Thủy, Cần Thơ",VN
870,ChIJJ6ngrOKHoDER608AhZET4JI,Nhà Thuốc Khánh Đăng,Hiệu thuốc,,"Nhà Thuốc Khánh Đăng, Bùi Hữu Nghĩa, Ninh Kiều, Cần Thơ","Bùi Hữu Nghĩa, Ninh Kiều",,Cần Thơ,,"Ninh Kiều, Cần Thơ",VN
871,ChIJTT4y_hCIoDERnhHbZmK-zBI,Nhà Thuốc Anh Thư,Hiệu thuốc,7103835850,"Nhà Thuốc Anh Thư, 65 Đ. Mậu Thân, An Nghiệp, Ninh Kiều, Cần Thơ","An Nghiệp, Ninh Kiều",65 Đ. Mậu Thân,Cần Thơ,,"Ninh Kiều, Cần Thơ",VN
875,ChIJHRSU-RGIoDERqO7Dab18GAU,Nhà Thuốc Phú Lộc 1,Hiệu thuốc,0292 6505 068,"Nhà Thuốc Phú Lộc 1, 111 Võ Văn Kiệt, An Hoà, Ninh Kiều, Cần Thơ","An Hoà, Ninh Kiều",111 Võ Văn Kiệt,Cần Thơ,,"Ninh Kiều, Cần Thơ",VN
876,ChIJT2OBvHKIoDERjgREhirLfWc,Nhà Thuốc Minh Hằng,Hiệu thuốc,,"2QW4+5XQ Nhà Thuốc Minh Hằng, Hẻm 9 Đường Phạm Ngọc Hưng, Phường An Khánh, Ninh Kiều, Cần Thơ","Phường An Khánh, Ninh Kiều","2QW4+5XQ, Hẻm 9 Đường Phạm Ngọc Hưng",Cần Thơ,,"Ninh Kiều, Cần Thơ",VN
886,ChIJ50vXRBKIoDERYMWvj4ITuBU,Nhà Thuốc Như Ý 2,Hiệu thuốc,0966 668 918,"Nhà Thuốc Như Ý 2, 148A3/18 Khu Vực I, Phường An Khánh, Ninh Kiều, Cần Thơ","Phường An Khánh, Ninh Kiều",148A3/18 Khu Vực I,Cần Thơ,,"Ninh Kiều, Cần Thơ",VN
890,ChIJD10pM0KIoDERLy1ZKKuxDXo,Nhà Thuốc Thành Đạt,Hiệu thuốc,0292 3896 963,"Nhà Thuốc Thành Đạt, 52 KDC Thới Nhựt, Quận Ninh Kiều, Tp Cần Thơ, Phường An Khánh, Ninh Kiều, Cần Thơ","Phường An Khánh, Ninh Kiều","52 KDC Thới Nhựt, Quận Ninh Kiều, Tp Cần Thơ",Cần Thơ,,"Ninh Kiều, Cần Thơ",VN
892,ChIJy2BF1gyIoDER7VEw5wEG24g,Nhà Thuốc Thái An 1,Hiệu thuốc,,"2QW5+XJ4 Nhà Thuốc Thái An 1, Võ Văn Kiệt, Phường An Khánh, Ninh Kiều, Cần Thơ","Phường An Khánh, Ninh Kiều","2QW5+XJ4, Võ Văn Kiệt",Cần Thơ,,"Ninh Kiều, Cần Thơ",VN
899,ChIJYfTuzRSIoDERzSbRk8kM3vI,Nhà Thuốc Thuận An,Hiệu thuốc,0909 632 582,"Nhà Thuốc Thuận An, 238 Đ. Nguyễn Văn Cừ, Phường An Khánh, Ninh Kiều, Cần Thơ","Phường An Khánh, Ninh Kiều",238 Đ. Nguyễn Văn Cừ,Cần Thơ,,"Ninh Kiều, Cần Thơ",VN
904,ChIJbzNNyEOIoDERdvCgUDHrq-Y,Nhà Thuốc Tâm Phúc,Hiệu thuốc,0292 6250 537,"Nhà Thuốc Tâm Phúc, 306B4, QL91B, Phường An Khánh, Ninh Kiều, Cần Thơ","Phường An Khánh, Ninh Kiều","306B4, QL91B",Cần Thơ,,"Ninh Kiều, Cần Thơ",VN
905,ChIJ5U7ywWqIoDERttPKDoe9RiA,Nhà Thuốc Hoa Mai Xuân,Hiệu thuốc,0939 411 500,"Nhà Thuốc Hoa Mai Xuân, 398G1 Đ. Nguyễn Văn Cừ, Phường An Khánh, Ninh Kiều, Cần Thơ","Phường An Khánh, Ninh Kiều",398G1 Đ. Nguyễn Văn Cừ,Cần Thơ,,"Ninh Kiều, Cần Thơ",VN
909,ChIJMx5KlxOJoDERfGXhlrE7xN4,Nhà thuốc quầy thuốc,Hiệu thuốc,,"2PWW+3P9 Nhà thuốc quầy thuốc, Địa bàn, Ninh Kiều, Cần Thơ","Địa bàn, Ninh Kiều",2PWW+3P9,Cần Thơ,,"Ninh Kiều, Cần Thơ",VN
910,ChIJK0dcjUKIoDERzmkT47PFHY4,Nhà Thuốc Anh Khang,Hiệu thuốc,,"Nhà Thuốc Anh Khang, An Khánh, Ninh Kiều, Cần Thơ","An Khánh, Ninh Kiều",,Cần Thơ,,"Ninh Kiều, Cần Thơ",VN
911,ChIJU0xeoUKIoDER1mGlucKBDoE,Nhà Thuốc Minh Chi,Hiệu thuốc,0292 2222 257,"Nhà Thuốc Minh Chi, 391 QL91B, Phường An Khánh, Ninh Kiều, Cần Thơ","Phường An Khánh, Ninh Kiều",391 QL91B,Cần Thơ,,"Ninh Kiều, Cần Thơ",VN
913,ChIJ-cGHSkGIoDERg9KPTpsr_rM,Nhà Thuốc Cần Thơ 3,Hiệu thuốc,0292 3835 333,"Nhà Thuốc Cần Thơ 3, 312 Đ. Nguyễn Văn Linh, Phường An Khánh, Ninh Kiều, Cần Thơ","Phường An Khánh, Ninh Kiều",312 Đ. Nguyễn Văn Linh,Cần Thơ,,"Ninh Kiều, Cần Thơ",VN
915,ChIJU4vFRFCIoDERYXwBJ1HQ-Yw,Nhà Thuốc Ngọc Châu,Hiệu thuốc,0918 190 907,"Nhà Thuốc Ngọc Châu, 259AB2 Đ.Xuân Thủy, An Bình, Ninh Kiều, Cần Thơ","An Bình, Ninh Kiều",259AB2 Đ.Xuân Thủy,Cần Thơ,,"Ninh Kiều, Cần Thơ",VN
916,ChIJewKaK5mJoDERoQCd22JeImU,Nhà thuốc HIẾU HIỀN,Hiệu thuốc,0939 193 194,"Nhà thuốc HIẾU HIỀN, 269AA Nguyễn Văn Cừ Nối Dài, An Bình, Ninh Kiều, Cần Thơ","An Bình, Ninh Kiều",269AA Nguyễn Văn Cừ Nối Dài,Cần Thơ,,"Ninh Kiều, Cần Thơ",VN
917,ChIJp5ZpIrKJoDERm7Ah3aDMYek,Nhà Thuốc Mỹ Mỹ,Hiệu thuốc,,"Nhà Thuốc Mỹ Mỹ, 437 Nguyễn Văn Cừ Nối Dài, An Bình, Ninh Kiều, Cần Thơ","An Bình, Ninh Kiều",437 Nguyễn Văn Cừ Nối Dài,Cần Thơ,,"Ninh Kiều, Cần Thơ",VN
918,ChIJn_na41SIoDERyBrFLjbDzww,Nhà Thuốc Anh Khôi,Hiệu thuốc,,"Nhà Thuốc Anh Khôi, An Bình, Ninh Kiều, Cần Thơ","An Bình, Ninh Kiều",,Cần Thơ,,"Ninh Kiều, Cần Thơ",VN
920,ChIJ0WpjxUSIoDERFjCc8cUuatg,Nhà Thuốc Vĩnh Kỳ,Hiệu thuốc,0982 974 748,"Nhà Thuốc Vĩnh Kỳ, 399B, Nguyễn Văn Cừ Nối Dài, Phường An Khánh, Quận Ninh Kiều, Thành Phố Cần Thơ, An Bình, Ninh Kiều, Cần Thơ","An Bình, Ninh Kiều","399B, Nguyễn Văn Cừ Nối Dài, Phường An Khánh, Quận Ninh Kiều, Thành Phố Cần Thơ",Cần Thơ,,"Ninh Kiều, Cần Thơ",VN
921,ChIJHy2fMLKJoDER-9HnVbhYcnc,Nhà Thuốc Pho,Hiệu thuốc,0292 3915 031,"2P5X+6J8 Nhà Thuốc Pho, An Bình, Ninh Kiều, Cần Thơ 900000","An Bình, Ninh Kiều",2P5X+6J8,Cần Thơ,900000.0,"Ninh Kiều, Cần Thơ",VN
922,ChIJQQ_st1qIoDER4ZSROcx_OwE,Nhà Thuốc Tấn Tài,Hiệu thuốc,,"Nhà Thuốc Tấn Tài, C2/10 Nguyễn Văn Cừ Nối Dài, Phường An Khánh, Ninh Kiều, Cần Thơ","Phường An Khánh, Ninh Kiều",C2/10 Nguyễn Văn Cừ Nối Dài,Cần Thơ,,"Ninh Kiều, Cần Thơ",VN
924,ChIJLRqZUEKIoDEReow0rNYGNEs,Nhà Thuốc Hoàng Hải,Hiệu thuốc,,"Nhà Thuốc Hoàng Hải, An Khánh, Ninh Kiều, Cần Thơ","An Khánh, Ninh Kiều",,Cần Thơ,,"Ninh Kiều, Cần Thơ",VN
927,ChIJ2x7CDbGJoDEROzeJKYYTpPQ,Nhà Thuốc Hữu Khoa,Hiệu thuốc,0292 3846 198,"Nhà Thuốc Hữu Khoa, 62/!A, Đinh Tiên Hoàng, Lê Bình, Cái Răng, Cần Thơ","Lê Bình, Cái Răng","62/!A, Đinh Tiên Hoàng",Cần Thơ,,"Cái Răng, Cần Thơ",VN
928,ChIJuakm5UmIoDERQ4xdEsqhMCI,Nhà Thuốc Trung Khoa,Hiệu thuốc,0706 878 589,"Nhà Thuốc Trung Khoa, 112/54B Đ. 3 Tháng 2, Hưng Lợi, Ninh Kiều, Cần Thơ","Hưng Lợi, Ninh Kiều",112/54B Đ. 3 Tháng 2,Cần Thơ,,"Ninh Kiều, Cần Thơ",VN
930,ChIJ_xWXQjiIoDEReu27QClxcr4,Nhà Thuốc Nguyễn Linh,Hiệu thuốc,0985 873 479,"Nhà Thuốc Nguyễn Linh, 30, Nguyễn Văn Linh, Phường Hưng Lợi, Quận Ninh Kiều, Thành Phố Cần Thơ, Hưng Lợi, Ninh Kiều, Cần Thơ","Hưng Lợi, Ninh Kiều","30, Nguyễn Văn Linh, Phường Hưng Lợi, Quận Ninh Kiều, Thành Phố Cần Thơ",Cần Thơ,,"Ninh Kiều, Cần Thơ",VN
931,ChIJRUhmLUGIoDERyEfGWROnp7A,Nhà Thuốc Bệnh Viện,Hiệu thuốc,0292 3820 387,"Nhà Thuốc Bệnh Viện, 315 Quốc Lộ 91B, Quận Ninh Kiều, Tp Cần Thơ, Phường An Khánh, Ninh Kiều, Cần Thơ","Phường An Khánh, Ninh Kiều","315 Quốc Lộ 91B, Quận Ninh Kiều, Tp Cần Thơ",Cần Thơ,,"Ninh Kiều, Cần Thơ",VN
932,ChIJyeAmfDeIoDERjG6qgnuv-d4,Nhà Thuốc Tây Nguyễn Thị Kim Chi,Hiệu thuốc,0931 428 573,"Nhà Thuốc Tây Nguyễn Thị Kim Chi, 13 Đ. Nguyễn Văn Linh, Hưng Lợi, Ninh Kiều, Cần Thơ","Hưng Lợi, Ninh Kiều",13 Đ. Nguyễn Văn Linh,Cần Thơ,,"Ninh Kiều, Cần Thơ",VN
933,ChIJSVzkr7GJoDERy5-txDRgyRI,Nhà Thuốc Mỹ Ngân,Hiệu thuốc,0292 3915 057,"Nhà Thuốc Mỹ Ngân, 124 Võ Tánh, Lê Bình, Cái Răng, Cần Thơ","Lê Bình, Cái Răng",124 Võ Tánh,Cần Thơ,,"Cái Răng, Cần Thơ",VN
934,ChIJscQYykqIoDERCFdW43k3gbk,Nhà Thuốc Bệnh Viện,Hiệu thuốc,0292 3738 262,"Nhà Thuốc Bệnh Viện, 6, Đường 30/4, Quận Ninh Kiều, TP Cần Thơ, Hưng Lợi, Ninh Kiều, Cần Thơ","Hưng Lợi, Ninh Kiều","6, Đường 30/4, Quận Ninh Kiều, TP Cần Thơ",Cần Thơ,,"Ninh Kiều, Cần Thơ",VN
936,ChIJEThMPbGJoDERvmC1Wtqnvbs,Nhà Thuốc Minh Thúy,Hiệu thuốc,0292 3846 593,"Nhà Thuốc Minh Thúy, 2 Lê Thái Tổ, Lê Bình, Cái Răng, Cần Thơ","Lê Bình, Cái Răng",2 Lê Thái Tổ,Cần Thơ,,"Cái Răng, Cần Thơ",VN
938,ChIJqYSOkKWJoDERhurZviGYz4g,Nhà Thuốc Khải Duy,Hiệu thuốc,,"Nhà Thuốc Khải Duy, 21 ĐT923, An Bình, Ninh Kiều, Cần Thơ","An Bình, Ninh Kiều",21 ĐT923,Cần Thơ,,"Ninh Kiều, Cần Thơ",VN
939,ChIJI2X9VTqIoDERYvlZ5IPskpI,Nhà Thuốc Đạt Chuẩn Gpp Ngọc Tú,Hiệu thuốc,,"2QF8+XW3 Nhà Thuốc Đạt Chuẩn Gpp Ngọc Tú, Hẻm 51, Xuân Khánh, Ninh Kiều, Cần Thơ","Xuân Khánh, Ninh Kiều","2QF8+XW3, Hẻm 51",Cần Thơ,,"Ninh Kiều, Cần Thơ",VN
943,ChIJoWbwsiSIoDERorDAonOfHgs,Nhà Thuốc Tây Gia Phước,Hiệu thuốc,,"Nhà Thuốc Tây Gia Phước, 146M Đ. Trần Văn Hoài, Xuân Khánh, Ninh Kiều, Cần Thơ","Xuân Khánh, Ninh Kiều",146M Đ. Trần Văn Hoài,Cần Thơ,,"Ninh Kiều, Cần Thơ",VN
951,ChIJFcJ5TT6JoDEREPJMJeHVIF8,Nhà thuốc Đức Minh số 1,Hiệu thuốc,,"Nhà thuốc Đức Minh số 1, Nguyễn Văn Trường, An Bình, Bình Thủy, Cần Thơ","An Bình, Bình Thủy",Nguyễn Văn Trường,Cần Thơ,,"Bình Thủy, Cần Thơ",VN
952,ChIJrbX0-ReJoDERvGHSKd2BmtY,Nhà Thuốc Tây Lăng Thị Ngọc Bích,Hiệu thuốc,0907 332 594,"2P36+7W3 Nhà Thuốc Tây Lăng Thị Ngọc Bích, Ấp Mỹ Phước, Xã Mỹ Khánh, Huyện Phong Điền, Mỹ Khánh, Phong Điền, Cần Thơ","Mỹ Khánh, Phong Điền","2P36+7W3, Ấp Mỹ Phước, Xã Mỹ Khánh, Huyện Phong Điền",Cần Thơ,,"Phong Điền, Cần Thơ",VN
953,ChIJeQMGhqWJoDEREXlz1ExSGIY,Nhà Thuốc Trung Minh,Hiệu thuốc,0932 832 890,"Nhà Thuốc Trung Minh, 76, Lộ Vòng Cung, Phường An Bình, Quận Ninh Kiều, Thành Phố Cần Thơ, An Bình, Ninh Kiều, Cần Thơ","An Bình, Ninh Kiều","76, Lộ Vòng Cung, Phường An Bình, Quận Ninh Kiều, Thành Phố Cần Thơ",Cần Thơ,,"Ninh Kiều, Cần Thơ",VN
956,ChIJi3L1rXqJoDER4QOaphxCqOk,Nhà Thuốc Trọng Nhã,Hiệu thuốc,0336 997 840,"Nhà Thuốc Trọng Nhã, 331 Đ. Nguyễn Văn Linh, Hưng Lợi, Ninh Kiều, Cần Thơ 900000","Hưng Lợi, Ninh Kiều",331 Đ. Nguyễn Văn Linh,Cần Thơ,900000.0,"Ninh Kiều, Cần Thơ",VN
969,ChIJ28sriaSHoDERSriHU4GIyyc,Nhà Thuốc Hà Thơ,Hiệu thuốc,0947 905 676,"Nhà Thuốc Hà Thơ, 84D 4KV Bình dương, Bình Thủy, Cần Thơ","Long Hoà, Bình Thủy",84D 4KV Bình dương,Cần Thơ,,"Bình Thủy, Cần Thơ",VN
970,ChIJxZAkEdGHoDERgr_ae7UEBWs,Nhà Thuốc Vĩnh Hưng,Hiệu thuốc,0292 3841 416,"Nhà Thuốc Vĩnh Hưng, 115, Đường Bùi Hữu Nghĩa, Quận Bình Thủy, Bình Thuỷ, Bình Thủy, Cần Thơ","Bình Thuỷ, Bình Thủy","115, Đường Bùi Hữu Nghĩa, Quận Bình Thủy",Cần Thơ,,"Bình Thủy, Cần Thơ",VN
971,ChIJHXHb6KCJoDERzIhA_kFW-xw,Đại Lý Thuốc Tây 329,Hiệu thuốc,0939 862 705,"Đại Lý Thuốc Tây 329, 329 Ấp Mỹ Phước, Huyện Phong Điền, An Bình, Ninh Kiều, Cần Thơ","An Bình, Ninh Kiều","329 Ấp Mỹ Phước, Huyện Phong Điền",Cần Thơ,,"Ninh Kiều, Cần Thơ",VN
976,ChIJ6zKxpiWIoDERjZhr9ZJiTnE,Nhà Thuốc Khỏe,Hiệu thuốc,,"Nhà Thuốc Khỏe, 233 Đ. 30 Tháng 4, Xuân Khánh, Ninh Kiều, Cần Thơ 900000","Xuân Khánh, Ninh Kiều",233 Đ. 30 Tháng 4,Cần Thơ,900000.0,"Ninh Kiều, Cần Thơ",VN
991,ChIJ1ymtP59ioDEREc9MFqaH8Wo,Nhà Thuốc Tây Quang Hạnh,Hiệu thuốc,0292 3814 513,"Nhà Thuốc Tây Quang Hạnh, 76 Phan Đình Phùng, Tân An, Ninh Kiều, Cần Thơ","Tân An, Ninh Kiều",76 Phan Đình Phùng,Cần Thơ,,"Ninh Kiều, Cần Thơ",VN
994,ChIJM-mMmwOJoDERSNYaJYXFhsM,Nhà thuốc Phước Khang,Hiệu thuốc,0399 144 211,"Nhà thuốc Phước Khang, khu vực 8/198/6 Nguyễn Văn Trường, An Bình, Ninh Kiều, Cần Thơ","An Bình, Ninh Kiều",khu vực 8/198/6 Nguyễn Văn Trường,Cần Thơ,,"Ninh Kiều, Cần Thơ",VN
995,ChIJZTe_4KWJoDERNOU1WMo76XM,Nhà Thuốc Trí Khôi,Hiệu thuốc,,"2P2R+8G6 Nhà Thuốc Trí Khôi, Đường Số 3, An Bình, Ninh Kiều, Cần Thơ","An Bình, Ninh Kiều","2P2R+8G6, Đường Số 3",Cần Thơ,,"Ninh Kiều, Cần Thơ",VN
996,ChIJ84e8T66JoDERz2AdEWh65GU,Nhà Thuốc MINH TIẾN,Hiệu thuốc,,"Nhà Thuốc MINH TIẾN, 150/4 KV 5, An Bình, Ninh Kiều, Cần Thơ","An Bình, Ninh Kiều",150/4 KV 5,Cần Thơ,,"Ninh Kiều, Cần Thơ",VN
997,ChIJ6d403K6JoDERqlbrKOa-Oc4,Nhà Thuốc Mai Phẩm,Hiệu thuốc,,"Nhà Thuốc Mai Phẩm, An Bình, Ninh Kiều, Cần Thơ","An Bình, Ninh Kiều",,Cần Thơ,,"Ninh Kiều, Cần Thơ",VN
1000,ChIJgdhkm6CJoDER2Mb090fXyCE,Nhà Thuốc Công Thành,Hiệu thuốc,0292 3848 121,"Nhà Thuốc Công Thành, 451 Ấp Mỹ Nhơn, Huyện Phong Điền, An Bình, Ninh Kiều, Cần Thơ","An Bình, Ninh Kiều","451 Ấp Mỹ Nhơn, Huyện Phong Điền",Cần Thơ,,"Ninh Kiều, Cần Thơ",VN
1036,ChIJvcbea7KJoDER99U-S4Afj7k,Nhà Thuốc Hải Đông,Hiệu thuốc,0974 177 979,"Nhà Thuốc Hải Đông, 221 Đ. Hoàng Quốc Việt, An Bình, Ninh Kiều, Cần Thơ","An Bình, Ninh Kiều",221 Đ. Hoàng Quốc Việt,Cần Thơ,,"Ninh Kiều, Cần Thơ",VN
1038,ChIJxcJ9x0yIoDERAbDIup6culg,Nhà Thuốc Gpp An Vân 2,Hiệu thuốc,,"Nhà Thuốc Gpp An Vân 2, 66 Đ. Trần Vĩnh Kiết, An Bình, Ninh Kiều, Cần Thơ","An Bình, Ninh Kiều",66 Đ. Trần Vĩnh Kiết,Cần Thơ,,"Ninh Kiều, Cần Thơ",VN
1039,ChIJV-eBonmJoDERtYHQ6OlZorI,Nhà thuốc Phong Nga,Hiệu thuốc,0939 896 002,"Nhà thuốc Phong Nga, 113 Đ. Trần Vĩnh Kiết, An Bình, Ninh Kiều, Cần Thơ","An Bình, Ninh Kiều",113 Đ. Trần Vĩnh Kiết,Cần Thơ,,"Ninh Kiều, Cần Thơ",VN
1042,ChIJGVgxPrGJoDERdYzSM7dhz5Y,Nhà Thuốc Tú Hoa,Hiệu thuốc,0292 3846 456,"Nhà Thuốc Tú Hoa, 55 Duy Tân, Lê Bình, Cái Răng, Cần Thơ","Lê Bình, Cái Răng",55 Duy Tân,Cần Thơ,,"Cái Răng, Cần Thơ",VN
1043,ChIJzWCsIrGJoDEReFplGxiEZeA,Nhà Thuốc Ngọc Duệ,Hiệu thuốc,0292 3846 713,"Nhà Thuốc Ngọc Duệ, 9 Lê Thái Tổ, Lê Bình, Cái Răng, Cần Thơ","Lê Bình, Cái Răng",9 Lê Thái Tổ,Cần Thơ,,"Cái Răng, Cần Thơ",VN
1044,ChIJe_FwsbSJoDERsNABFYF2NkQ,Nhà Thuốc Nguyên Vũ,Hiệu thuốc,,"Nhà Thuốc Nguyên Vũ, 140/4, Quốc Lộ 1A, P. An Bình, Quận Ninh Kiều, Hưng Lợi, Ninh Kiều, Cần Thơ","Hưng Lợi, Ninh Kiều","140/4, Quốc Lộ 1A, P. An Bình, Quận Ninh Kiều",Cần Thơ,,"Ninh Kiều, Cần Thơ",VN
1045,ChIJoeAZVQSJoDERKXE5rjyQTYk,Nhà thuốc giang nam,Hiệu thuốc,0943 199 061,"Nhà thuốc giang nam, 32 Lê Thái Tổ, Lê Bình, Cái Răng, Cần Thơ","Lê Bình, Cái Răng",32 Lê Thái Tổ,Cần Thơ,,"Cái Răng, Cần Thơ",VN
1047,ChIJGV3sa7GJoDERsX66SgvurxE,Nhà Thuốc Anh Trang,Hiệu thuốc,0292 3846 945,"Nhà Thuốc Anh Trang, 32 Lê Thái Tổ, Lê Bình, Cái Răng, Cần Thơ","Lê Bình, Cái Răng",32 Lê Thái Tổ,Cần Thơ,,"Cái Răng, Cần Thơ",VN
1048,ChIJ7Rs3T7WJoDERIMCU7NCvLTo,Nhà Thuốc Vạn Đức,Hiệu thuốc,0292 3783 678,"Nhà Thuốc Vạn Đức, 57, Đường 30/4, Quận Ninh Kiều, Tp Cần Thơ, Hưng Lợi, Ninh Kiều, Cần Thơ","Hưng Lợi, Ninh Kiều","57, Đường 30/4, Quận Ninh Kiều, Tp Cần Thơ",Cần Thơ,,"Ninh Kiều, Cần Thơ",VN
1055,ChIJz0DcCLiJoDERIOwK7xuZils,Nhà Thuốc Ngọc Linh 2,Hiệu thuốc,,"2Q25+58Q Nhà Thuốc Ngọc Linh 2, Trần Chiên, Lê Bình, Cái Răng, Cần Thơ","Lê Bình, Cái Răng","2Q25+58Q, Trần Chiên",Cần Thơ,,"Cái Răng, Cần Thơ",VN
1070,ChIJLzzWb6GJoDERUvWnyBN_ntY,Nhà thuốc Ngân Thanh,Hiệu thuốc,,"Nhà thuốc Ngân Thanh, 95 Đ. Nguyễn Hiền, Hưng Lợi, Ninh Kiều, Cần Thơ","Hưng Lợi, Ninh Kiều",95 Đ. Nguyễn Hiền,Cần Thơ,,"Ninh Kiều, Cần Thơ",VN
1073,ChIJgV2bXTaIoDER5Lvid7kcMzw,Nhà Thuốc Huỳnh Như,Hiệu thuốc,0947 719 787,"Nhà Thuốc Huỳnh Như, 10A Hẻm 132 Đ. 3 Tháng 2, Hưng Lợi, Ninh Kiều, Cần Thơ","Hưng Lợi, Ninh Kiều",10A Hẻm 132 Đ. 3 Tháng 2,Cần Thơ,,"Ninh Kiều, Cần Thơ",VN
1076,ChIJY55h3jmIoDERrQLYL8I-s-0,Kim Thanh Pharmacy,Hiệu thuốc,0292 3740 606,"Kim Thanh Pharmacy, Hưng Lợi, Ninh Kiều, Cần Thơ","Hưng Lợi, Ninh Kiều",,Cần Thơ,,"Ninh Kiều, Cần Thơ",VN
1077,ChIJ_xWXQjiIoDER1f1Pb5Z4n08,Nhà Thuốc Hoàng Trang,Hiệu thuốc,7103781559,"Nhà Thuốc Hoàng Trang, 410H Đ. Nguyễn Văn Linh, Hưng Lợi, Ninh Kiều, Cần Thơ","Hưng Lợi, Ninh Kiều",410H Đ. Nguyễn Văn Linh,Cần Thơ,,"Ninh Kiều, Cần Thơ",VN
1078,ChIJs6eLO0-IoDER6FVy0uoNHEI,Nhà Thuốc Tú Anh,Hiệu thuốc,,"2QC2+HMF Nhà Thuốc Tú Anh, Đ. Trần Vĩnh Kiết, Phường An Khánh, Ninh Kiều, Cần Thơ","Phường An Khánh, Ninh Kiều","2QC2+HMF, Đ. Trần Vĩnh Kiết",Cần Thơ,,"Ninh Kiều, Cần Thơ",VN
1079,ChIJc0HGcUeIoDER3KTns9GYyKs,Nhà Thuốc Huỳnh Huy,Hiệu thuốc,,"Nhà Thuốc Huỳnh Huy, An Khánh, Ninh Kiều, Cần Thơ","An Khánh, Ninh Kiều",,Cần Thơ,,"Ninh Kiều, Cần Thơ",VN
1080,ChIJT-XcwUWIoDERrebTMm5ltzw,Nhà Thuốc Tây Minh Ngọc 2,Hiệu thuốc,,"2QF2+VJ2 Nhà Thuốc Tây Minh Ngọc 2, Đ. Trần Vĩnh Kiết, Phường An Khánh, Ninh Kiều, Cần Thơ","Phường An Khánh, Ninh Kiều","2QF2+VJ2, Đ. Trần Vĩnh Kiết",Cần Thơ,,"Ninh Kiều, Cần Thơ",VN
1081,ChIJfbfaKz-IoDERT2lgkJ8x4qA,Nhà Thuốc Ngọc Linh,Hiệu thuốc,0932 877 787,"Nhà Thuốc Ngọc Linh, 20T2 Đ. Số 7, KDC Thới Nhật, Ninh Kiều, Cần Thơ","KDC Thới Nhật, Ninh Kiều",20T2 Đ. Số 7,Cần Thơ,,"Ninh Kiều, Cần Thơ",VN
1082,ChIJJbANWjeIoDERUBRUiQ3aIh4,Nhà Thuốc Thiên Kim,Hiệu thuốc,,"Nhà Thuốc Thiên Kim, 21C Đ. Nguyễn Văn Linh, Hưng Lợi, Ninh Kiều, Cần Thơ","Hưng Lợi, Ninh Kiều",21C Đ. Nguyễn Văn Linh,Cần Thơ,,"Ninh Kiều, Cần Thơ",VN
1083,ChIJsZjt3jmIoDERxOPI3Lbdf2Q,Nhà Thuốc Thùy Dung,Hiệu thuốc,,"Nhà Thuốc Thùy Dung, 30 Đ. Nguyễn Văn Linh, Hưng Lợi, Ninh Kiều, Cần Thơ","Hưng Lợi, Ninh Kiều",30 Đ. Nguyễn Văn Linh,Cần Thơ,,"Ninh Kiều, Cần Thơ",VN
1085,ChIJE1wY0siJoDERTP6Z0rR85zI,Nhà thuốc Mai anh,Hiệu thuốc,,"2QF7+PCW Nhà thuốc Mai anh, 34 Đ. Nguyễn Văn Linh, Hưng Lợi, Ninh Kiều, Cần Thơ","Hưng Lợi, Ninh Kiều","2QF7+PCW, 34 Đ. Nguyễn Văn Linh",Cần Thơ,,"Ninh Kiều, Cần Thơ",VN
1087,ChIJldN2W1qJoDERJDsXrf71tAY,Nhà thuốc Xuân Lan,Hiệu thuốc,0977 179 977,"Nhà thuốc Xuân Lan, 73 3/2, Hưng Lợi, Ninh Kiều, Cần Thơ","Hưng Lợi, Ninh Kiều",73 3/2,Cần Thơ,,"Ninh Kiều, Cần Thơ",VN
1088,ChIJq-Ir4TaIoDEREnJP39GU7AE,Nhà Thuốc Như Hoa,Hiệu thuốc,0963 588 997,"Nhà Thuốc Như Hoa, 198A, 3/2, Quận Ninh Kiều, Tp Cần Thơ, Hưng Lợi, Ninh Kiều, Cần Thơ","Hưng Lợi, Ninh Kiều","198A, 3/2, Quận Ninh Kiều, Tp Cần Thơ",Cần Thơ,,"Ninh Kiều, Cần Thơ",VN
1089,ChIJgRR1WjeIoDER09mhV9b59b8,Nhà Thuốc Anh Đào,Hiệu thuốc,,"Nhà Thuốc Anh Đào, 20 Đ. Nguyễn Văn Linh, Phường An Khánh, Ninh Kiều, Cần Thơ","Phường An Khánh, Ninh Kiều",20 Đ. Nguyễn Văn Linh,Cần Thơ,,"Ninh Kiều, Cần Thơ",VN
1090,ChIJM8y-_DOIoDERGjczKamKrJY,Nhà Thuốc Ngọc Khánh,Hiệu thuốc,0292 3840 797,"Nhà Thuốc Ngọc Khánh, 190 Đ. 30 Tháng 4, Hưng Lợi, Ninh Kiều, Cần Thơ","Hưng Lợi, Ninh Kiều",190 Đ. 30 Tháng 4,Cần Thơ,,"Ninh Kiều, Cần Thơ",VN
1091,ChIJ4bvoyzaJoDERZ99DqBGvN-I,Nhà Thuốc An Nhiên 480,Hiệu thuốc,0917 939 667,"Nhà Thuốc An Nhiên 480, 480 Đ. 30 Tháng 4, Hưng Lợi, Ninh Kiều, Cần Thơ","Hưng Lợi, Ninh Kiều",480 Đ. 30 Tháng 4,Cần Thơ,,"Ninh Kiều, Cần Thơ",VN
1092,ChIJVSHNeDaIoDERZxfEAgMiHfc,Nhà Thuốc Pharmaket 23,Hiệu thuốc,0377 883 456,"Nhà Thuốc Pharmaket 23, 108 Đ. 3 Tháng 2, Hưng Lợi, Ninh Kiều, Cần Thơ","Hưng Lợi, Ninh Kiều",108 Đ. 3 Tháng 2,Cần Thơ,,"Ninh Kiều, Cần Thơ",VN
1097,ChIJ6SmAPYiIoDERFr4po5L2Guc,Nhà Thuốc Hà Thơ,Hiệu thuốc,0939 145 682,"Nhà Thuốc Hà Thơ, Đ. Nguyễn Văn Linh, Long Tuyền, Bình Thủy, Cần Thơ","Long Tuyền, Bình Thủy",Đ. Nguyễn Văn Linh,Cần Thơ,,"Bình Thủy, Cần Thơ",VN
1098,ChIJNWYuLjeIoDERkXQ3zrcT0_A,Nhà Thuốc Hồng Loan,Hiệu thuốc,0292 3838 010,"Nhà Thuốc Hồng Loan, 201 Đ. 3 Tháng 2, Hưng Lợi, Ninh Kiều, Cần Thơ","Hưng Lợi, Ninh Kiều",201 Đ. 3 Tháng 2,Cần Thơ,,"Ninh Kiều, Cần Thơ",VN
1101,ChIJWeu3kzSIoDER-saJ73hgEL8,Nhà Thuốc Kim Quyên,Hiệu thuốc,0775 851 617,"Nhà Thuốc Kim Quyên, 6 Đ. Trần Hoàng Na, Hưng Lợi, Ninh Kiều, Cần Thơ","Hưng Lợi, Ninh Kiều",6 Đ. Trần Hoàng Na,Cần Thơ,,"Ninh Kiều, Cần Thơ",VN
1105,ChIJnSFsBDWIoDER_JkFX2V6XOM,Nhà Thuốc Kiều Giang,Hiệu thuốc,0292 3824 461,"Nhà Thuốc Kiều Giang, 192, Đường Ba Mươi Tháng Tư, Phường Hưng Lợi, Quận Ninh Kiều, Thành Phố Cần Thơ, Hưng Lợi, Ninh Kiều, Cần Thơ","Hưng Lợi, Ninh Kiều","192, Đường Ba Mươi Tháng Tư, Phường Hưng Lợi, Quận Ninh Kiều, Thành Phố Cần Thơ",Cần Thơ,,"Ninh Kiều, Cần Thơ",VN
1107,ChIJta5-8DSIoDERvh-ZPeCYjkc,Nhà Thuốc Mai Hằng,Hiệu thuốc,0292 3739 281,"Nhà Thuốc Mai Hằng, 147, Đường 30 Tháng 4, phường Hưng Lợi, quận Ninh Kiều, Tp. Cần Thơ, Hưng Lợi, Ninh Kiều, Cần Thơ","Hưng Lợi, Ninh Kiều","147, Đường 30 Tháng 4, phường Hưng Lợi, quận Ninh Kiều, Tp. Cần Thơ",Cần Thơ,,"Ninh Kiều, Cần Thơ",VN
1113,ChIJL5iXqTGIoDERMNhj74wszQc,Nhà Thuốc Bùi Thị Thu Vân,Hiệu thuốc,0982 413 883,"Nhà Thuốc Bùi Thị Thu Vân, 234 Đ. 30 Tháng 4, Hưng Lợi, Ninh Kiều, Cần Thơ","Hưng Lợi, Ninh Kiều",234 Đ. 30 Tháng 4,Cần Thơ,,"Ninh Kiều, Cần Thơ",VN
1114,ChIJxyxEqcqJoDERVUjGUT1NVo8,Nhà Thuốc Lê Uyên,Hiệu thuốc,0919 639 937,"Nhà Thuốc Lê Uyên, 758 Hẻm 553, Hưng Lợi, Ninh Kiều, Cần Thơ","Hưng Lợi, Ninh Kiều",758 Hẻm 553,Cần Thơ,,"Ninh Kiều, Cần Thơ",VN
1115,ChIJDzh8VTOIoDERX1vdMywidKc,Nhà Thuốc Khánh Thi,Hiệu thuốc,,"Nhà Thuốc Khánh Thi, 151 Đ. Trần Hoàng Na, Hưng Lợi, Ninh Kiều, Cần Thơ","Hưng Lợi, Ninh Kiều",151 Đ. Trần Hoàng Na,Cần Thơ,,"Ninh Kiều, Cần Thơ",VN
1117,ChIJ1zLENzCIoDERHU9356i1UiY,Nhà Thuốc Ngọc Thảo,Hiệu thuốc,,"Nhà Thuốc Ngọc Thảo, 276 Đ. 30 Tháng 4, Hưng Lợi, Ninh Kiều, Cần Thơ","Hưng Lợi, Ninh Kiều",276 Đ. 30 Tháng 4,Cần Thơ,,"Ninh Kiều, Cần Thơ",VN
1121,ChIJe0tluDCIoDERoDE6DerG73o,Nhà Thuốc Thủy Linh,Hiệu thuốc,,"Nhà Thuốc Thủy Linh, 133D QL91B, Phường An Khánh, Ninh Kiều, Cần Thơ","Phường An Khánh, Ninh Kiều",133D QL91B,Cần Thơ,,"Ninh Kiều, Cần Thơ",VN
1122,ChIJNzudKdCJoDERIGvkORI5vWs,Nhà Thuốc Huỳnh Thiên,Hiệu thuốc,,"Nhà Thuốc Huỳnh Thiên, 256 Tầm Vu, Hưng Lợi, Ninh Kiều, Cần Thơ 02923","Hưng Lợi, Ninh Kiều",256 Tầm Vu,Cần Thơ,2923.0,"Ninh Kiều, Cần Thơ",VN
1123,ChIJMRTH3kqIoDERJH7nr8o6fJk,Nhà Thuốc Minh Trường,Hiệu thuốc,0292 3738 199,"Nhà Thuốc Minh Trường, 18A, Đường 3/2, Quận Ninh Kiều, TP Cần Thơ, Hưng Lợi, Ninh Kiều, Cần Thơ","Hưng Lợi, Ninh Kiều","18A, Đường 3/2, Quận Ninh Kiều, TP Cần Thơ",Cần Thơ,,"Ninh Kiều, Cần Thơ",VN
1128,ChIJY1U_ZS2IoDER5ILwKiaBeQk,Nhà Thuốc Song An,Hiệu thuốc,0292 3783 030,"Nhà Thuốc Song An, 234A1 Tầm Vu, Hưng Lợi, Ninh Kiều, Cần Thơ","Hưng Lợi, Ninh Kiều",234A1 Tầm Vu,Cần Thơ,,"Ninh Kiều, Cần Thơ",VN
1129,ChIJJ6h-HjCIoDER41Dti4MYK-s,Nhà Thuốc Thanh Bình,Hiệu thuốc,0292 3838 103,"Nhà Thuốc Thanh Bình, 390 Đ. 30 Tháng 4, Xuân Khánh, Ninh Kiều, Cần Thơ","Xuân Khánh, Ninh Kiều",390 Đ. 30 Tháng 4,Cần Thơ,,"Ninh Kiều, Cần Thơ",VN
1132,ChIJbYqY3NGJoDERRHWfYwGRCOo,Nhà Thuốc Trà My,Hiệu thuốc,,"Nhà Thuốc Trà My, Hưng Thạnh, Cái Răng, Cần Thơ","Hưng Thạnh, Cái Răng",,Cần Thơ,,"Cái Răng, Cần Thơ",VN
1135,ChIJe0tluDCIoDEROj9n6Ou9n-4,Nhà Thuốc Thái Hân,Hiệu thuốc,,"Nhà Thuốc Thái Hân, 133D QL91B, Phường An Khánh, Ninh Kiều, Cần Thơ","Phường An Khánh, Ninh Kiều",133D QL91B,Cần Thơ,,"Ninh Kiều, Cần Thơ",VN
1139,ChIJccHzwRmIoDER5tVSwtk9UBM,Nhà Thuốc Anh Sơn,Hiệu thuốc,0904 454 264,"Nhà Thuốc Anh Sơn, 49 Nguyễn Văn Trỗi, An Nghiệp, Ninh Kiều, Cần Thơ","An Nghiệp, Ninh Kiều",49 Nguyễn Văn Trỗi,Cần Thơ,,"Ninh Kiều, Cần Thơ",VN
1140,ChIJteF_0BmIoDERe-kTQej8g1g,Nhà Thuốc Y Học Trường Thọ,Hiệu thuốc,0292 3733 134,"Nhà Thuốc Y Học Trường Thọ, 8 Đinh Công Tráng, An Nghiệp, Ninh Kiều, Cần Thơ","An Nghiệp, Ninh Kiều",8 Đinh Công Tráng,Cần Thơ,,"Ninh Kiều, Cần Thơ",VN
1141,ChIJFyoamxiIoDEROWihr-b-Mss,Nhà Thuốc Minh Châu,Hiệu thuốc,7103892822,"Nhà Thuốc Minh Châu, 10 Đ. Mậu Thân, An Nghiệp, Ninh Kiều, Cần Thơ","An Nghiệp, Ninh Kiều",10 Đ. Mậu Thân,Cần Thơ,,"Ninh Kiều, Cần Thơ",VN
1142,ChIJFd9PohiIoDERrJdrKCksH6w,Nhà Thuốc Thanh Trúc,Hiệu thuốc,0935 420 925,"Nhà Thuốc Thanh Trúc, 228F, Trần Hưng Đạo, Quận Ninh Kiều, Tp Cần Thơ","An Phú, Ninh Kiều","228F, Trần Hưng Đạo, Quận Ninh Kiều, Tp Cần Thơ",Cần Thơ,,"Ninh Kiều, Cần Thơ",VN
1143,ChIJyyeyZCKIoDERBFKHpHCumus,Nhà Thuốc Phúc Lợi,Hiệu thuốc,0292 3845 789,"Nhà Thuốc Phúc Lợi, 49, Đường 3/2, Quận Ninh Kiều, Tp Cần Thơ, An Phú, Ninh Kiều, Cần Thơ","An Phú, Ninh Kiều","49, Đường 3/2, Quận Ninh Kiều, Tp Cần Thơ",Cần Thơ,,"Ninh Kiều, Cần Thơ",VN
1146,ChIJY2jfqSSIoDERa0_JI0Lhi_Q,Nhà Thuốc Hoàng Phúc,Hiệu thuốc,0292 3769 333,"Nhà Thuốc Hoàng Phúc, 128 Đ. 3 Tháng 2, Xuân Khánh, Ninh Kiều, Cần Thơ 900000","Xuân Khánh, Ninh Kiều",128 Đ. 3 Tháng 2,Cần Thơ,900000.0,"Ninh Kiều, Cần Thơ",VN
1147,ChIJxWYkyRiIoDERrCcdl5Yq9IM,Nhà Thuốc Hồng Ngân,Hiệu thuốc,,"Nhà Thuốc Hồng Ngân, 227 Đ. Trần Bình Trọng, An Phú, Ninh Kiều, Cần Thơ","An Phú, Ninh Kiều",227 Đ. Trần Bình Trọng,Cần Thơ,,"Ninh Kiều, Cần Thơ",VN
1148,ChIJjcXG-BmIoDEReE5E2kHNNWQ,Nhà Thuốc Tâm Hằng,Hiệu thuốc,0292 3831 358,"Nhà Thuốc Tâm Hằng, 87 Đ. Mậu Thân, An Nghiệp, Ninh Kiều, Cần Thơ","An Nghiệp, Ninh Kiều",87 Đ. Mậu Thân,Cần Thơ,,"Ninh Kiều, Cần Thơ",VN
1149,ChIJ91-3OiKIoDERRaZz6ME-lwI,Nhà Thuốc Hoài Thu,Hiệu thuốc,,"Nhà Thuốc Hoài Thu, An Phú, Ninh Kiều, Cần Thơ","An Phú, Ninh Kiều",,Cần Thơ,,"Ninh Kiều, Cần Thơ",VN
1151,ChIJlc77xzeJoDERMsAMnAwNyxY,Nhà thuốc tây,Cửa hàng tạp phẩm,,"Nhà thuốc tây, C388H45, Hẻm Liên tổ 3-4, Xuân Khánh, Ninh Kiều, Cần Thơ","Xuân Khánh, Ninh Kiều","C388H45, Hẻm Liên tổ 3-4",Cần Thơ,,"Ninh Kiều, Cần Thơ",VN
1152,ChIJNcY41xiIoDERRO_hkpXx4tg,Nhà Thuốc Phát Trương,Hiệu thuốc,0292 3832 272,"Nhà Thuốc Phát Trương, 198 Đ. Trần Hưng Đạo, An Phú, Ninh Kiều, Cần Thơ","An Phú, Ninh Kiều",198 Đ. Trần Hưng Đạo,Cần Thơ,,"Ninh Kiều, Cần Thơ",VN
1157,ChIJK_jsFiKIoDERUHMeI7y6Hvc,Nhà Thuốc Ngọc Quyên,Hiệu thuốc,0292 3897 828,"Nhà Thuốc Ngọc Quyên, 146 Đ. Mậu Thân, An Phú, Ninh Kiều, Cần Thơ","An Phú, Ninh Kiều",146 Đ. Mậu Thân,Cần Thơ,,"Ninh Kiều, Cần Thơ",VN
1159,ChIJGxUeOh-IoDER2zZL05CNv58,Nhà Thuốc Diệu Hiền,Hiệu thuốc,0292 3767 786,"Nhà Thuốc Diệu Hiền, 4, Trần Bình Trọng, Phường An Phú, Quận Ninh Kiều, Thành Phố Cần Thơ, An Phú, Ninh Kiều, Cần Thơ","An Phú, Ninh Kiều","4, Trần Bình Trọng, Phường An Phú, Quận Ninh Kiều, Thành Phố Cần Thơ",Cần Thơ,,"Ninh Kiều, Cần Thơ",VN
1162,ChIJW2_ngCGIoDERPDJyh-xxe7o,Nhà Thuốc Minh Khang 2,Hiệu thuốc,0292 3760 353,"Nhà Thuốc Minh Khang 2, 155 Đ. Nguyễn Việt Hồng, Xuân Khánh, Ninh Kiều, Cần Thơ","Xuân Khánh, Ninh Kiều",155 Đ. Nguyễn Việt Hồng,Cần Thơ,,"Ninh Kiều, Cần Thơ",VN
1164,ChIJbekLF6BioDERN-EyYrz34E8,Nhà Thuốc Thanh Lâm,Hiệu thuốc,,"Nhà Thuốc Thanh Lâm, An Cư, Ninh Kiều, Cần Thơ","An Cư, Ninh Kiều",,Cần Thơ,,"Ninh Kiều, Cần Thơ",VN
1166,ChIJtWuJi6BioDERfCoEuEeHky4,Nhà Thuốc Vĩnh Hòa Đường,Hiệu thuốc,0292 3844 585,"Nhà Thuốc Vĩnh Hòa Đường, 22/3, Đường Ngô Quyền, Quận Cái Răng, Tân An, Ninh Kiều, Cần Thơ","Tân An, Ninh Kiều","22/3, Đường Ngô Quyền, Quận Cái Răng",Cần Thơ,,"Ninh Kiều, Cần Thơ",VN
1168,ChIJdfHbE6BioDERn5gXMcLbRHk,Nhà Thuốc Hồng Trang,Hiệu thuốc,0292 3814 151,"Nhà Thuốc Hồng Trang, 21 Đ. Đề Thám, Tân An, Ninh Kiều, Cần Thơ","Tân An, Ninh Kiều",21 Đ. Đề Thám,Cần Thơ,,"Ninh Kiều, Cần Thơ",VN
1172,ChIJ_b_ek6BioDERg9nSFA13CmA,Nhà Thuốc Lâm Anh,Hiệu thuốc,0292 3699 799,"Nhà Thuốc Lâm Anh, 50 Hẻm 1 Đ. Hoàng Văn Thụ, Tân An, Ninh Kiều, Cần Thơ","Tân An, Ninh Kiều",50 Hẻm 1 Đ. Hoàng Văn Thụ,Cần Thơ,,"Ninh Kiều, Cần Thơ",VN
1175,ChIJtwxElR-IoDERdKbpcP1p8aQ,Nhà Thuốc Kim Lợi,Hiệu thuốc,,"Nhà Thuốc Kim Lợi, 86/3 Đ. Lý Tự Trọng, Tân An, Ninh Kiều, Cần Thơ","Tân An, Ninh Kiều",86/3 Đ. Lý Tự Trọng,Cần Thơ,,"Ninh Kiều, Cần Thơ",VN
1176,ChIJDcWA9aBioDER38GXj8zmw9o,Nhà Thuốc Nguyệt Thanh,Hiệu thuốc,,"Nhà Thuốc Nguyệt Thanh, 12 Đ. Nguyễn Khuyến, Tân An, Ninh Kiều, Cần Thơ","Tân An, Ninh Kiều",12 Đ. Nguyễn Khuyến,Cần Thơ,,"Ninh Kiều, Cần Thơ",VN
1177,ChIJ3WyFJkZjoDERc81rTPham-0,Nhà thuốc Uyên Vũ 2,Hiệu thuốc,0346 889 681,"Nhà thuốc Uyên Vũ 2, 182 Đường Nguyễn An Ninh, Tân An, Ninh Kiều, Cần Thơ 900000","Tân An, Ninh Kiều",182 Đường Nguyễn An Ninh,Cần Thơ,900000.0,"Ninh Kiều, Cần Thơ",VN
1179,ChIJtwxElR-IoDERkLSEomft7zA,Nhà Thuốc Thái Hân,Hiệu thuốc,,"Nhà Thuốc Thái Hân, 86/3 Đ. Lý Tự Trọng, Tân An, Ninh Kiều, Cần Thơ","Tân An, Ninh Kiều",86/3 Đ. Lý Tự Trọng,Cần Thơ,,"Ninh Kiều, Cần Thơ",VN
1180,ChIJJTYM7h-IoDERGfhKxqjY9dY,Nhà Thuốc Minh Tuyền,Hiệu thuốc,0918 071 943,"Nhà Thuốc Minh Tuyền, 138C, Lý Tự Trọng, Phường An Cư, Quận Ninh Kiều, Thành Phố Cần Thơ, Tân An, Ninh Kiều, Cần Thơ","Tân An, Ninh Kiều","138C, Lý Tự Trọng, Phường An Cư, Quận Ninh Kiều, Thành Phố Cần Thơ",Cần Thơ,,"Ninh Kiều, Cần Thơ",VN
1185,ChIJ5d0m6Z9ioDERY0Lnh0sxSkE,Nhà Thuốc Thiên Phúc,Hiệu thuốc,0292 2220 879,"Nhà Thuốc Thiên Phúc, 180 Đường Nguyễn An Ninh, An Lạc, Ninh Kiều, Cần Thơ","An Lạc, Ninh Kiều",180 Đường Nguyễn An Ninh,Cần Thơ,,"Ninh Kiều, Cần Thơ",VN
1186,ChIJDeAS7qFioDERCvmC2_5NhSU,Nhà Thuốc Tân Trào,Hiệu thuốc,0292 3813 483,"Nhà Thuốc Tân Trào, 24 Đ. Tân Trào, Tân An, Ninh Kiều, Cần Thơ","Tân An, Ninh Kiều",24 Đ. Tân Trào,Cần Thơ,,"Ninh Kiều, Cần Thơ",VN
1187,ChIJQQaLFyCIoDER7caKMCu4Dog,Nhà Thuốc Hưng Hân,Hiệu thuốc,0292 3830 722,"Nhà Thuốc Hưng Hân, Đường Đ. Nguyễn Việt Hồng, An Lạc, Ninh Kiều, Cần Thơ","An Lạc, Ninh Kiều",Đường Đ. Nguyễn Việt Hồng,Cần Thơ,,"Ninh Kiều, Cần Thơ",VN
1190,ChIJy3jaEB-IoDERbf9RZteQ5dk,Nhà Thuốc Tư Nhân Cao Đức,Hiệu thuốc,0292 3830 099,"Nhà Thuốc Tư Nhân Cao Đức, 51 Đ. Trần Bình Trọng, An Phú, Ninh Kiều, Cần Thơ","An Phú, Ninh Kiều",51 Đ. Trần Bình Trọng,Cần Thơ,,"Ninh Kiều, Cần Thơ",VN
1192,ChIJ7fJ6Rp9ioDERHoDxuRpDS_s,Nhà Thuốc Y Học Cổ Truyền Miên Miên,Hiệu thuốc,0292 3822 945,"Nhà Thuốc Y Học Cổ Truyền Miên Miên, 45 Đ. Phan Chu Trinh, Tân An, Ninh Kiều, Cần Thơ","Tân An, Ninh Kiều",45 Đ. Phan Chu Trinh,Cần Thơ,,"Ninh Kiều, Cần Thơ",VN
1194,ChIJyZnZN59ioDER91nUOqI0go4,Nhà Thuốc Trí Nhân,Hiệu thuốc,0989 700 510,"Nhà Thuốc Trí Nhân, 16 Đường Nguyễn An Ninh, Tân An, Ninh Kiều, Cần Thơ","Tân An, Ninh Kiều",16 Đường Nguyễn An Ninh,Cần Thơ,,"Ninh Kiều, Cần Thơ",VN
1195,ChIJ2Zd6mZ9ioDERz3Es3n75cQw,Ngan Thuy Pharmacy,Hiệu thuốc,0292 3812 219,"Ngan Thuy Pharmacy, Tân An, Ninh Kiều, Cần Thơ","Tân An, Ninh Kiều",,Cần Thơ,,"Ninh Kiều, Cần Thơ",VN
1196,ChIJraihZSCIoDER1PKvbQ7mWBo,Nhà Thuốc Huỳnh Trân,Hiệu thuốc,0292 3822 610,"Nhà Thuốc Huỳnh Trân, 3 Đ. 30 Tháng 4, An Lạc, Ninh Kiều, Cần Thơ","An Lạc, Ninh Kiều",3 Đ. 30 Tháng 4,Cần Thơ,,"Ninh Kiều, Cần Thơ",VN
1197,ChIJvTujZyCIoDEReqHbKbgqr2s,Nhà Thuốc Phú Khang,Hiệu thuốc,0292 3826 666,"Nhà Thuốc Phú Khang, 21 Đ. 30 Tháng 4, An Lạc, Ninh Kiều, Cần Thơ","An Lạc, Ninh Kiều",21 Đ. 30 Tháng 4,Cần Thơ,,"Ninh Kiều, Cần Thơ",VN
