,place_id,name,main_category,phone,address,address_ward,address_street,address_city,address_postal_code,address_state,address_country_code,coordinates
0,ChIJLTbDq69ioDERm2YShtUfRic,Nhà Hàng Lúa Nếp,Nhà hàng,0292 3676 979,"2QVV+WM5 Nhà Hàng Lúa Nếp, Khu bãi bồi, p. Cái Khế, Lê Lợi, Cái Khế, Ninh Kiều, Cần Thơ","Cái Khế, Ninh Kiều","2QVV+WM5, Khu bãi bồi, p. Cái Khế, Lê Lợi",Cần Thơ,,"Ninh Kiều, Cần Thơ",VN,"10.044757299999999,105.7942334"
3,ChIJ_7BIOVZ9oDER5gh_FMjZH_Y,"Nhà hàng, Khách sạn Vạn Phát Riverside",Nhà hàng,0292 3645 645,"Nhà hàng, Khách sạn Vạn Phát Riverside, 2 Đ. Nguyễn Văn Cừ, P, Ninh Kiều, Cần Thơ","P, Ninh Kiều",2 Đ. Nguyễn Văn Cừ,Cần Thơ,,"Ninh Kiều, Cần Thơ",VN,"10.0621733,105.7828918"
4,ChIJk0ML7KRioDERxaR-kkPZEBw,Nhà hàng Hoa Sứ,Nhà hàng,0292 3820 717,"2QQR+4JV Nhà hàng Hoa Sứ, KDL, Ninh Kiều, Cần Thơ","Cái Khế, Ninh Kiều","2QQR+4JV, KDL",Cần Thơ,,"Ninh Kiều, Cần Thơ",VN,"10.0388358,105.7926531"
13,ChIJASUZOTaIoDERDYvRJ_i-GAk,Lẩu Kim Chi 79k,Nhà hàng món lẩu,0917 681 246,"Lẩu Kim Chi 79k, Hẻm 132 Đ. 3 Tháng 2, Hưng Lợi, Ninh Kiều, Cần Thơ","Hưng Lợi, Ninh Kiều",Hẻm 132 Đ. 3 Tháng 2,Cần Thơ,,"Ninh Kiều, Cần Thơ",VN,"10.018742099999999,105.7606059"
15,ChIJBxAuWOKJoDERsPWrqr0chJ4,Khu Sinh Thái Ẩm Thực QUÊ MÌNH,Nhà hàng,0888 888 639,"Khu Sinh Thái Ẩm Thực QUÊ MÌNH, 36 Đường số 3, Hưng Lợi, Ninh Kiều, Cần Thơ","Hưng Lợi, Ninh Kiều",36 Đường số 3,Cần Thơ,,"Ninh Kiều, Cần Thơ",VN,"10.0211089,105.7595743"
16,ChIJWeRg1LpioDERbFPJDEapK48,Nhà hàng Cây Bưởi 2,Nhà hàng,0292 3768 433,"Nhà hàng Cây Bưởi 2, Sông Hậu, Cái Khế, Ninh Kiều, Cần Thơ","Cái Khế, Ninh Kiều",Sông Hậu,Cần Thơ,,"Ninh Kiều, Cần Thơ",VN,"10.0405008,105.79398789999999"
21,ChIJG0HvUP6HoDER3eW-3CIIeFs,Vườn nướng Hàn Quốc Cần Thơ,Nhà hàng,,"Vườn nướng Hàn Quốc Cần Thơ, 54 Đ. Nguyễn Văn Cừ, An Hoà, Ninh Kiều, Cần Thơ","An Hoà, Ninh Kiều",54 Đ. Nguyễn Văn Cừ,Cần Thơ,,"Ninh Kiều, Cần Thơ",VN,"10.056834,105.7784822"
22,ChIJQ_IhDaBioDERjtEwZ340UOE,Quán Ăn Cẩm Ký,Quán ăn nhỏ,0292 6292 128,"Quán Ăn Cẩm Ký, 37 Đ. Đề Thám, Tân An, Ninh Kiều, Cần Thơ 900000","Tân An, Ninh Kiều",37 Đ. Đề Thám,Cần Thơ,900000.0,"Ninh Kiều, Cần Thơ",VN,"10.0337167,105.7827306"
23,ChIJoRlwyiWIoDER5fQqcLWmETQ,Nhà Hàng Grill & Cheer Cần Thơ,Nhà hàng,0292 3732 233,"Nhà Hàng Grill & Cheer Cần Thơ, Vincom Plaza, 209 Đ. 30 Tháng 4, Xuân Khánh, Ninh Kiều, Cần Thơ","Xuân Khánh, Ninh Kiều","Vincom Plaza, 209 Đ. 30 Tháng 4",Cần Thơ,,"Ninh Kiều, Cần Thơ",VN,"10.024668199999999,105.77501269999999"
24,ChIJQX9vWiGJoDERvTR3pR_1V4Q,Mì Cay ITADA - Nguyễn Văn Cừ,Nhà hàng,,"Mì Cay ITADA - Nguyễn Văn Cừ, 287 Đ. Nguyễn Văn Cừ, An Hoà, Ninh Kiều, Cần Thơ","An Hoà, Ninh Kiều",287 Đ. Nguyễn Văn Cừ,Cần Thơ,,"Ninh Kiều, Cần Thơ",VN,"10.046624399999999,105.76851029999999"
25,ChIJ770cfB2IoDERcywGDthHyg0,Nhà hàng Tomato - Pad Thai,Nhà hàng Thái Lan,0944 204 741,"Nhà hàng Tomato - Pad Thai, 54 Đ. Nam Kỳ Khởi Nghĩa, Tân An, Ninh Kiều, Cần Thơ","Tân An, Ninh Kiều",54 Đ. Nam Kỳ Khởi Nghĩa,Cần Thơ,,"Ninh Kiều, Cần Thơ",VN,"10.0322222,105.7843353"
26,ChIJo7zbaDSIoDERhnzs7jDXTyg,Nhà Hàng Ngói đỏ,Nhà hàng,0939 709 579,"Nhà Hàng Ngói đỏ, 596 30 thang 4 Str, Cần Thơ","Hưng Lợi, Ninh Kiều",596 30 thang 4 Str,Cần Thơ,,"Ninh Kiều, Cần Thơ",VN,"10.0153121,105.76319289999999"
29,ChIJtabSTJ9ioDEROCLqgNULGQA,Nhà Hàng Sao Hôm,Nhà hàng Việt Nam,0292 3815 616,"Nhà Hàng Sao Hôm, Đường Hai Bà Trưng, Tân An, Ninh Kiều, Cần Thơ","Tân An, Ninh Kiều",Đường Hai Bà Trưng,Cần Thơ,,"Ninh Kiều, Cần Thơ",VN,"10.0313869,105.7882324"
39,ChIJz_kz3USIoDERYlT-m6dt6lA,Vựa Hải Sản Cần Thơ - Đăng Quân,Nhà hàng hải sản,0356 297 968,"Vựa Hải Sản Cần Thơ - Đăng Quân, 42A Đ. Trần Hoàng Na, Hưng Lợi, Ninh Kiều, Cần Thơ 94116","Hưng Lợi, Ninh Kiều",42A Đ. Trần Hoàng Na,Cần Thơ,94116.0,"Ninh Kiều, Cần Thơ",VN,"10.0115728,105.7650762"
40,ChIJT05NI96JoDERAWm5LOmStBY,Lẩu Thái Chay Tư Đậu 2,Nhà hàng món chay,0782 986 783,"Lẩu Thái Chay Tư Đậu 2, 82-84 Ngô Sĩ Liên, Kdc mêtro .P, Ninh Kiều, Cần Thơ","Kdc mêtro .P, Ninh Kiều",82-84 Ngô Sĩ Liên,Cần Thơ,,"Ninh Kiều, Cần Thơ",VN,"10.0207523,105.76043519999999"
41,ChIJSVzhIaJioDERV2KEuVejaPM,Nhà Hàng Nam Bộ,Nhà hàng Việt Nam,0292 3823 908,"Nhà Hàng Nam Bộ, 1 Đ. Ngô Quyền, Tân An, Ninh Kiều, Cần Thơ","Tân An, Ninh Kiều",1 Đ. Ngô Quyền,Cần Thơ,,"Ninh Kiều, Cần Thơ",VN,"10.0335427,105.7882601"
53,ChIJd9riu6FioDERpgGYPmuGDng,King BBQ Buffet Sense City Cần Thơ,Nhà hàng món nướng Hàn Quốc,0292 7305 939,"King BBQ Buffet Sense City Cần Thơ, Tầng 2, TTTM Sense City, 1A Đại lộ Hoà Bình, Tân An, Ninh Kiều, Cần Thơ","Tân An, Ninh Kiều","Tầng 2, TTTM Sense City, 1A Đại lộ Hoà Bình",Cần Thơ,,"Ninh Kiều, Cần Thơ",VN,"10.0341241,105.786054"
54,ChIJH0uWqqFioDERXnyjEHkDiz4,NHÂN QUÁN HỦ TIẾU NAM VANG,Nhà hàng Việt Nam,0292 6559 122,"NHÂN QUÁN HỦ TIẾU NAM VANG, 13A Phan Đình Phùng, Tân An, Ninh Kiều, Cần Thơ","Tân An, Ninh Kiều",13A Phan Đình Phùng,Cần Thơ,,"Ninh Kiều, Cần Thơ",VN,"10.0337864,105.78705029999999"
55,ChIJoQzNMh6IoDERWJ3n3htJyDg,Cơm Chay Oanh,Nhà hàng món chay,0292 3830 820,"Cơm Chay Oanh, 102 Đ. Đề Thám, Tân An, Ninh Kiều, Cần Thơ","Tân An, Ninh Kiều",102 Đ. Đề Thám,Cần Thơ,,"Ninh Kiều, Cần Thơ",VN,"10.035279599999999,105.7812072"
56,ChIJxXIAnp5ioDERdbQG9Gb37uU,Phương Nam Restaurant,Nhà hàng Việt Nam,,"Phương Nam Restaurant, 48 Đường Hai Bà Trưng, khu vực 1, Ninh Kiều, Cần Thơ","khu vực 1, Ninh Kiều",48 Đường Hai Bà Trưng,Cần Thơ,,"Ninh Kiều, Cần Thơ",VN,"10.0305684,105.78788589999999"
69,ChIJbcq5DKBioDERJWzzl9w48oQ,Quán Cơm Chay Sen Vàng 2,Nhà hàng món chay,0816 734 039,"Quán Cơm Chay Sen Vàng 2, 41 Đ. Đề Thám, Tân An, Ninh Kiều, Cần Thơ","Tân An, Ninh Kiều",41 Đ. Đề Thám,Cần Thơ,,"Ninh Kiều, Cần Thơ",VN,"10.033737499999999,105.78259639999999"
70,ChIJQ6eaLWtjoDERZAftoboOUkU,The Lighthouse,Nhà hàng,0292 3819 994,"The Lighthouse, 120 Đường Hai Bà Trưng, Tân An, Ninh Kiều, Cần Thơ","Tân An, Ninh Kiều",120 Đường Hai Bà Trưng,Cần Thơ,,"Ninh Kiều, Cần Thơ",VN,"10.0319804,105.7879246"
71,ChIJ72s1_bFjoDERUgSKI9kxCYE,VADO Canteen - Nhà Hàng Nhỏ Vui Vẻ,Nhà hàng món lẩu,0799 637 739,"VADO Canteen - Nhà Hàng Nhỏ Vui Vẻ, 42 Đ. Đề Thám, Tân An, Ninh Kiều, Cần Thơ","Tân An, Ninh Kiều",42 Đ. Đề Thám,Cần Thơ,,"Ninh Kiều, Cần Thơ",VN,"10.0338877,105.78282279999999"
73,ChIJzXxToKFioDERXIol1laZuyA,Ninh Kieu 2 Restaurant And Conference,Nhà hàng,0868 942 316,"Ninh Kieu 2 Restaurant And Conference, 03 Hoa Binh Avenue, Ninh Kieu District, Can Tho City, Viet Nam, 03 Đại lộ Hoà Bình, Tân An, Ninh Kiều, Cần Thơ","Tân An, Ninh Kiều","03 Hoa Binh Avenue, Ninh Kieu District, Can Tho City, Viet Nam, 03 Đại lộ Hoà Bình",Cần Thơ,,"Ninh Kiều, Cần Thơ",VN,"10.0349263,105.786355"
77,ChIJ_XeA87JjoDERMAU78bxtCw4,SPICY BOX CAN THO,Nhà hàng Hàn Quốc,0397 991 369,"SPICY BOX CAN THO, Lầu 2 TTTM Sense City, 1 Đại lộ Hoà Bình, Tân An, Ninh Kiều, Cần Thơ 90000","Tân An, Ninh Kiều","Lầu 2 TTTM Sense City, 1 Đại lộ Hoà Bình",Cần Thơ,90000.0,"Ninh Kiều, Cần Thơ",VN,"10.0343852,105.7858461"
78,ChIJ_RFG7tRjoDERxLNP_-JO_Vc,Lẩu mắm miền tây,Nhà hàng,0769 991 919,"Lẩu mắm miền tây, 36 Đ. Trần Đại Nghĩa, p, Ninh Kiều, Cần Thơ 94000","p, Ninh Kiều",36 Đ. Trần Đại Nghĩa,Cần Thơ,94000.0,"Ninh Kiều, Cần Thơ",VN,"10.0444906,105.7861341"
79,ChIJcecccTWIoDERto_e6KQjScc,Sậy Steak House & Wine Bar,Nhà hàng,0932 876 839,"Sậy Steak House & Wine Bar, 71/6 Hẻm 71, Hưng Lợi, Ninh Kiều, Cần Thơ","Hưng Lợi, Ninh Kiều",71/6 Hẻm 71,Cần Thơ,,"Ninh Kiều, Cần Thơ",VN,"10.0141935,105.7594731"
80,ChIJlx3WkP2JoDER2YBYzfMPCxo,MONACO coffee & restaurant,Nhà hàng,0847 427 056,"MONACO coffee & restaurant, 33 Đ. Nguyễn Bình, Cái Khế, Ninh Kiều, Cần Thơ","Cái Khế, Ninh Kiều",33 Đ. Nguyễn Bình,Cần Thơ,,"Ninh Kiều, Cần Thơ",VN,"10.046618299999999,105.7857903"
82,ChIJT3unGKJioDERNPVWcHyBYd4,L'Escale Sky Garden & Lounge,Nhà hàng,0903 936 301,"L'Escale Sky Garden & Lounge, 1 Đ. Ngô Quyền, Tân An, Ninh Kiều, Cần Thơ","Tân An, Ninh Kiều",1 Đ. Ngô Quyền,Cần Thơ,,"Ninh Kiều, Cần Thơ",VN,"10.033567099999999,105.78817529999999"
83,ChIJ11cghcGJoDERYJDlxM5-UME,Lẩu Chay Organic,Nhà hàng,0905 959 675,"Lẩu Chay Organic, Hẻm liên tổ 4-5, Đ. Nguyễn Văn Linh, Hưng Lợi, Ninh Kiều, Cần Thơ","Hưng Lợi, Ninh Kiều","Hẻm liên tổ 4-5, Đ. Nguyễn Văn Linh",Cần Thơ,,"Ninh Kiều, Cần Thơ",VN,"10.024582299999999,105.7589694"
84,ChIJ_QO54SWJoDERe3LmeDFCib0,Cơm Nhà Cáo,Nhà hàng gia đình,0826 552 929,"Cơm Nhà Cáo, 135C Đ. Mậu Thân, An Hoà, Ninh Kiều, Cần Thơ","An Hoà, Ninh Kiều",135C Đ. Mậu Thân,Cần Thơ,,"Ninh Kiều, Cần Thơ",VN,"10.0473655,105.7618394"
86,ChIJz64N11GJoDERY8Dvx54ZOf0,Nhà hàng Thỏ Tuyết,Nhà hàng Nhật Bản,0373 999 677,"Nhà hàng Thỏ Tuyết, 112/7 Nguyễn Văn Trỗi, An Nghiệp, Ninh Kiều, Cần Thơ 900000","An Nghiệp, Ninh Kiều",112/7 Nguyễn Văn Trỗi,Cần Thơ,900000.0,"Ninh Kiều, Cần Thơ",VN,"10.0375028,105.77207"
91,ChIJ98cUeKyJoDERN83-GMegxl0,Bếp Chay Mái Hiên,Nhà hàng cho người ăn chay,0969 339 070,"Bếp Chay Mái Hiên, 8 Đinh Tiên Hoàng/hẻm 8 Đ. Đinh Tiên Hoàng, An Hội, Ninh Kiều, Cần Thơ 94000","An Hội, Ninh Kiều",8 Đinh Tiên Hoàng/hẻm 8 Đ. Đinh Tiên Hoàng,Cần Thơ,94000.0,"Ninh Kiều, Cần Thơ",VN,"10.040823699999999,105.7796529"
92,ChIJKYJQc7BioDERQ9S0G52SCPw,Nhà hàng Hoàng Tử,Nhà hàng,,"2QVW+74G Nhà hàng Hoàng Tử, Cái Khế, Ninh Kiều, Cần Thơ","Cái Khế, Ninh Kiều",2QVW+74G,Cần Thơ,,"Ninh Kiều, Cần Thơ",VN,"10.0431802,105.7953197"
93,ChIJHyf3JWeJoDERcPjlMmgh6W8,Cơm Niêu Ngũ Vị,Nhà hàng gia đình,0939 051 113,"Cơm Niêu Ngũ Vị, 102/10 Đ. Trần Hoàng Na, mới, Ninh Kiều, Cần Thơ 900000","mới, Ninh Kiều",102/10 Đ. Trần Hoàng Na,Cần Thơ,900000.0,"Ninh Kiều, Cần Thơ",VN,"10.0174063,105.7591233"
94,ChIJ0XHQ4ahioDERTwUhJjbfX7I,SUSHI TOKYO CẦN THƠ,Nhà hàng sushi,0938 988 477,"SUSHI TOKYO CẦN THƠ, 125 Trần Văn Khéo, Cái Khế, Ninh Kiều, Cần Thơ","Cái Khế, Ninh Kiều",125 Trần Văn Khéo,Cần Thơ,,"Ninh Kiều, Cần Thơ",VN,"10.0459851,105.786234"
98,ChIJcTxa8A9joDERk_PI1odaM_4,Beer & Wine Restaurant,Nhà hàng Pháp,0939 678 222,"Beer & Wine Restaurant, 55a Đ. Nam Kỳ Khởi Nghĩa, Tân An, Ninh Kiều, Cần Thơ 94000","Tân An, Ninh Kiều",55a Đ. Nam Kỳ Khởi Nghĩa,Cần Thơ,94000.0,"Ninh Kiều, Cần Thơ",VN,"10.032005,105.7842974"
99,ChIJwzu_XeiJoDER378CBveefiA,NHÀ HÀNG HẢI SẢN - GÀ TRE NỒI ĐẤT,Nhà hàng gia đình,0292 6299 997,"NHÀ HÀNG HẢI SẢN - GÀ TRE NỒI ĐẤT, 127 Võ Văn Kiệt, An Hoà, Ninh Kiều, Cần Thơ","An Hoà, Ninh Kiều",127 Võ Văn Kiệt,Cần Thơ,,"Ninh Kiều, Cần Thơ",VN,"10.0456193,105.7615964"
101,ChIJvYRWKUhjoDERUEhEDnlONN8,Ja mi dang Quán Ăn Hàn Quốc,Nhà hàng,,"Ja mi dang Quán Ăn Hàn Quốc, TP, Sông Hậu, Cái Khế, Ninh Kiều, Cần Thơ 90000","Cái Khế, Ninh Kiều","TP, Sông Hậu",Cần Thơ,90000.0,"Ninh Kiều, Cần Thơ",VN,"10.0450799,105.79280759999999"
102,ChIJR5BFUVyJoDERg8f9tonAL0M,Nướng- Lẩu Tomyum (Macsu Tea),Quán ăn nhỏ,0968 835 657,"Nướng- Lẩu Tomyum (Macsu Tea), hẻm liên tô 12_20 NVC, Hẻm 160, tổ 13, Ninh Kiều, Cần Thơ","tổ 13, Ninh Kiều","hẻm liên tô 12_20 NVC, Hẻm 160",Cần Thơ,,"Ninh Kiều, Cần Thơ",VN,"10.0421503,105.763459"
103,ChIJqw_CN2qJoDERFH6fP4quwjQ,Quán nướng NHÀ TOLE,Quán ăn nhỏ,0913 683 937,"Quán nướng NHÀ TOLE, Hẻm 51 Hẻm 132 Đ. 3 Tháng 2, Xuân Khánh, Ninh Kiều, Cần Thơ 94000","Xuân Khánh, Ninh Kiều",Hẻm 51 Hẻm 132 Đ. 3 Tháng 2,Cần Thơ,94000.0,"Ninh Kiều, Cần Thơ",VN,"10.0345585,105.764853"
104,ChIJh_RNEaBioDERfz1evpsMsgU,Cơm Chay Tràng Phan,Nhà hàng ăn chay,0938 549 649,"Cơm Chay Tràng Phan, noi dai ) P, 127 Đ. Mậu Thân, An Hoà, Ninh Kiều, Cần Thơ","An Hoà, Ninh Kiều","noi dai ) P, 127 Đ. Mậu Thân",Cần Thơ,,"Ninh Kiều, Cần Thơ",VN,"10.045307099999999,105.76351969999999"
106,ChIJ349GTHqHoDERmtaskwsmSqg,Nhà Hàng Hoa Sen,Nhà hàng,0292 3939 955,"3Q8G+GVR Nhà Hàng Hoa Sen, Cồn Khương, Ninh Kiều, Cần Thơ","Cồn Khương, Ninh Kiều",3Q8G+GVR,Cần Thơ,,"Ninh Kiều, Cần Thơ",VN,"10.066369199999999,105.7771307"
118,ChIJv9Pm37mJoDERNlk5qwPhSN0,Nhà hàng Hầm Rượu Cáo Nho,Nhà hàng gia đình,0763 883 839,"Nhà hàng Hầm Rượu Cáo Nho, 80 Võ Văn Kiệt, An Hoà, Ninh Kiều, Cần Thơ","An Hoà, Ninh Kiều",80 Võ Văn Kiệt,Cần Thơ,,"Ninh Kiều, Cần Thơ",VN,"10.0459237,105.76219139999999"
131,ChIJLzKm3pmHoDERiMjO62ntnGY,Dịch vụ nấu ăn Hạnh Dung (Tám Be),Nhà hàng,0939 683 308,"Dịch vụ nấu ăn Hạnh Dung (Tám Be), Đ. Số 13, Cồn Khương, Ninh Kiều, Cần Thơ","Cồn Khương, Ninh Kiều",Đ. Số 13,Cần Thơ,,"Ninh Kiều, Cần Thơ",VN,"10.0585711,105.7759698"
132,ChIJ3XTDoF2JoDERfe7C63pgA_8,Ẩm Thực Chay Quý Liên,Nhà hàng món chay,0292 3737 868,"Ẩm Thực Chay Quý Liên, Số 4 Đ. A3, KHU DÂN CƯ ĐÔ THỊ MỚI HƯNG PHÚ, Cái Răng, Cần Thơ 940000","KHU DÂN CƯ ĐÔ THỊ MỚI HƯNG PHÚ, Cái Răng",Số 4 Đ. A3,Cần Thơ,940000.0,"Cái Răng, Cần Thơ",VN,"10.0198778,105.7557848"
133,ChIJB8XoE6Z9oDERdn3UEgcIqGQ,Quán Ẩm Thực Bốn Mùa,Nhà hàng gia đình,0924 993 686,"Quán Ẩm Thực Bốn Mùa, 77 Đ. Nguyễn Văn Cừ, Cái Khế, Ninh Kiều, Cần Thơ","Cái Khế, Ninh Kiều",77 Đ. Nguyễn Văn Cừ,Cần Thơ,,"Ninh Kiều, Cần Thơ",VN,"10.0570373,105.779479"
146,ChIJ4Zq8ofGHoDER8T61aC37Nm4,King House Seafood,Nhà hàng hải sản,0922 081 777,"Cần Thơ, Ninh Kiều, Cái Khế, Đ. Nguyễn Văn Cừ, King House Seafood","Cái Khế, Ninh Kiều",42 Đ. Nguyễn Văn Cừ,Cần Thơ,,"Ninh Kiều, Cần Thơ",VN,"10.057642,105.7793749"
158,ChIJS5eJ8CCIoDER9Fc3BPLAT3c,Nhà Hàng Bách Giai _ Vinpearl Cần Thơ,Nhà hàng,1900 232389,"Nhà Hàng Bách Giai _ Vinpearl Cần Thơ, 209 Đ. 30 Tháng 4, An Lạc, Ninh Kiều, Cần Thơ","An Lạc, Ninh Kiều",209 Đ. 30 Tháng 4,Cần Thơ,,"Ninh Kiều, Cần Thơ",VN,"10.0294922,105.7800594"
159,ChIJpRF4yUyJoDER6o-DTsT8OaM,Tiệm Ăn Nhã Đình,Nhà hàng gia đình,0939 888 249,"Tiệm Ăn Nhã Đình, khu cán bộ giảng viên, 21 Đ. Số 4, Phường An Khánh, Ninh Kiều, Cần Thơ","Phường An Khánh, Ninh Kiều","khu cán bộ giảng viên, 21 Đ. Số 4",Cần Thơ,,"Ninh Kiều, Cần Thơ",VN,"10.025886999999999,105.75993899999999"
187,ChIJc9gkzjhjoDERsiJqF2Wq7U0,Nhà hàng Hương Vị Nam Bộ,Nhà hàng,0343 727 680,"Nhà hàng Hương Vị Nam Bộ, 2 Sông Hậu, Cái Khế, Ninh Kiều, Cần Thơ","Cái Khế, Ninh Kiều",2 Sông Hậu,Cần Thơ,,"Ninh Kiều, Cần Thơ",VN,"10.0429655,105.795687"
201,ChIJsbgdBFqJoDERdPN-C5mBvko,Quán Ăn Gia Đình 86,Nhà hàng gia đình,0337 015 386,"Cần Thơ, Ninh Kiều, Xuân Khánh, Đ. Mạc Thiên Tích, Quán Ăn Gia Đình 86","Xuân Khánh, Ninh Kiều",86 Đ. Mạc Thiên Tích,Cần Thơ,,"Ninh Kiều, Cần Thơ",VN,"10.027948799999999,105.7728621"
202,ChIJy-cb7qmJoDERu5nXKt6XRDU,Làng Thỏ Quán,Nhà hàng quán rượu dành cho người sành ăn,0901 292 823,"Làng Thỏ Quán, 678 Đường F1, An Thới, Bình Thủy, Cần Thơ","An Thới, Bình Thủy",678 Đường F1,Cần Thơ,,"Bình Thủy, Cần Thơ",VN,"10.0517778,105.7508333"
203,ChIJyTkeWT2JoDER5nIh9YpJG9o,SAWADI BUFFET THÁI - HẢI SẢN ĂN THẢ GA KHÔNG LO VỀ GIÁ VÀ CHẤT LƯỢNG,Nhà hàng Thái Lan,0824 124 430,"Cần Thơ, Ninh Kiều, Hưng Lợi, Hẻm 107 Đ. 3 Tháng 2, SAWADI BUFFET THÁI - HẢI SẢN ĂN THẢ GA KHÔNG LO VỀ GIÁ VÀ CHẤT LƯỢNG","Hưng Lợi, Ninh Kiều","2Q86+MJG, Hẻm 107 Đ. 3 Tháng 2",Cần Thơ,,"Ninh Kiều, Cần Thơ",VN,"10.016678899999999,105.76156329999999"
208,ChIJRUtGQfxjoDERIeskjMd9Sp8,TIFF’s House,Nhà hàng,0901 005 535,"TIFF’s House, 119 Trần Văn Khéo, Cái Khế, Ninh Kiều, Cần Thơ","Cái Khế, Ninh Kiều",119 Trần Văn Khéo,Cần Thơ,,"Ninh Kiều, Cần Thơ",VN,"10.0457086,105.7857157"
215,ChIJpwhI2FSJoDERJUGk_u5pu5Q,Quán Ẩm Thực 65 Cần Thơ,Nhà hàng cơm,0962 357 118,"Quán Ẩm Thực 65 Cần Thơ, 166 Đ. Phạm Hùng, Lê Bình, Cái Răng, Cần Thơ 94906","Lê Bình, Cái Răng",166 Đ. Phạm Hùng,Cần Thơ,94906.0,"Cái Răng, Cần Thơ",VN,"9.9956836,105.7492553"
229,ChIJD4Fg0KyHoDERB_a2HMCH1L4,Chuỗi Buffet Lẩu và Nướng Cô 3 Còi_ Cần Thơ,Nhà hàng,0903 922 311,"Chuỗi Buffet Lẩu và Nướng Cô 3 Còi_ Cần Thơ, 44-46 Đ. Nguyễn Văn Cừ, Cái Khế, Ninh Kiều, Cần Thơ","Cái Khế, Ninh Kiều",44-46 Đ. Nguyễn Văn Cừ,Cần Thơ,,"Ninh Kiều, Cần Thơ",VN,"10.0574123,105.7792223"
230,ChIJE8fV0TGIoDERWKHNyD_bYFs,Nhà hàng Sáu Đời 5,Nhà hàng,0292 2224 868,"Nhà hàng Sáu Đời 5, 1 Đ. Nguyễn Văn Linh, Hưng Lợi, Ninh Kiều, Cần Thơ","Hưng Lợi, Ninh Kiều",1 Đ. Nguyễn Văn Linh,Cần Thơ,,"Ninh Kiều, Cần Thơ",VN,"10.0194005,105.77005229999999"
232,ChIJGYzMCTSIoDERTQmHxdcmYhQ,Nhà hàng hải sản Biển Đông 2,Nhà hàng hải sản,0939 904 333,"Nhà hàng hải sản Biển Đông 2, 168 Đ. 30 Tháng 4, Hưng Lợi, Ninh Kiều, Cần Thơ","Hưng Lợi, Ninh Kiều",168 Đ. 30 Tháng 4,Cần Thơ,,"Ninh Kiều, Cần Thơ",VN,"10.016451499999999,105.76438069999999"
233,ChIJ8TI0Yp9ioDERveFaxexPYSk,Quán Cơm 16,Nhà hàng Việt Nam,0292 3827 326,"Quán Cơm 16, 52 Nguyễn Thái Học, Tân An, Ninh Kiều, Cần Thơ","Tân An, Ninh Kiều",52 Nguyễn Thái Học,Cần Thơ,,"Ninh Kiều, Cần Thơ",VN,"10.0326776,105.78601069999999"
235,ChIJw2tevDeIoDER_gErIfxfK7s,Quán Hủ Tiếu Mực Phúc - Bún Thái,Nhà hàng,0939 340 688,"Quán Hủ Tiếu Mực Phúc - Bún Thái, Ngô Sĩ Liên, Hưng Lợi, Ninh Kiều, Cần Thơ","Hưng Lợi, Ninh Kiều",Ngô Sĩ Liên,Cần Thơ,,"Ninh Kiều, Cần Thơ",VN,"10.0216807,105.7607862"
236,ChIJYamsKx2IoDERY8MvE7qDH0U,Quán Cơm Chay Cường,Nhà hàng cho người ăn chay,0292 2246 313,"Quán Cơm Chay Cường, 9 Đ. Đề Thám, Tân An, Ninh Kiều, Cần Thơ","Tân An, Ninh Kiều",9 Đ. Đề Thám,Cần Thơ,,"Ninh Kiều, Cần Thơ",VN,"10.0332713,105.78339319999999"
237,ChIJQ-PizB-IoDERToZqOtoQe1I,Quán Ăn Chay Bách Thảo,Nhà hàng món chay,0918 174 071,"Quán Ăn Chay Bách Thảo, 86a Đ. Đề Thám, An Cư, Ninh Kiều, Cần Thơ","An Cư, Ninh Kiều",86a Đ. Đề Thám,Cần Thơ,,"Ninh Kiều, Cần Thơ",VN,"10.0347209,105.78176769999999"
238,ChIJRbMUoMGJoDERG_3HKczoGi4,Nhà Hàng Alô Dzô 100,Nhà hàng,0776 202 222,"Nhà Hàng Alô Dzô 100, 55B1B, Đ. Hồ Bún Xáng, Phường An Khánh, Ninh Kiều, Cần Thơ 94117","Phường An Khánh, Ninh Kiều","55B1B, Đ. Hồ Bún Xáng",Cần Thơ,94117.0,"Ninh Kiều, Cần Thơ",VN,"10.033211,105.7636919"
240,ChIJFxTQ1qBioDERo9CC7UwqyJ4,Bún bò Huế Vĩ Dạ,Nhà hàng,0292 3822 959,"Bún bò Huế Vĩ Dạ, 23 Đ. Xô Viết Nghệ Tĩnh, An Cư, Ninh Kiều, Cần Thơ","An Cư, Ninh Kiều",23 Đ. Xô Viết Nghệ Tĩnh,Cần Thơ,,"Ninh Kiều, Cần Thơ",VN,"10.0381503,105.7839071"
241,ChIJoRn4AjuIoDEReJiaMtLKBw8,Nhà Hàng Sao Mai,Nhà hàng,0292 3845 888,"Nhà Hàng Sao Mai, Số 41A Đường 3/2 Phuong Xuân Khánh, Đ. 3 Tháng 2, Xuân Khánh, Ninh Kiều, Cần Thơ","Xuân Khánh, Ninh Kiều","Số 41A Đường 3/2 Phuong Xuân Khánh, Đ. 3 Tháng 2",Cần Thơ,,"Ninh Kiều, Cần Thơ",VN,"10.025618699999999,105.7681089"
244,ChIJY861ya5ioDERG2EODGG2vrU,Bánh Xèo Ngọc Ngân,Nhà hàng bánh kếp,0292 3811 613,"Bánh Xèo Ngọc Ngân, 74 Lê Lợi, Cái Khế, Ninh Kiều, Cần Thơ","Cái Khế, Ninh Kiều",74 Lê Lợi,Cần Thơ,,"Ninh Kiều, Cần Thơ",VN,"10.047367999999999,105.78824809999999"
246,ChIJoZA7sqNioDERvqfC6XLi38k,Nhà hàng Du thuyền Cần Thơ,Nhà hàng,0901 393 999,"Nhà hàng Du thuyền Cần Thơ, 2 Đường Hai Bà Trưng, Tân An, Ninh Kiều, Cần Thơ","Tân An, Ninh Kiều",2 Đường Hai Bà Trưng,Cần Thơ,,"Ninh Kiều, Cần Thơ",VN,"10.0352793,105.7900025"
248,ChIJx2PlW5JjoDER_pJer7QSbnE,NHÀ HÀNG SÔNG HẬU,Nhà hàng,0939 217 939,"NHÀ HÀNG SÔNG HẬU, 27-29 Lê Lợi, Cái Khế, Ninh Kiều, Cần Thơ","Cái Khế, Ninh Kiều",27-29 Lê Lợi,Cần Thơ,,"Ninh Kiều, Cần Thơ",VN,"10.044221499999999,105.79038039999999"
252,ChIJTVGiv-CJoDERb3M6Jk0Ova4,Lẩu mắm Dạ lý,Nhà hàng món lẩu,0292 3838 764,"2Q86+347 Lẩu mắm Dạ lý, Hẻm 83 Đ. 3 Tháng 2, Hưng Lợi, Ninh Kiều, Cần Thơ","Hưng Lợi, Ninh Kiều","2Q86+347, Hẻm 83 Đ. 3 Tháng 2",Cần Thơ,,"Ninh Kiều, Cần Thơ",VN,"10.015583699999999,105.7607994"
253,ChIJBd31AYFjoDERM1eQvspHg-8,Nhà Hàng Happy Crab Hải Sản Xô,Nhà hàng hải sản,0292 2222 027,"Nhà Hàng Happy Crab Hải Sản Xô, 10-12 Đ. Nguyễn Hiền, Phường An Khánh, Ninh Kiều, Cần Thơ","Phường An Khánh, Ninh Kiều",10-12 Đ. Nguyễn Hiền,Cần Thơ,,"Ninh Kiều, Cần Thơ",VN,"10.0249455,105.75781429999999"
256,ChIJD623-6tioDERtkcFqxnuRzE,Hải Sản Biển Đông,Nhà hàng hải sản,0939 940 333,"Hải Sản Biển Đông, 30 Lê Lợi, Cái Khế, Ninh Kiều, Cần Thơ","Cái Khế, Ninh Kiều",30 Lê Lợi,Cần Thơ,,"Ninh Kiều, Cần Thơ",VN,"10.049059,105.7873858"
258,ChIJKVtNd4yJoDERXYfVIGkeo5A,Ẩm thực chay THIỆN PHƯỚC 1,Nhà hàng món chay,,"Ẩm thực chay THIỆN PHƯỚC 1, 132 Đ. 3 Tháng 2, Hưng Lợi, Ninh Kiều, Cần Thơ","Hưng Lợi, Ninh Kiều",132 Đ. 3 Tháng 2,Cần Thơ,,"Ninh Kiều, Cần Thơ",VN,"10.019852,105.75886539999999"
260,ChIJt6eTN8SJoDERrgqzAAvDu0U,Nhà hàng bò tơ năm sánh,Nhà hàng gia đình,,"2QW6+R5J Nhà hàng bò tơ năm sánh, An Hoà, Ninh Kiều, Cần Thơ","An Hoà, Ninh Kiều",2QW6+R5J,Cần Thơ,,"Ninh Kiều, Cần Thơ",VN,"10.0470844,105.7603759"
262,ChIJy7ET0myJoDERtOlFBdy3eA8,Nhà hàng 6 Đời 1,Nhà hàng gia đình,,"Nhà hàng 6 Đời 1, 136b Đ. Nguyễn Văn Cừ, Phường An Khánh, Ninh Kiều, Cần Thơ","Phường An Khánh, Ninh Kiều",136b Đ. Nguyễn Văn Cừ,Cần Thơ,,"Ninh Kiều, Cần Thơ",VN,"10.039365,105.7611271"
265,ChIJ162HSjCIoDERNCqdIVH50xI,Quán Nhậu 233,Nhà hàng,0292 3780 639,"Quán Nhậu 233, 381 Đ. 30 Tháng 4, Hưng Lợi, Ninh Kiều, Cần Thơ","Hưng Lợi, Ninh Kiều",381 Đ. 30 Tháng 4,Cần Thơ,,"Ninh Kiều, Cần Thơ",VN,"10.0197492,105.7688651"
271,ChIJOc3ZhSRjoDERFmulA32kOAU,Cơm Niêu Nhà Ngoại,Nhà hàng gia đình,,"2QXP+57R Cơm Niêu Nhà Ngoại, Trần Quang Khải, Cái Khế, Ninh Kiều, Cần Thơ","Cái Khế, Ninh Kiều","2QXP+57R, Trần Quang Khải",Cần Thơ,,"Ninh Kiều, Cần Thơ",VN,"10.047979999999999,105.7856434"
273,ChIJe_k9EWCJoDER_Tcocs7nyOE,Phở Nghi,Nhà hàng phở,0292 3943 620,"Phở Nghi, 118 Trần Hoàng Na Cần Thơ Can Tho City, 900000","Hưng Lợi, Ninh Kiều",118 Trần Hoàng Na Cần Thơ Can Tho City,Cần Thơ,900000.0,"Ninh Kiều, Cần Thơ",VN,"10.0153305,105.76145799999999"
275,ChIJZbra2paJoDERfRZ3WoXVpyQ,Trâu Mộc 139,Nhà hàng gia đình,0947 645 252,"Trâu Mộc 139, 139 Đ. Nguyễn Đệ, An Hoà, Ninh Kiều, Cần Thơ","An Hoà, Ninh Kiều",139 Đ. Nguyễn Đệ,Cần Thơ,,"Ninh Kiều, Cần Thơ",VN,"10.047859299999999,105.7606639"
283,ChIJBWeG_atioDER3Cj8lg_yN0w,Tân Đào Hoa Đảo Food & Beer,Nhà hàng hải sản,0922 090 979,"Tân Đào Hoa Đảo Food & Beer, 118/9/47B Trần Quang Khải, Cái Khế, Ninh Kiều, Cần Thơ","Cái Khế, Ninh Kiều",118/9/47B Trần Quang Khải,Cần Thơ,,"Ninh Kiều, Cần Thơ",VN,"10.0482444,105.7870466"
285,ChIJQ9bIs65ioDERb-8EF7FFhxQ,Nhà Hàng - Karaoke Bến Cát,Nhà hàng,,"Nhà Hàng - Karaoke Bến Cát, 66 Lê Lợi, Cái Khế, Ninh Kiều, Cần Thơ","Cái Khế, Ninh Kiều",66 Lê Lợi,Cần Thơ,,"Ninh Kiều, Cần Thơ",VN,"10.0476353,105.78813889999999"
289,ChIJ8Qkgo55joDERGapOXdk44b8,QUÁN VỊT LÚA,Quán bia,,"QUÁN VỊT LÚA, TP, 192 Lê Lợi, Cái Khế, Ninh Kiều, Cần Thơ 94107","Cái Khế, Ninh Kiều","TP, 192 Lê Lợi",Cần Thơ,94107.0,"Ninh Kiều, Cần Thơ",VN,"10.040535,105.79134479999999"
290,ChIJpTY4NUiJoDER3piGPju8cMo,Quán ăn pallet,Nhà hàng gia đình,,"2QW7+C37 Quán ăn pallet, Võ Văn Kiệt, Phường An Khánh, Ninh Kiều, Cần Thơ","Phường An Khánh, Ninh Kiều","2QW7+C37, Võ Văn Kiệt",Cần Thơ,,"Ninh Kiều, Cần Thơ",VN,"10.0460421,105.7626834"
292,ChIJIZXs-hljoDER36iCJWwS4DY,Spirito Restaurant & Bar,Nhà hàng,0292 3633 377,"2QVM+28F Spirito Restaurant & Bar, 2 Nguyễn Trãi, Cái Khế, Ninh Kiều, Cần Thơ","Cái Khế, Ninh Kiều","2QVM+28F, 2 Nguyễn Trãi",Cần Thơ,,"Ninh Kiều, Cần Thơ",VN,"10.042562499999999,105.7833125"
294,ChIJDSmyyzGIoDERMHHtjjjGa18,Đất Tổ Quán,Nhà hàng Việt Nam,,"2Q99+RJ4 Đất Tổ Quán, Hưng Lợi, Ninh Kiều, Cần Thơ","Hưng Lợi, Ninh Kiều",2Q99+RJ4,Cần Thơ,,"Ninh Kiều, Cần Thơ",VN,"10.0195104,105.7690813"
305,ChIJz9Ltvi1joDERDwkU8uyncmY,Nhà Hàng Sen Vàng,Nhà hàng hải sản,,"Nhà Hàng Sen Vàng, 143 Trần Văn Khéo, Cái Khế, Ninh Kiều, Cần Thơ","Cái Khế, Ninh Kiều",143 Trần Văn Khéo,Cần Thơ,,"Ninh Kiều, Cần Thơ",VN,"10.0463846,105.7868948"
306,ChIJMaEWugFjoDERTg94WcHpxq0,LA CÀ (quán ăn gia đình),Nhà hàng Việt Nam,,"LA CÀ (quán ăn gia đình), 121 Trần Văn Khéo, Cái Khế, Ninh Kiều, Cần Thơ","Cái Khế, Ninh Kiều",121 Trần Văn Khéo,Cần Thơ,,"Ninh Kiều, Cần Thơ",VN,"10.045961,105.7860101"
330,ChIJMTqGUjSJoDER4cDG9L_jNHE,Lẩu Chay Chế Út,Nhà hàng món chay,0932 960 070,"Lẩu Chay Chế Út, 20 Đ. Nguyễn Tri Phương, Phường An Khánh, Ninh Kiều, Cần Thơ 900000","Phường An Khánh, Ninh Kiều",20 Đ. Nguyễn Tri Phương,Cần Thơ,900000.0,"Ninh Kiều, Cần Thơ",VN,"10.0399493,105.7580749"
331,ChIJQcBs5JmJoDERRmgL2_q4vFo,Nhà hàng TRỌNG HỮU,Nhà hàng,0909 055 888,"Nhà hàng TRỌNG HỮU, 29 Đường B29, Khu dân cư 91B, Ninh Kiều, Cần Thơ 900000","Khu dân cư 91B, Ninh Kiều",29 Đường B29,Cần Thơ,900000.0,"Ninh Kiều, Cần Thơ",VN,"10.023499099999999,105.75296019999999"
344,ChIJ3znjp4-HoDERM43nb2Mcdjo,Lalang Farm,Nhà hàng,0907 133 156,"Lalang Farm, 28 Đường số 1, Cồn Khương, Ninh Kiều, Cần Thơ 94000","Cồn Khương, Ninh Kiều",28 Đường số 1,Cần Thơ,94000.0,"Ninh Kiều, Cần Thơ",VN,"10.06088,105.7773302"
345,ChIJQx7CRp2HoDERMzX1TnJLci4,Lavaly Restaurant & Lounge,Nhà hàng,0939 599 133,"Lavaly Restaurant & Lounge, 29 Đường số 1, Cồn Khương, Ninh Kiều, Cần Thơ","Cồn Khương, Ninh Kiều",29 Đường số 1,Cần Thơ,,"Ninh Kiều, Cần Thơ",VN,"10.060810499999999,105.7772538"
346,ChIJi43k5ZeJoDERLoiivO_TuPY,Quán Ruộng Đồng,Nhà hàng Việt Nam,0787 879 077,"Quán Ruộng Đồng, 2/23a Đ. Lê Anh Xuân, An Cư, Ninh Kiều, Cần Thơ","An Cư, Ninh Kiều",2/23a Đ. Lê Anh Xuân,Cần Thơ,,"Ninh Kiều, Cần Thơ",VN,"10.0396366,105.77010089999999"
347,ChIJbVaN0vOJoDERnlsL842h6SA,NƯỚNG LẨU 59 CẦN THƠ,Nhà hàng gia đình,0939 607 604,"NƯỚNG LẨU 59 CẦN THƠ, Số 1B đường 3/2, An Bình, Ninh Kiều, Cần Thơ","An Bình, Ninh Kiều",Số 1B đường 3/2,Cần Thơ,,"Ninh Kiều, Cần Thơ",VN,"10.0097095,105.7512304"
358,ChIJN5qbgkqJoDERetZygzai0Hw,Khop Khun Thai Restaurant & Bistro,Nhà hàng Thái Lan,0325 234 417,"Khop Khun Thai Restaurant & Bistro, hẻm 51 Đường 3 tháng 2, Phường An Khánh, Ninh Kiều, Cần Thơ 94000","Phường An Khánh, Ninh Kiều",hẻm 51 Đường 3 tháng 2,Cần Thơ,94000.0,"Ninh Kiều, Cần Thơ",VN,"10.0377301,105.767832"
359,ChIJq4MqZoiJoDERMqo5Q_L4pMY,Quán Mộc Quê_ Mộc mạc vị quê,Nhà hàng,0903 273 279,"Quán Mộc Quê_ Mộc mạc vị quê, 127 Võ Văn Kiệt, An Hoà, Ninh Kiều, Cần Thơ","An Hoà, Ninh Kiều",127 Võ Văn Kiệt,Cần Thơ,,"Ninh Kiều, Cần Thơ",VN,"10.048276,105.7677496"
360,ChIJ-ydrNfmJoDER47kknedUPts,Quán ăn Hoa Súng (thực đơn ngon),Quán ăn nhỏ,,"XPMM+QJM Quán ăn Hoa Súng (thực đơn ngon), Ba Láng, Cái Răng, Cần Thơ","Ba Láng, Cái Răng",XPMM+QJM,Cần Thơ,,"Cái Răng, Cần Thơ",VN,"9.984461099999999,105.73406209999999"
364,ChIJGXN1mCGIoDERfdkG0DU5rOo,Nhà Hàng Khách Sạn Hoa Anh Đào,Nhà hàng,0292 3821 222,"Nhà Hàng Khách Sạn Hoa Anh Đào, 108 Đ. Nguyễn Việt Hồng, An Lạc, Ninh Kiều, Cần Thơ","An Lạc, Ninh Kiều",108 Đ. Nguyễn Việt Hồng,Cần Thơ,,"Ninh Kiều, Cần Thơ",VN,"10.0305977,105.7776779"
366,ChIJD34M2m-JoDERZfWlkUKx6bI,Quán Nhà Quê,Nhà hàng gia đình,,"Quán Nhà Quê, 257b Đ. Lê Anh Xuân, An Nghiệp, Ninh Kiều, Cần Thơ","An Nghiệp, Ninh Kiều",257b Đ. Lê Anh Xuân,Cần Thơ,,"Ninh Kiều, Cần Thơ",VN,"10.0455942,105.7612305"
367,ChIJ9WXhw_uJoDERipXRZxp0QYw,Sugar D&B,Nhà hàng,0936 686 778,"Sugar D&B, 59 Đ1 Hồ Bún Xáng, Phường An Khánh, Ninh Kiều, Cần Thơ 900000","Phường An Khánh, Ninh Kiều",59 Đ1 Hồ Bún Xáng,Cần Thơ,900000.0,"Ninh Kiều, Cần Thơ",VN,"10.0343199,105.76465329999999"
368,ChIJcUBbvHdjoDERMLJAZOFDvWE,Quán ăn gia đình Hương Tràm,Nhà hàng,0907 937 424,"2QXP+8PW Quán ăn gia đình Hương Tràm, Trần Quang Khải, Cái Khế, Ninh Kiều, Cần Thơ","Cái Khế, Ninh Kiều","2QXP+8PW, Trần Quang Khải",Cần Thơ,,"Ninh Kiều, Cần Thơ",VN,"10.0483691,105.7868245"
370,ChIJOw8_UHGJoDERXkcbDVpbRxs,Dookki Vincom Plaza Hung Vuong,Nhà hàng tiệc đứng,0292 3603 777,"Dookki Vincom Plaza Hung Vuong, 2 Hùng Vương, Thới Bình, Ninh Kiều, Cần Thơ","Thới Bình, Ninh Kiều",2 Hùng Vương,Cần Thơ,,"Ninh Kiều, Cần Thơ",VN,"10.0454948,105.7794857"
371,ChIJBwQvNUtjoDERZtWDpF1TEi8,Buffet Tâm Bo,Nhà hàng,,"Buffet Tâm Bo, 31 Lê Lợi, Cái Khế, Ninh Kiều, Cần Thơ","Cái Khế, Ninh Kiều",31 Lê Lợi,Cần Thơ,,"Ninh Kiều, Cần Thơ",VN,"10.043756499999999,105.79057429999999"
372,ChIJr1j3XKlioDERwMPFp2lBfyg,Quán nhậu 120,Quán ăn nhỏ,0932 476 898,"Quán nhậu 120, 120 Trần Quang Khải, Cái Khế, Ninh Kiều, Cần Thơ","Cái Khế, Ninh Kiều",120 Trần Quang Khải,Cần Thơ,,"Ninh Kiều, Cần Thơ",VN,"10.0480897,105.78678079999999"
374,ChIJR4WfMQZjoDERKSf4ilHTXlU,芹苴忆香楼中餐厅Quán Ăn Trung Hoa,Nhà hàng,,"芹苴忆香楼中餐厅Quán Ăn Trung Hoa, 7 Mai Chí Thọ, KDC 586, P, Cái Răng, Cần Thơ","KDC 586, P, Cái Răng",7 Mai Chí Thọ,Cần Thơ,,"Cái Răng, Cần Thơ",VN,"10.0090117,105.80215849999999"
376,ChIJr65tPgpjoDER98gX0bje8hA,정담 Korean Restaurant (Nhà hàng Hàn Quốc Tri Kỷ),Nhà hàng Hàn Quốc,0907 147 976,"정담 Korean Restaurant (Nhà hàng Hàn Quốc Tri Kỷ), 21 Lê Lợi, Cái Khế, Ninh Kiều, Cần Thơ","Cái Khế, Ninh Kiều",21 Lê Lợi,Cần Thơ,,"Ninh Kiều, Cần Thơ",VN,"10.044696799999999,105.7899621"
381,ChIJiQ8e2QJjoDER9lhWjePanvg,Bánh canh ghẹ Minh Thư,Nhà hàng châu Á,,"Bánh canh ghẹ Minh Thư, 173 Trần Văn Khéo, Cái Khế, Ninh Kiều, Cần Thơ","Cái Khế, Ninh Kiều",173 Trần Văn Khéo,Cần Thơ,,"Ninh Kiều, Cần Thơ",VN,"10.046800099999999,105.7877307"
387,ChIJ_8y2TsGJoDERVM--PHfLmI0,NHÀ HÀNG CÂY GỪA,Nhà hàng,0908 050 261,"NHÀ HÀNG CÂY GỪA, 188 Đ. Nguyễn Văn Linh, Hưng Lợi, Ninh Kiều, Cần Thơ","Hưng Lợi, Ninh Kiều",188 Đ. Nguyễn Văn Linh,Cần Thơ,,"Ninh Kiều, Cần Thơ",VN,"10.0207806,105.76682389999999"
390,ChIJYzhCTiiJoDERX-IdWtIVQRo,Nhà Hàng Họp Phố,Nhà hàng gia đình,0901 273 222,"Nhà Hàng Họp Phố, Đ. Trần Hoàng Na/10B KDC Hồng Phát, P, Ninh Kiều, Cần Thơ 900000","P, Ninh Kiều",Đ. Trần Hoàng Na/10B KDC Hồng Phát,Cần Thơ,900000.0,"Ninh Kiều, Cần Thơ",VN,"10.0253827,105.7493501"
392,ChIJ6UOprMtjoDERC7oxpVW-hcs,Nhà hàng Tịnh Bình Chay,Nhà hàng món chay,,"Nhà hàng Tịnh Bình Chay, 80-82 Đ. Lương Định Của, Cái Khế, Ninh Kiều, Cần Thơ","Cái Khế, Ninh Kiều",80-82 Đ. Lương Định Của,Cần Thơ,,"Ninh Kiều, Cần Thơ",VN,"10.0436897,105.78714869999999"
396,ChIJffsl6c-JoDERaeAJ7eGoBOo,NHÀ HÀNG HẦM RƯỢU CÂY BÀNG,Nhà hàng,0387 976 510,"NHÀ HÀNG HẦM RƯỢU CÂY BÀNG, 136A Nguyễn Văn Cừ Nối Dài, Phường An Khánh, Ninh Kiều, Cần Thơ 270000","Phường An Khánh, Ninh Kiều",136A Nguyễn Văn Cừ Nối Dài,Cần Thơ,270000.0,"Ninh Kiều, Cần Thơ",VN,"10.0394133,105.7607204"
401,ChIJDV7kstpjoDER1x06wK1xQBA,Ẩm thực Ao Làng,Nhà hàng gia đình,,"2Q6V+M6Q Ẩm thực Ao Làng, Đường số 30, Hưng Phú, Cái Răng, Cần Thơ","Hưng Phú, Cái Răng","2Q6V+M6Q, Đường số 30",Cần Thơ,,"Cái Răng, Cần Thơ",VN,"10.011753299999999,105.7932407"
410,ChIJAxUCqfqJoDERqD4rNDLcVYo,GoGi House Vincom Hùng Vương,Nhà hàng,0292 7300 309,"GoGi House Vincom Hùng Vương, TTTM Vincom, 2 Đường Hùng Vương, Thới Bình, Ninh Kiều, Cần Thơ 90000","Thới Bình, Ninh Kiều","TTTM Vincom, 2 Đường Hùng Vương",Cần Thơ,90000.0,"Ninh Kiều, Cần Thơ",VN,"10.0454948,105.7794857"
411,ChIJp1rBETGJoDERLmRkP0_XuiA,Quán Ăn Gia Đình Thanh Nhã 1,Nhà hàng gia đình,0292 3783 235,"Quán Ăn Gia Đình Thanh Nhã 1, 71 Huỳnh Cương, P, Ninh Kiều, Cần Thơ 94000","P, Ninh Kiều",71 Huỳnh Cương,Cần Thơ,94000.0,"Ninh Kiều, Cần Thơ",VN,"10.0382035,105.779226"
412,ChIJX3RdqrdjoDERvxuu4o6mH7Q,Ẩm Thực 88 - Bia Hơi Hà Nội (Cơ sở 2),Nhà hàng,,"Ẩm Thực 88 - Bia Hơi Hà Nội (Cơ sở 2), 15 Lê Lợi, Cái Khế, Ninh Kiều, Cần Thơ 94000","Cái Khế, Ninh Kiều",15 Lê Lợi,Cần Thơ,94000.0,"Ninh Kiều, Cần Thơ",VN,"10.045161499999999,105.78983129999999"
420,ChIJ_fV4cFCIoDERqIXwfby4qvY,Cafe Ẩm thực The Gardens,Quán cà phê,0292 3783 789,"Cafe Ẩm thực The Gardens, Cà phê Gardens): Số 259AA-261AA Nguyễn Văn Cừ ND, P. An Bình, Q. Ninh Kiều Quán ăn 34k): Số 3-4, đường số 4, KDC Hồng Phát, P. An Bình, Q, Ninh Kiều, Cần Thơ 900000","An Bình, Ninh Kiều","Cà phê Gardens): Số 259AA-261AA Nguyễn Văn Cừ ND, P. An Bình, Q. Ninh Kiều Quán ăn 34k): Số 3-4, đường số 4, KDC Hồng Phát, P. An Bình, Q",Cần Thơ,900000.0,"Ninh Kiều, Cần Thơ",VN,"10.023483899999999,105.74518429999999"
421,ChIJ3TGN74SJoDER4Hp4HbDuGpg,Bò Tơ Tây Ninh 2 Chánh,Nhà hàng,0292 3769 868,"Bò Tơ Tây Ninh 2 Chánh, 184 Đ. 3 Tháng 2, Hưng Lợi, Ninh Kiều, Cần Thơ 940000","Hưng Lợi, Ninh Kiều",184 Đ. 3 Tháng 2,Cần Thơ,940000.0,"Ninh Kiều, Cần Thơ",VN,"10.0205837,105.76364579999999"
428,ChIJ_7QwzBaJoDERTOhhmhdaU6Y,Quán Ăn Gia Đình Sáu Đời 1,Nhà hàng,0906 354 237,"Quán Ăn Gia Đình Sáu Đời 1, 807 Nguyễn Văn Cừ Nối Dài, Phường An Khánh, Ninh Kiều, Cần Thơ","Phường An Khánh, Ninh Kiều",807 Nguyễn Văn Cừ Nối Dài,Cần Thơ,,"Ninh Kiều, Cần Thơ",VN,"10.0397488,105.76155589999999"
429,ChIJVXUPmLaJoDER2I-SyZNgaOI,Thái Street,Nhà hàng,0767 139 764,"Thái Street, 118 Đ. 30 Tháng 4, Hưng Lợi, Ninh Kiều, Cần Thơ","Hưng Lợi, Ninh Kiều",118 Đ. 30 Tháng 4,Cần Thơ,,"Ninh Kiều, Cần Thơ",VN,"10.0159681,105.7619802"
430,ChIJHTt7_aRioDERvKt4Lb6VSzo,Gio Chieu 2 Restaurant,Nhà hàng,0292 3813 204,"2QRR+5H2 Gio Chieu 2 Restaurant, Water Park, Cai Khe Ward, Ninh Kieu District, Can Tho City, Cái Khế, Ninh Kiều, Cần Thơ","Cái Khế, Ninh Kiều","2QRR+5H2, Water Park, Cai Khe Ward, Ninh Kieu District, Can Tho City",Cần Thơ,,"Ninh Kiều, Cần Thơ",VN,"10.0403896,105.7913873"
432,ChIJ94RWgdiJoDERN2btyAF4Q-4,Gangnam Style,Nhà hàng Hàn Quốc,0776 474 581,"Gangnam Style, 24 Đ. Cách Mạng Tháng 8, Thới Bình, Ninh Kiều, Cần Thơ","Thới Bình, Ninh Kiều",24 Đ. Cách Mạng Tháng 8,Cần Thơ,,"Ninh Kiều, Cần Thơ",VN,"10.0459078,105.77972899999999"
433,ChIJrxb1iYtjoDERMa4fluj1L2Q,Ẩm Thực Thôn Xưa Cần Thơ,Nhà hàng,0919 313 494,"Ẩm Thực Thôn Xưa Cần Thơ, 2 Đ. Lý Thái Tổ, Hưng Phú, Cái Răng, Cần Thơ 92000","Hưng Phú, Cái Răng",2 Đ. Lý Thái Tổ,Cần Thơ,92000.0,"Cái Răng, Cần Thơ",VN,"10.018355699999999,105.78478729999999"
445,ChIJi8FwoqFioDERt5QVehBLRAQ,Cửa hàng Jollibee - Coopmart Cần Thơ,Nhà hàng ăn nhanh,0292 3818 000,"Cửa hàng Jollibee - Coopmart Cần Thơ, Tầng Trệt Siêu Thị Coopmart, 1, Đường Hòa Bình, Phường Tân An, Quận Ninh Kiều, Tân An, Ninh Kiều, Cần Thơ","Tân An, Ninh Kiều","Tầng Trệt Siêu Thị Coopmart, 1, Đường Hòa Bình, Phường Tân An, Quận Ninh Kiều",Cần Thơ,,"Ninh Kiều, Cần Thơ",VN,"10.034338,105.78562079999999"
446,ChIJSwn_Y3FjoDERrpd9KJ7G33Y,Ẩm Thực sân vườn Mạnh Tuấn,Nhà hàng hải sản,,"Ẩm Thực sân vườn Mạnh Tuấn, 293E Trần Văn Khéo, Cái Khế, Ninh Kiều, Cần Thơ","Cái Khế, Ninh Kiều",293E Trần Văn Khéo,Cần Thơ,,"Ninh Kiều, Cần Thơ",VN,"10.0457422,105.7864182"
449,ChIJU_hD5-6JoDERgDiinrnLvF4,Ẩm thực Đồng quê 14-16 Lương Định Của,,0987 700 079,"Ẩm thực Đồng quê 14-16 Lương Định Của, 14-16 Đ. Lương Định Của, Cái Khế, Ninh Kiều, Cần Thơ 900000","Cái Khế, Ninh Kiều",14-16 Đ. Lương Định Của,Cần Thơ,900000.0,"Ninh Kiều, Cần Thơ",VN,"10.0451227,105.7863119"
450,ChIJDbzwCumJoDERsPjrgeCZ9Xg,Quán ăn gia đình Hương Vị Sông Nước (Kiểu),Nhà hàng gia đình,0916 474 243,"Quán ăn gia đình Hương Vị Sông Nước (Kiểu), 42/3 Khu vực Yên Thuận, P, Cái Răng, Cần Thơ","P, Cái Răng",42/3 Khu vực Yên Thuận,Cần Thơ,,"Cái Răng, Cần Thơ",VN,"9.999995199999999,105.74441399999999"
463,ChIJX8sIOd6HoDERATqEQ3R7A9k,Bếp Nhà Trân,Nhà hàng bán đồ ăn mang về,0971 753 134,"Bếp Nhà Trân, Hẻm 132/8/6G Đ. 3 Tháng 2, Hưng Lợi, Ninh Kiều, Cần Thơ 94000","Hưng Lợi, Ninh Kiều",Hẻm 132/8/6G Đ. 3 Tháng 2,Cần Thơ,94000.0,"Ninh Kiều, Cần Thơ",VN,"10.019510799999999,105.7611608"
469,ChIJ--ztnASJoDERSYYaA_hS5Lo,Nhà Hàng Tây Bắc,Nhà hàng châu Á,0292 6542 345,"Nhà Hàng Tây Bắc, 80A Võ Văn Kiệt, An Hoà, Ninh Kiều, Cần Thơ","An Hoà, Ninh Kiều",80A Võ Văn Kiệt,Cần Thơ,,"Ninh Kiều, Cần Thơ",VN,"10.0458903,105.76222489999999"
473,ChIJwTbsT06JoDERSqKTwrNVqxk,Cháo Huyết Hùng Vương,Nhà hàng cháo,0292 3825 355,"Cần Thơ, Ninh Kiều, Thới Binh, Hùng Vương, Cháo Huyết Hùng Vương","An Hội, Ninh Kiều",58A Hùng Vương,Cần Thơ,,"Ninh Kiều, Cần Thơ",VN,"10.0437034,105.7784059"
481,ChIJQf1P1D6JoDERXblC1MVkaYI,XÚM NƯỚNG BANIC,Nhà hàng gia đình,,"XÚM NƯỚNG BANIC, Hồ Bún Xáng, 32/A12 Hẻm 51, Xuân Khánh, Ninh Kiều, Cần Thơ","Xuân Khánh, Ninh Kiều","Hồ Bún Xáng, 32/A12 Hẻm 51",Cần Thơ,,"Ninh Kiều, Cần Thơ",VN,"10.0303459,105.76181919999999"
486,ChIJMXHN1aaJoDERAvHbTQXylEE,BÚN ĐẬU NHÀ KHANG 6,Nhà hàng tiệc đứng,,"BÚN ĐẬU NHÀ KHANG 6, 929 Đ. Nguyễn Văn Cừ, Phường An Khánh, Ninh Kiều, Cần Thơ","Phường An Khánh, Ninh Kiều",929 Đ. Nguyễn Văn Cừ,Cần Thơ,,"Ninh Kiều, Cần Thơ",VN,"10.036455799999999,105.7582927"
495,ChIJx31Q-5NjoDERt5aaKKthaS4,NHÀ HÀNG - KARAOKE THE ONE,Nhà hàng Karnataka,,"NHÀ HÀNG - KARAOKE THE ONE, 62-64 Đ. Lương Định Của, Cái Khế, Ninh Kiều, Cần Thơ","Cái Khế, Ninh Kiều",62-64 Đ. Lương Định Của,Cần Thơ,,"Ninh Kiều, Cần Thơ",VN,"10.0442188,105.7869046"
496,ChIJY8lboURjoDERr8OOAVWULUQ,Nhà hàng Hồ Sen,Nhà hàng gia đình,,"2QQQ+CFX Nhà hàng Hồ Sen, Cầu Ninh Kiều, Tân An, Ninh Kiều, Cần Thơ","Tân An, Ninh Kiều","2QQQ+CFX, Cầu Ninh Kiều",Cần Thơ,,"Ninh Kiều, Cần Thơ",VN,"10.037894399999999,105.7889732"
507,ChIJf8EMj-KJoDERRTjD65gQQm8,Nhà hàng Ẩm Thực Miền Quê G20,Nhà hàng gia đình,0939 200 924,"Nhà hàng Ẩm Thực Miền Quê G20, 592 Đ. 30 Tháng 4, Hưng Lợi, Ninh Kiều, Cần Thơ","Hưng Lợi, Ninh Kiều",592 Đ. 30 Tháng 4,Cần Thơ,,"Ninh Kiều, Cần Thơ",VN,"10.015431,105.76333819999999"
510,ChIJx2LzmVaJoDERtmt3fYlsFC0,Bún bò gánh Không Tên,Nhà hàng gia đình,,"2QJ6+HWP Bún bò gánh Không Tên, Hẻm 51, Xuân Khánh, Ninh Kiều, Cần Thơ","Xuân Khánh, Ninh Kiều","2QJ6+HWP, Hẻm 51",Cần Thơ,,"Ninh Kiều, Cần Thơ",VN,"10.031465899999999,105.7623271"
516,ChIJEWOrMOJjoDERc45NOCFET6Y,Nhà hàng sáu đời 3,Nhà hàng gia đình,,"Nhà hàng sáu đời 3, 23 Lê Lợi, Cái Khế, Ninh Kiều, Cần Thơ","Cái Khế, Ninh Kiều",23 Lê Lợi,Cần Thơ,,"Ninh Kiều, Cần Thơ",VN,"10.0449659,105.78995169999999"
521,ChIJS9OOCWFjoDERuP2Ckt_tzc0,MÈN ƠI! LẨU - NƯỚNG - BIA TƯƠI 8K,Quán ăn nhỏ,0963 653 365,"MÈN ƠI! LẨU - NƯỚNG - BIA TƯƠI 8K, 45 Lê Lợi, Cái Khế, Ninh Kiều, Cần Thơ 900000","Cái Khế, Ninh Kiều",45 Lê Lợi,Cần Thơ,900000.0,"Ninh Kiều, Cần Thơ",VN,"10.043538999999999,105.7907278"
523,ChIJY9EFoZuHoDEReU1mHI5PeNc,NHÀ HÀNG SƠN LÂM QUÁN,Nhà hàng,0906 110 909,"NHÀ HÀNG SƠN LÂM QUÁN, 33 ĐƯỜNG Trần Văn Giàu, Cái Khế, Ninh Kiều, Cần Thơ 94000","Cái Khế, Ninh Kiều",33 ĐƯỜNG Trần Văn Giàu,Cần Thơ,94000.0,"Ninh Kiều, Cần Thơ",VN,"10.061373699999999,105.7713394"
524,ChIJR4BoFKuJoDERRqbOp3PvlBQ,Ẩm Thực Chay Giáo Thanh,Nhà hàng gia đình,0398 285 828,"Ẩm Thực Chay Giáo Thanh, 102/8 Đ. Trần Hoàng Na, Hưng Lợi, Ninh Kiều, Cần Thơ","Hưng Lợi, Ninh Kiều",102/8 Đ. Trần Hoàng Na,Cần Thơ,,"Ninh Kiều, Cần Thơ",VN,"10.0170741,105.7593905"
525,ChIJC8jJSfKJoDERf6WeC8_qQd8,Lẩu Mắm Cần Thơ 2,Nhà hàng món lẩu,0906 737 974,"Lẩu Mắm Cần Thơ 2, 127 Võ Văn Kiệt, An Hoà, Ninh Kiều, Cần Thơ 900000","An Hoà, Ninh Kiều",127 Võ Văn Kiệt,Cần Thơ,900000.0,"Ninh Kiều, Cần Thơ",VN,"10.046455,105.7602019"
530,ChIJmTmrJZ9joDER4X_IYHs3-qQ,Quán Ẩm thực Mậu Dần,Nhà hàng Việt Nam,0789 141 298,"Quán Ẩm thực Mậu Dần, E1 đường Nguyễn Thị Sáu, Phú Thứ, Cái Răng, Cần Thơ","Phú Thứ, Cái Răng",E1 đường Nguyễn Thị Sáu,Cần Thơ,,"Cái Răng, Cần Thơ",VN,"10.003386899999999,105.8020829"
533,ChIJeQMGhqWJoDERvAStoTr50Kc,Nhà Hàng Lưu Động Hồng Uyên,Nhà hàng,0918 727 338,"Nhà Hàng Lưu Động Hồng Uyên, 21C/1A, Lộ Vòng Cung, Phường An Bình, Quận Ninh Kiều, Thành Phố Cần Thơ, An Bình, Ninh Kiều, Cần Thơ","An Bình, Ninh Kiều","21C/1A, Lộ Vòng Cung, Phường An Bình, Quận Ninh Kiều, Thành Phố Cần Thơ",Cần Thơ,,"Ninh Kiều, Cần Thơ",VN,"10.003435999999999,105.74345869999999"
542,ChIJRXZ82J5ioDER8NSuqG4PQIU,Nhà Hàng Khách Sạn 31,Nhà hàng,0292 3839 852,"Nhà Hàng Khách Sạn 31, Đường Ngô Đức Kế, Tân An, Ninh Kiều, Cần Thơ","Tân An, Ninh Kiều",Đường Ngô Đức Kế,Cần Thơ,,"Ninh Kiều, Cần Thơ",VN,"10.0296536,105.78704549999999"
543,ChIJQfQTQA9joDER4qDxAwFql54,Bún riêu tôm Cần Thơ,Nhà hàng châu Á,,"Bún riêu tôm Cần Thơ, 150 Đ.Xô Viết Nghệ Tĩnh, An Hội, Ninh Kiều, Cần Thơ","An Hội, Ninh Kiều",150 Đ.Xô Viết Nghệ Tĩnh,Cần Thơ,,"Ninh Kiều, Cần Thơ",VN,"10.0399693,105.7825108"
544,ChIJ5a1FxqxjoDERdrdieg6r09U,Nhà hàng Coffee Phố Biển,Nhà hàng,,"2QVW+74G Nhà hàng Coffee Phố Biển, Cái Khế, Ninh Kiều, Cần Thơ","Cái Khế, Ninh Kiều",2QVW+74G,Cần Thơ,,"Ninh Kiều, Cần Thơ",VN,"10.0431802,105.7953197"
550,ChIJq0TtNc2JoDERqsKYF8xVYIk,Cafe and Beer Volcano,Nhà hàng,0914 871 345,"Cafe and Beer Volcano, 111 113 Nguyễn Tri Phương, Phường An Khánh, Quận Ninh Kiều Cần Thơ Can Tho City, 94117","Phường An Khánh, Ninh Kiều","111 113 Nguyễn Tri Phương, Phường An Khánh, Quận Ninh Kiều Cần Thơ Can Tho City",Cần Thơ,94117.0,"Ninh Kiều, Cần Thơ",VN,"10.0406108,105.7557825"
551,ChIJtZC0x7qJoDERw3BvI7i2Lng,Quán Nhà tôi: Có,Nhà hàng ăn nhanh,,"Quán Nhà tôi: Có, 115a Đ. Nguyễn Tri Phương, Phường An Khánh, Ninh Kiều, Cần Thơ","Phường An Khánh, Ninh Kiều",115a Đ. Nguyễn Tri Phương,Cần Thơ,,"Ninh Kiều, Cần Thơ",VN,"10.0408146,105.7555218"
552,ChIJ5VLTwmuIoDERn1-AkQYDT04,Nhà Hàng Du Thuyền Ninh Kiều,Nhà hàng,0987 402 804,"Nhà Hàng Du Thuyền Ninh Kiều, 112 Trần Bạch Đằng, Phường An Khánh, Ninh Kiều, Cần Thơ","Phường An Khánh, Ninh Kiều",112 Trần Bạch Đằng,Cần Thơ,,"Ninh Kiều, Cần Thơ",VN,"10.0379201,105.7534561"
553,ChIJozo2SxKIoDER4yEFgxU7UcU,Quán Ăn Tư Cang,Nhà hàng ăn nhanh,0946 871 899,"Quán Ăn Tư Cang, 126, Nguyễn Văn Cừ, Quận Ninh Kiều, Phường An Khánh, Ninh Kiều, Cần Thơ","Phường An Khánh, Ninh Kiều","126, Nguyễn Văn Cừ, Quận Ninh Kiều",Cần Thơ,,"Ninh Kiều, Cần Thơ",VN,"10.0416861,105.7627559"
554,ChIJXcoJKdeJoDERylcuzm1DSU0,Au Lac Vegan Restaurant,Nhà hàng,,"Au Lac Vegan Restaurant, 112 Đ. 30 Tháng 4, An Lạc, Ninh Kiều, Cần Thơ","An Lạc, Ninh Kiều",112 Đ. 30 Tháng 4,Cần Thơ,,"Ninh Kiều, Cần Thơ",VN,"10.0286753,105.7785803"
556,ChIJ45I7T92JoDER1ppWlT4_hD0,Nhà hàng phi long,Nhà hàng gia đình,,"Nhà hàng phi long, 9a Đ. Cách Mạng Tháng 8, An Hoà, Bình Thủy, Cần Thơ","An Hoà, Bình Thủy",9a Đ. Cách Mạng Tháng 8,Cần Thơ,,"Bình Thủy, Cần Thơ",VN,"10.0538025,105.7713163"
557,ChIJ24YvngCHoDERWWRP73NXNns,Cơm tấm đêm 22k,Nhà hàng châu Á,,"Cơm tấm đêm 22k, 23a Đ. Cách Mạng Tháng 8, An Thới, Bình Thủy, Cần Thơ","An Thới, Bình Thủy",23a Đ. Cách Mạng Tháng 8,Cần Thơ,,"Bình Thủy, Cần Thơ",VN,"10.060052899999999,105.76519839999999"
558,ChIJ_xAp2J5ioDERgJp42gQ77Ck,Restaurant 25,Nhà hàng,0292 3827 107,"Restaurant 25, 25 Ngô Đức Kế, Tân An, Ninh Kiều, Cần Thơ","Tân An, Ninh Kiều",25 Ngô Đức Kế,Cần Thơ,,"Ninh Kiều, Cần Thơ",VN,"10.0297141,105.787516"
559,ChIJXY8nCASJoDERMsvPdFwcNMY,Quán Ao Bèo,Nhà hàng châu Á,0965 545 140,"Quán Ao Bèo, KDC Hồng Phát, 02-04 Đ.Xuân Thủy, An Bình, Ninh Kiều, Cần Thơ","An Bình, Ninh Kiều","KDC Hồng Phát, 02-04 Đ.Xuân Thủy",Cần Thơ,,"Ninh Kiều, Cần Thơ",VN,"10.027271899999999,105.74971699999999"
560,ChIJCQcHdp9ioDER7uqAmqRt630,Nhà Hàng 41,Nhà hàng chuyên phục vụ bữa nửa buổi,0292 3820 356,"Nhà Hàng 41, 41, Châu Văn Liêm, Phường An Lạc, Quận Ninh Kiều, Tân An, Ninh Kiều, Cần Thơ","Tân An, Ninh Kiều","41, Châu Văn Liêm, Phường An Lạc, Quận Ninh Kiều",Cần Thơ,,"Ninh Kiều, Cần Thơ",VN,"10.0314623,105.78504509999999"
561,ChIJc5UMUDqJoDERQJ6w9JepQrU,Quán Hảo Tửu,Nhà hàng gia đình,0988 896 618,"Quán Hảo Tửu, 86 Huỳnh Cương, An Cư, Ninh Kiều, Cần Thơ","An Cư, Ninh Kiều",86 Huỳnh Cương,Cần Thơ,,"Ninh Kiều, Cần Thơ",VN,"10.0379345,105.77869229999999"
562,ChIJVRhs-7JjoDERaMGBeNrPWW4,Quán Cơm 18,Nhà hàng gia đình,,"Quán Cơm 18, 3B Sông Hậu, Cái Khế, Ninh Kiều, Cần Thơ 94000","Cái Khế, Ninh Kiều",3B Sông Hậu,Cần Thơ,94000.0,"Ninh Kiều, Cần Thơ",VN,"10.0401776,105.79370899999999"
563,ChIJXZl6UKlioDERo7t7vtQRllw,Công Ty TNHH Ẩm Thực Ngon - Nhà Hàng Phố Biển,Nhà hàng,0292 3768 562,"2QXP+6W6 Công Ty TNHH Ẩm Thực Ngon - Nhà Hàng Phố Biển, Vòng Xoay Cồn, Cái Khế, Ninh Kiều, Cần Thơ","Cái Khế, Ninh Kiều","2QXP+6W6, Vòng Xoay Cồn",Cần Thơ,,"Ninh Kiều, Cần Thơ",VN,"10.0480442,105.78725449999999"
580,ChIJ7Q7DKiSJoDER14o35C43-yE,Phở Tài,Nhà hàng phở,,"Cần Thơ, Ninh Kiều, Cái Khế, Trần Quang Khải, Phở Tài","An Hội, Ninh Kiều",10 Trần Quang Khải,Cần Thơ,,"Ninh Kiều, Cần Thơ",VN,"10.044461799999999,105.7818449"
590,ChIJe7W54YSIoDERM7y5EyO8sRc,Nhà Hàng,Nhà hàng,,"Nhà Hàng, Long Hòa, Bình Thủy, Cần Thơ","Long Hòa, Bình Thủy",,Cần Thơ,,"Bình Thủy, Cần Thơ",VN,"10.048704299999999,105.72557169999999"
592,ChIJPdwvGKSJoDERGB_1Zi-syHg,Com Tam Ngon,Nhà hàng gia đình,,"Com Tam Ngon, 291/1 Nguyễn Văn Cừ Nối Dài, An Bình, Ninh Kiều, Cần Thơ","An Bình, Ninh Kiều",291/1 Nguyễn Văn Cừ Nối Dài,Cần Thơ,,"Ninh Kiều, Cần Thơ",VN,"10.0226911,105.74435489999999"
597,ChIJE6TNKq6JoDERUj1tSCgWFq4,Tai Van Restaurant,Nhà hàng,0794 230 826,"Tai Van Restaurant, 55/1A, Vo Tanh Street, Cai Rang District, Can Tho City, Lê Bình, Cái Răng, Cần Thơ","Lê Bình, Cái Răng","55/1A, Vo Tanh Street, Cai Rang District, Can Tho City",Cần Thơ,,"Cái Răng, Cần Thơ",VN,"10.0045329,105.7467234"
601,ChIJf2mUe4qJoDERt0rHFXx7pbc,Bánh ướt ban mê Bún chả hà nội Bà Đạt,Nhà hàng châu Á,,"Bánh ướt ban mê Bún chả hà nội Bà Đạt, 54b Đ. 3 Tháng 2, Xuân Khánh, Ninh Kiều, Cần Thơ","Xuân Khánh, Ninh Kiều",54b Đ. 3 Tháng 2,Cần Thơ,,"Ninh Kiều, Cần Thơ",VN,"10.0287958,105.7722108"
602,ChIJRco6DJWJoDERaMAgub7cQh8,Nhà Hàng DNC,Nhà hàng,,"Nhà Hàng DNC, 168 Nguyễn Văn Cừ Nối Dài, An Bình, Ninh Kiều, Cần Thơ","An Bình, Ninh Kiều",168 Nguyễn Văn Cừ Nối Dài,Cần Thơ,,"Ninh Kiều, Cần Thơ",VN,"10.0085611,105.72259389999999"
615,ChIJq4J4F6GJoDERRa3_G8s8EU8,Nhà Hàng - Khách Sạn An Bình,Nhà hàng,0292 3910 777,"Nhà Hàng - Khách Sạn An Bình, 41 ĐT923, An Bình, Ninh Kiều, Cần Thơ","An Bình, Ninh Kiều",41 ĐT923,Cần Thơ,,"Ninh Kiều, Cần Thơ",VN,"9.995250799999999,105.7388162"
622,ChIJGzsQWVeJoDERo9MKWTNcyHo,Dr Dê Lẩu Dê Vị Sâm,Nhà hàng,0292 3658 686,"Dr Dê Lẩu Dê Vị Sâm, 290g Đ. Nguyễn Văn Linh, Hưng Lợi, Ninh Kiều, Cần Thơ","Hưng Lợi, Ninh Kiều",290g Đ. Nguyễn Văn Linh,Cần Thơ,,"Ninh Kiều, Cần Thơ",VN,"10.0255574,105.75929"
623,ChIJ9Rn7AQSJoDERLwHeScTbeyA,Tiệm Cơm Dương Châu Trái Quýt,Nhà hàng cơm,0939 508 515,"2Q95+948 Tiệm Cơm Dương Châu Trái Quýt, Đ. Trần Hoàng Na, Hưng Lợi, Ninh Kiều, Cần Thơ","Hưng Lợi, Ninh Kiều","2Q95+948, Đ. Trần Hoàng Na",Cần Thơ,,"Ninh Kiều, Cần Thơ",VN,"10.018417,105.7578204"
625,ChIJhdMzLlGJoDERv2mbQ0O4IpU,Sushi Takana,Nhà hàng sushi,0368 996 858,"2Q85+VHF Sushi Takana, Đ. Trần Hoàng Na, Hưng Lợi, Ninh Kiều, Cần Thơ","Hưng Lợi, Ninh Kiều","2Q85+VHF, Đ. Trần Hoàng Na",Cần Thơ,,"Ninh Kiều, Cần Thơ",VN,"10.0171878,105.7589306"
628,ChIJjRXTRM2JoDERrQ-2KjkDLAw,Cơm gà xối mỡ Dương Phát,Nhà hàng cơm,,"Cơm gà xối mỡ Dương Phát, 118 Đ. Trần Hoàng Na, Hưng Lợi, Ninh Kiều, Cần Thơ","Hưng Lợi, Ninh Kiều",118 Đ. Trần Hoàng Na,Cần Thơ,,"Ninh Kiều, Cần Thơ",VN,"10.014968099999999,105.7609291"
632,ChIJY_WrIiSIoDERXtlh6DmtSLA,Nhà Hàng Hải Sản Tấn Phát,Nhà hàng,0292 3738 959,"Nhà Hàng Hải Sản Tấn Phát, 1/3D, 30/04, Quận Ninh Kiều, TP. Cần Thơ, Xuân Khánh, Ninh Kiều, Cần Thơ","Xuân Khánh, Ninh Kiều","1/3D, 30/04, Quận Ninh Kiều, TP. Cần Thơ",Cần Thơ,,"Ninh Kiều, Cần Thơ",VN,"10.0263098,105.7765014"
638,ChIJBbkiQYdjoDERG82c2UMZVCA,Quán ăn Hoa Sen,Nhà hàng châu Á,,"Quán ăn Hoa Sen, 25 Đ. Đề Thám, Tân An, Ninh Kiều, Cần Thơ","Tân An, Ninh Kiều",25 Đ. Đề Thám,Cần Thơ,,"Ninh Kiều, Cần Thơ",VN,"10.0336676,105.7830832"
639,ChIJcyntvaBioDER2jjO8Kf-lVo,Nhà Hàng Súp Cua Dương Liễu,Nhà hàng,0292 2210 215,"Nhà Hàng Súp Cua Dương Liễu, 40 Đ. Trương Định, Tân An, Ninh Kiều, Cần Thơ","Tân An, Ninh Kiều",40 Đ. Trương Định,Cần Thơ,,"Ninh Kiều, Cần Thơ",VN,"10.0366644,105.7830846"
643,ChIJ0ef-YhuJoDER-qA-6cwHgoU,Bún chay An Lạc,Nhà hàng cho người ăn chay,,"Bún chay An Lạc, 245 Huỳnh Cương, An Cư, Ninh Kiều, Cần Thơ 94000","An Cư, Ninh Kiều",245 Huỳnh Cương,Cần Thơ,94000.0,"Ninh Kiều, Cần Thơ",VN,"10.0355587,105.7813911"
645,ChIJv-7_FKBioDERYTIemJ5hnVw,Kim Hong Restaurant,Nhà hàng,0707 778 998,"Kim Hong Restaurant, 14B Đ. Nguyễn Khuyến, Tân An, Ninh Kiều, Cần Thơ","Tân An, Ninh Kiều",14B Đ. Nguyễn Khuyến,Cần Thơ,,"Ninh Kiều, Cần Thơ",VN,"10.034105,105.78317399999999"
646,ChIJ_1GVKneJoDERHpKWbK92oG8,Nhà hàng,Nhà hàng,,"2PWW+3P9 Nhà hàng, Phường An Khánh, Ninh Kiều, Cần Thơ","Phường An Khánh, Ninh Kiều",2PWW+3P9,Cần Thơ,,"Ninh Kiều, Cần Thơ",VN,"10.045172299999999,105.74685249999999"
647,ChIJT6HpsWuJoDERJX_IWNWGoBQ,Nhà Hàng Cầm thi,Nhà hàng châu Á,,"Nhà Hàng Cầm thi, 184 Đ. 3-2, Hưng Lợi, Ninh Kiều, Cần Thơ 900000","Hưng Lợi, Ninh Kiều",184 Đ. 3-2,Cần Thơ,900000.0,"Ninh Kiều, Cần Thơ",VN,"10.0283077,105.7710551"
648,ChIJVXUHhlNjoDER15_Hb8Bh95o,Xuan PHO - IGA NGUYEN KHUYEN,Nhà hàng Việt Nam,,"Cần Thơ, Ninh Kiều, An Cư, P Đ. Nguyễn Khuyến, Xuan PHO - IGA NGUYEN KHUYEN",P Ninh Kiều,7 Đ. Nguyễn Khuyến,Cần Thơ,,"Ninh Kiều, Cần Thơ",VN,"10.035125899999999,105.78353949999999"
649,ChIJA1R1-TeJoDERq9_bBHPW8Co,NHÀ HÀNG MIỀN TÂY GARDEN,Nhà hàng gia đình,0909 979 666,"NHÀ HÀNG MIỀN TÂY GARDEN, 71 Đ. Mậu Thân, Xuân Khánh, Ninh Kiều, Cần Thơ","Xuân Khánh, Ninh Kiều",71 Đ. Mậu Thân,Cần Thơ,,"Ninh Kiều, Cần Thơ",VN,"10.0306407,105.7758253"
663,ChIJR10JQzxjoDERk4kvGQ0dgU4,Hải Sản Phú Quý Cần Thơ,Nhà hàng,0899 213 777,"Hải Sản Phú Quý Cần Thơ, 109 Trần Văn Khéo, Cái Khế, Ninh Kiều, Cần Thơ","Cái Khế, Ninh Kiều",109 Trần Văn Khéo,Cần Thơ,,"Ninh Kiều, Cần Thơ",VN,"10.0452838,105.7849901"
664,ChIJR2eYlUVjoDER8RZFVPn9Ei4,Cơm tấm bì Hẻm 15,Nhà hàng gia đình,,"2QRM+76X Cơm tấm bì Hẻm 15, Hẻm 15 Đ. Hoàng Văn Thụ, An Hội, Ninh Kiều, Cần Thơ","An Hội, Ninh Kiều","2QRM+76X, Hẻm 15 Đ. Hoàng Văn Thụ",Cần Thơ,,"Ninh Kiều, Cần Thơ",VN,"10.040736599999999,105.78311959999999"
674,ChIJ1Rt3RfCJoDERo9pN7J-PTS4,Cơm tấm Minh Nhật 20k,Nhà hàng cơm,0765 816 054,"Cơm tấm Minh Nhật 20k, 103 Đường Trần Văn Long, Phường An Khánh, Ninh Kiều, Cần Thơ","Phường An Khánh, Ninh Kiều",103 Đường Trần Văn Long,Cần Thơ,,"Ninh Kiều, Cần Thơ",VN,"10.0426676,105.7563437"
676,ChIJG9C1YlCIoDERHFhPOvAF7nI,Quán Yến Phi,Nhà hàng,0989 941 241,"Quán Yến Phi, 100 Nguyễn Văn Cừ Nối Dài, An Bình, Ninh Kiều, Cần Thơ","An Bình, Ninh Kiều",100 Nguyễn Văn Cừ Nối Dài,Cần Thơ,,"Ninh Kiều, Cần Thơ",VN,"10.0229441,105.7439828"
679,ChIJC5X8rbeOoDERV2I0bZFvz1Y,Nhà Hàng Hạ Châu,Nhà hàng,,"Nhà Hàng Hạ Châu, 190 ĐT923, An Bình, Ninh Kiều, Cần Thơ","An Bình, Ninh Kiều",190 ĐT923,Cần Thơ,,"Ninh Kiều, Cần Thơ",VN,"10.003368799999999,105.7436297"
686,ChIJpZu3iaCJoDERof7J553vDsI,Nhà Tiệc Phụng Trân,Nhà hàng chuyên phục vụ bữa nửa buổi,0292 3911 286,"Nhà Tiệc Phụng Trân, 21/2, Đường Lộ Vòng Cung, Quận Ninh Kiều, An Bình, Ninh Kiều, Cần Thơ","An Bình, Ninh Kiều","21/2, Đường Lộ Vòng Cung, Quận Ninh Kiều",Cần Thơ,,"Ninh Kiều, Cần Thơ",VN,"9.9947181,105.7363498"
690,ChIJ2RXgBa6JoDERBBEMmp0kP4c,Nhà Hàng Đại Việt,Nhà hàng,,"Nhà Hàng Đại Việt, 234B Lộ Vòng Cung, An Bình, Ninh Kiều, Cần Thơ","An Bình, Ninh Kiều",234B Lộ Vòng Cung,Cần Thơ,,"Ninh Kiều, Cần Thơ",VN,"10.0069122,105.74620639999999"
691,ChIJax_yE9uJoDER0sjtjloIBv0,Nhà hàng Hương Quê,Nhà hàng,,"2Q95+PV7 Nhà hàng Hương Quê, Hẻm 132 Đ. 3 Tháng 2, Hưng Lợi, Ninh Kiều, Cần Thơ","Hưng Lợi, Ninh Kiều","2Q95+PV7, Hẻm 132 Đ. 3 Tháng 2",Cần Thơ,,"Ninh Kiều, Cần Thơ",VN,"10.0192751,105.75966989999999"
696,ChIJJ1sZgZCJoDERXoUTCTLG1aY,Quán Hân Hân,Quán ăn nhỏ,,"Quán Hân Hân, 30 Đ. Nguyễn Hiền, Hưng Lợi, Ninh Kiều, Cần Thơ","Hưng Lợi, Ninh Kiều",30 Đ. Nguyễn Hiền,Cần Thơ,,"Ninh Kiều, Cần Thơ",VN,"10.0245175,105.7573645"
710,ChIJpzB2baGJoDER5sLhcBWx-dg,Am Thuc Chay,Nhà hàng cho người ăn chay,,"Am Thuc Chay, 79 Đ. Đề Thám, Tân An, Ninh Kiều, Cần Thơ","Tân An, Ninh Kiều",79 Đ. Đề Thám,Cần Thơ,,"Ninh Kiều, Cần Thơ",VN,"10.0345462,105.7816591"
711,ChIJI41GjfGHoDERYkOuWymXQdM,Bếp Xưa Cơm Nhà Ngoại,Nhà hàng cơm,0909 744 222,"Bếp Xưa Cơm Nhà Ngoại, 87 Đường số 1, khu giảng viên, Ninh Kiều, Cần Thơ","khu giảng viên, Ninh Kiều",87 Đường số 1,Cần Thơ,,"Ninh Kiều, Cần Thơ",VN,"10.0599557,105.7788041"
712,ChIJKS315liJoDERsdb8gf_3R5k,Quán ăn Nhà Tui,Nhà hàng gia đình,0706 656 668,"2QPH+JHG Quán ăn Nhà Tui, An Cư, Ninh Kiều, Cần Thơ","An Cư, Ninh Kiều",2QPH+JHG,Cần Thơ,,"Ninh Kiều, Cần Thơ",VN,"10.0365703,105.77893789999999"
713,ChIJ19WFClSJoDEROSYa966kvfQ,Lẩu ba ba,Nhà hàng châu Á,,"Lẩu ba ba, 314 Tầm Vu, Hưng Lợi, Ninh Kiều, Cần Thơ","Hưng Lợi, Ninh Kiều",314 Tầm Vu,Cần Thơ,,"Ninh Kiều, Cần Thơ",VN,"10.017197099999999,105.7728301"
714,ChIJ_WkWfHhjoDERlLCdvzEct2Q,Quán nhậu nhà Lồng,Nhà hàng,,"Quán nhậu nhà Lồng, 3 Trần Văn Khéo, An Hội, Ninh Kiều, Cần Thơ","An Hội, Ninh Kiều",3 Trần Văn Khéo,Cần Thơ,,"Ninh Kiều, Cần Thơ",VN,"10.0435269,105.78254109999999"
715,ChIJHyzPiZ9ioDER2Y0n-C7g7hk,Nhà hàng Điện Ảnh,Mung bean pancake,0292 3825 960,"Nhà hàng Điện Ảnh, 91-93 Võ Văn Tần, Street, Ninh Kiều, Cần Thơ","Street, Ninh Kiều",91-93 Võ Văn Tần,Cần Thơ,,"Ninh Kiều, Cần Thơ",VN,"10.032589699999999,105.7842194"
716,ChIJ6zw96w2JoDER8QBcSea5w3Y,Quán Ăn Thèn Kon,Nhà hàng hải sản,0945 816 819,"Quán Ăn Thèn Kon, Hẻm 636 Đ. 30 Tháng 4, P, Ninh Kiều, Cần Thơ","P, Ninh Kiều",Hẻm 636 Đ. 30 Tháng 4,Cần Thơ,,"Ninh Kiều, Cần Thơ",VN,"10.0153822,105.7621111"
717,ChIJZzSBhZiJoDERmWZaJStcXOI,Bún cá Châu Pha,Nhà hàng gia đình,,"Bún cá Châu Pha, 69 Đ. Đinh Tiên Hoàng, An Hội, Ninh Kiều, Cần Thơ","An Hội, Ninh Kiều",69 Đ. Đinh Tiên Hoàng,Cần Thơ,,"Ninh Kiều, Cần Thơ",VN,"10.042488299999999,105.77994659999999"
718,ChIJBTNvaiJjoDERov1BH-lk6E4,Quán ăn Nhà tui,Nhà hàng gia đình,,"Quán ăn Nhà tui, 96/11 Nguyễn Thần Hiến, An Cư, Ninh Kiều, Cần Thơ","An Cư, Ninh Kiều",96/11 Nguyễn Thần Hiến,Cần Thơ,,"Ninh Kiều, Cần Thơ",VN,"10.0132306,105.7890419"
719,ChIJ_TMJAs9joDERJOKjLh2NGDc,Quán ăn gia đình Nam Sông Hậu,Nhà hàng gia đình,0339 126 246,"Quán ăn gia đình Nam Sông Hậu, đường Võ Nguyên Giáp, Phú Thứ, Cái Răng, Cần Thơ 94910","Phú Thứ, Cái Răng",đường Võ Nguyên Giáp,Cần Thơ,94910.0,"Cái Răng, Cần Thơ",VN,"10.0003987,105.802641"
720,ChIJezvmvr6JoDERlCRlidJcLnU,Nhan Quan,Nhà hàng,,"Nhan Quan, 30A Đ. Mậu Thân, An Phú, Ninh Kiều, Cần Thơ","An Phú, Ninh Kiều",30A Đ. Mậu Thân,Cần Thơ,,"Ninh Kiều, Cần Thơ",VN,"10.0353032,105.77304439999999"
721,ChIJKzsj71aHoDERNrAG65rPGGM,Nhà Hàng Một Khách,Nhà hàng,,"Nhà Hàng Một Khách, Chung cư Gia Phúc, 248 TL917, Phường Trà An, Bình Thủy, Cần Thơ","Phường Trà An, Bình Thủy","Chung cư Gia Phúc, 248 TL917",Cần Thơ,,"Bình Thủy, Cần Thơ",VN,"10.091854099999999,105.709616"
722,ChIJl8KD5k-JoDERzzbtb6xyr3Q,Nhà Hàng,Nhà hàng gia đình,,"2P2R+29H Nhà Hàng, Đường Số 1, An Bình, Ninh Kiều, Cần Thơ","An Bình, Ninh Kiều","2P2R+29H, Đường Số 1",Cần Thơ,,"Ninh Kiều, Cần Thơ",VN,"10.0000692,105.740979"
723,ChIJK3bUry2JoDERvUmNjSD_-4w,Ông Năm - Hủ tiếu Mập,Nhà hàng Việt Nam,,"Ông Năm - Hủ tiếu Mập, 43 Đ. 30 Tháng 4, Xuân Khánh, Ninh Kiều, Cần Thơ","Xuân Khánh, Ninh Kiều",43 Đ. 30 Tháng 4,Cần Thơ,,"Ninh Kiều, Cần Thơ",VN,"10.0275046,105.7776942"
724,ChIJtcHhY11joDERIUjhwXF-Lmc,Cơm sườn nghĩa,Nhà hàng Việt Nam,,"Cơm sườn nghĩa, 14 Võ Nguyên Giáp, Phú Thứ, Cái Răng, Cần Thơ","Phú Thứ, Cái Răng",14 Võ Nguyên Giáp,Cần Thơ,,"Cái Răng, Cần Thơ",VN,"10.0063499,105.7968784"
725,ChIJ3UPWtKFioDERGQHK9n-6Kpw,Binh Dan Restaurant,Nhà hàng,0292 3825 549,"Binh Dan Restaurant, 21 Đ. Ngô Văn Sở, Tân An, Ninh Kiều, Cần Thơ","Tân An, Ninh Kiều",21 Đ. Ngô Văn Sở,Cần Thơ,,"Ninh Kiều, Cần Thơ",VN,"10.0340094,105.78638029999999"
729,ChIJh-iVyaNioDERCj81ueC87sY,Chi Nhánh Công Ty Tnhh Một Thành Viên 622 Nhà Hàng Khách Sạn Ninh Kiều,Nhà hàng,,"Chi Nhánh Công Ty Tnhh Một Thành Viên 622 Nhà Hàng Khách Sạn Ninh Kiều, 02 Đường Hai Bà Trưng, Tân An, Ninh Kiều, Cần Thơ","Tân An, Ninh Kiều",02 Đường Hai Bà Trưng,Cần Thơ,,"Ninh Kiều, Cần Thơ",VN,"10.035451799999999,105.7891882"
748,ChIJUWZUDuWJoDER_UuvP96yHsg,Miến Gà 67 Hùng Vương (kế PCCC),Nhà hàng phục vụ phần ăn nhỏ,0933 743 375,"Miến Gà 67 Hùng Vương (kế PCCC), 69 Hùng Vương, An Cư, Ninh Kiều, Cần Thơ","An Cư, Ninh Kiều",69 Hùng Vương,Cần Thơ,,"Ninh Kiều, Cần Thơ",VN,"10.0422215,105.7782082"
753,ChIJLWCE2UeJoDERsGXH2MG3k5M,Nhà hàng Hương Quê,Nhà hàng,,"2QWC+5HW Nhà hàng Hương Quê, Hẻm 233, Thới Bình, Ninh Kiều, Cần Thơ","Thới Bình, Ninh Kiều","2QWC+5HW, Hẻm 233",Cần Thơ,,"Ninh Kiều, Cần Thơ",VN,"10.0454957,105.77145039999999"
754,ChIJs5mwChaIoDERW8mjVJ-NK6w,Nhà Hàng Trần Vũ Phương,Nhà hàng chuyên phục vụ bữa nửa buổi,0916 633 369,"Nhà Hàng Trần Vũ Phương, 71C/3, Khu Vực 2, Phường An Khánh, Quận Ninh Kiều, Xuân Khánh, Ninh Kiều, Cần Thơ","Xuân Khánh, Ninh Kiều","71C/3, Khu Vực 2, Phường An Khánh, Quận Ninh Kiều",Cần Thơ,,"Ninh Kiều, Cần Thơ",VN,"10.034780099999999,105.76452189999999"
755,ChIJLTLTnLyJoDER1a8nvjMPnPY,Cơm tấm Mun Mun,Nhà hàng châu Á,,"Cơm tấm Mun Mun, 29 Đ. Trần Hưng Đạo, An Cư, Ninh Kiều, Cần Thơ","An Cư, Ninh Kiều",29 Đ. Trần Hưng Đạo,Cần Thơ,,"Ninh Kiều, Cần Thơ",VN,"10.039599299999999,105.777197"
757,ChIJTf4CaiyJoDER_RgD-imCAPs,Cháo sườn Cô Hàng Xóm,Nhà hàng cháo,,"Cháo sườn Cô Hàng Xóm, 107/60/54, Hoàng Văn Thụ, An Cư, Ninh Kiều, Cần Thơ","An Cư, Ninh Kiều","107/60/54, Hoàng Văn Thụ",Cần Thơ,,"Ninh Kiều, Cần Thơ",VN,"10.0379097,105.78071469999999"
759,ChIJyVgPdWWJoDERGZiPk_B6EkY,Tiệm nhà 4B,Quán ăn nhẹ,0776 787 693,"Tiệm nhà 4B, 64 Đ. Nguyễn Đệ, An Hoà, Bình Thủy, Cần Thơ 900000","An Hoà, Bình Thủy",64 Đ. Nguyễn Đệ,Cần Thơ,900000.0,"Bình Thủy, Cần Thơ",VN,"10.0493627,105.7643794"
763,ChIJMRKg4AiJoDERVbrFYmACwnw,Nhà hàng Hàng Bàng,Nhà hàng gia đình,,"Nhà hàng Hàng Bàng, KDC Hàng Bàng, 306 N/12 - khu vực 5, Đ. Nguyễn Văn Linh, P, Ninh Kiều, Cần Thơ","P, Ninh Kiều","KDC Hàng Bàng, 306 N/12 - khu vực 5, Đ. Nguyễn Văn Linh",Cần Thơ,,"Ninh Kiều, Cần Thơ",VN,"10.0344371,105.7466299"
768,ChIJUf0bV8-JoDERlA5U4u2tsbc,Phở Hà Nội,Nhà hàng,,"Phở Hà Nội, 82 Đ. Đồng Văn Cống, An Thới, Bình Thủy, Cần Thơ","An Thới, Bình Thủy",82 Đ. Đồng Văn Cống,Cần Thơ,,"Bình Thủy, Cần Thơ",VN,"10.052031099999999,105.75673379999999"
774,ChIJRYCeyhOIoDERkVqaaAvQM9k,Quán Hương Đồng Nội,Nhà hàng,0292 3892 605,"Quán Hương Đồng Nội, 229 Đ. Nguyễn Văn Cừ, Phường An Khánh, Ninh Kiều, Cần Thơ","Phường An Khánh, Ninh Kiều",229 Đ. Nguyễn Văn Cừ,Cần Thơ,,"Ninh Kiều, Cần Thơ",VN,"10.0415403,105.76302729999999"
778,ChIJhQWUuhOIoDERwCRXqpdDtMM,Quán Ăn 138,Nhà hàng,0292 3893 724,"Quán Ăn 138, 138 Nguyễn Văn Cừ Nối Dài, Phường An Khánh, Ninh Kiều, Cần Thơ","Phường An Khánh, Ninh Kiều",138 Nguyễn Văn Cừ Nối Dài,Cần Thơ,,"Ninh Kiều, Cần Thơ",VN,"10.040956099999999,105.76237139999999"
781,ChIJq6qqBw-IoDERCW9JNxHDe6M,Quán Ăn Gia Đình Làng Việt,Nhà hàng,0949 333 883,"Quán Ăn Gia Đình Làng Việt, 163B Đ. Nguyễn Văn Cừ, An Hoà, Ninh Kiều, Cần Thơ","An Hoà, Ninh Kiều",163B Đ. Nguyễn Văn Cừ,Cần Thơ,,"Ninh Kiều, Cần Thơ",VN,"10.047019299999999,105.76794439999999"
786,ChIJJ3ShI4mJoDERrm3jTxx-9Tk,Quán Cơm Bảy Nổi,Nhà hàng gia đình,,"Quán Cơm Bảy Nổi, Đ. Nguyễn Văn Linh, Phường An Khánh, Ninh Kiều, Cần Thơ","Phường An Khánh, Ninh Kiều","Quán Cơm Bảy Nổi, Đ. Nguyễn Văn Linh",Cần Thơ,,"Ninh Kiều, Cần Thơ",VN,"10.0374061,105.7435359"
788,ChIJcZG1JNiJoDERyZYSvZAAHY8,Bún riêu cua- cháo lòng,Nhà hàng châu Á,,"Bún riêu cua- cháo lòng, 190 B/6, Đ. Trần Vĩnh Kiết, An Bình, Ninh Kiều, Cần Thơ","An Bình, Ninh Kiều","190 B/6, Đ. Trần Vĩnh Kiết",Cần Thơ,,"Ninh Kiều, Cần Thơ",VN,"10.0186618,105.750636"
792,ChIJQ3h0GpyJoDERP-9xopYb9jQ,Cơm sinh viên Phước Hải,Nhà hàng cơm,,"Cơm sinh viên Phước Hải, LK3-7 Nguyễn Văn Cừ Nối Dài, An Bình, Ninh Kiều, Cần Thơ","An Bình, Ninh Kiều",LK3-7 Nguyễn Văn Cừ Nối Dài,Cần Thơ,,"Ninh Kiều, Cần Thơ",VN,"10.0176273,105.73837309999999"
796,ChIJLyPVIHeJoDERi_VBtczDeEA,Quán nhậu kiều oanh,Nhà hàng châu Á,,"Quán nhậu kiều oanh, 248C QL1A, Thường Thạnh, Cái Răng, Cần Thơ","Thường Thạnh, Cái Răng",248C QL1A,Cần Thơ,,"Cái Răng, Cần Thơ",VN,"9.9955827,105.75714479999999"
799,ChIJ5SARKsqJoDERPwtJcF7smAk,Ăn Vặt Xinh Xắn,Quán ăn nhẹ,,"Ăn Vặt Xinh Xắn, Nhà Trọ DR Thanh, 3 Đ. Số 9, P, Ninh Kiều, Cần Thơ","P, Ninh Kiều","Nhà Trọ DR Thanh, 3 Đ. Số 9",Cần Thơ,,"Ninh Kiều, Cần Thơ",VN,"10.0204656,105.7439359"
807,ChIJ7XgQuVqIoDERvB4RsclpdBc,Quán Ăn Hoa Súng Đỏ,Nhà hàng,0939 965 551,"Quán Ăn Hoa Súng Đỏ, 82 Nguyễn Văn Cừ Nối Dài, An Bình, Ninh Kiều, Cần Thơ","An Bình, Ninh Kiều",82 Nguyễn Văn Cừ Nối Dài,Cần Thơ,,"Ninh Kiều, Cần Thơ",VN,"10.0246928,105.7457372"
820,ChIJiU_uXieIoDERGRDJ3zbUJEs,Quán Nhậu Bình Dân Thảo Tiên,Nhà hàng,0292 3827 959,"Quán Nhậu Bình Dân Thảo Tiên, 130, Đường Nguyễn Thị Minh Khai, An Lạc, Ninh Kiều, Cần Thơ","An Lạc, Ninh Kiều","130, Đường Nguyễn Thị Minh Khai",Cần Thơ,,"Ninh Kiều, Cần Thơ",VN,"10.0259064,105.78207069999999"
843,ChIJ5XbDB7OJoDERFGoffYNeABA,Cửa Hàng Cá Cảnh Duy,Nhà hàng,0932 939 248,"Cửa Hàng Cá Cảnh Duy, 100/3 Đ. 3 Tháng 2, An Bình, Ninh Kiều, Cần Thơ","An Bình, Ninh Kiều",100/3 Đ. 3 Tháng 2,Cần Thơ,,"Ninh Kiều, Cần Thơ",VN,"10.009804899999999,105.75040089999999"
850,ChIJuVPbbrKJoDERpuD6uVRmEs8,Cửa Hàng Cá Kiểng An Bình,Nhà hàng,0911 115 134,"Cửa Hàng Cá Kiểng An Bình, 221/F Đ. Hoàng Quốc Việt, An Bình, Ninh Kiều, Cần Thơ","An Bình, Ninh Kiều",221/F Đ. Hoàng Quốc Việt,Cần Thơ,,"Ninh Kiều, Cần Thơ",VN,"10.0089201,105.74787839999999"
864,ChIJ_8-L5DSIoDERLUBWK08g_T0,Quán Ăn Gia Đình Hoàng Mai,Nhà hàng,0901 019 333,"Quán Ăn Gia Đình Hoàng Mai, 479 Đ. 30 Tháng 4, Hưng Lợi, Ninh Kiều, Cần Thơ","Hưng Lợi, Ninh Kiều",479 Đ. 30 Tháng 4,Cần Thơ,,"Ninh Kiều, Cần Thơ",VN,"10.0136892,105.76196639999999"
868,ChIJbbaVtb2JoDERpS4qLvJX2LM,Nhà Hàng Đại Cát,Nhà hàng,0925 677 707,"Nhà Hàng Đại Cát, 290/18 Đ. Lê Bình, P, Cái Răng, Cần Thơ 94000","P, Cái Răng",290/18 Đ. Lê Bình,Cần Thơ,94000.0,"Cái Răng, Cần Thơ",VN,"10.0215322,105.7686001"
878,ChIJwQr40EeJoDERF6J0kjp0RR4,Bún mắm Nhà Xưa,Nhà hàng,0985 330 692,"Bún mắm Nhà Xưa, 499 Đ. 30 Tháng 4, Hưng Lợi, Ninh Kiều, Cần Thơ","Hưng Lợi, Ninh Kiều",499 Đ. 30 Tháng 4,Cần Thơ,,"Ninh Kiều, Cần Thơ",VN,"10.013200699999999,105.7613621"
881,ChIJUST39GuJoDERc2_FTx7h4CY,Cô Chủ Quản,Nhà hàng bán đồ ăn mang về,,"2QPF+7PG Cô Chủ Quản, Hẻm 218 Đ. Trần Hưng Đạo, An Phú, Ninh Kiều, Cần Thơ","An Phú, Ninh Kiều","2QPF+7PG, Hẻm 218 Đ. Trần Hưng Đạo",Cần Thơ,,"Ninh Kiều, Cần Thơ",VN,"10.0356946,105.77433149999999"
893,ChIJE-fbPCCIoDERtI8Emi8ncWc,Nhà Hàng C Bbq,Nhà hàng,,"Nhà Hàng C Bbq, 22 Đ. Nguyễn Việt Hồng, An Lạc, Ninh Kiều, Cần Thơ","An Lạc, Ninh Kiều",22 Đ. Nguyễn Việt Hồng,Cần Thơ,,"Ninh Kiều, Cần Thơ",VN,"10.0319603,105.78039179999999"
894,ChIJwRg0DaBioDER86r3AR_mUv8,Quán Ăn Gia Đình Nam Đô 1,Nhà hàng,0292 3820 057,"Quán Ăn Gia Đình Nam Đô 1, 41 Đ. Đề Thám, Tân An, Ninh Kiều, Cần Thơ","Tân An, Ninh Kiều",41 Đ. Đề Thám,Cần Thơ,,"Ninh Kiều, Cần Thơ",VN,"10.033797,105.7826547"
896,ChIJIcUNKKBioDER40nVXzj2X5U,Quán Ăn Tây Đô,Nhà hàng,,"Quán Ăn Tây Đô, 89 Võ Văn Tần, Tân An, Ninh Kiều, Cần Thơ","Tân An, Ninh Kiều",89 Võ Văn Tần,Cần Thơ,,"Ninh Kiều, Cần Thơ",VN,"10.032573,105.7843065"
