,place_id,name,main_category,phone,address,address_ward,address_street,address_city,address_postal_code,address_state,address_country_code
0,ChIJ9abbuJ5ioDERYnrLgkMhqig,Chợ Tân An,Chợ,+84 292 3824 134,"Chợ Tân An, 71 Đường Hai Bà Trưng, Tân An, Ninh Kiều, Cần Thơ, Việt Nam","Tân An, Ninh Kiều",71 Đường Hai Bà Trưng,Cần Thơ,,"Ninh Kiều, Cần Thơ",VN
3,ChIJm9mx8wWNoDERDjo2feSin4w,Chợ Một Ngàn,Chợ nông sản,,"Chợ Một Ngàn, ĐT932, TT. Một Ngàn, Châu Thành A, Hậu Giang, Việt Nam","TT. Một Ngàn, Châu Thành A",ĐT932,Hậu Giang,,"Châu Thành A, Hậu Giang",VN
6,ChIJ73fITzqIoDERrLAcCakFdlg,Trường Nông nghiệp - Trường Đại Học Cần Thơ,Bộ môn trong trường đại học,+84 292 3830 814,"Trường Nông nghiệp - Trường Đại Học Cần Thơ, Đường 3-2, Phường Hưng Lợi, Quận Ninh Kiều, Hưng Lợi, Ninh Kiều, Cần Thơ, Việt Nam","Hưng Lợi, Ninh Kiều","Đường 3-2, Phường Hưng Lợi, Quận Ninh Kiều",Cần Thơ,,"Ninh Kiều, Cần Thơ",VN
8,ChIJSwsC0POIoDER_lWt6z1th-s,Chợ Phó Thọ,Chợ nông sản,,"Chợ Phó Thọ, Chợ, Chợ Phó Thọ, Long Tuyền, Bình Thủy, Cần Thơ, Việt Nam","Long Tuyền, Bình Thủy","Chợ, Chợ Phó Thọ",Cần Thơ,,"Bình Thủy, Cần Thơ",VN
23,ChIJNwdg2z2IoDERnmsTw_kMcwc,Trường Thủy sản - Trường Đại học Cần Thơ,Bộ môn trong trường đại học,+84 292 3834 307,"Trường Thủy sản - Trường Đại học Cần Thơ, Trường Thuỷ sản, Trường Đại học Cần Thơ, Khu II, Đ. 3/2, P, Ninh Kiều, Cần Thơ, Việt Nam","P, Ninh Kiều","Trường Thuỷ sản, Trường Đại học Cần Thơ, Khu II, Đ. 3/2",Cần Thơ,,"Ninh Kiều, Cần Thơ",VN
24,ChIJv-B8ZzSIoDERX_mFig4X0ms,"Xuân Nông - hạt giống, phân bón, thi công nhà lưới, nhà màng",Nhà cung cấp hạt giống,+84 901 087 973,"Xuân Nông - hạt giống, phân bón, thi công nhà lưới, nhà màng, 352c đường 30/4, Xuân Khánh, Ninh Kiều, Cần Thơ 900000, Việt Nam","Xuân Khánh, Ninh Kiều",352c đường 30/4,Cần Thơ,900000.0,"Ninh Kiều, Cần Thơ",VN
39,ChIJF9d4EG6JoDER_ORhWnXzDJ8,CTY TNHH BÁCH NÔNG TAM NGUYÊN,Dịch vụ nông nghiệp,+84 373 177 567,"CTY TNHH BÁCH NÔNG TAM NGUYÊN, 34 Đ. Nguyễn Tri Phương, Phường An Khánh, Ninh Kiều, Cần Thơ 94000, Việt Nam","Phường An Khánh, Ninh Kiều",34 Đ. Nguyễn Tri Phương,Cần Thơ,94000.0,"Ninh Kiều, Cần Thơ",VN
41,ChIJ9ZBM7kyIoDERal-rkuxe02A,Công Ty Tnhh Goldfield,Cửa hàng thuốc hữu cơ,+84 949 237 249,"Công Ty Tnhh Goldfield, 85 41 Đ. Trần Vĩnh Kiết, An Bình, Ninh Kiều, Cần Thơ, Việt Nam","An Bình, Ninh Kiều",85 41 Đ. Trần Vĩnh Kiết,Cần Thơ,,"Ninh Kiều, Cần Thơ",VN
42,ChIJKVMCy9mJoDERVyvpC1BAyM0,Trại cá cảnh Tuấn Guppy (cá 7 màu & thuỷ sinh Cần Thơ Guppy Farm),Cửa hàng cá cảnh,+84 989 772 025,"Trại cá cảnh Tuấn Guppy (cá 7 màu & thuỷ sinh Cần Thơ Guppy Farm), 102/28d Hẻm 132 Đ. 3 Tháng 2, Hưng Lợi, Ninh Kiều, Cần Thơ, Việt Nam","Hưng Lợi, Ninh Kiều",102/28d Hẻm 132 Đ. 3 Tháng 2,Cần Thơ,,"Ninh Kiều, Cần Thơ",VN
51,ChIJ4TUqreeHoDER5OZYPENcMUE,Trung Tâm Chất Lượng Nông Lâm Thủy Sản Vùng 6,Văn phòng công ty,+84 292 3883 257,"Trung Tâm Chất Lượng Nông Lâm Thủy Sản Vùng 6, 386c Đ. Cách Mạng Tháng 8, Bùi Hữu Nghĩa, Bình Thủy, Cần Thơ, Việt Nam","Bùi Hữu Nghĩa, Bình Thủy",386c Đ. Cách Mạng Tháng 8,Cần Thơ,,"Bình Thủy, Cần Thơ",VN
54,ChIJG02HQfuJoDERcTUiMMxtbHQ,Làng Bè Hủ Tiếu Cái Răng,Chợ bán buôn nông sản,+84 932 693 235,"Làng Bè Hủ Tiếu Cái Răng, 18 Lộ Vòng Cung, Chợ Nổi, Cái Răng, Cần Thơ 94000, Việt Nam","Chợ Nổi, Cái Răng",18 Lộ Vòng Cung,Cần Thơ,94000.0,"Cái Răng, Cần Thơ",VN
59,ChIJOSBJfU2FoDERdFKRsP3WvpQ,Meo Nấm Rơm Thần Nông,Cửa hàng,+84 292 3862 407,"Meo Nấm Rơm Thần Nông, Lộ Vòng Cung, Phước Thới, Ô Môn, Cần Thơ, Việt Nam","Phước Thới, Ô Môn",Lộ Vòng Cung,Cần Thơ,,"Ô Môn, Cần Thơ",VN
66,ChIJsbQQORdjoDERuqodqnE92yQ,Đại lý Phân Bón Kim Nông,Nhà cung cấp phân bón,,"Đại lý Phân Bón Kim Nông, Đông hưng 1, Bình Minh, Vĩnh Long 85513, Việt Nam","Đông hưng 1, Bình Minh",,Vĩnh Long,85513.0,"Bình Minh, Vĩnh Long",VN
74,ChIJqXwui4CJoDERagq6kDkUJtQ,Trại Nấm Phan Minh,Trang trại,+84 833 655 240,"Trại Nấm Phan Minh, Đ. Số 4, khu giảng viên DHCT, Ninh Kiều, Cần Thơ, Việt Nam","khu giảng viên DHCT, Ninh Kiều",Đ. Số 4,Cần Thơ,,"Ninh Kiều, Cần Thơ",VN
75,ChIJ0y6j_aOJoDERzzkOhPjHtgI,Đất Sạch Hữu Cơ APF 3,Cửa hàng,+84 939 039 013,"Đất Sạch Hữu Cơ APF 3, khu vực 10/Tổ 73 Đ. Nguyễn Văn Linh, Hưng Phú, Cái Răng, Cần Thơ, Việt Nam","Hưng Phú, Cái Răng",khu vực 10/Tổ 73 Đ. Nguyễn Văn Linh,Cần Thơ,,"Cái Răng, Cần Thơ",VN
89,ChIJYSGwR3WJoDERqcfiHfLZ5s8,Trái cây cần thơ,Trang trại,+84 909 078 866,"Trái cây cần thơ, 37, tổ 48, KV7, P.Hưng Phú, Q, Cái Răng, Cần Thơ 90000, Việt Nam","Hưng Phú, Cái Răng","37, tổ 48, KV7, P.Hưng Phú, Q",Cần Thơ,90000.0,"Cái Răng, Cần Thơ",VN
90,ChIJGeXUXpKJoDERtVEHFG5AmXQ,Đất Sạch Hữu Cơ APF 1,Cửa hàng,+84 939 039 013,"Đất Sạch Hữu Cơ APF 1, 24 Nguyễn Văn Cừ Nối Dài, An Bình, Ninh Kiều, Cần Thơ, Việt Nam","An Bình, Ninh Kiều",24 Nguyễn Văn Cừ Nối Dài,Cần Thơ,,"Ninh Kiều, Cần Thơ",VN
91,ChIJUcHVA0ePoDERRj5ey7QWrbM,Cửa hàng Nông Ngư Cơ Tôn Thắng,Cửa hàng máy móc,+84 944 928 214,"Cửa hàng Nông Ngư Cơ Tôn Thắng, 7 Đ. Bùi Hữu Nghĩa, Giai Xuân, Phong Điền, Cần Thơ, Việt Nam","Giai Xuân, Phong Điền",7 Đ. Bùi Hữu Nghĩa,Cần Thơ,,"Phong Điền, Cần Thơ",VN
114,ChIJEV4VMDaJoDERNPiLb7YVGmk,Hòa Hội Đặc sản Miền Tây Quê Tôi,Cửa hàng bán thực phẩm đặc sản,+84 939 254 479,"Hòa Hội Đặc sản Miền Tây Quê Tôi, 48 Đường D33, Hưng Thành, Cái Răng, Cần Thơ, Việt Nam","Hưng Thành, Cái Răng",48 Đường D33,Cần Thơ,,"Cái Răng, Cần Thơ",VN
116,ChIJ02bRtyljoDERIo4ZrUYblR8,CÔNG TY CỔ PHẦN NÔNG SẢN XUẤT KHẨU VIỆT TRUNG,Hợp tác xã nông nghiệp,+84 932 891 579,"CÔNG TY CỔ PHẦN NÔNG SẢN XUẤT KHẨU VIỆT TRUNG, tờ bản đồ, số 30 Tổ 20, Khóm Đông Thuận, Bình Minh, Vĩnh Long 85500, Việt Nam","Khóm Đông Thuận, Bình Minh","tờ bản đồ, số 30 Tổ 20",Vĩnh Long,85500.0,"Bình Minh, Vĩnh Long",VN
118,ChIJdaIZBwmJoDERzROsKZsMimg,Đất Sạch Hữu Cơ APF 2,Cửa hàng,+84 939 039 013,"Đất Sạch Hữu Cơ APF 2, 138C Đ. Nguyễn Văn Cừ, Phường An Khánh, Ninh Kiều, Cần Thơ, Việt Nam","Phường An Khánh, Ninh Kiều",138C Đ. Nguyễn Văn Cừ,Cần Thơ,,"Ninh Kiều, Cần Thơ",VN
134,ChIJq2K0xJeJoDERvr0I0PRlMUQ,Nông Trại Vui Vẻ | Ăn Khỏe Sống Vui,Cửa hàng bán buôn trái cây,+84 787 806 882,"Nông Trại Vui Vẻ | Ăn Khỏe Sống Vui, 50/50 Đường Trần Hoàng Na, Hưng Lợi, Ninh Kiều, Cần Thơ 94157, Việt Nam","Hưng Lợi, Ninh Kiều",50/50 Đường Trần Hoàng Na,Cần Thơ,94157.0,"Ninh Kiều, Cần Thơ",VN
140,ChIJwyRaGuJ_oDERK86S92pDI1I,Công ty khoai lang Thanh Bình Tân,Cửa hàng nông sản,,"Công ty khoai lang Thanh Bình Tân, ĐT908, Thành Thuận, Bình Tân, Vĩnh Long, Việt Nam","Thành Thuận, Bình Tân",ĐT908,Vĩnh Long,,"Bình Tân, Vĩnh Long",VN
148,ChIJsyOza7z1oDER1rbpo_m1ugQ,Thầy Hiển,Chợ nông sản,+84 966 000 224,"Thầy Hiển, 401 QL1A, Tân Long, Phụng Hiệp, Hậu Giang, Việt Nam","Tân Long, Phụng Hiệp",401 QL1A,Hậu Giang,,"Phụng Hiệp, Hậu Giang",VN
149,ChIJXRCxdymJoDERd0uFyAH7cZ0,Trại ốc giống Hai Khanh,Trang trại cây,+84 796 579 977,"Trại ốc giống Hai Khanh, Tổ 8, ấp mỹ lộc, Phong Điền, Cần Thơ, Việt Nam","Mỹ Khánh, Phong Điền","Tổ 8, ấp mỹ lộc",Cần Thơ,,"Phong Điền, Cần Thơ",VN
152,ChIJvySPcp6JoDERQtB2_jhZr50,Văn Phòng Nông Dược Toàn Cầu,Nhà cung cấp phân bón,+84 938 455 558,"Văn Phòng Nông Dược Toàn Cầu, 6 Đường Số 1, An Bình, Ninh Kiều, Cần Thơ, Việt Nam","An Bình, Ninh Kiều",6 Đường Số 1,Cần Thơ,,"Ninh Kiều, Cần Thơ",VN
156,ChIJAZRstZeJoDERRlYU9Tdza2Q,ANH NHÀ QUÊ CẦN THƠ,Chợ nông sản,+84 365 818 189,"ANH NHÀ QUÊ CẦN THƠ, 11 Khu Vực 6, Phường An Khánh, Ninh Kiều, Cần Thơ, Việt Nam","Phường An Khánh, Ninh Kiều",11 Khu Vực 6,Cần Thơ,,"Ninh Kiều, Cần Thơ",VN
157,ChIJL-PL7CWJoDERdJxJYdfPugY,"Nhà lưới, nhà màng Xuân Nông - Bùi Hữu Nghĩa",Nhà cung cấp hạt giống,+84 889 008 222,"Nhà lưới, nhà màng Xuân Nông - Bùi Hữu Nghĩa, 1484 Đ. Bùi Hữu Nghĩa, Long Tuyền, Bình Thủy, Cần Thơ 900000, Việt Nam","Long Tuyền, Bình Thủy",1484 Đ. Bùi Hữu Nghĩa,Cần Thơ,900000.0,"Bình Thủy, Cần Thơ",VN
160,ChIJ2wkCsS6JoDERuuNNOnOOtPY,V'Fish Cần Thơ,Cửa hàng cá cảnh,+84 938 434 704,"V'Fish Cần Thơ, hẻm 88 Đ. Cách Mạng Tháng 8, Cái Khế, Ninh Kiều, Cần Thơ, Việt Nam","Cái Khế, Ninh Kiều",hẻm 88 Đ. Cách Mạng Tháng 8,Cần Thơ,,"Ninh Kiều, Cần Thơ",VN
171,ChIJsT7g5PWJoDERgSVN4lXeyGI,Nông Sản Việt Tín - Chi nhánh Cần Thơ,Chợ,+84 904 128 594,"XPR4+6R4 Nông Sản Việt Tín - Chi nhánh Cần Thơ, Mỹ Khánh, Phong Điền, Cần Thơ, Việt Nam","Mỹ Khánh, Phong Điền",XPR4+6R4,Cần Thơ,,"Phong Điền, Cần Thơ",VN
174,ChIJnU8KguMpdTER4KEu9UPRwGA,Cửa hàng Nông Sản Ngon,Cửa hàng rau quả,+84 936 666 809,"Cửa hàng Nông Sản Ngon, 9 Đường Số 8, Phường Bình Khánh, Quận 2, Thành phố Hồ Chí Minh 700000, Việt Nam","Phường Bình Khánh, Quận 2",9 Đường Số 8,Thành phố Hồ Chí Minh,700000.0,"Quận 2, Thành phố Hồ Chí Minh",VN
203,ChIJVQcOIp9ioDERAz3N8nkyk3Y,CÔNG TY TNHH NÔNG SẢN SẠCH VINACAP,Cửa hàng bán buôn trái cây,+84 919 253 305,"CÔNG TY TNHH NÔNG SẢN SẠCH VINACAP, 90 Phan Đình Phùng, An Lạc, Ninh Kiều, Cần Thơ, Việt Nam","An Lạc, Ninh Kiều",90 Phan Đình Phùng,Cần Thơ,,"Ninh Kiều, Cần Thơ",VN
204,ChIJ7Q8d3ECJoDER_oEfCj23fe4,Trái Cây Việt Hiền Duyên,Chợ nông sản,+84 908 423 653,"Trái Cây Việt Hiền Duyên, Nguyễn Văn Cừ Nối Dài, Mỹ Khánh, Phong Điền, Cần Thơ, Việt Nam","Mỹ Khánh, Phong Điền",Nguyễn Văn Cừ Nối Dài,Cần Thơ,,"Phong Điền, Cần Thơ",VN
205,ChIJ65N2902JoDER1tQnOkL4rzU,Công ty TNHH SUMOFOOD VIỆT NAM,Nhà bán buôn nông sản,+84 292 2468 298,"Công ty TNHH SUMOFOOD VIỆT NAM, 306F/12, Hoàng Quốc Việt, Khu Vực, 5, P, Ninh Kiều, Cần Thơ, Việt Nam","P, Ninh Kiều","306F/12, Hoàng Quốc Việt, Khu Vực, 5",Cần Thơ,,"Ninh Kiều, Cần Thơ",VN
206,ChIJaf8WC3CboDERgLEuNurSoyk,2 Nông Chuyên Cung Cấp Nông Sản,Vườn cây ăn quả,+84 938 222 402,"2 Nông Chuyên Cung Cấp Nông Sản, Số 115 Ấp 6, Thới Hưng, Cờ Đỏ, Cần Thơ 94607, Việt Nam","Thới Hưng, Cờ Đỏ",Số 115 Ấp 6,Cần Thơ,94607.0,"Cờ Đỏ, Cần Thơ",VN
211,ChIJDYZxZBCJoDERda-Hp1_Ahq4,RAU SẠCH THỦY CANH CAN THO,Trang trại,+84 933 974 065,"RAU SẠCH THỦY CANH CAN THO, 06 Đ. Trần Hưng Đạo, P, Ninh Kiều, Cần Thơ, Việt Nam","P, Ninh Kiều",06 Đ. Trần Hưng Đạo,Cần Thơ,,"Ninh Kiều, Cần Thơ",VN
231,ChIJj-HMtFyJoDERhA83MrtlebY,Sao Mai SMC,Trang trại hữu cơ,+84 888 000 488,"Sao Mai SMC, 52 No.2 Street, Thoi Nhut Resident, AN Khanh ward, Ninh Kieu Dictrict Can Tho Can Tho City, 70000, Việt Nam","Phường An Khánh, Ninh Kiều","52 No.2 Street, Thoi Nhut Resident, AN Khanh ward, Ninh Kieu Dictrict Can Tho Can Tho City",Cần Thơ,70000.0,"Ninh Kiều, Cần Thơ",VN
232,ChIJg4h4hBZjoDERc1BRs0UB9sQ,MAISIE NGUYEN,Cửa hàng quần áo,+84 933 095 578,"MAISIE NGUYEN, L45, ĐƯỜNG SỐ 2, KDC NÔNG THỔ SẢN, PHƯỜNG PHÚ THỨ, QUẬN CÁI RĂNG CẦN THƠ Can Tho City, 94910, Việt Nam","Khu dân cư Vạn Phong, Cái Răng","L45, ĐƯỜNG SỐ 2, KDC NÔNG THỔ SẢN, PHƯỜNG PHÚ THỨ, QUẬN CÁI RĂNG CẦN THƠ Can Tho City",Cần Thơ,94910.0,"Cái Răng, Cần Thơ",VN
239,ChIJT4RE7WCNoDERQoi8LXty30E,Cửa Hàng Nông Sản Văn Hòa,Cửa hàng bán buôn trái cây,+84 913 467 072,"Cửa Hàng Nông Sản Văn Hòa, Nhơn Ninh, Nhơn nghĩa A, Hậu Giang, Việt Nam","Nhơn nghĩa A, Châu Thành A",Nhơn Ninh,Hậu Giang,,"Châu Thành A, Hậu Giang",VN
247,ChIJ24Kws3CLoDERtBJU_gh_T14,Ha Ngy Shop Beauty,Cửa hàng mỹ phẩm,+84 329 169 496,"Ha Ngy Shop Beauty, Đường Số 4, Khu dân cư, Châu Thành A, Hậu Giang, Việt Nam","Khu dân cư, Châu Thành A",Đường Số 4,Hậu Giang,,"Châu Thành A, Hậu Giang",VN
259,ChIJ-6LytMovpmQR7m1cbvlypGM,Công Ty Tnhh Tmdv Xnk Nam Thành,Trang trại hữu cơ,+84 939 342 023,,,,,,,
262,ChIJq8xxz0mIoDERoBz1hUxREi0,Công Ty Tnhh Nông Dược Nhật Bản,Công ty dược phẩm,,"Công Ty Tnhh Nông Dược Nhật Bản, 132/8/8D Hẻm 132 Đ. 3 Tháng 2, Hưng Lợi, Ninh Kiều, Cần Thơ, Việt Nam","Hưng Lợi, Ninh Kiều",132/8/8D Hẻm 132 Đ. 3 Tháng 2,Cần Thơ,,"Ninh Kiều, Cần Thơ",VN
281,ChIJ0R6frTCJoDERc0q9P_Ne4CA,Chợ nổi,Điểm thu hút khách du lịch,,"Chợ nổi, 103 ĐT923, An Bình, Ninh Kiều, Cần Thơ, Việt Nam","An Bình, Ninh Kiều",103 ĐT923,Cần Thơ,,"Ninh Kiều, Cần Thơ",VN
285,ChIJjb2KSHSJoDERpEw6Y-sA8oA,Chợ Cái Răng,Chợ thực phẩm tươi sống,,"Chợ Cái Răng, 63/2 Trần Hưng Đạo, Lê Bình, Cái Răng, Cần Thơ, Việt Nam","Lê Bình, Cái Răng",63/2 Trần Hưng Đạo,Cần Thơ,,"Cái Răng, Cần Thơ",VN
286,ChIJ4T7_twqGoDER0jLoA_yH79M,Chợ Ngã Ba,Chợ nông sản,+84 939 043 441,"3MHQ+WVG Chợ Ngã Ba, Nguyễn Chí Thanh, Thới An Đông, Bình Thủy, Cần Thơ, Việt Nam","Thới An Đông, Bình Thủy","3MHQ+WVG, Nguyễn Chí Thanh",Cần Thơ,,"Bình Thủy, Cần Thơ",VN
299,ChIJLQPOTPxjoDERoxiWEEX_q3M,Cafe The Grounds Gia Lai,Quán cà phê,+84 918 169 207,"Cafe The Grounds Gia Lai, Đ. Số 03, Khu Dân Cư Nông Thổ Sản, Cái Răng, Cần Thơ, Việt Nam","Khu Dân Cư Nông Thổ Sản, Cái Răng",Đ. Số 03,Cần Thơ,,"Cái Răng, Cần Thơ",VN
310,ChIJa-SAkSSJoDERH10uGDYTIx4,Rau Củ Cần Thơ - Nông Sản Xanh Cần Thơ,Cửa hàng tiện lợi,,"Rau Củ Cần Thơ - Nông Sản Xanh Cần Thơ, TP, 179 Võ Văn Kiệt, P, Bình Thủy, Cần Thơ, Việt Nam","P, Bình Thủy","TP, 179 Võ Văn Kiệt",Cần Thơ,,"Bình Thủy, Cần Thơ",VN
325,ChIJwSmF5yaJoDERGwFlBgHAPOA,Cantho Farm-Nông Trại Sạch Cần Thơ,Dịch vụ nông nghiệp,+84 977 706 260,"Cantho Farm-Nông Trại Sạch Cần Thơ, 79A Võ Văn Kiệt, Long Hoà, Bình Thủy, Cần Thơ, Việt Nam","Long Hoà, Bình Thủy",79A Võ Văn Kiệt,Cần Thơ,,"Bình Thủy, Cần Thơ",VN
340,ChIJMTsvnitkoDEREWEOBK0bVSo,Vật Tư nông Nghiệp Phương Linh,Cửa hàng tạp phẩm,+84 907 788 631,"Vật Tư nông Nghiệp Phương Linh, 25 Lê Văn Duyệt, Trà Ôn, Vĩnh Long, Việt Nam",Trà Ôn,25 Lê Văn Duyệt,Vĩnh Long,,"Trà Ôn, Vĩnh Long",VN
342,ChIJsQk-o-GToDEREgfxoIW_T1s,Vật Tư Nông Nghiệp Mười Nữa,Cửa hàng nông sản,+84 988 991 355,"XGH9+6X2 Vật Tư Nông Nghiệp Mười Nữa, Trường Xuân B, Thới Lai, Cần Thơ, Việt Nam","Trường Xuân B, Thới Lai",XGH9+6X2,Cần Thơ,,"Thới Lai, Cần Thơ",VN
343,ChIJh7pADZyIoDERyVUVu-Btr8c,Công Ty TNHH Xây Dựng Thủy Sản Khải Long,Cửa hàng tổng hợp,+84 918 625 657,"Công Ty TNHH Xây Dựng Thủy Sản Khải Long, 86, Quốc Lộ 91B, Phường Thới An Đông, Quận Bình Thuỷ, Thành Phố Cần Thơ, Việt Nam","Long Hoà, Bình Thủy","86, Quốc Lộ 91B, Phường Thới An Đông, Quận Bình Thuỷ, Thành Phố Cần Thơ",Cần Thơ,,"Bình Thủy, Cần Thơ",VN
358,ChIJPbsZM9-IoDERaifieyagY1Q,Cửa hàng VTNN Thuận Lợi,Siêu thị,+84 292 3845 889,"2P84+JFX Cửa hàng VTNN Thuận Lợi, Đ. Bùi Hữu Nghĩa, Long Tuyền, Bình Thủy, Cần Thơ, Việt Nam","Long Tuyền, Bình Thủy","2P84+JFX, Đ. Bùi Hữu Nghĩa",Cần Thơ,,"Bình Thủy, Cần Thơ",VN
361,ChIJ87JvNIqHoDERtZMwFdvcYK0,Cửa hàng Nông Sản Sạch Tâm Đức,Cửa hàng gạo,+84 939 570 098,"Cửa hàng Nông Sản Sạch Tâm Đức, 50 Đ. Phạm Thế Hiển, Phường An Khánh, Ninh Kiều, Cần Thơ 900000, Việt Nam","Phường An Khánh, Ninh Kiều",50 Đ. Phạm Thế Hiển,Cần Thơ,900000.0,"Ninh Kiều, Cần Thơ",VN
376,ChIJ4eli12qIoDER4bsPvORSca8,Mai Việt Garden,Cửa hàng bán buôn cây cảnh,+84 984 310 397,"Mai Việt Garden, 138c Đ. Nguyễn Văn Cừ, Phường An Khánh, Ninh Kiều, Cần Thơ 94117, Việt Nam","Phường An Khánh, Ninh Kiều",138c Đ. Nguyễn Văn Cừ,Cần Thơ,94117.0,"Ninh Kiều, Cần Thơ",VN
387,ChIJqXpEXDqIoDERMjN7pzzMLyw,Nông Sản Sạch Đại Thuận Thiên,Trung tâm mua sắm,+84 908 989 633,"Nông Sản Sạch Đại Thuận Thiên, 060 QL1A, Tân Phú Thạnh, Cái Răng, Cần Thơ, Việt Nam","Tân Phú Thạnh, Cái Răng",060 QL1A,Cần Thơ,,"Cái Răng, Cần Thơ",VN
402,ChIJ90kQoIB9oDERKLH8swZoNW4,"Hạt Giống, Vật Tư Nông Nghiệp Kim Bảo - Kimbao.vn",Cửa hàng,+84 794 325 789,"Hạt Giống, Vật Tư Nông Nghiệp Kim Bảo - Kimbao.vn, 35 Đường Nguyễn Văn Thảnh, Khóm 1, Bình Minh, Vĩnh Long 85500, Việt Nam","Khóm 1, Bình Minh",35 Đường Nguyễn Văn Thảnh,Vĩnh Long,85500.0,"Bình Minh, Vĩnh Long",VN
404,ChIJbZnWIr9joDERggQNHbP76kI,CÀ PHÊ K30,Quán cà phê,+84 292 2222 245,"CÀ PHÊ K30, LÔ K30, KHU DÂN CƯ NÔNG THỔ SẢN, Q, P, Cái Răng, Cần Thơ, Việt Nam","P, Cái Răng","LÔ K30, KHU DÂN CƯ NÔNG THỔ SẢN, Q",Cần Thơ,,"Cái Răng, Cần Thơ",VN
423,ChIJvzcKsZeJoDERVXVhIDxWsUM,Trại Tôm Giống Tân Nguyên,Trang trại hải sản,+84 972 819 819,"XPQX+HPV Trại Tôm Giống Tân Nguyên, QL1A, Thường Thạnh, Cái Răng, Cần Thơ, Việt Nam","Thường Thạnh, Cái Răng","XPQX+HPV, QL1A",Cần Thơ,,"Cái Răng, Cần Thơ",VN
424,ChIJc-hxp02IoDERhoOTMPNjjdc,Triền,Cửa hàng tạp phẩm,+84 939 544 410,"2P8X+4GG Triền, Unnamed Road, An Bình, Ninh Kiều, Cần Thơ, Việt Nam","An Bình, Ninh Kiều","2P8X+4GG, Unnamed Road",Cần Thơ,,"Ninh Kiều, Cần Thơ",VN
425,ChIJhdPeUAJjoDER94cGjNPLPmE,CTY TNHH NÔNG SẢN THỰC PHẨM BÁ NÔNG,Chợ bán buôn nông sản,+84 939 863 966,"CTY TNHH NÔNG SẢN THỰC PHẨM BÁ NÔNG, B10-03 Đường Số 3, KDC Nam Long, Cái Răng, Cần Thơ 900000, Việt Nam","KDC Nam Long, Cái Răng",B10-03 Đường Số 3,Cần Thơ,900000.0,"Cái Răng, Cần Thơ",VN
426,ChIJjyqvygh-oDERq_HfH1d1h4Q,VTNN SÁU LONG 2,Cửa hàng nông sản,+84 901 282 224,"VTNN SÁU LONG 2, Thành Trung, Bình Tân, Vĩnh Long 890000, Việt Nam","Thành Trung, Bình Tân",,Vĩnh Long,890000.0,"Bình Tân, Vĩnh Long",VN
429,ChIJG1dsvduHoDERe3ZzIzOVJho,Cửa Hàng Hải Sản Tươi Sống Nam Tiến,Nhà hàng hải sản,+84 913 777 135,"Cửa Hàng Hải Sản Tươi Sống Nam Tiến, 101, Đường Nguyễn Thông, Phường An Thới, Quận Bình Thủy, An Thới, Bình Thủy, Cần Thơ, Việt Nam","An Thới, Bình Thủy","101, Đường Nguyễn Thông, Phường An Thới, Quận Bình Thủy",Cần Thơ,,"Bình Thủy, Cần Thơ",VN
461,ChIJWSUtAJZ5oDERSWjAicAmZg8,Nông sản Yến Vĩnh Long,Cửa hàng tạp phẩm,,"Nông sản Yến Vĩnh Long, 14/7 A Tân Hưng, Tân Hạnh, Long Hồ, Vĩnh Long, Việt Nam","Tân Hạnh, Long Hồ",14/7 A Tân Hưng,Vĩnh Long,,"Long Hồ, Vĩnh Long",VN
469,ChIJ3-K8LJ-JoDERuhvsXxP1Haw,Trại Gà Trần Đang và Trần Nghị,Trại gia cầm,+84 856 838 653,"XPVP+XQH Trại Gà Trần Đang và Trần Nghị, An Bình, Ninh Kiều, Cần Thơ, Việt Nam","An Bình, Ninh Kiều",XPVP+XQH,Cần Thơ,,"Ninh Kiều, Cần Thơ",VN
472,ChIJFyGW7g6IoDERW6-3v1Qyfc4,Nông Sản Sạch Đại Thuận Thiên,Chế biến rau quả,+84 292 6537 999,"Nông Sản Sạch Đại Thuận Thiên, 69 Đ. Võ Trường Toản, An Hoà, Ninh Kiều, Cần Thơ, Việt Nam","An Hoà, Ninh Kiều",69 Đ. Võ Trường Toản,Cần Thơ,,"Ninh Kiều, Cần Thơ",VN
473,ChIJ48cMZJaJoDERmClO2fiKwYk,Vựa Sầu Riêng Côba Farm,Cửa hàng nông sản,+84 855 180 060,"Vựa Sầu Riêng Côba Farm, 162C Đ. Trần Ngọc Quế, Xuân Khánh, Ninh Kiều, Cần Thơ 94000, Việt Nam","Xuân Khánh, Ninh Kiều",162C Đ. Trần Ngọc Quế,Cần Thơ,94000.0,"Ninh Kiều, Cần Thơ",VN
484,ChIJTWbAJ8eOoDER-tLQYhPo-H0,Cửa Hàng Vật Tư Nông Nghiệp Phát Tạo 2,Cửa hàng tổng hợp,+84 292 3943 379,"Cửa Hàng Vật Tư Nông Nghiệp Phát Tạo 2, 66 Phan Văn Trị, Thị trấn Phong Điền, Phong Điền, Cần Thơ, Việt Nam","Thị trấn Phong Điền, Phong Điền",66 Phan Văn Trị,Cần Thơ,,"Phong Điền, Cần Thơ",VN
494,ChIJ80aQJI6OoDERqf6vJQ9132A,Vựa Trái Cây Dũng Nhu,Cửa hàng nông sản,,"Vựa Trái Cây Dũng Nhu, 437 ĐT926, Nhơn ái, Phong Điền, Cần Thơ, Việt Nam","Nhơn ái, Phong Điền",437 ĐT926,Cần Thơ,,"Phong Điền, Cần Thơ",VN
496,ChIJY1J0hoJjoDERNaL9SHa_468,Cà phê Lan Chi,Quán cà phê,+84 984 858 308,"Cà phê Lan Chi, I23 Đ. Số 03, Khu dân cư Nông Thổ Sản, Cái Răng, Cần Thơ, Việt Nam","Khu dân cư Nông Thổ Sản, Cái Răng",I23 Đ. Số 03,Cần Thơ,,"Cái Răng, Cần Thơ",VN
497,ChIJvx7Vh8COoDERz8ozcM2p2fg,Cửa Hàng Vật Tư Nông nghiệp Trần Tuấn,Cửa hàng tổng hợp,+84 292 3850 216,"Cửa Hàng Vật Tư Nông nghiệp Trần Tuấn, 359, Tỉnh Lộ 923, Thị Trấn Phong Điền, Nhơn ái, Phong Điền, Cần Thơ, Việt Nam","Nhơn ái, Phong Điền","359, Tỉnh Lộ 923, Thị Trấn Phong Điền",Cần Thơ,,"Phong Điền, Cần Thơ",VN
498,ChIJnwTdLupjoDER8gWrtP0N14Q,Cà phê Tươi,Quán cà phê,+84 963 414 777,"Cà phê Tươi, Thổ Sản Diệu Hiền, Đ. Số 2, khu dân cư Nông, Cái Răng, Cần Thơ, Việt Nam","khu dân cư Nông, Cái Răng","Thổ Sản Diệu Hiền, Đ. Số 2",Cần Thơ,,"Cái Răng, Cần Thơ",VN
517,ChIJdYlcOI6PoDERFByWAyc5d1Y,Vựa Dừa Quốc Anh,Cửa hàng nông sản,,"Vựa Dừa Quốc Anh, 575 ĐT926, Nhơn ái, Phong Điền, Cần Thơ, Việt Nam","Nhơn ái, Phong Điền",575 ĐT926,Cần Thơ,,"Phong Điền, Cần Thơ",VN
520,ChIJHUQcV-CJoDERMn42VkqcTcU,Cửa hàng cây giống - phân bón - đất hữu cơ AN PHÁT ĐIỀN,Trang trại cây,,"Cửa hàng cây giống - phân bón - đất hữu cơ AN PHÁT ĐIỀN, 22 Nguyễn Văn Cừ Nối Dài, An Bình, Ninh Kiều, Cần Thơ, Việt Nam","An Bình, Ninh Kiều",22 Nguyễn Văn Cừ Nối Dài,Cần Thơ,,"Ninh Kiều, Cần Thơ",VN
525,ChIJR_qBTwyLoDERzQJ6KDGRgdg,Cửa Hàng Thuốc Thú Y & Thức Ăn Thủy Sản Mỹ Dung,Nông nghiệp,+84 775 363 003,"Cửa Hàng Thuốc Thú Y & Thức Ăn Thủy Sản Mỹ Dung, 248, Quốc Lộ 61, Ấp Xẻo Cao, Xã Thạnh Xuân, Huyện Châu Thành A, Thanh Xuân, Châu Thành A, Hậu Giang, Việt Nam","Thanh Xuân, Châu Thành A","248, Quốc Lộ 61, Ấp Xẻo Cao, Xã Thạnh Xuân, Huyện Châu Thành A",Hậu Giang,,"Châu Thành A, Hậu Giang",VN
527,ChIJTUbRVQL1oDER8M50QCfRFlI,Chợ Nông Sản,Chợ,,"Chợ Nông Sản, đường số 8, ấp Thạnh Lợi A1, Tân Long, Phụng Hiệp, Hậu Giang, Việt Nam","Tân Long, Phụng Hiệp","đường số 8, ấp Thạnh Lợi A1",Hậu Giang,,"Phụng Hiệp, Hậu Giang",VN
539,ChIJIWf4sGaJoDER-L7J-IInsZ4,Vựa Dừa Phương Phương,Chợ nông sản,+84 913 746 097,"Vựa Dừa Phương Phương, 146 Tầm Vu, Hưng Lợi, Ninh Kiều, Cần Thơ, Việt Nam","Hưng Lợi, Ninh Kiều",146 Tầm Vu,Cần Thơ,,"Ninh Kiều, Cần Thơ",VN
548,ChIJexmECQCJoDERZCUexZXjILY,cửa hàng NĂM HƯNG - chuyên phụ tùng nông nghiệp,Cửa hàng bán buôn,+84 292 3830 775,"cửa hàng NĂM HƯNG - chuyên phụ tùng nông nghiệp, 14/25 Đ. Lý Tự Trọng, An Cư, Ninh Kiều, Cần Thơ, Việt Nam","An Cư, Ninh Kiều",14/25 Đ. Lý Tự Trọng,Cần Thơ,,"Ninh Kiều, Cần Thơ",VN
553,ChIJL9qMtjeIoDERlQo84EQ41T0,Nông sản sạch Cần Thơ,Trung tâm mua sắm,+84 90100055,"2QC6+54J Nông sản sạch Cần Thơ, Đường số 3, Hưng Lợi, Ninh Kiều, Cần Thơ, Việt Nam","Hưng Lợi, Ninh Kiều","2QC6+54J, Đường số 3",Cần Thơ,,"Ninh Kiều, Cần Thơ",VN
554,ChIJWwhJEi5joDERnzSCQD0ijts,Bá Nông Eco Agrifood,Cửa hàng nông sản,+84 909 077 394,"Bá Nông Eco Agrifood, Lô B10-03, Đường số 03, KDC Nam Long, Cần Thơ 94000, Việt Nam","Hưng Phú, Cái Răng","Lô B10-03, Đường số 03, KDC Nam Long",Cần Thơ,94000.0,"Cái Răng, Cần Thơ",VN
555,ChIJQbHl50aIoDERddWOSB0I3Q4,Kho Hàng Nông Nghiệp Ngũ Nhiều,Cửa hàng tổng hợp,+84 7103834873,"Kho Hàng Nông Nghiệp Ngũ Nhiều, 80, QL91B, Phường An Khánh, Bình Thủy, Cần Thơ, Việt Nam","Phường An Khánh, Bình Thủy","80, QL91B",Cần Thơ,,"Bình Thủy, Cần Thơ",VN
556,ChIJAeBTLUaIoDERhVYTf6_fDyQ,Công Ty TNHH Thương Mại Dịch Vụ Xuất Nhập Khẩu Nông Sản Nam Thành,Công ty xuất nhập khẩu,+84 915 305 132,"Công Ty TNHH Thương Mại Dịch Vụ Xuất Nhập Khẩu Nông Sản Nam Thành, 8, Đường B2, Khu Dân Cư 91B, Phường An Khánh, Quận Ninh Kiều, Hưng Lợi, Ninh Kiều, Cần Thơ, Việt Nam","Hưng Lợi, Ninh Kiều","8, Đường B2, Khu Dân Cư 91B, Phường An Khánh, Quận Ninh Kiều",Cần Thơ,,"Ninh Kiều, Cần Thơ",VN
557,ChIJ-b6OA8eOoDERbzhRUc-zC-E,Cửa Hàng Nông Sản Năm Tạo,Cửa hàng tạp phẩm,+84 292 3850 362,"Cửa Hàng Nông Sản Năm Tạo, 153 ĐT923, Thị trấn Phong Điền, Phong Điền, Cần Thơ, Việt Nam","Thị trấn Phong Điền, Phong Điền",153 ĐT923,Cần Thơ,,"Phong Điền, Cần Thơ",VN
558,ChIJr72ULrmJoDERD6gncGe2mjc,Cửa Hàng Nông Nghiệp Số 1 Cần Thơ,Cửa hàng,+84 292 3666 633,"XPQX+8RV Cửa Hàng Nông Nghiệp Số 1 Cần Thơ, Thường Thạnh, Cái Răng, Cần Thơ, Việt Nam","Thường Thạnh, Cái Răng",XPQX+8RV,Cần Thơ,,"Cái Răng, Cần Thơ",VN
559,ChIJjbwaIW2IoDERmCttkgn-XXc,CÔNG TY TNHH PHÁT TRIỂN NÔNG SẢN SẠCH CODOSA,Văn phòng công ty,+84 292 3668 868,"CÔNG TY TNHH PHÁT TRIỂN NÔNG SẢN SẠCH CODOSA, 72, Đường Trần Văn Long, Phường An Khánh, Ninh Kiều, Cần Thơ, Việt Nam","Phường An Khánh, Ninh Kiều","72, Đường Trần Văn Long",Cần Thơ,,"Ninh Kiều, Cần Thơ",VN
560,ChIJM-YRZPyEoDERrAobsTd6sgQ,Công Ty TNHH Nông Sản Hòa Hợp,Cửa hàng tổng hợp,+84 918 390 278,"Công Ty TNHH Nông Sản Hòa Hợp, 40/3, Phường Châu Văn Liêm, Quận Ô Môn, Thành Phố Cần Thơ, Châu Văn Liêm, Ô Môn, Cần Thơ, Việt Nam","Châu Văn Liêm, Ô Môn","40/3, Phường Châu Văn Liêm, Quận Ô Môn, Thành Phố Cần Thơ",Cần Thơ,,"Ô Môn, Cần Thơ",VN
561,ChIJVX0dxp5ioDERxiB17cr85_o,Công Ty Tnhh Mtv Nông Nghiệp Cờ Đỏ,Công ty đóng gói,+84 292 3752 725,"Công Ty Tnhh Mtv Nông Nghiệp Cờ Đỏ, 71 Đường Hai Bà Trưng, Tân An, Ninh Kiều, Cần Thơ, Việt Nam","Tân An, Ninh Kiều",71 Đường Hai Bà Trưng,Cần Thơ,,"Ninh Kiều, Cần Thơ",VN
562,ChIJhan64oCJoDER31Q8g1j7Pco,Vườn Miền Tây,Chợ nông sản,+84 949 118 573,"Vườn Miền Tây, 385 Đ. Trần Nam Phú, Phường An Khánh, Ninh Kiều, Cần Thơ 900000, Việt Nam","Phường An Khánh, Ninh Kiều",385 Đ. Trần Nam Phú,Cần Thơ,900000.0,"Ninh Kiều, Cần Thơ",VN
563,ChIJnXbrfZCNoDERWc8dcaMdc00,CTY TNHH NÔNG DƯỢC DUY NGUYỄN,Cửa hàng nông sản,,"WJ45+7Q4 CTY TNHH NÔNG DƯỢC DUY NGUYỄN, ĐT931B, Tân Thuận, Châu Thành A, Hậu Giang, Việt Nam","Tân Thuận, Châu Thành A","WJ45+7Q4, ĐT931B",Hậu Giang,,"Châu Thành A, Hậu Giang",VN
564,ChIJK1HrOT2LoDER-Im_Jk5bTo4,HTX Nông Nghiệp Thịnh Phát,Cửa hàng nông sản,+84 939 223 035,"WQJC+VVV HTX Nông Nghiệp Thịnh Phát, ĐT925, Đông Phước A, Châu Thành, Hậu Giang, Việt Nam","Đông Phước A, Châu Thành","WQJC+VVV, ĐT925",Hậu Giang,,"Châu Thành, Hậu Giang",VN
565,ChIJVYZ3Ou5loDERSdRD-X0YATk,Vựa mít Vựa trái cây đăng khôi,Cửa hàng nông sản,+84 967 089 496,"2WR3+FRQ Vựa mít Vựa trái cây đăng khôi, Ngãi Tứ, Tam Bình, Vĩnh Long, Việt Nam","Ngãi Tứ, Tam Bình",2WR3+FRQ,Vĩnh Long,,"Tam Bình, Vĩnh Long",VN
566,ChIJTyrYG2uHoDER8lpQMXG-1M4,Cửa hàng Vật Tư Nông Nghiệp Ba Châu,Cửa hàng bán buôn,+84 903 121 155,"Cửa hàng Vật Tư Nông Nghiệp Ba Châu, 69 Đặng Thị Nhường, Bùi Hữu Nghĩa, Ninh Kiều, Cần Thơ, Việt Nam","Bùi Hữu Nghĩa, Ninh Kiều",69 Đặng Thị Nhường,Cần Thơ,,"Ninh Kiều, Cần Thơ",VN
580,ChIJ5RgEmLhjoDERUC8gtqRPt4w,Đại Lý Thức Ăn Gia Súc-Gia Cầm Phượng Hoàng,Cửa hàng thức ăn gia súc,,"XRV5+4R Đại Lý Thức Ăn Gia Súc-Gia Cầm Phượng Hoàng, Phú Thứ, Cái Răng, Cần Thơ, Việt Nam","Phú Thứ, Cái Răng",XRV5+4R,Cần Thơ,,"Cái Răng, Cần Thơ",VN
581,ChIJSQQSnS2IoDERY9QALK4JRsM,Cửa Hàng Gạo Lê Thị Tím,Nông nghiệp,+84 815 922 292,"Cửa Hàng Gạo Lê Thị Tím, 262 Tầm Vu, Hưng Lợi, Ninh Kiều, Cần Thơ, Việt Nam","Hưng Lợi, Ninh Kiều",262 Tầm Vu,Cần Thơ,,"Ninh Kiều, Cần Thơ",VN
582,ChIJz-oNFx-IoDERXZ8Jm56VQzo,Chi Cục Thủy Lợi TP Cần Thơ,Nhà cung cấp thiết bị thủy canh,+84 292 3831 537,"Chi Cục Thủy Lợi TP Cần Thơ, 28 Đ. Trần Bình Trọng, An Phú, Ninh Kiều, Cần Thơ, Việt Nam","An Phú, Ninh Kiều",28 Đ. Trần Bình Trọng,Cần Thơ,,"Ninh Kiều, Cần Thơ",VN
597,ChIJE9qNnp5ioDERIaNK7-XvlYM,Chi Cục Thủy Sản Cần Thơ,,,"Chi Cục Thủy Sản Cần Thơ, 189 Đ. Nguyễn Văn Cừ, An Hoà, Ninh Kiều, Cần Thơ, Việt Nam","An Hoà, Ninh Kiều",189 Đ. Nguyễn Văn Cừ,Cần Thơ,,"Ninh Kiều, Cần Thơ",VN
661,ChIJQ8U1akCIoDERxXk9Pf-xG2w,Công TY TNHH MTV Nông Nghiệp Thiên Ân,Nông nghiệp,+84 292 3760 154,"Công TY TNHH MTV Nông Nghiệp Thiên Ân, 160C2/6B, Khu Vực 1, Phường An Khánh, Quận Ninh Kiều, Thành Phố Cần Thơ, Phường An Khánh, Ninh Kiều, Cần Thơ, Việt Nam","Phường An Khánh, Ninh Kiều","160C2/6B, Khu Vực 1, Phường An Khánh, Quận Ninh Kiều, Thành Phố Cần Thơ",Cần Thơ,,"Ninh Kiều, Cần Thơ",VN
669,ChIJQVEUBUmIoDERPB0wV4Kv3k0,Công Ty Cổ Phần Rau Củ Quả Sạch Thầy Tài,Chợ bán buôn nông sản,+84 932 846 463,"Công Ty Cổ Phần Rau Củ Quả Sạch Thầy Tài, 39 Đường B30, Khu dân cư 91B, Ninh Kiều, Cần Thơ, Việt Nam","Khu dân cư 91B, Ninh Kiều",39 Đường B30,Cần Thơ,,"Ninh Kiều, Cần Thơ",VN
691,ChIJu-VFsAaPoDERiTBzyZAEYkE,Tạp Hoá Cô Bảy,Cửa hàng tạp hóa,,"Tạp Hoá Cô Bảy, Chợ Ba Mít, Trường Thành, Thới Lai, Cần Thơ, Việt Nam","Trường Thành, Thới Lai",Chợ Ba Mít,Cần Thơ,,"Thới Lai, Cần Thơ",VN
705,ChIJZ6bkKr2JoDERkzVI0zGZ3fU,Trại Lương Thịt Đại Nhân,Trang trại,+84 939 797 960,"XPVW+CQ5 Trại Lương Thịt Đại Nhân, Nhật Tảo, Ba Láng, Cái Răng, Cần Thơ, Việt Nam","Ba Láng, Cái Răng","XPVW+CQ5, Nhật Tảo",Cần Thơ,,"Cái Răng, Cần Thơ",VN
723,ChIJu-mgQq6JoDER8Gr8AozHw0Q,Thanh Loi Rice Private Enterprise,Nông nghiệp,+84 292 3846 028,"Thanh Loi Rice Private Enterprise, 175B/4, Lo Vong Cung Street, Ninh Kieu District, Can Tho City, An Bình, Ninh Kiều, Cần Thơ, Việt Nam","An Bình, Ninh Kiều","175B/4, Lo Vong Cung Street, Ninh Kieu District, Can Tho City",Cần Thơ,,"Ninh Kiều, Cần Thơ",VN
787,ChIJaf_99Z5ioDER4DsV12b_Cdc,Của Hàng Gia Cầm Trần Thị Mỹ Thuận,Nông nghiệp,,"Của Hàng Gia Cầm Trần Thị Mỹ Thuận, 80/4/30 Đ. Điện Biên Phủ, Tân An, Ninh Kiều, Cần Thơ, Việt Nam","Tân An, Ninh Kiều",80/4/30 Đ. Điện Biên Phủ,Cần Thơ,,"Ninh Kiều, Cần Thơ",VN
791,ChIJ0Y8-yP2JoDER8WYpeQ4gS_4,HTX Nông Sản Xanh Cần Thơ,Cửa hàng rau quả,+84 986 766 429,"HTX Nông Sản Xanh Cần Thơ, 179 Võ Văn Kiệt, P An Thới, Bình Thủy, Cần Thơ, Việt Nam","P An Thới, Bình Thủy",179 Võ Văn Kiệt,Cần Thơ,,"Bình Thủy, Cần Thơ",VN
792,ChIJnfaA9NeJoDERCKkF2T298_c,Nông sản sạch Thới Long,Cửa hàng bán thực phẩm sạch,+84 919 745 770,"Nông sản sạch Thới Long, 9 Đường số 22, Phường An Khánh, Ninh Kiều, Cần Thơ, Việt Nam","Phường An Khánh, Ninh Kiều",9 Đường số 22,Cần Thơ,,"Ninh Kiều, Cần Thơ",VN
793,ChIJR3GOgaGJoDERDfhzhf6KBYg,Giá Tốt - NÔNG SẢN XANH,Cửa hàng tạp hóa,,"2QW5+RP7 Giá Tốt - NÔNG SẢN XANH, Võ Văn Kiệt, Phường An Khánh, Ninh Kiều, Cần Thơ, Việt Nam","Phường An Khánh, Ninh Kiều","2QW5+RP7, Võ Văn Kiệt",Cần Thơ,,"Ninh Kiều, Cần Thơ",VN
794,ChIJbX7uwE6JoDERJgKhH8TTbSw,Nong Dong Tien Trading ltd,Cửa hàng nông sản,+84 981 614 090,"Nong Dong Tien Trading ltd, 138 Đường B4, KDC Hưng Phú 1, Cái Răng, Cần Thơ 920000, Việt Nam","KDC Hưng Phú 1, Cái Răng",138 Đường B4,Cần Thơ,920000.0,"Cái Răng, Cần Thơ",VN
795,ChIJjVoP6qhioDERudpkyMTtPEw,Công Ty Tnhh Thương Mại Dịch Vụ Nông Sản Lương Thực An Phát,,,"Công Ty Tnhh Thương Mại Dịch Vụ Nông Sản Lương Thực An Phát, 28 Đ. Lương Định Của, Cái Khế, Ninh Kiều, Cần Thơ, Việt Nam","Cái Khế, Ninh Kiều",28 Đ. Lương Định Của,Cần Thơ,,"Ninh Kiều, Cần Thơ",VN
796,ChIJsxiHmcGJoDEROmoXPZ0D6I8,Nông Sản Bình Minh,Cửa hàng bán buôn trái cây,+84 326 829 319,"Nông Sản Bình Minh, 132/9 Hẻm 132 Đ. 3 Tháng 2, An Binh, Ninh Kiều, Cần Thơ, Việt Nam","An Binh, Ninh Kiều",132/9 Hẻm 132 Đ. 3 Tháng 2,Cần Thơ,,"Ninh Kiều, Cần Thơ",VN
797,ChIJO5eZYA-IoDERHvDfDQwCTzU,Công Ty Tnhh Nông Sản Úc,,,"Công Ty Tnhh Nông Sản Úc, 189 Đ. Nguyễn Văn Cừ, An Hoà, Ninh Kiều, Cần Thơ, Việt Nam","An Hoà, Ninh Kiều",189 Đ. Nguyễn Văn Cừ,Cần Thơ,,"Ninh Kiều, Cần Thơ",VN
798,ChIJW6rQpzCIoDERGf6WB015cPQ,DNTN Thương Mại Nông Sản Nam Việt,Cửa hàng tổng hợp,+84 982 871 584,"DNTN Thương Mại Nông Sản Nam Việt, 12/30, Đường Ba Tháng Hai, Phường Xuân Khánh, Quận Ninh Kiều, Thành Phố Cần Thơ, Hưng Lợi, Ninh Kiều, Cần Thơ, Việt Nam","Hưng Lợi, Ninh Kiều","12/30, Đường Ba Tháng Hai, Phường Xuân Khánh, Quận Ninh Kiều, Thành Phố Cần Thơ",Cần Thơ,,"Ninh Kiều, Cần Thơ",VN
799,ChIJc6bPNRmIoDERjnrm_povvOI,Công Ty Cp Nông Sản Thực Phẩm Xuất Khẩu Cần Thơ,,,"Công Ty Cp Nông Sản Thực Phẩm Xuất Khẩu Cần Thơ, 152-154 Đ. Trần Hưng Đạo, An Phú, Ninh Kiều, Cần Thơ, Việt Nam","An Phú, Ninh Kiều",152-154 Đ. Trần Hưng Đạo,Cần Thơ,,"Ninh Kiều, Cần Thơ",VN
800,ChIJR5RKKKuHoDERomdCVUgG_nc,Cửa Hàng Nông Sản Sạch Minh Đức,Cửa hàng gạo,+84 939 570 098,"Cửa Hàng Nông Sản Sạch Minh Đức, 141 đường Đinh Công Chánh, khu vực Bình Phó A, Bình Thủy, Cần Thơ 900000, Việt Nam","khu vực Bình Phó A, Bình Thủy",141 đường Đinh Công Chánh,Cần Thơ,900000.0,"Bình Thủy, Cần Thơ",VN
801,ChIJYYt2yg2JoDERpLDhs_WeZ9w,Tiệm Sen - Mang nông sản Việt đến tay Người Việt,Cửa hàng bán thực phẩm sạch,+84 337 375 777,"Tiệm Sen - Mang nông sản Việt đến tay Người Việt, 85- C44 (đường, 11 Phạm Thế Hiển, Phường An Khánh, Ninh Kiều, Cần Thơ Cần Thơ Can Tho City, 11 Đ. Phạm Thế Hiển, Phường An Khánh, Ninh Kiều, Cần Thơ 900000, Việt Nam","Phường An Khánh, Ninh Kiều","85- C44 (đường, 11 Phạm Thế Hiển, Phường An Khánh, Ninh Kiều, Cần Thơ Cần Thơ Can Tho City, 11 Đ. Phạm Thế Hiển",Cần Thơ,900000.0,"Ninh Kiều, Cần Thơ",VN
802,ChIJp1kNIKWJoDER68yuHzf3huE,Xí Nghiệp Chế Biến Nông Sản Thực Phẩm,Cửa hàng thực phẩm,+84 292 3823 874,"Xí Nghiệp Chế Biến Nông Sản Thực Phẩm, 4, Đường Võ Tánh, Quận Cái Răng, Lê Bình, Cái Răng, Cần Thơ, Việt Nam","Lê Bình, Cái Răng","4, Đường Võ Tánh, Quận Cái Răng",Cần Thơ,,"Cái Răng, Cần Thơ",VN
803,ChIJ3ygwWRVjoDER9VISNf0iOWI,Công ty TNHH xnk Nông sản Phước Sơn,Chợ bán buôn nông sản,+84 886 991 881,"Công ty TNHH xnk Nông sản Phước Sơn, Đường A2 Cạnh chân, Cầu Quang Trung, Cần Thơ, 94900, Việt Nam","KDC Hưng Phú 1, Cần Thơ","Đường A2 Cạnh chân, Cầu Quang Trung",Cần Thơ,94900.0,Cần Thơ,VN
804,ChIJTZlC78aJoDERqOX_ppISN2w,Lê Ngọc Nông Sản,,,"Lê Ngọc Nông Sản, Thường Thạnh, Cái Răng, Cần Thơ, Việt Nam","Thường Thạnh, Cái Răng",,Cần Thơ,,"Cái Răng, Cần Thơ",VN
805,ChIJ__8LKh-IoDERVU60N9YzGU8,Công Ty Tnhh Xuất Nhập Khẩu Nông Sản M&K,,,"Công Ty Tnhh Xuất Nhập Khẩu Nông Sản M&K, 19/28 Đ. Trần Hưng Đạo, An Cư, Ninh Kiều, Cần Thơ, Việt Nam","An Cư, Ninh Kiều",19/28 Đ. Trần Hưng Đạo,Cần Thơ,,"Ninh Kiều, Cần Thơ",VN
806,ChIJCxlTXx6IoDER0NkxtpIcvKk,Công Ty Tnhh Một Thành Viên Chế Biến Nông Sản Tiến Thịnh,,,"Công Ty Tnhh Một Thành Viên Chế Biến Nông Sản Tiến Thịnh, 11A Đ. Lý Tự Trọng, An Cư, Ninh Kiều, Cần Thơ, Việt Nam","An Cư, Ninh Kiều",11A Đ. Lý Tự Trọng,Cần Thơ,,"Ninh Kiều, Cần Thơ",VN
807,ChIJ35xO6KCJoDER3ip0RWnY4CY,Coca Fruit Garden - Nông Sản Miền Tây Chất Lượng Cao,Cửa hàng bán buôn trái cây,+84 346 117 644,"XQWC+9QC Coca Fruit Garden - Nông Sản Miền Tây Chất Lượng Cao, Khu Vực 5, Cái Răng, Cần Thơ, Việt Nam","Khu Vực 5, Cái Răng","XQWC+9QC, Khu Vực 5",Cần Thơ,,"Cái Răng, Cần Thơ",VN
808,ChIJtaTYnZ5ioDERMY6Bq3qdeug,Công Ty TNHH MTV Nông Súc Sản XNK Cần Thơ Cataco,Cửa hàng tổng hợp,+84 292 3826 722,"Công Ty TNHH MTV Nông Súc Sản XNK Cần Thơ Cataco, 4 Nguyễn Thị Minh Khai, Tân An, Ninh Kiều, Cần Thơ, Việt Nam","Tân An, Ninh Kiều",4 Nguyễn Thị Minh Khai,Cần Thơ,,"Ninh Kiều, Cần Thơ",VN
809,ChIJPdl4uBCIoDERn-d_w_VTFGA,Công Ty Cổ Phần Nông Sản Pkd,,,"Công Ty Cổ Phần Nông Sản Pkd, 7/9 Đ. Mậu Thân, An Phú, Ninh Kiều, Cần Thơ, Việt Nam","An Phú, Ninh Kiều",7/9 Đ. Mậu Thân,Cần Thơ,,"Ninh Kiều, Cần Thơ",VN
810,ChIJp91UoR-IoDERN5xLRzAuIAI,Công Ty Tnhh Nông Sản Hồng Phương,Cửa hàng thực phẩm,,"Công Ty Tnhh Nông Sản Hồng Phương, 9A Đ. Lý Tự Trọng, An Cư, Ninh Kiều, Cần Thơ, Việt Nam","An Cư, Ninh Kiều",9A Đ. Lý Tự Trọng,Cần Thơ,,"Ninh Kiều, Cần Thơ",VN
811,ChIJ62HoEt2HoDER1kwtm8JlIc4,Hội Thu Mua Nông Sản,,,"Hội Thu Mua Nông Sản, 12 Lê Văn Sô, An Thới, Ninh Kiều, Cần Thơ, Việt Nam","An Thới, Ninh Kiều",12 Lê Văn Sô,Cần Thơ,,"Ninh Kiều, Cần Thơ",VN
812,ChIJi5fXUWtloDER9gmzTF50wR0,Nông Sản Thúy Giang,Cửa hàng tạp phẩm,+84 918 993 044,"Nông Sản Thúy Giang, Số 09 ấp Đông Hậu, Ngãi Tứ, Tam Bình, Vĩnh Long, Việt Nam","Ngãi Tứ, Tam Bình",Số 09 ấp Đông Hậu,Vĩnh Long,,"Tam Bình, Vĩnh Long",VN
813,ChIJK6waPh-IoDERvsOAY3TUBW4,Công Ty Tnhh Xuất Nhập Khẩu Nông Sản M&K,,,"Công Ty Tnhh Xuất Nhập Khẩu Nông Sản M&K, 28 Đ. Trần Bình Trọng, An Phú, Ninh Kiều, Cần Thơ, Việt Nam","An Phú, Ninh Kiều",28 Đ. Trần Bình Trọng,Cần Thơ,,"Ninh Kiều, Cần Thơ",VN
814,ChIJv5SHGDCIoDER2vIwY7wjp3s,Công Ty Tnhh Nông Sản Hồng Phương,Cửa hàng thực phẩm,,"Công Ty Tnhh Nông Sản Hồng Phương, 404 Đ. 30 Tháng 4, Hưng Lợi, Ninh Kiều, Cần Thơ, Việt Nam","Hưng Lợi, Ninh Kiều",404 Đ. 30 Tháng 4,Cần Thơ,,"Ninh Kiều, Cần Thơ",VN
815,ChIJvc_GoKuJoDER0JcfNBn8Zq4,Cửa hàng Nông Sản Xanh,Vườn,+84 913 120 345,"Cửa hàng Nông Sản Xanh, 109 KV5, ĐT923, An Bình, Ninh Kiều, Cần Thơ, Việt Nam","An Bình, Ninh Kiều","109 KV5, ĐT923",Cần Thơ,,"Ninh Kiều, Cần Thơ",VN
816,ChIJOfX8YX1ioDERq6FtGykKsiM,Công Ty Tnhh Mtv Nông Sản Toàn Thiên Ngân,,,"Công Ty Tnhh Mtv Nông Sản Toàn Thiên Ngân, 32 Đ. Số 3, KHU DÂN CƯ ĐÔ THỊ MỚI HƯNG PHÚ, Cái Răng, Cần Thơ, Việt Nam","KHU DÂN CƯ ĐÔ THỊ MỚI HƯNG PHÚ, Cái Răng",32 Đ. Số 3,Cần Thơ,,"Cái Răng, Cần Thơ",VN
817,ChIJrRUz6YSIoDER88h31o6kQpI,Công Ty TNHH Một Thành Viên Thương Mại Dịch Vụ Nông Sản Khánh Hưng,Nông nghiệp,+84 988 233 546,"Công Ty TNHH Một Thành Viên Thương Mại Dịch Vụ Nông Sản Khánh Hưng, 300/59C, Đường Cách Mạng Tháng Tám, Phường Bùi Hữu Nghĩa, Quận Bình Thuỷ, Thành Phố Cần Thơ, Long Hoà, Bình Thủy, Cần Thơ, Việt Nam","Long Hoà, Bình Thủy","300/59C, Đường Cách Mạng Tháng Tám, Phường Bùi Hữu Nghĩa, Quận Bình Thuỷ, Thành Phố Cần Thơ",Cần Thơ,,"Bình Thủy, Cần Thơ",VN
818,ChIJj-b-dZ9loDER6-xEr8nRpCU,Công Ty TNHH MTV nông sản TRẦN QUÝ,Chợ nông sản,+84 918 033 554,"Công Ty TNHH MTV nông sản TRẦN QUÝ, QL54, Vĩnh Long, Tam Bình, Vĩnh Long, Việt Nam","Vĩnh Long, Tam Bình",QL54,Vĩnh Long,,"Tam Bình, Vĩnh Long",VN
819,ChIJicwjmSGIoDERdMoOKH1buV8,Công Ty Tnhh Một Thành Viên Chế Biến Nông Sản Tiến Thịnh,,,"Công Ty Tnhh Một Thành Viên Chế Biến Nông Sản Tiến Thịnh, Số 117 Đ. Nguyễn Việt Hồng, An Lạc, Ninh Kiều, Cần Thơ, Việt Nam","An Lạc, Ninh Kiều",Số 117 Đ. Nguyễn Việt Hồng,Cần Thơ,,"Ninh Kiều, Cần Thơ",VN
820,ChIJ49-uO6FioDERTHVc5sCRgc0,Công Ty TNHH Một Thành Viên Nông Súc Sản Xuất Nhập Khẩu Cần Thơ,,,"Công Ty TNHH Một Thành Viên Nông Súc Sản Xuất Nhập Khẩu Cần Thơ, 8 Đ. Ng. Hữu Hạnh, P, Ninh Kiều, Cần Thơ, Việt Nam","P, Ninh Kiều",8 Đ. Ng. Hữu Hạnh,Cần Thơ,,"Ninh Kiều, Cần Thơ",VN
821,ChIJx9YIjJSJoDERLmca-xImT5M,"TỔ CHỨC NHO KIỂM NGHIỆM THỰC PHẨM, NÔNG SẢN",Văn phòng công ty,,"2PHX+MQM TỔ CHỨC NHO KIỂM NGHIỆM THỰC PHẨM, NÔNG SẢN, Hẻm Tổ 10A, An Bình, Ninh Kiều, Cần Thơ, Việt Nam","An Bình, Ninh Kiều","2PHX+MQM, Hẻm Tổ 10A",Cần Thơ,,"Ninh Kiều, Cần Thơ",VN
822,ChIJPXKZ4DCJoDERIPrWdPTQ-Xw,Công Ty TNHH Nông Nghiệp Quốc Tế ECO,Dịch vụ nông nghiệp,+84 899 021 122,"Công Ty TNHH Nông Nghiệp Quốc Tế ECO, 30B23, Cần Thơ 94100, Việt Nam","Khu dân cư 91B, Ninh Kiều",30B23,Cần Thơ,94100.0,"Ninh Kiều, Cần Thơ",VN
823,ChIJ_WXaxyv1oDERfa9wMKjF0VI,Công Ty TNHH Sản Xuất Thương Mại Nông Sản Miền Tây Coba Farm,Cửa hàng tổng hợp,+84 917 234 009,"Công Ty TNHH Sản Xuất Thương Mại Nông Sản Miền Tây Coba Farm, 385 Ấp Trường Khánh 2, Long Thạnh, Phụng Hiệp, Hậu Giang, Việt Nam","Long Thạnh, Phụng Hiệp",385 Ấp Trường Khánh 2,Hậu Giang,,"Phụng Hiệp, Hậu Giang",VN
824,ChIJH_5_HsqJoDERNxrk-I6ElUI,"Tổ chức NHO kiểm nghiệm thực phẩm, nông sản",Văn phòng công ty,,"Tổ chức NHO kiểm nghiệm thực phẩm, nông sản, 151B Đ. Nguyễn Tri Phương, Phường An Khánh, Ninh Kiều, Cần Thơ, Việt Nam","Phường An Khánh, Ninh Kiều",151B Đ. Nguyễn Tri Phương,Cần Thơ,,"Ninh Kiều, Cần Thơ",VN
825,ChIJ0RVoOQSDoDER3jXk5737WGk,Cửa hàng buôn bán nông sản,Cửa hàng,,"6JFC+F36 Cửa hàng buôn bán nông sản, QL54, Vĩnh Thới, Lai Vung, Đồng Tháp, Việt Nam","Vĩnh Thới, Lai Vung","6JFC+F36, QL54",Đồng Tháp,,"Lai Vung, Đồng Tháp",VN
826,ChIJNVato2hioDER-8r8ZEIO1Gk,Công Ty TNHH Nông Nghiệp Mạnh Nông,Cửa hàng tổng hợp,+84 292 2237 979,"Công Ty TNHH Nông Nghiệp Mạnh Nông, Đ. Bùi Quang Trinh, Khu TĐC, Cái Răng, Cần Thơ, Việt Nam","Khu TĐC, Cái Răng",Đ. Bùi Quang Trinh,Cần Thơ,,"Cái Răng, Cần Thơ",VN
827,ChIJEQMoxeyJoDER1hG7yjPnyW0,CÔNG TY TNHH PHÁT TRIỂN NÔNG SẢN SẠCH CODOSA,Văn phòng công ty,+84 292 3668 868,"CÔNG TY TNHH PHÁT TRIỂN NÔNG SẢN SẠCH CODOSA, 14 Đ. Số 5B, Thường Thạnh, Cái Răng, Cần Thơ, Việt Nam","Thường Thạnh, Cái Răng",14 Đ. Số 5B,Cần Thơ,,"Cái Răng, Cần Thơ",VN
828,ChIJdc_QLlNhoDERZ_eK5xN3IyA,Nạo Dừa Thu Hà,Cửa hàng nông sản,,"WRC4+2RV Nạo Dừa Thu Hà, TT. Ngã Sáu, Châu Thành, Hậu Giang, Việt Nam","TT. Ngã Sáu, Châu Thành",WRC4+2RV,Hậu Giang,,"Châu Thành, Hậu Giang",VN
829,ChIJq7DJGDiJoDERI7OhGmV62Sw,VỰA BẮP QUANG KHẢI,Nhà bán buôn nông sản,+84 788 757 332,"VỰA BẮP QUANG KHẢI, 156/55c, Đoàn Thị Điểm, Cái Khế, Ninh Kiều, Cần Thơ, Việt Nam","Cái Khế, Ninh Kiều","156/55c, Đoàn Thị Điểm",Cần Thơ,,"Ninh Kiều, Cần Thơ",VN
830,ChIJMUcpjKFioDERb4cxvxsH8xU,Cửa Hàng Đặc Sản Vùng Miền,Cửa hàng bán thực phẩm sạch,+84 292 2238 555,"Cửa Hàng Đặc Sản Vùng Miền, 39 Đ. Ngô Quyền, Tân An, Ninh Kiều, Cần Thơ, Việt Nam","Tân An, Ninh Kiều",39 Đ. Ngô Quyền,Cần Thơ,,"Ninh Kiều, Cần Thơ",VN
831,ChIJD-lg8CJhoDERl931p-mKWlQ,Vựa trái cây Tấn Lộc,Cửa hàng nông sản,+84 368 220 200,"Vựa trái cây Tấn Lộc, Đường Hùng Vương, TT. Ngã Sáu, Châu Thành, Hậu Giang, Việt Nam","TT. Ngã Sáu, Châu Thành",Đường Hùng Vương,Hậu Giang,,"Châu Thành, Hậu Giang",VN
832,ChIJHQvI7UpjoDERnDKT3ee7Z8c,Khôi Betta Farm,Trại cá,+84 583 111 114,"Khôi Betta Farm, 79/3 Hẻm 79 Trần Phú, Cái Khế, Ninh Kiều, Cần Thơ 901000, Việt Nam","Cái Khế, Ninh Kiều",79/3 Hẻm 79 Trần Phú,Cần Thơ,901000.0,"Ninh Kiều, Cần Thơ",VN
833,ChIJYWDwnwuJoDER-rUUlMP8vbI,Cửa hàng Gạo Bích,Nhà bán buôn nông sản,+84 939 865 639,"Cửa hàng Gạo Bích, Phường An Khánh, Ninh Kiều, Cần Thơ, Việt Nam","Phường An Khánh, Ninh Kiều",,Cần Thơ,,"Ninh Kiều, Cần Thơ",VN
834,ChIJL5WmrCSIoDERg3Ya5ojh4fs,Trung Tâm Dịch Vụ Khoa Học Nông Nghiệp,Cửa hàng tổng hợp,+84 292 3733 467,"Trung Tâm Dịch Vụ Khoa Học Nông Nghiệp, Đường 3/2, Phường Xuân Khánh, Quận Ninh Kiều, Thành Phố Cần Thơ, Xuân Khánh, Ninh Kiều, Cần Thơ, Việt Nam","Xuân Khánh, Ninh Kiều","Đường 3/2, Phường Xuân Khánh, Quận Ninh Kiều, Thành Phố Cần Thơ",Cần Thơ,,"Ninh Kiều, Cần Thơ",VN
835,ChIJdWQGfrqJoDERrOnbpqhBnqo,Hợp Tác Xã Kinh Doanh Tổng Hợp Minh Cường,Nông nghiệp,+84 982 930 392,"Hợp Tác Xã Kinh Doanh Tổng Hợp Minh Cường, 34/1D, Khu Vực Yên Hòa, Phường Lê Bình, Quận Cái Răng, Lê Bình, Cái Răng, Cần Thơ, Việt Nam","Lê Bình, Cái Răng","34/1D, Khu Vực Yên Hòa, Phường Lê Bình, Quận Cái Răng",Cần Thơ,,"Cái Răng, Cần Thơ",VN
836,ChIJjfQJkRVjoDERdkrfMgniBEw,Cửa hàng đặc sản Việt Nam,Siêu thị,+84 292 3846 515,"Cửa hàng đặc sản Việt Nam, 135 Phan Đình Phùng, Tân An, Ninh Kiều, Cần Thơ 94000, Việt Nam","Tân An, Ninh Kiều",135 Phan Đình Phùng,Cần Thơ,94000.0,"Ninh Kiều, Cần Thơ",VN
837,ChIJ5dsgsmyPoDERajkiLCfHgKA,Vật Tư Nông Nghiệp Mười Sơn,Nhà cung cấp phân bón,+84 907 923 941,"Vật Tư Nông Nghiệp Mười Sơn, Ấp Trường Đông A, Tân Thới, Phong Điền, Cần Thơ, Việt Nam","Tân Thới, Phong Điền",Ấp Trường Đông A,Cần Thơ,,"Phong Điền, Cần Thơ",VN
838,ChIJUe5fKQBjoDERDkwObx7r-eo,Quán nhã coffee điểm tâm cơm phần cà phê vỏng,Quán cà phê,+84 939 058 009,"Quán nhã coffee điểm tâm cơm phần cà phê vỏng, D63 Đ. Số 7, khu dân cư nông thổ sản, Cái Răng, Cần Thơ, Việt Nam","khu dân cư nông thổ sản, Cái Răng",D63 Đ. Số 7,Cần Thơ,,"Cái Răng, Cần Thơ",VN
839,ChIJ0RAfN3pToDERshBV0TzVrt4,NÔNG SẢN,Cửa hàng,+84 383 550 295,"NÔNG SẢN, 174/2 Trần Hưng Đạo, khóm 2, Sóc Trăng, 950000, Việt Nam","khóm 2, Sóc Trăng",174/2 Trần Hưng Đạo,Sóc Trăng,950000.0,Sóc Trăng,VN
840,ChIJU7qOq4RioDERMMoNOLz6fHM,Công Ty TNHH MTV Nông Sản Mekong,Cửa hàng tổng hợp,+84 931 109 113,"Công Ty TNHH MTV Nông Sản Mekong, Tổ 48 Khu Vực 7, Hưng Phú, Cái Răng, Cần Thơ, Việt Nam","Hưng Phú, Cái Răng",Tổ 48 Khu Vực 7,Cần Thơ,,"Cái Răng, Cần Thơ",VN
841,ChIJY9XoOTWIoDERRb6jAPufn1s,Công Ty Tnhh Nông Sản Hồng Phương,,,"Công Ty Tnhh Nông Sản Hồng Phương, 3B Hẻm 553, Hưng Lợi, Ninh Kiều, Cần Thơ, Việt Nam","Hưng Lợi, Ninh Kiều",3B Hẻm 553,Cần Thơ,,"Ninh Kiều, Cần Thơ",VN
842,ChIJV8DJYjeIoDER6ggEvUD199M,Công Ty Tnhh Sản Xuất Chế Biến Nông Sản Vạn Tín Organics,,,"Công Ty Tnhh Sản Xuất Chế Biến Nông Sản Vạn Tín Organics, 17A Đ. Nguyễn Văn Linh, Phường An Khánh, Ninh Kiều, Cần Thơ, Việt Nam","Phường An Khánh, Ninh Kiều",17A Đ. Nguyễn Văn Linh,Cần Thơ,,"Ninh Kiều, Cần Thơ",VN
843,ChIJN9vr09yHoDERY8cOneI1sM0,Kho Nông Sản,Nhà kho,,"4P54+G3C Kho Nông Sản, Trà Nóc, Bình Thủy, Cần Thơ, Việt Nam","Trà Nóc, Bình Thủy",4P54+G3C,Cần Thơ,,"Bình Thủy, Cần Thơ",VN
844,ChIJ00JXlEGIoDERiGSkEoaUcNY,Công Ty TNHH Thương Mại Dịch Vụ Nfarm,Cửa hàng vật liệu xây dựng,+84 988 447 669,"2QJ3+XJ7 Công Ty TNHH Thương Mại Dịch Vụ Nfarm, Đ. Nguyễn Văn Cừ, Khu Vực 6, Ninh Kiều, Cần Thơ, Việt Nam","Khu Vực 6, Ninh Kiều","2QJ3+XJ7, Đ. Nguyễn Văn Cừ",Cần Thơ,,"Ninh Kiều, Cần Thơ",VN
845,ChIJMyqFn7OHoDERZGY5HSP2AEU,Mỹ Vy,Cửa hàng nông sản,+84 931 117 622,,,,,,,
846,ChIJB3omTo2JoDERWBa78VBgDbA,Cửa hàng An Phú,Cửa hàng thức ăn gia súc,,"Cửa hàng An Phú, 202 Tầm Vu, Hưng Lợi, Ninh Kiều, Cần Thơ, Việt Nam","Hưng Lợi, Ninh Kiều",202 Tầm Vu,Cần Thơ,,"Ninh Kiều, Cần Thơ",VN
879,ChIJGfhJIVdloDERY_GIFisPZro,Thu Yến Baby,Cửa hàng nông sản,+84 898 088 268,"Thu Yến Baby, 35A khu 6, Vĩnh Long, Trà Ôn, Vĩnh Long, Việt Nam","Vĩnh Long, Trà Ôn",35A khu 6,Vĩnh Long,,"Trà Ôn, Vĩnh Long",VN
885,ChIJm2vllqBioDER6y7xrqyqxjE,Cửa Hàng Vật Tư Nông Nghiệp A Hiếu,Nông nghiệp,+84 292 6274 279,"Cửa Hàng Vật Tư Nông Nghiệp A Hiếu, 15/6, Đường Ngô Quyền, Quận Cái Răng, Tân An, Ninh Kiều, Cần Thơ, Việt Nam","Tân An, Ninh Kiều","15/6, Đường Ngô Quyền, Quận Cái Răng",Cần Thơ,,"Ninh Kiều, Cần Thơ",VN
896,ChIJqROh_11ioDERfm5AF5bySjQ,Công Ty Cổ Phần Thủy Sản Nam Bộ,Công ty xuất nhập khẩu,+84 292 3781 366,"Công Ty Cổ Phần Thủy Sản Nam Bộ, M20, Đường Số 44A, Phường Phú Thứ, Quận Cái Răng, Phú Thứ, Cái Răng, Cần Thơ, Việt Nam","Phú Thứ, Cái Răng","M20, Đường Số 44A, Phường Phú Thứ, Quận Cái Răng",Cần Thơ,,"Cái Răng, Cần Thơ",VN
897,ChIJ2c5ZlzqIoDER8-Re4IU3_BI,Công Ty TNHH Sản Xuất Thương Mại Dịch Vụ Xuất Nhập Khẩu TTC,Cửa hàng vật liệu xây dựng,+84 794 899 898,"Công Ty TNHH Sản Xuất Thương Mại Dịch Vụ Xuất Nhập Khẩu TTC, 33 Đ. Quản Trọng Hoàng, Xuân Khánh, Ninh Kiều, Cần Thơ, Việt Nam","Xuân Khánh, Ninh Kiều",33 Đ. Quản Trọng Hoàng,Cần Thơ,,"Ninh Kiều, Cần Thơ",VN
898,ChIJLesoSz1joDER6cImbeN-WQ8,cafe cu kháng,Quán cà phê,,"cafe cu kháng, KDC Nông Thổ Sản - KV, L36, Thành Lợi, Cái Răng, Cần Thơ, Việt Nam","Thành Lợi, Cái Răng","KDC Nông Thổ Sản - KV, L36",Cần Thơ,,"Cái Răng, Cần Thơ",VN
899,ChIJ12xGevWGoDERT4uV2F6e-gE,Công Ty Cp Nông Dược Deltadibapes - Tanafood,Hiệu thuốc,,"Công Ty Cp Nông Dược Deltadibapes - Tanafood, 30 Trục Chính, Trà Nóc, Bình Thủy, Cần Thơ, Việt Nam","Trà Nóc, Bình Thủy",30 Trục Chính,Cần Thơ,,"Bình Thủy, Cần Thơ",VN
900,ChIJ_____0thoDERNW3TyrGLuDA,Công Ty Cổ Phần Agri Lab,Cửa hàng tổng hợp,+84 896 686 911,"WVWC+R3R Công Ty Cổ Phần Agri Lab, Cụm CN, Phú Hữu A, Châu Thành, Hậu Giang, Việt Nam","Phú Hữu A, Châu Thành","WVWC+R3R, Cụm CN",Hậu Giang,,"Châu Thành, Hậu Giang",VN
901,ChIJvQEA7pRjoDER9BdYV9z0pac,Xưởng sản xuất phân bón Đôi Trâu Vàng,Nhà cung cấp phân bón,+84 939 330 106,"Xưởng sản xuất phân bón Đôi Trâu Vàng, 25 Đ. Đề Thám, Tân An, Ninh Kiều, Cần Thơ, Việt Nam","Tân An, Ninh Kiều",25 Đ. Đề Thám,Cần Thơ,,"Ninh Kiều, Cần Thơ",VN
902,ChIJ8fMlCRyIoDEROUiEv3QbStA,CANTHO AGRICULTURAL PRODUCTS AND FOODSTUFF EXPORT JOINT STOCK COMPANY,,+84 292 3835 543,"CANTHO AGRICULTURAL PRODUCTS AND FOODSTUFF EXPORT JOINT STOCK COMPANY, 154 Đ. Trần Hưng Đạo, Street, Ninh Kiều, Cần Thơ, Việt Nam","Street, Ninh Kiều",154 Đ. Trần Hưng Đạo,Cần Thơ,,"Ninh Kiều, Cần Thơ",VN
956,ChIJb7CJ165ioDER-W80NlNgWyA,Cửa Hàng Hạt Giống Hằng,Nông nghiệp,+84 292 3611 414,"Cửa Hàng Hạt Giống Hằng, 42, Đường Lê Lợi, Phường Thốt Nốt, Quận Thốt Nốt, Cái Khế, Ninh Kiều, Cần Thơ, Việt Nam","Cái Khế, Ninh Kiều","42, Đường Lê Lợi, Phường Thốt Nốt, Quận Thốt Nốt",Cần Thơ,,"Ninh Kiều, Cần Thơ",VN
959,ChIJu5o9QhdloDER61g-Gl6sMKg,Đại lý thức ăn gia súc Nguyễn Văn Hải,Cửa hàng thức ăn gia súc,,"2W76+JH7 Đại lý thức ăn gia súc Nguyễn Văn Hải, ĐH 45, Ngãi Tứ, Tam Bình, Vĩnh Long, Việt Nam","Ngãi Tứ, Tam Bình","2W76+JH7, ĐH 45",Vĩnh Long,,"Tam Bình, Vĩnh Long",VN
1120,ChIJLdkifcSJoDERosjA9r0vtKM,Vựa Trái Cây Thuỷ Tiên Cần Thơ,Cửa hàng bán buôn trái cây,+84 939 677 689,"Vựa Trái Cây Thuỷ Tiên Cần Thơ, 390f7 Đ. Trần Nam Phú, Phường An Khánh, Ninh Kiều, Cần Thơ, Việt Nam","Phường An Khánh, Ninh Kiều",390f7 Đ. Trần Nam Phú,Cần Thơ,,"Ninh Kiều, Cần Thơ",VN
1123,ChIJabGsbGyIoDERDn-jddybVYI,Công Ty Tnhh Sản Xuất Thương Mại Xuất Nhập Khẩu Hợp Nông,,,"Công Ty Tnhh Sản Xuất Thương Mại Xuất Nhập Khẩu Hợp Nông, Số 5 Đường số 15, Phường An Khánh, Ninh Kiều, Cần Thơ, Việt Nam","Phường An Khánh, Ninh Kiều",Số 5 Đường số 15,Cần Thơ,,"Ninh Kiều, Cần Thơ",VN
1130,ChIJLyIGChaIoDERCEi3brubVHY,Công Ty Trách Nhiệm Hữu Hạn Phước Quí,Nông nghiệp,+84 918 714 790,"Công Ty Trách Nhiệm Hữu Hạn Phước Quí, 131/5, Khu Vực 2, Phường An Khánh, Quận Ninh Kiều, Xuân Khánh, Ninh Kiều, Cần Thơ, Việt Nam","Xuân Khánh, Ninh Kiều","131/5, Khu Vực 2, Phường An Khánh, Quận Ninh Kiều",Cần Thơ,,"Ninh Kiều, Cần Thơ",VN
1132,ChIJUS9BuDyFoDERmd8dY_8Wbp8,Nhà máy xay lúa,Cửa hàng thức ăn gia súc,,"Nhà máy xay lúa, Kế 42 Rạch Xẻo Khế, Trường Lạc, Ô Môn, Cần Thơ, Việt Nam","Trường Lạc, Ô Môn",Kế 42 Rạch Xẻo Khế,Cần Thơ,,"Ô Môn, Cần Thơ",VN
1133,ChIJR8uPX15ioDERHCbyd_Q4fdw,Camera Giá rẻ,Cửa hàng bán đồ điện tử,+84 975 329 678,"Camera Giá rẻ, cửa sau oto Ford KDC Nông Thổ Sản(séo BV, Cuối Đ. Số 03, Hoàn Mỹ, Cái Răng, Cần Thơ, Việt Nam","Hoàn Mỹ, Cái Răng","cửa sau oto Ford KDC Nông Thổ Sản(séo BV, Cuối Đ. Số 03",Cần Thơ,,"Cái Răng, Cần Thơ",VN
1134,ChIJQWaS6WRioDERbqHooD5E1qA,Công Ty TNHH MTV Thực Phẩm Năm Mục Tiêu Cn Cần Thơ,Cửa hàng bán thực phẩm sạch,+84 292 3943 585,"2Q3W+74P Công Ty TNHH MTV Thực Phẩm Năm Mục Tiêu Cn Cần Thơ, Đường 4, Khu dân cư Vạn Phong, Cái Răng, Cần Thơ, Việt Nam","Khu dân cư Vạn Phong, Cái Răng","2Q3W+74P, Đường 4",Cần Thơ,,"Cái Răng, Cần Thơ",VN
1208,ChIJhy9CENGJoDEREMtsTPN6QhI,Thuốc thủy sản cho tôm - KHA,Dịch vụ nông nghiệp,+84 888 483 087,"Thuốc thủy sản cho tôm - KHA, Trần Vĩnh Khiết Cần Thơ Can Tho City, 900000, Việt Nam","Phường An Khánh, Ninh Kiều",Trần Vĩnh Khiết Cần Thơ Can Tho City,Cần Thơ,900000.0,"Ninh Kiều, Cần Thơ",VN
1229,ChIJTyZTLlGIoDERrQAgMrHpFpU,Vựa Chanh Thủy Hậu,,,"2PCR+5JV Vựa Chanh Thủy Hậu, Nguyễn Văn Cừ Nối Dài, An Bình, Ninh Kiều, Cần Thơ, Việt Nam","An Bình, Ninh Kiều","2PCR+5JV, Nguyễn Văn Cừ Nối Dài",Cần Thơ,,"Ninh Kiều, Cần Thơ",VN
1245,ChIJX3mATamPoDERGtV_Ac-7dmk,Vựa sỉ Nông sản Phong Điền,Cửa hàng bán buôn trái cây,,"XMX7+JJ6 Vựa sỉ Nông sản Phong Điền, Đường Chiêm Thành Tấn, Thị trấn Phong Điền, Phong Điền, Cần Thơ, Việt Nam","Thị trấn Phong Điền, Phong Điền","XMX7+JJ6, Đường Chiêm Thành Tấn",Cần Thơ,,"Phong Điền, Cần Thơ",VN
1248,ChIJq3kOk2-DoDERHwBDuSPh-zE,Công ty TNHH Garden Pham,Cửa hàng nông sản,,"Công ty TNHH Garden Pham, 11/166 KV Thới Xương 1, P. Thới Long, Q, Ô Môn, Cần Thơ 900000, Việt Nam","Phường Thới Long, Ô Môn","11/166 KV Thới Xương 1, P. Thới Long, Q",Cần Thơ,900000.0,"Ô Môn, Cần Thơ",VN
1249,ChIJ8WeLUqeJoDERXXWt-R706Xs,TIỆM GẠO NGỌC DUNG,Tổ chức nông nghiệp,,"TIỆM GẠO NGỌC DUNG, 694/47/39 Hẻm 1, KV3, Ninh Kiều, Cần Thơ 94118, Việt Nam","KV3, Ninh Kiều",694/47/39 Hẻm 1,Cần Thơ,94118.0,"Ninh Kiều, Cần Thơ",VN
1250,ChIJ4cse1pKIoDERIWrkcH-FhHc,Doanh Nghiệp Tư Nhân Trung Bảo,Cửa hàng hoa,+84 775 117 510,"Doanh Nghiệp Tư Nhân Trung Bảo, 44/28, Khu Vực Bình Dương A, Phường Long Tuyền, Quận Bình Thủy, Long Tuyền, Bình Thủy, Cần Thơ, Việt Nam","Long Tuyền, Bình Thủy","44/28, Khu Vực Bình Dương A, Phường Long Tuyền, Quận Bình Thủy",Cần Thơ,,"Bình Thủy, Cần Thơ",VN
1267,ChIJ24SO7AuJoDERDkfUVzSDnuM,DNTN Thủy Sản Tấn Phát,Nông nghiệp,+84 292 3819 283,"DNTN Thủy Sản Tấn Phát, 487 Lộ Vòng Cung, Huyện Phong Điền, An Bình, Ninh Kiều, Cần Thơ, Việt Nam","An Bình, Ninh Kiều","487 Lộ Vòng Cung, Huyện Phong Điền",Cần Thơ,,"Ninh Kiều, Cần Thơ",VN
1283,ChIJ-VAbSdOHoDERoNZo2j9QxWQ,NHÀ NGỌC DIỄM,Cửa hàng nông sản,+84 939 444 358,,,,,,,
1289,ChIJlecq_G-RoDERfhTz9s2otMM,Anh Duy,Cửa hàng nông sản,+84 766 878 797,"Anh Duy, Số 034 Ấp Trường Hưng, Trường Long A, Châu Thành A, Hậu Giang 912698, Việt Nam","Trường Long A, Châu Thành A",Số 034 Ấp Trường Hưng,Hậu Giang,912698.0,"Châu Thành A, Hậu Giang",VN
1295,ChIJa9u_TV2RoDERQ64mSJbE34g,Vườn Dưa Lưới TaTraFarms,Cửa hàng nông sản,+84 939 739 357,"Vườn Dưa Lưới TaTraFarms, TT. Thới Lai, Thới Lai, Cần Thơ, Việt Nam","TT. Thới Lai, Thới Lai",,Cần Thơ,,"Thới Lai, Cần Thơ",VN
1300,ChIJB69Mr92LoDER6yARm0Df-Pc,Ch gạo & Thức ăn chăn nuôi 68,Cửa hàng thức ăn gia súc,,"WQ9F+P85 Ch gạo & Thức ăn chăn nuôi 68, Ấp Phước Long, Châu Thành, Hậu Giang, Việt Nam","Ấp Phước Long, Châu Thành",WQ9F+P85,Hậu Giang,,"Châu Thành, Hậu Giang",VN
1301,ChIJGXzgLR2PoDERaINj0OgwEnM,Cơ Sở Xay Lúa Võ Thị Rở,Cửa hàng bán thực phẩm sạch,+84 765 347 114,"2M93+P84 Cơ Sở Xay Lúa Võ Thị Rở, Ấp Tân Long, Phong Điền, Cần Thơ, Việt Nam","Ấp Tân Long, Phong Điền",2M93+P84,Cần Thơ,,"Phong Điền, Cần Thơ",VN
1303,ChIJE-fEq4aJoDERcqJsm7r3pFI,Công Ty TNHH MTV TM VTNN Quốc Thắng,Cửa hàng tổng hợp,+84 292 3911 314,"Công Ty TNHH MTV TM VTNN Quốc Thắng, 108 QL1A, Ba Láng, Cái Răng, Cần Thơ, Việt Nam","Ba Láng, Cái Răng",108 QL1A,Cần Thơ,,"Cái Răng, Cần Thơ",VN
1309,ChIJsZMuBr2PoDERizufR1kSf1U,Khu Rau Quả Thực Phẩm,Chợ nông sản,,"XMW9+RH7 Khu Rau Quả Thực Phẩm, Chợ Phong Điền, Nhơn ái, Phong Điền, Cần Thơ, Việt Nam","Nhơn ái, Phong Điền","XMW9+RH7, Chợ Phong Điền",Cần Thơ,,"Phong Điền, Cần Thơ",VN
1340,ChIJZ1go0piJoDERGjx1x_HLj9g,Trái cây Nhơn Quyền,Trang trại,,"Trái cây Nhơn Quyền, 8 Đường Số 6, An Bình, Ninh Kiều, Cần Thơ, Việt Nam","An Bình, Ninh Kiều",8 Đường Số 6,Cần Thơ,,"Ninh Kiều, Cần Thơ",VN
1348,ChIJL6PFSLuJoDERQ1cxgWwImKA,Vựa Rau Quả Đà Lạt Mỹ Tuyết,Nhà hàng,+84 911 594 868,"XPWW+XX8 Vựa Rau Quả Đà Lạt Mỹ Tuyết, Khu Vực Yên Thượng, Nguyễn Việt Dũng, Phường Lê Bình, Quận Cái Răng, Thành Phố Cần Thơ, Lê Bình, Cái Răng, Cần Thơ, Việt Nam","Lê Bình, Cái Răng","XPWW+XX8, Khu Vực Yên Thượng, Nguyễn Việt Dũng, Phường Lê Bình, Quận Cái Răng, Thành Phố Cần Thơ",Cần Thơ,,"Cái Răng, Cần Thơ",VN
1350,ChIJ1Vz5v1WJoDERF_ZWrMPFhWI,Cong ty TNHH thuốc BVTV Agri Vin,Nhà bán buôn nông sản,+84 974 282 729,"Cong ty TNHH thuốc BVTV Agri Vin, 16B Đ. Trương Vĩnh Nguyên, Thường Thạnh, Cái Răng, Cần Thơ, Việt Nam","Thường Thạnh, Cái Răng",16B Đ. Trương Vĩnh Nguyên,Cần Thơ,,"Cái Răng, Cần Thơ",VN
1358,ChIJ99qbWDuJoDERDkbBuYsi2hk,Cây xăng Hoàng Yến 26,Trạm xăng,,"Cây xăng Hoàng Yến 26, 109 Lộ Vòng Cung, An Bình, Phong Điền, Cần Thơ, Việt Nam","An Bình, Phong Điền",109 Lộ Vòng Cung,Cần Thơ,,"Phong Điền, Cần Thơ",VN
1411,ChIJKxe2OLKJoDERinEPOLYRbog,Đại Lý Gạo Tấm Cám Bé Tư,Nông nghiệp,+84 292 3847 880,"Đại Lý Gạo Tấm Cám Bé Tư, 166/5, Đường Lộ Vòng Cung, Quận Ninh Kiều, An Bình, Ninh Kiều, Cần Thơ, Việt Nam","An Bình, Ninh Kiều","166/5, Đường Lộ Vòng Cung, Quận Ninh Kiều",Cần Thơ,,"Ninh Kiều, Cần Thơ",VN
1467,ChIJk53jETeIoDER1_g0vdzsnlg,Công Ty Cổ Phần Sản Xuất Thương Mại Dịch Vụ Ngọc Tùng,,,"Công Ty Cổ Phần Sản Xuất Thương Mại Dịch Vụ Ngọc Tùng, 213A Đ. 3 Tháng 2, Hưng Lợi, Ninh Kiều, Cần Thơ, Việt Nam","Hưng Lợi, Ninh Kiều",213A Đ. 3 Tháng 2,Cần Thơ,,"Ninh Kiều, Cần Thơ",VN
1574,ChIJJ5DKWSWIoDERb23m7m6znuI,Công Ty Cho Thuê Tài Chính Nông Nghiệp 2,Công ty kinh doanh bất động sản,+84 292 3738 461,"Công Ty Cho Thuê Tài Chính Nông Nghiệp 2, 5/5, Đường 30/4, Quận Ninh Kiều, Xuân Khánh, Ninh Kiều, Cần Thơ, Việt Nam","Xuân Khánh, Ninh Kiều","5/5, Đường 30/4, Quận Ninh Kiều",Cần Thơ,,"Ninh Kiều, Cần Thơ",VN
1588,ChIJ5-WPkL9LzUURdvMREnmZSM8,Côba Farm,Trang trại hữu cơ,+84 901 031 688,,,,,,,
1647,ChIJNSmA0aFioDERF4H9bY3dXaI,Công Ty Trách Nhiệm Hữu Hạn Một Thành Viên Vinasun,Nông nghiệp,+84 939 178 989,"Công Ty Trách Nhiệm Hữu Hạn Một Thành Viên Vinasun, 42 B1, Đường Cao Bá Quát, Phường An Lạc, Quận Ninh Kiều, Tân An, Ninh Kiều, Cần Thơ, Việt Nam","Tân An, Ninh Kiều","42 B1, Đường Cao Bá Quát, Phường An Lạc, Quận Ninh Kiều",Cần Thơ,,"Ninh Kiều, Cần Thơ",VN
