,place_id,name,main_category,phone,address,address_ward,address_street,address_city,address_postal_code,address_state,address_country_code
0,ChIJyz6t3VSIoDERjqwHFLmjOV0,Bệnh viện Đa khoa Quốc Tế S.I.S Cần Thơ,Bệnh viện,1800 1115,"Bệnh viện Đa khoa Quốc Tế S.I.S Cần Thơ, 397 Nguyễn Văn Cừ Nối Dài, An Bình, Ninh Kiều, Cần Thơ 94000","An Bình, Ninh Kiều",397 Nguyễn Văn Cừ Nối Dài,Cần Thơ,94000.0,"Ninh Kiều, Cần Thơ",VN
1,ChIJcWhkftwudTERTe98-YB-pNY,Phòng khám Bệnh viện Đại học Y Dược 1,Phòng khám,1900 6923,"Phòng khám Bệnh viện Đại học Y Dược 1, 20-22 Đ. Dương Quang Trung, Phường 12, Quận 10, Thành phố Hồ Chí Minh 700000","Phường 12, Quận 10",20-22 Đ. Dương Quang Trung,Thành phố Hồ Chí Minh,700000.0,"Quận 10, Thành phố Hồ Chí Minh",VN
2,ChIJSYjU3S8vdTERgAm9pBDVe6w,Phòng khám Đa khoa Loukas,Phòng khám,0936 477 799,"Phòng khám Đa khoa Loukas, 269 Đ. Điện Biên Phủ, Võ Thị Sáu, Quận 3, Thành phố Hồ Chí Minh 72400","Võ Thị Sáu, Quận 3",269 Đ. Điện Biên Phủ,Thành phố Hồ Chí Minh,72400.0,"Quận 3, Thành phố Hồ Chí Minh",VN
4,ChIJST4Qd0CJoDERX4kkc3h4STQ,Phòng Khám Da Liễu FOB,Phòng khám,0292 3831 414,"Phòng Khám Da Liễu FOB, 14/14 Lý Tự Trọng Phường An Cư, Quận Ninh Kiều Thành phố Cần Thơ Can Tho City","Tân An, Ninh Kiều","14/14 Lý Tự Trọng Phường An Cư, Quận Ninh Kiều Thành phố Cần Thơ Can Tho City",Cần Thơ,,"Ninh Kiều, Cần Thơ",VN
7,ChIJX_PKvqSJoDER0TN5cHCu73s,Phòng Khám Đa Khoa Đại Đức,Phòng khám,0292 3690 555,"Phòng Khám Đa Khoa Đại Đức, 128 Đ. 3 Tháng 2, P, Ninh Kiều, Cần Thơ 900000","P, Ninh Kiều",128 Đ. 3 Tháng 2,Cần Thơ,900000.0,"Ninh Kiều, Cần Thơ",VN
8,ChIJtzoM594rdTERtlzsT167GNc,Phòng Khám Đa Khoa Thành Công,Phòng khám,028 3815 9435,"Phòng Khám Đa Khoa Thành Công, 36 ĐƯỜNG CN 4, Tây Thạnh, Tân Phú, Thành phố Hồ Chí Minh 700000","Tây Thạnh, Tân Phú",36 ĐƯỜNG CN 4,Thành phố Hồ Chí Minh,700000.0,"Tân Phú, Thành phố Hồ Chí Minh",VN
9,ChIJx3tPjX-JoDERgoAwLlwz2TI,Răng Hàm Mặt Sài Gòn - Cần Thơ 1,Phòng khám nha khoa,028 7301 7103,"Răng Hàm Mặt Sài Gòn - Cần Thơ 1, 46 Võ Văn Kiệt, An Hoà, Ninh Kiều, Cần Thơ 901150","An Hoà, Ninh Kiều",46 Võ Văn Kiệt,Cần Thơ,901150.0,"Ninh Kiều, Cần Thơ",VN
10,ChIJVeQEBx8vdTER-rZjbUfspgM,Phòng Khám Đa Khoa Sài Gòn (Cơ Sở 2),Phòng khám,028 3830 6677,"Phòng Khám Đa Khoa Sài Gòn (Cơ Sở 2), 134 Đ. Lý Thái Tổ, Phường 2, Quận 3, Thành phố Hồ Chí Minh","Phường 2, Quận 3",134 Đ. Lý Thái Tổ,Thành phố Hồ Chí Minh,,"Quận 3, Thành phố Hồ Chí Minh",VN
11,ChIJI8Kc-wWIoDERb4HRTHcHaIU,Nha Khoa Sài Gòn - BS LÂM,Phòng khám nha khoa,0292 3899 104,"Nha Khoa Sài Gòn - BS LÂM, 251 Đ. Nguyễn Văn Cừ, An Hoà, Ninh Kiều, Cần Thơ","An Hoà, Ninh Kiều",251 Đ. Nguyễn Văn Cừ,Cần Thơ,,"Ninh Kiều, Cần Thơ",VN
12,ChIJa99j2P0odTEROWh1VSAf7zM,Phòng Khám Đa Khoa Trần Diệp Khanh,Phòng khám,028 3989 7608,"Phòng Khám Đa Khoa Trần Diệp Khanh, 41/21 Nguyễn Oanh, Phường 10, Gò Vấp, Thành phố Hồ Chí Minh 700000","Phường 10, Gò Vấp",41/21 Nguyễn Oanh,Thành phố Hồ Chí Minh,700000.0,"Gò Vấp, Thành phố Hồ Chí Minh",VN
13,ChIJGSvosO4udTERCguYiqsImVM,Phòng Khám Đa Khoa Đại Phước,Phòng khám,1900 599941,"Phòng Khám Đa Khoa Đại Phước, 829A 831 Đ. 3 Tháng 2, Phường 7, Quận 11, Thành phố Hồ Chí Minh","Phường 7, Quận 11",829A 831 Đ. 3 Tháng 2,Thành phố Hồ Chí Minh,,"Quận 11, Thành phố Hồ Chí Minh",VN
14,ChIJWzhColqIoDERhCOCa-94VAs,Phòng khám TS. BS. La Văn Phú,Phòng khám,0913 136 189,"Phòng khám TS. BS. La Văn Phú, 215 Nguyễn Văn Cừ Nối Dài, An Bình, Ninh Kiều, Cần Thơ","An Bình, Ninh Kiều",215 Nguyễn Văn Cừ Nối Dài,Cần Thơ,,"Ninh Kiều, Cần Thơ",VN
16,ChIJGzHAKwOIoDERwmNG7wRvoE0,Đa Khoa Gia Phước,Phòng khám,0966 332 352,"Đa Khoa Gia Phước, 57 Hùng Vương, An Hội, Ninh Kiều, Cần Thơ 901354","An Hội, Ninh Kiều",57 Hùng Vương,Cần Thơ,901354.0,"Ninh Kiều, Cần Thơ",VN
17,ChIJ0bN1uJMvdTERhQb89oHGaCM,Phòng Khám Đa Khoa Quốc Tế Sài Gòn - Quận 7,Trung tâm y tế,028 3821 3456,"Phòng Khám Đa Khoa Quốc Tế Sài Gòn - Quận 7, 441 Lê Văn Lương, Tân Phong, Quận 7, Thành phố Hồ Chí Minh 700000","Tân Phong, Quận 7",441 Lê Văn Lương,Thành phố Hồ Chí Minh,700000.0,"Quận 7, Thành phố Hồ Chí Minh",VN
18,ChIJ-ZxeBg4ndTERE9V_ZHF4X_w,Phòng Khám Đa Khoa NHÂN VIỆT,Phòng khám,028 6280 8656,"Phòng Khám Đa Khoa NHÂN VIỆT, 189 Lê Văn Việt, Hiệp Phú, Quận 9, Thành phố Hồ Chí Minh","Hiệp Phú, Quận 9",189 Lê Văn Việt,Thành phố Hồ Chí Minh,,"Quận 9, Thành phố Hồ Chí Minh",VN
19,ChIJjX6e5aSJoDERDqqrvsZEyrM,PHÒNG KHÁM CHUYÊN KHOA UNG BƯỚU - BSCKI. NGÔ MINH TRÍ,Phòng khám,0933 619 961,"PHÒNG KHÁM CHUYÊN KHOA UNG BƯỚU - BSCKI. NGÔ MINH TRÍ, 306T KDC Hàng Bàng, Phường An Khánh, Ninh Kiều, Cần Thơ 94117","Phường An Khánh, Ninh Kiều",306T KDC Hàng Bàng,Cần Thơ,94117.0,"Ninh Kiều, Cần Thơ",VN
20,ChIJq_kReWKJoDERxfiXKFzy0XU,Phòng khám Đa khoa MEDLATEC Cần Thơ,Trung tâm y tế,0963 112 636,"Phòng khám Đa khoa MEDLATEC Cần Thơ, 598 Hẻm 553, Hưng Lợi, Ninh Kiều, Cần Thơ 90000","Hưng Lợi, Ninh Kiều",598 Hẻm 553,Cần Thơ,90000.0,"Ninh Kiều, Cần Thơ",VN
22,ChIJhT-IRPyJoDERmtltttUmVQw,Phòng Khám Nhi - Sơ Sinh (BSCK1 Thạch Thị Ngọc Yến),Bác sĩ,0834 026 226,"Phòng Khám Nhi - Sơ Sinh (BSCK1 Thạch Thị Ngọc Yến), 99 Ngô Thì Nhậm, Phường An Khánh, Ninh Kiều, Cần Thơ 900000","Phường An Khánh, Ninh Kiều",99 Ngô Thì Nhậm,Cần Thơ,900000.0,"Ninh Kiều, Cần Thơ",VN
23,ChIJ0wO_8VCIoDERz0eOV4BccUk,Phòng khám BS Đoàn Anh Vũ-Khám Bệnh Trĩ Tiêu Hoá Gan Mật,Phòng khám,0986 484 098,"Phòng khám BS Đoàn Anh Vũ-Khám Bệnh Trĩ Tiêu Hoá Gan Mật, 351AA Nguyễn Văn Cừ Nối Dài, An Bình, Ninh Kiều, Cần Thơ","An Bình, Ninh Kiều",351AA Nguyễn Văn Cừ Nối Dài,Cần Thơ,,"Ninh Kiều, Cần Thơ",VN
25,ChIJk7KkEkWJoDERU1WlOfW7ZWw,Phòng Khám Tâm Lý Cần Thơ,Bác sĩ tâm thần học,0707 959 979,"Phòng Khám Tâm Lý Cần Thơ, 22 Đường Đ.Xuân Thủy, An Bình, Ninh Kiều, Cần Thơ 900000","An Bình, Ninh Kiều",22 Đường Đ.Xuân Thủy,Cần Thơ,900000.0,"Ninh Kiều, Cần Thơ",VN
27,ChIJDUHiT4IrCzER9YLUHk4bIio,Phòng khám đa khoa Thiên Ý,Phòng khám,028 3792 4556,"Phòng khám đa khoa Thiên Ý, 703 QL22, TT. Củ Chi, Củ Chi, Thành phố Hồ Chí Minh","TT. Củ Chi, Củ Chi",703 QL22,Thành phố Hồ Chí Minh,,"Củ Chi, Thành phố Hồ Chí Minh",VN
28,ChIJs8ykZ1CIoDER_ule6P1W-oc,Phòng Khám Vật Lý Trị Liệu Đức Hoà,Bệnh viện,0941 536 565,"Phòng Khám Vật Lý Trị Liệu Đức Hoà, 290 Đ. Tú Xương, An Bình, Ninh Kiều, Cần Thơ","An Bình, Ninh Kiều",290 Đ. Tú Xương,Cần Thơ,,"Ninh Kiều, Cần Thơ",VN
29,ChIJ_xWXQjiIoDER2SWWr5KuFsc,Phòng Khám Đa Khoa HOÀN HẢO,Phòng khám,0292 3783 414,"Phòng Khám Đa Khoa HOÀN HẢO, 307C Nguyen Van Linh Can Tho Can Tho City, 900000","Phường An Khánh, Ninh Kiều",307C Nguyen Van Linh Can Tho Can Tho City,Cần Thơ,900000.0,"Ninh Kiều, Cần Thơ",VN
35,ChIJNVH30WaJoDERoz5FrDxC-W8,Vật Lý Trị Liệu Cần Thơ,Phòng khám vật lý trị liệu,0942 116 567,"Vật Lý Trị Liệu Cần Thơ, 82-84 Đ. Nguyễn Văn Cừ, An Bình, Ninh Kiều, Cần Thơ","An Bình, Ninh Kiều",82-84 Đ. Nguyễn Văn Cừ,Cần Thơ,,"Ninh Kiều, Cần Thơ",VN
36,ChIJ24N-CVWIoDERWriBbDcda14,Trung Tâm Phòng Chống HIV-AIDS TP. Cần Thơ,Trung tâm xét nghiệm HIV,0292 3830 676,"Trung Tâm Phòng Chống HIV-AIDS TP. Cần Thơ, 400 Nguyễn Văn Cừ Nối Dài, An Bình, Ninh Kiều, Cần Thơ","An Bình, Ninh Kiều",400 Nguyễn Văn Cừ Nối Dài,Cần Thơ,,"Ninh Kiều, Cần Thơ",VN
37,ChIJ49MC00aJoDERmQWGxunE5L4,Phòng khám chuyên khoa Da liễu K.B.N - Bác sĩ Uyên,Phòng khám,0369 000 983,"Phòng khám chuyên khoa Da liễu K.B.N - Bác sĩ Uyên, Đ. Số 20/72 NCĐT, KV4, Ninh Kiều, Cần Thơ","KV4, Ninh Kiều",Đ. Số 20/72 NCĐT,Cần Thơ,,"Ninh Kiều, Cần Thơ",VN
38,ChIJh21_pXOJoDERanDvw8L41PU,Phòng khám Chuyên Khoa Thẩm Mỹ Việt Đức,Thẩm mỹ viện,0907 909 093,"Phòng khám Chuyên Khoa Thẩm Mỹ Việt Đức, 287A Nguyễn Văn Cừ Nối Dài, An Bình, Ninh Kiều, Cần Thơ","An Bình, Ninh Kiều",287A Nguyễn Văn Cừ Nối Dài,Cần Thơ,,"Ninh Kiều, Cần Thơ",VN
39,ChIJ1_5HOWCJoDERz0nA1blFgFw,Trung tâm Chuẩn đoán Y Khoa Center Lab,Phòng khám chuyên khoa,0909 858 115,"Trung tâm Chuẩn đoán Y Khoa Center Lab, 181 Võ Văn Kiệt, Phường An Khánh, Bình Thủy, Cần Thơ 900000","Phường An Khánh, Bình Thủy",181 Võ Văn Kiệt,Cần Thơ,900000.0,"Bình Thủy, Cần Thơ",VN
40,ChIJT5lOR2qJoDERHeRkCEhBK8o,PHÒNG KHÁM TAI MŨI HỌNG Ths Bs TRẦN LONG GIANG,Phòng khám tai mũi họng,0906 203 781,"PHÒNG KHÁM TAI MŨI HỌNG Ths Bs TRẦN LONG GIANG, 58 Đ. Số 2, Khu Dân Cư Đại Ngân, Ninh Kiều, Cần Thơ 900000","Khu Dân Cư Đại Ngân, Ninh Kiều",58 Đ. Số 2,Cần Thơ,900000.0,"Ninh Kiều, Cần Thơ",VN
41,ChIJVdhPegwndTERuZBKLXOdRb8,Công Ty TNHH Phòng Khám Đa Khoa Thiên Phúc,Phòng khám,028 3730 9065,"Công Ty TNHH Phòng Khám Đa Khoa Thiên Phúc, 83 Lê Văn Việt, Hiệp Phú, Thủ Đức, Thành phố Hồ Chí Minh","Hiệp Phú, Thủ Đức",83 Lê Văn Việt,Thành phố Hồ Chí Minh,,"Thủ Đức, Thành phố Hồ Chí Minh",VN
42,ChIJ1cMTE6mJoDERD09Z7OlU0uo,Phòng Khám Sản Phụ Khoa Dr. Marie,Phòng khám phụ khoa,1900 558882,"Phòng Khám Sản Phụ Khoa Dr. Marie, 228I Đ. Trần Hưng Đạo, An Cư, Ninh Kiều, Cần Thơ","An Cư, Ninh Kiều",228I Đ. Trần Hưng Đạo,Cần Thơ,,"Ninh Kiều, Cần Thơ",VN
45,ChIJqVn9oTqIoDERv0zKFdnL8pk,"Phòng Khám Tư Nhân - TS.Bs Lê Huy Hòa-Bs Lê Thị Kim Dung - Phòng khám tiêu hóa , ung bướu uy tín Cần Thơ",Phòng khám,0292 3838 216,"Phòng Khám Tư Nhân - TS.Bs Lê Huy Hòa-Bs Lê Thị Kim Dung - Phòng khám tiêu hóa , ung bướu uy tín Cần Thơ, 49 Đ. Quản Trọng Hoàng, Xuân Khánh, Ninh Kiều, Cần Thơ","Xuân Khánh, Ninh Kiều",49 Đ. Quản Trọng Hoàng,Cần Thơ,,"Ninh Kiều, Cần Thơ",VN
50,ChIJFTYn8AKIoDERwKzyFtRvJxI,Phòng Khám Bệnh Tư Nhân - Bs Đàm Văn Cương,Phòng khám,0989 717 336,"Phòng Khám Bệnh Tư Nhân - Bs Đàm Văn Cương, 71D Trần Phú, Cái Khế, Ninh Kiều, Cần Thơ","Cái Khế, Ninh Kiều",71D Trần Phú,Cần Thơ,,"Ninh Kiều, Cần Thơ",VN
52,ChIJfQuZnNRjoDERjWkCHtrTLPo,Phòng khám chuyên khoa mắt chất lượng cao Ts BS Hoàng Quang Bình,Bác sĩ nhãn khoa,0908 951 747,"Phòng khám chuyên khoa mắt chất lượng cao Ts BS Hoàng Quang Bình, 7 Nguyễn Trãi, Tân An, Ninh Kiều, Cần Thơ","Tân An, Ninh Kiều",7 Nguyễn Trãi,Cần Thơ,,"Ninh Kiều, Cần Thơ",VN
56,ChIJ8UKBXs2JoDERLnkiR885RMQ,Phòng khám nha khoa XUÂN AN,Bác sĩ,0966 770 677,"Phòng khám nha khoa XUÂN AN, 62 Đ. Nguyễn Hiền, Khu dân cư 91B, Ninh Kiều, Cần Thơ","Khu dân cư 91B, Ninh Kiều",62 Đ. Nguyễn Hiền,Cần Thơ,,"Ninh Kiều, Cần Thơ",VN
57,ChIJYYM0L0ljoDERAfz-lt3i6ik,Phòng khám Vật lý trị liệu Đức Hòa 3,Phòng khám vật lý trị liệu,0292 2235 656,"Phòng khám Vật lý trị liệu Đức Hòa 3, 172 Trần Phú, Cái Khế, Ninh Kiều, Cần Thơ","Cái Khế, Ninh Kiều",172 Trần Phú,Cần Thơ,,"Ninh Kiều, Cần Thơ",VN
58,ChIJT_BQrCeJoDERqp8WTaXySsg,Phòng Khám Sản Phụ Khoa BS. CKII. Đỗ Thị Minh Nguyệt,Phòng khám phụ khoa,0918 550 292,"Phòng Khám Sản Phụ Khoa BS. CKII. Đỗ Thị Minh Nguyệt, 69/34 Đ. Cách Mạng Tháng 8, An Hoà, Ninh Kiều, Cần Thơ 94000","An Hoà, Ninh Kiều",69/34 Đ. Cách Mạng Tháng 8,Cần Thơ,94000.0,"Ninh Kiều, Cần Thơ",VN
65,ChIJWWDGzSmJoDERTabGWcLAt04,PHÒNG KHÁM CHUYÊN KHOA UNG BƯỚU - BSCKII TRẦN MINH KHỞI,Phòng khám,0918 447 197,"PHÒNG KHÁM CHUYÊN KHOA UNG BƯỚU - BSCKII TRẦN MINH KHỞI, 136c Đ. Phạm Ngũ Lão, Thới Bình, Ninh Kiều, Cần Thơ","Thới Bình, Ninh Kiều",136c Đ. Phạm Ngũ Lão,Cần Thơ,,"Ninh Kiều, Cần Thơ",VN
66,ChIJAb8Lv35joDERrYAm1-ex3Zk,Phòng khám Đa khoa Trọng Nghĩa (Dr. Nguyễn Văn Khoe),Phòng khám,+49 2923 825656,"Phòng khám Đa khoa Trọng Nghĩa (Dr. Nguyễn Văn Khoe), 156 Đường Nguyễn An Ninh, Tân An, Ninh Kiều, Cần Thơ","Tân An, Ninh Kiều",156 Đường Nguyễn An Ninh,Cần Thơ,,"Ninh Kiều, Cần Thơ",VN
67,ChIJXaOQceaJoDERnELgqa584Ns,PHÒNG KHÁM Y DƯỢC BÁCH PHƯƠNG CẦN THƠ,Phòng khám,0379 797 455,"PHÒNG KHÁM Y DƯỢC BÁCH PHƯƠNG CẦN THƠ, 112 Đ. Nguyễn Hiền, Khu dân cư 91B, Ninh Kiều, Cần Thơ","Khu dân cư 91B, Ninh Kiều",112 Đ. Nguyễn Hiền,Cần Thơ,,"Ninh Kiều, Cần Thơ",VN
72,ChIJ6Z0N0P0JoTERDD9nre51QC8,phòng khám chuyên khoa da liễu và thẩm mỹ Bác sĩ Phạm Đình Tụ - Là phòng khám chuyên khoa da liễu uy tín nhất do thầy thuốc ưu tú - bác sĩ chuyên khoa 1 Phạm Đình Tụ phụ trách,Phòng khám,0932 888 479,"phòng khám chuyên khoa da liễu và thẩm mỹ Bác sĩ Phạm Đình Tụ - Là phòng khám chuyên khoa da liễu uy tín nhất do thầy thuốc ưu tú - bác sĩ chuyên khoa 1 Phạm Đình Tụ phụ trách, 470 Đ. Nguyễn Văn Cừ, An Hoà, Ninh Kiều, Cần Thơ","An Hoà, Ninh Kiều",470 Đ. Nguyễn Văn Cừ,Cần Thơ,,"Ninh Kiều, Cần Thơ",VN
73,ChIJY6aIXJUJoTERxQ8BTDH_nEY,Phòng Khám Chuyên Khoa Nhi - Tiến Sĩ Bác Sĩ Lê Hoàng Sơn – Khám nhi uy tín tại Cần Thơ,Phòng khám,0913 973 808,"Phòng Khám Chuyên Khoa Nhi - Tiến Sĩ Bác Sĩ Lê Hoàng Sơn – Khám nhi uy tín tại Cần Thơ, 139 Đ. Cách Mạng Tháng 8, Cái Khế, Ninh Kiều, Cần Thơ","Cái Khế, Ninh Kiều",139 Đ. Cách Mạng Tháng 8,Cần Thơ,,"Ninh Kiều, Cần Thơ",VN
74,ChIJcw2XZBVjoDERRBhYih4_baw,Phòng khám bệnh chuyên khoa Da liễu BS.CKII Trần Thị Hạnh,Phòng khám,0947 291 437,"Phòng khám bệnh chuyên khoa Da liễu BS.CKII Trần Thị Hạnh, 71 Đ. Hồ Tùng Mậu, Cái Khế, Ninh Kiều, Cần Thơ 901740","Cái Khế, Ninh Kiều",71 Đ. Hồ Tùng Mậu,Cần Thơ,901740.0,"Ninh Kiều, Cần Thơ",VN
78,ChIJV4YjwkqJoDERil4aZl5MmBo,Phòng khám Nhi Bs Nguyễn Phát Nguyên,Phòng khám chuyên khoa,0939 745 600,"Phòng khám Nhi Bs Nguyễn Phát Nguyên, Hẻm 65, An Hoà, Ninh Kiều, Cần Thơ","An Hoà, Ninh Kiều",Hẻm 65,Cần Thơ,,"Ninh Kiều, Cần Thơ",VN
81,ChIJIXM5VhqJoDERhxTUrPFKT3g,Phòng khám Sản phụ khoa -KHHGĐ 400 Nguyễn Văn Cừ (CDC Cần Thơ),Phòng khám phụ khoa,0292 3813 735,"Phòng khám Sản phụ khoa -KHHGĐ 400 Nguyễn Văn Cừ (CDC Cần Thơ), 400 Nguyễn Văn Cừ Nối Dài, An Bình, Ninh Kiều, Cần Thơ 900000","An Bình, Ninh Kiều",400 Nguyễn Văn Cừ Nối Dài,Cần Thơ,900000.0,"Ninh Kiều, Cần Thơ",VN
82,ChIJ7eriPlOJoDERxZFrSWNw3wI,Phòng Khám Đa Khoa Tây Đô Sông Hậu,Phòng khám nha khoa,0903 733 973,"Phòng Khám Đa Khoa Tây Đô Sông Hậu, QL Nam Sông Hậu, Hưng Lợi, Vị Thanh, Hậu Giang","Hưng Lợi, Vị Thanh",QL Nam Sông Hậu,Hậu Giang,,"Vị Thanh, Hậu Giang",VN
85,ChIJNTs6cm-JoDER2AvRM9laNDM,Phòng Khám Nhi Bs Lê Đệ,Phòng khám nhi khoa,0963 717 944,"Phòng Khám Nhi Bs Lê Đệ, 40 A4, kdc 3A, Ninh Kiều, Cần Thơ","kdc 3A, Ninh Kiều",40 A4,Cần Thơ,,"Ninh Kiều, Cần Thơ",VN
89,ChIJmz4TB2SJoDER4-EfO6bhm2Q,Phòng khám chẩn trị YHCT Hoà Minh,Cơ sở chăm sóc da,0918 005 660,"Phòng khám chẩn trị YHCT Hoà Minh, 41 Đường B25, Khu dân cư 91B, Ninh Kiều, Cần Thơ","Khu dân cư 91B, Ninh Kiều",41 Đường B25,Cần Thơ,,"Ninh Kiều, Cần Thơ",VN
94,ChIJl_CwOJyJoDER_tDZ5mGq34U,BS.CK2 Nguyễn Thái Hoàng - Phòng khám Sản khoa,Phòng khám,,"BS.CK2 Nguyễn Thái Hoàng - Phòng khám Sản khoa, 68 Đ. Nguyễn Văn Cừ, Cái Khế, Ninh Kiều, Cần Thơ 94000","Cái Khế, Ninh Kiều",68 Đ. Nguyễn Văn Cừ,Cần Thơ,94000.0,"Ninh Kiều, Cần Thơ",VN
95,ChIJrb41OKFioDERRFozwT10uYA,Phòng Khám Bệnh Tư Nhân Bác Sĩ Trần Văn Á,Phòng khám,0913 683 461,"Phòng Khám Bệnh Tư Nhân Bác Sĩ Trần Văn Á, 10 Đ. Ng. Hữu Hạnh, Tân An, Ninh Kiều, Cần Thơ","Tân An, Ninh Kiều",10 Đ. Ng. Hữu Hạnh,Cần Thơ,,"Ninh Kiều, Cần Thơ",VN
96,ChIJvSMhn6hjoDER95W1YiXu4EE,Phòng Khám TMH- BsCKII Phạm Ngọc Minh,Phòng khám,0919 232 959,"Phòng Khám TMH- BsCKII Phạm Ngọc Minh, Đ. Ung Văn Khiêm, An Hội, Ninh Kiều, Cần Thơ 94000","An Hội, Ninh Kiều",Đ. Ung Văn Khiêm,Cần Thơ,94000.0,"Ninh Kiều, Cần Thơ",VN
99,ChIJr2dMuTtjoDERPxihE6VqJhI,Cười là đẹp - Phòng khám Nha khoa chất lượng cao - CN Cần Thơ,Phòng khám nha khoa,0907 995 337,"Cười là đẹp - Phòng khám Nha khoa chất lượng cao - CN Cần Thơ, TP, 95 Trần Văn Khéo, P, Ninh Kiều, Cần Thơ 92000","P, Ninh Kiều","TP, 95 Trần Văn Khéo",Cần Thơ,92000.0,"Ninh Kiều, Cần Thơ",VN
103,ChIJgQ1W8bKHoDERWqGSX7DKUXo,Phòng khám MHC 121,Phòng khám,0939 979 121,"Phòng khám MHC 121, 581P Trần Quang Diệu, An Thới, Bình Thủy, Cần Thơ 94000","An Thới, Bình Thủy",581P Trần Quang Diệu,Cần Thơ,94000.0,"Bình Thủy, Cần Thơ",VN
104,ChIJ8XsYzOeJoDERYT7JHc0ubwA,Nha Khoa Sài Gòn Ts Lâm,Phòng khám nha khoa,0292 3899 104,"Nha Khoa Sài Gòn Ts Lâm, 47 Đ. Võ Trường Toản, An Hoà, Ninh Kiều, Cần Thơ 900000","An Hoà, Ninh Kiều",47 Đ. Võ Trường Toản,Cần Thơ,900000.0,"Ninh Kiều, Cần Thơ",VN
105,ChIJqeIZ5DSJoDERRn9eOM-WFxM,Phòng Chẩn Trị YHCT Bắc Việt,Phòng khám,0907 373 090,"Phòng Chẩn Trị YHCT Bắc Việt, 51 Võ Văn Kiệt, P, Ninh Kiều, Cần Thơ 94000","P, Ninh Kiều",51 Võ Văn Kiệt,Cần Thơ,94000.0,"Ninh Kiều, Cần Thơ",VN
106,ChIJ8dqNkyeJoDERzBRZVDaaFS4,Phòng khám bs hoà bs nhung,Bác sĩ,0908 414 060,"Phòng khám bs hoà bs nhung, hẻm 9 Võ Văn Kiệt, An Hoà, Ninh Kiều, Cần Thơ","An Hoà, Ninh Kiều",hẻm 9 Võ Văn Kiệt,Cần Thơ,,"Ninh Kiều, Cần Thơ",VN
108,ChIJ-ZRbfMeJoDERx-DPPMPiSwY,Phòng khám Hiếm muộn & Phụ Sản (Bs Vinh - Bs Nga),Phòng khám,0838 013 567,"Phòng khám Hiếm muộn & Phụ Sản (Bs Vinh - Bs Nga), 14/30 Đ. Lý Tự Trọng, An Cư, Ninh Kiều, Cần Thơ 94000","An Cư, Ninh Kiều",14/30 Đ. Lý Tự Trọng,Cần Thơ,94000.0,"Ninh Kiều, Cần Thơ",VN
109,ChIJl5vstA-IoDERCyZxb_lJeSU,Phòng Khám Tiêu Hóa Gan Mật Nội Soi Tiêu Hóa - Bs La Văn Phương - Bs La Vĩnh Phúc,Phòng khám,0292 3899 979,"Phòng Khám Tiêu Hóa Gan Mật Nội Soi Tiêu Hóa - Bs La Văn Phương - Bs La Vĩnh Phúc, 327 Đ. Nguyễn Văn Cừ, An Hoà, Ninh Kiều, Cần Thơ","An Hoà, Ninh Kiều",327 Đ. Nguyễn Văn Cừ,Cần Thơ,,"Ninh Kiều, Cần Thơ",VN
116,ChIJNYo-0SqJoDERCw20FLpsfzA,Phòng khám trĩ BS Hiệp - BS Gấm,Phòng khám,0913 785 221,"Phòng khám trĩ BS Hiệp - BS Gấm, Hẻm 70, 55 Đ. Cách Mạng Tháng 8, Cái Khế, Ninh Kiều, Cần Thơ 90000","Cái Khế, Ninh Kiều","Hẻm 70, 55 Đ. Cách Mạng Tháng 8",Cần Thơ,90000.0,"Ninh Kiều, Cần Thơ",VN
120,ChIJBcD-JN2JoDERaCZp02mr0W0,Phòng Khám Chuyên Khoa Nhi - BSCKI. Lê Hoàng Khoa,Bác sĩ khoa nhi,0943 849 843,"Phòng Khám Chuyên Khoa Nhi - BSCKI. Lê Hoàng Khoa, 30 Đ. Tô Hiến Thành, Phường An Khánh, Ninh Kiều, Cần Thơ","Phường An Khánh, Ninh Kiều",30 Đ. Tô Hiến Thành,Cần Thơ,,"Ninh Kiều, Cần Thơ",VN
121,ChIJCX8Z9oiJoDERgwcId6IzWPI,Phòng khám CHẤN THƯƠNG CHỈNH HÌNH CẦN THƠ,Phòng khám chuyên khoa,0854 391 391,"Phòng khám CHẤN THƯƠNG CHỈNH HÌNH CẦN THƠ, 391 AA Nguyễn Văn Cừ Nối Dài, An Bình, Ninh Kiều, Cần Thơ 900000","An Bình, Ninh Kiều",391 AA Nguyễn Văn Cừ Nối Dài,Cần Thơ,900000.0,"Ninh Kiều, Cần Thơ",VN
123,ChIJCyR3biCIoDERONZ1rqXC5No,Phòng Khám Chuyên Khoa Siêu Âm - Bs Thái Thị Kim Nguyên,Phòng khám,0292 3822 706,"Phòng Khám Chuyên Khoa Siêu Âm - Bs Thái Thị Kim Nguyên, 20 Đ. 30 Tháng 4, An Lạc, Ninh Kiều, Cần Thơ","An Lạc, Ninh Kiều",20 Đ. 30 Tháng 4,Cần Thơ,,"Ninh Kiều, Cần Thơ",VN
125,ChIJ--tWdKdioDERbRqMBu9caDg,Phòng Khám Siêu Âm- Bs Lưu Thị Thanh Đào,Bệnh viện phụ sản,0939 356 635,"Phòng Khám Siêu Âm- Bs Lưu Thị Thanh Đào, 15 Hoàng Văn Thụ, An Hội, Ninh Kiều, Cần Thơ","An Hội, Ninh Kiều",15 Hoàng Văn Thụ,Cần Thơ,,"Ninh Kiều, Cần Thơ",VN
129,ChIJnXWLi2iJoDERHVPNXV4WxcA,Phòng Khám Nhi _Siêu âm tim - BSCK1 Nguyễn Phương Trang,Bác sĩ khoa nhi,0909 052 769,"Phòng Khám Nhi _Siêu âm tim - BSCK1 Nguyễn Phương Trang, 75 Đ. Võ Trường Toản, An Hoà, Ninh Kiều, Cần Thơ","An Hoà, Ninh Kiều",75 Đ. Võ Trường Toản,Cần Thơ,,"Ninh Kiều, Cần Thơ",VN
131,ChIJlSs6UNNjoDERBsEPdW0uQK4,Phòng khám đa khoa Sức Khỏe Cần Thơ,Phòng khám,0292 3768 969,"Phòng khám đa khoa Sức Khỏe Cần Thơ, 152 Đường Nguyễn An Ninh, Tân An, Ninh Kiều, Cần Thơ","Tân An, Ninh Kiều",152 Đường Nguyễn An Ninh,Cần Thơ,,"Ninh Kiều, Cần Thơ",VN
133,ChIJ60oY-QaIoDERfsuht9KOmiE,Phòng Khám Tư Nhân - Bs Trịnh Thị Báu,Phòng khám,0913 817 560,"Phòng Khám Tư Nhân - Bs Trịnh Thị Báu, 1 Đ. Nguyễn Văn Cừ, An Hoà, Ninh Kiều, Cần Thơ","An Hoà, Ninh Kiều",1 Đ. Nguyễn Văn Cừ,Cần Thơ,,"Ninh Kiều, Cần Thơ",VN
136,ChIJJWKwgB-IoDERk5IFklvE-fQ,Phòng Khám Bệnh BS Lê Văn Minh,Phòng khám,0292 2243 203,"Phòng Khám Bệnh BS Lê Văn Minh, 35 Đ. Lê Lai, An Lạc, Ninh Kiều, Cần Thơ","An Lạc, Ninh Kiều",35 Đ. Lê Lai,Cần Thơ,,"Ninh Kiều, Cần Thơ",VN
137,ChIJKXjexRiIoDERUNKl2q_BkOg,Phòng Khám - Bs Thái Thanh Lâm,Phòng khám,0292 3733 499,"Phòng Khám - Bs Thái Thanh Lâm, 228G Đ. Trần Hưng Đạo, An Phú, Ninh Kiều, Cần Thơ","An Phú, Ninh Kiều",228G Đ. Trần Hưng Đạo,Cần Thơ,,"Ninh Kiều, Cần Thơ",VN
142,ChIJe7vbWZCJoDERN4Miov6VdB8,BIC Clinic - Trung Tâm Cơ Xương Khớp Quốc Tế,Phòng khám,,"BIC Clinic - Trung Tâm Cơ Xương Khớp Quốc Tế, 163D Đ. Nguyễn Văn Cừ, Phường An Khánh, Ninh Kiều, Cần Thơ 94000","Phường An Khánh, Ninh Kiều",163D Đ. Nguyễn Văn Cừ,Cần Thơ,94000.0,"Ninh Kiều, Cần Thơ",VN
147,ChIJmySxskeIoDERwR_oIKDo_dM,Phòng Khám Võ Thị Hồng,Bác sĩ sinh sản,0913 656 544,"Phòng Khám Võ Thị Hồng, 67A1, Residential 91B, Highway 91B, Ninh Kieu District, Can Tho City, Hưng Lợi, Ninh Kiều, Cần Thơ","Hưng Lợi, Ninh Kiều","67A1, Residential 91B, Highway 91B, Ninh Kieu District, Can Tho City",Cần Thơ,,"Ninh Kiều, Cần Thơ",VN
150,ChIJN1EZtceJoDERk9dpag2fhho,Phòng khám Phúc Khang Cần Thơ,Phòng khám,0907 899 220,"Phòng khám Phúc Khang Cần Thơ, 526 Đ. 30 Tháng 4, Hưng Lợi, Ninh Kiều, Cần Thơ","Hưng Lợi, Ninh Kiều",526 Đ. 30 Tháng 4,Cần Thơ,,"Ninh Kiều, Cần Thơ",VN
154,ChIJ0UTfysRjoDEROXXbXfEF0b0,Phòng khám Đa khoa Ph­ước Hải,Phòng khám,0901 034 667,"Phòng khám Đa khoa Ph­ước Hải, 140 Đường Nguyễn An Ninh, Tân An, Ninh Kiều, Cần Thơ","Tân An, Ninh Kiều",140 Đường Nguyễn An Ninh,Cần Thơ,,"Ninh Kiều, Cần Thơ",VN
155,ChIJP-YIgh2IoDER4ECCiGFXB7I,Phòng Khám Tư Nhân - Hoàng,Phòng khám,0292 3812 493,"Phòng Khám Tư Nhân - Hoàng, 117 Đ. Xô Viết Nghệ Tĩnh, An Hội, Ninh Kiều, Cần Thơ","An Hội, Ninh Kiều",117 Đ. Xô Viết Nghệ Tĩnh,Cần Thơ,,"Ninh Kiều, Cần Thơ",VN
161,ChIJiT4FnOCHoDERDQX0K4cCeKg,Phòng Khám Tư Nhân - Bs Kiều Hạnh Đan,Phòng khám,0292 3884 729,"Phòng Khám Tư Nhân - Bs Kiều Hạnh Đan, 537 Trần Quang Diệu, An Thới, Bình Thủy, Cần Thơ","An Thới, Bình Thủy",537 Trần Quang Diệu,Cần Thơ,,"Bình Thủy, Cần Thơ",VN
162,ChIJ_0unVlaJoDERstm5WSwjqlM,Phòng khám Sản phụ khoa BS CKII Nguyễn Việt Quang,Bác sĩ,,"2QG5+F3J Phòng khám Sản phụ khoa BS CKII Nguyễn Việt Quang, Hưng Lợi, Ninh Kiều, Cần Thơ","Hưng Lợi, Ninh Kiều",2QG5+F3J,Cần Thơ,,"Ninh Kiều, Cần Thơ",VN
166,ChIJV1p89WqIoDERmOkbzJnXtp8,PHÒNG KHÁM CƠ-XƯƠNG-KHỚP,Phòng khám chuyên khoa,0901 087 818,"PHÒNG KHÁM CƠ-XƯƠNG-KHỚP, 30 Trần Bạch Đằng, KV4, P, Ninh Kiều, Cần Thơ","KV4, P, Ninh Kiều",30 Trần Bạch Đằng,Cần Thơ,,"Ninh Kiều, Cần Thơ",VN
167,ChIJ-yP3ErOJoDERbxwADae_8bU,Phòng Khám BS Nguyễn Hữu Thời,Bệnh viện phụ sản,0918 666 468,"Phòng Khám BS Nguyễn Hữu Thời, 126A/3, Đường Ba Tháng Hai Nối Dài, Phường An Bình, Quận Ninh Kiều, Thành Phố Cần Thơ, An Bình, Ninh Kiều, Cần Thơ","An Bình, Ninh Kiều","126A/3, Đường Ba Tháng Hai Nối Dài, Phường An Bình, Quận Ninh Kiều, Thành Phố Cần Thơ",Cần Thơ,,"Ninh Kiều, Cần Thơ",VN
169,ChIJaXnzczqIoDERxXxHuq8VquU,Phòng Khám Tai Mũi Họng - Bs Nguyễn Triều Việt,Phòng khám,0292 3828 233,"Phòng Khám Tai Mũi Họng - Bs Nguyễn Triều Việt, 188 Đ. 3 Tháng 2, Hưng Lợi, Ninh Kiều, Cần Thơ","Hưng Lợi, Ninh Kiều",188 Đ. 3 Tháng 2,Cần Thơ,,"Ninh Kiều, Cần Thơ",VN
171,ChIJkbK0cuqJoDERlvn43kwfHoA,PHÒNG KHÁM NHI ĐỒNG SÀI GÒN - CẦN THƠ,Phòng khám chuyên khoa,0292 3896 896,"PHÒNG KHÁM NHI ĐỒNG SÀI GÒN - CẦN THƠ, 349 Aa Nguyễn Văn Cừ Nối Dài, An Bình, Ninh Kiều, Cần Thơ","An Bình, Ninh Kiều",349 Aa Nguyễn Văn Cừ Nối Dài,Cần Thơ,,"Ninh Kiều, Cần Thơ",VN
172,ChIJawIQviKJoDEREzHOpStKexk,Phòng Khám Nhi BS MINH,Phòng khám,0907 161 056,"Phòng Khám Nhi BS MINH, 25 Đ. A3, Khu dân cư 91B, Ninh Kiều, Cần Thơ","Khu dân cư 91B, Ninh Kiều",25 Đ. A3,Cần Thơ,,"Ninh Kiều, Cần Thơ",VN
176,ChIJKwiUvr6JoDER1E-Tvvwf6eo,Phòng khám Tai Mũi Họng Bs. Tiệp,Phòng khám,0913 133 021,"Phòng khám Tai Mũi Họng Bs. Tiệp, 112/10 Đ. 3 Tháng 2, Hưng Lợi, Ninh Kiều, Cần Thơ 900000","Hưng Lợi, Ninh Kiều",112/10 Đ. 3 Tháng 2,Cần Thơ,900000.0,"Ninh Kiều, Cần Thơ",VN
180,ChIJV1blKyKIoDERkXqpXwW3yfU,Phòng Khám Tư Nhân - Bs Hà Anh Tuấn,Phòng khám,0292 3830 153,"Phòng Khám Tư Nhân - Bs Hà Anh Tuấn, 148 Đ. Mậu Thân, Xuân Khánh, Ninh Kiều, Cần Thơ","Xuân Khánh, Ninh Kiều",148 Đ. Mậu Thân,Cần Thơ,,"Ninh Kiều, Cần Thơ",VN
181,ChIJxTN8MR-IoDERbDLPK-nqKVA,Phòng Khám Bệnh Tư Nhân-BS Bình,Phòng khám miễn phí,0292 3813 966,"Phòng Khám Bệnh Tư Nhân-BS Bình, 109 Đ. Trần Bình Trọng, An Phú, Ninh Kiều, Cần Thơ","An Phú, Ninh Kiều",109 Đ. Trần Bình Trọng,Cần Thơ,,"Ninh Kiều, Cần Thơ",VN
182,ChIJFTCG7alioDERVnz9chOG9ZQ,Phòng Khám Tư Nhân - Bs Tôn Chi Nhân,Phòng khám,,"Phòng Khám Tư Nhân - Bs Tôn Chi Nhân, 71 Trần Phú, Cái Khế, Ninh Kiều, Cần Thơ","Cái Khế, Ninh Kiều",71 Trần Phú,Cần Thơ,,"Ninh Kiều, Cần Thơ",VN
186,ChIJiQMU3UOIoDERWK0k50EZsFY,Phòng Khám Tâm Phúc,Phòng khám,0292 6250 537,"Phòng Khám Tâm Phúc, 306B4 Đ. Nguyễn Văn Linh, Phường An Khánh, Ninh Kiều, Cần Thơ","Phường An Khánh, Ninh Kiều",306B4 Đ. Nguyễn Văn Linh,Cần Thơ,,"Ninh Kiều, Cần Thơ",VN
187,ChIJ3fFRBuuJoDERREhPs7X5KJo,Phòng khám BS Lê Hoàng Sơn,Phòng khám,0928 774 439,"Phòng khám BS Lê Hoàng Sơn, 6 Đ. Hoàng Quốc Việt, An Bình, Ninh Kiều, Cần Thơ 900000","An Bình, Ninh Kiều",6 Đ. Hoàng Quốc Việt,Cần Thơ,900000.0,"Ninh Kiều, Cần Thơ",VN
188,ChIJjYohb1CIoDERCn-gve2PWhU,Phòng Khám - Bs Bùi Quang Nghĩa,Phòng khám,0918 398 788,"Phòng Khám - Bs Bùi Quang Nghĩa, 313 Đường số 6, An Bình, Ninh Kiều, Cần Thơ","An Bình, Ninh Kiều",313 Đường số 6,Cần Thơ,,"Ninh Kiều, Cần Thơ",VN
194,ChIJMx_8kBqJoDERVNtAfP98Xo4,Phòng khám Ngọc Trân Thái Dương - Đức Hoà 2,Phòng khám chuyên khoa,0948 838 489,"Phòng khám Ngọc Trân Thái Dương - Đức Hoà 2, 15a Đ. Trần Khánh Dư, Xuân Khánh, Ninh Kiều, Cần Thơ","Xuân Khánh, Ninh Kiều",15a Đ. Trần Khánh Dư,Cần Thơ,,"Ninh Kiều, Cần Thơ",VN
198,ChIJt-hpuQaIoDER6ov_sMS4tBw,Phòng Khám Tư Nhân - Bs Trần Anh Dũng,Phòng khám,0939 078 807,"Phòng Khám Tư Nhân - Bs Trần Anh Dũng, 112 Đ. Cách Mạng Tháng 8, Cái Khế, Ninh Kiều, Cần Thơ","Cái Khế, Ninh Kiều",112 Đ. Cách Mạng Tháng 8,Cần Thơ,,"Ninh Kiều, Cần Thơ",VN
199,ChIJ7ZpT9wKIoDERN7bwhhpvhG8,Phòng Khám BS Đàm Văn Cương,Phòng khám chuyên khoa,,"Phòng Khám BS Đàm Văn Cương, 6A Đ. Cách Mạng Tháng 8, Thới Bình, Ninh Kiều, Cần Thơ","Thới Bình, Ninh Kiều",6A Đ. Cách Mạng Tháng 8,Cần Thơ,,"Ninh Kiều, Cần Thơ",VN
201,ChIJMQhCJp9ioDER25pUFlUAJKw,Phòng Khám Tư Nhân - Bs Võ Văn Chương,Phòng khám,0815 051 138,"Phòng Khám Tư Nhân - Bs Võ Văn Chương, 17 Ngô Đức Kế, Tân An, Ninh Kiều, Cần Thơ","Tân An, Ninh Kiều",17 Ngô Đức Kế,Cần Thơ,,"Ninh Kiều, Cần Thơ",VN
204,ChIJH0-qqwOIoDERKlFsk3L-04w,Phòng Khám Bác Sĩ Lê Bá Rạng,Bệnh viện,0292 3760 343,"Phòng Khám Bác Sĩ Lê Bá Rạng, 13 Đ. Cách Mạng Tháng 8, Thới Bình, Ninh Kiều, Cần Thơ","Thới Bình, Ninh Kiều",13 Đ. Cách Mạng Tháng 8,Cần Thơ,,"Ninh Kiều, Cần Thơ",VN
206,ChIJ6zfK0V2JoDERovkmtscd_2s,Hệ thống phòng khám Đông Y Tara,Bác sĩ,0982 882 245,"Hệ thống phòng khám Đông Y Tara, 34c Đ. Phạm Ngũ Lão, Thới Bình, Ninh Kiều, Cần Thơ 900000","Thới Bình, Ninh Kiều",34c Đ. Phạm Ngũ Lão,Cần Thơ,900000.0,"Ninh Kiều, Cần Thơ",VN
210,ChIJFfyjqGuIoDERa764jgOvLTw,Phòng Khám Bác Sĩ Trần Thị Hồng Như,Bệnh viện,0936 747 432,"Phòng Khám Bác Sĩ Trần Thị Hồng Như, 87 Đường số 21, Khu Dân Cư, Ninh Kiều, Cần Thơ","Khu Dân Cư, Ninh Kiều",87 Đường số 21,Cần Thơ,,"Ninh Kiều, Cần Thơ",VN
211,ChIJzdBjS12IoDERZNv-Y02g_bo,Phòng Khám Bệnh Bs Cki. Phương Hồng Thọ,Phòng khám,,"2PMW+8P6 Phòng Khám Bệnh Bs Cki. Phương Hồng Thọ, Phường An Khánh, Ninh Kiều, Cần Thơ","Phường An Khánh, Ninh Kiều",2PMW+8P6,Cần Thơ,,"Ninh Kiều, Cần Thơ",VN
212,ChIJE8NSgiuJoDERvJY_-KSaqOU,Phòng khám Bác sĩ Nguyễn Ngọc Hoàng Mỹ,Phòng khám,0909 125 889,"Phòng khám Bác sĩ Nguyễn Ngọc Hoàng Mỹ, 46 Đ. Số 20, Phường An Khánh, Ninh Kiều, Cần Thơ 900000","Phường An Khánh, Ninh Kiều",46 Đ. Số 20,Cần Thơ,900000.0,"Ninh Kiều, Cần Thơ",VN
213,ChIJy_pFG1WJoDER3HIXzZ9zH8E,Phòng khám BS Đoàn Văn Quyền - Khám Bệnh Sán Chó,Phòng khám,0917 272 715,"Phòng khám BS Đoàn Văn Quyền - Khám Bệnh Sán Chó, 351AA đường Nguyễn Văn Cừ khu dân cư Hồng Phát Q. Ninh Kiều Cần Thơ Can Tho City","An Bình, Ninh Kiều",351AA đường Nguyễn Văn Cừ khu dân cư Hồng Phát Q. Ninh Kiều Cần Thơ Can Tho City,Cần Thơ,,"Ninh Kiều, Cần Thơ",VN
214,ChIJccpeGN2JoDERoJqIYLL-TWM,Phòng Khám Ths. Bác Sĩ Nguyễn Mạnh Tiến,Phòng khám,0919 787 779,"Phòng Khám Ths. Bác Sĩ Nguyễn Mạnh Tiến, 70 Đường B18, Khu dân cư 91B, Ninh Kiều, Cần Thơ","Khu dân cư 91B, Ninh Kiều",70 Đường B18,Cần Thơ,,"Ninh Kiều, Cần Thơ",VN
215,ChIJu5U25lWJoDERhqEUzK2u2mU,Phòng khám Nhi Bs Lê Văn Viên - Cần Thơ,Phòng khám,0919 913 705,"Phòng khám Nhi Bs Lê Văn Viên - Cần Thơ, đối diện BV Nhi Đồng, số LK5-52, đường, số 3 Nguyễn Văn Cừ Nối Dài, An Bình, Ninh Kiều, Cần Thơ 94000","An Bình, Ninh Kiều","đối diện BV Nhi Đồng, số LK5-52, đường, số 3 Nguyễn Văn Cừ Nối Dài",Cần Thơ,94000.0,"Ninh Kiều, Cần Thơ",VN
217,ChIJf6iSWMqJoDERNXSjghf6GZA,Phòng Khám Bệnh Ngoài Giờ Bs Nguyễn Thanh Liêm,Phòng khám,,"2P2R+8G6 Phòng Khám Bệnh Ngoài Giờ Bs Nguyễn Thanh Liêm, An Bình, Ninh Kiều, Cần Thơ","An Bình, Ninh Kiều",2P2R+8G6,Cần Thơ,,"Ninh Kiều, Cần Thơ",VN
218,ChIJdybpZXGJoDERLACMu3bfXiE,Phòng Khám Tư Nhân Bác Sĩ THẮNG,Phòng khám,0912 250 300,"Phòng Khám Tư Nhân Bác Sĩ THẮNG, Khu Vực, Cái Răng, Cần Thơ","Khu Vực, Cái Răng",,Cần Thơ,,"Cái Răng, Cần Thơ",VN
223,ChIJXW-9ZziIoDERqiIjbPFhvCc,Phòng Khám Đa Khoa Phương Đức,Phòng khám miễn phí,0292 3943 500,"Phòng Khám Đa Khoa Phương Đức, 44 Đ. Nguyễn Văn Linh, kv3, Ninh Kiều, Cần Thơ","kv3, Ninh Kiều",44 Đ. Nguyễn Văn Linh,Cần Thơ,,"Ninh Kiều, Cần Thơ",VN
225,ChIJRxOVwDqIoDERUoieV9_0Te8,Phòng Khám - Bs Thu Ba,Phòng khám,0292 3839 403,"Phòng Khám - Bs Thu Ba, 162 Đ. Trần Ngọc Quế, Xuân Khánh, Ninh Kiều, Cần Thơ","Xuân Khánh, Ninh Kiều",162 Đ. Trần Ngọc Quế,Cần Thơ,,"Ninh Kiều, Cần Thơ",VN
231,ChIJ-53MKiCIoDER9T7lyq33Lqc,Phòng Khám Tư Nhân Bác Sĩ Truyền,Phòng khám,0292 3831 267,"Phòng Khám Tư Nhân Bác Sĩ Truyền, 68B Đ. Lê Lai, An Lạc, Ninh Kiều, Cần Thơ","An Lạc, Ninh Kiều",68B Đ. Lê Lai,Cần Thơ,,"Ninh Kiều, Cần Thơ",VN
232,ChIJj0IrZxiIoDERjJFhQ8GlYos,Phòng Khám Tư Nhân - Bs Diệp Loan,Phòng khám,0918 502 020,"Phòng Khám Tư Nhân - Bs Diệp Loan, 3 Nguyễn Ngọc Trai, Xuân Khánh, Ninh Kiều, Cần Thơ","Xuân Khánh, Ninh Kiều",3 Nguyễn Ngọc Trai,Cần Thơ,,"Ninh Kiều, Cần Thơ",VN
234,ChIJoRmb4w6IoDEROD3S3uaYg0A,Phòng Khám Tư Nhân Bs : Trần Ngọc Thanh,Phòng khám,,"Phòng Khám Tư Nhân Bs : Trần Ngọc Thanh, An Hòa, Ninh Kiều, Cần Thơ","An Hòa, Ninh Kiều",,Cần Thơ,,"Ninh Kiều, Cần Thơ",VN
235,ChIJ7d6R-QWIoDEREqM-r232p7A,Phòng Khám Tư Nhân - Bs Phạm Đình Tụ,Phòng khám,0292 3890 692,"Phòng Khám Tư Nhân - Bs Phạm Đình Tụ, 150 Đ. Nguyễn Văn Cừ, An Hoà, Ninh Kiều, Cần Thơ","An Hoà, Ninh Kiều",150 Đ. Nguyễn Văn Cừ,Cần Thơ,,"Ninh Kiều, Cần Thơ",VN
236,ChIJRwnx7qlioDERnvGiv5eIUYg,Phòng Khám Khoa Nội - Bs Lê Văn Tiến,Phòng khám,0292 3827 838,"Phòng Khám Khoa Nội - Bs Lê Văn Tiến, 71 Trần Phú, Cái Khế, Ninh Kiều, Cần Thơ 94152","Cái Khế, Ninh Kiều",71 Trần Phú,Cần Thơ,94152.0,"Ninh Kiều, Cần Thơ",VN
237,ChIJU1Ice-GHoDERVGz-VRFRjq8,Phòng Khám Tư Nhân - Bs Phạm Ngọc Thuần,Phòng khám,0292 3742 514,"Phòng Khám Tư Nhân - Bs Phạm Ngọc Thuần, 174 Trần Quang Diệu, An Thới, Bình Thủy, Cần Thơ","An Thới, Bình Thủy",174 Trần Quang Diệu,Cần Thơ,,"Bình Thủy, Cần Thơ",VN
238,ChIJV8Pl8Z9ioDERG3Ldyp2g7MI,Phòng Khám Tư Nhân - Nhi,Phòng khám,0292 3838 242,"Phòng Khám Tư Nhân - Nhi, 320/11 Đường 30/4P. Hưng Lợi, Quận Ninh Kiều, TP. Cần Thơ, Tân An, Ninh Kiều, Cần Thơ","Tân An, Ninh Kiều","320/11 Đường 30/4P. Hưng Lợi, Quận Ninh Kiều, TP. Cần Thơ",Cần Thơ,,"Ninh Kiều, Cần Thơ",VN
239,ChIJ2c5ck59ioDERAvOmuhwxrSU,Bo Kim Phuong Clinic,Phòng khám miễn phí,0292 3818 902,"Bo Kim Phuong Clinic, 144 Đường Nguyễn An Ninh, Tân An, Ninh Kiều, Cần Thơ","Tân An, Ninh Kiều",144 Đường Nguyễn An Ninh,Cần Thơ,,"Ninh Kiều, Cần Thơ",VN
240,ChIJQWkBvp9ioDERDDSk0Gg8Pm0,Phòng Khám Răng Hàm Mặt - Bs Nguyễn Thanh Hòa,Phòng khám,0292 3811 678,"Phòng Khám Răng Hàm Mặt - Bs Nguyễn Thanh Hòa, 135 Đường Nguyễn An Ninh, Tân An, Ninh Kiều, Cần Thơ","Tân An, Ninh Kiều",135 Đường Nguyễn An Ninh,Cần Thơ,,"Ninh Kiều, Cần Thơ",VN
241,ChIJXVizzRyIoDERpCUFbYrufzE,Phòng Khám Bệnh Tư Nhân - Bác Sĩ Nguyễn Quốc Gia,Phòng khám,0292 3822 042,"Phòng Khám Bệnh Tư Nhân - Bác Sĩ Nguyễn Quốc Gia, 66, Đường Hùng Vương, An Cư, Ninh Kiều, Cần Thơ","An Cư, Ninh Kiều","66, Đường Hùng Vương",Cần Thơ,,"Ninh Kiều, Cần Thơ",VN
243,ChIJtWTRk6lioDERWNLe70t9hlI,Phòng Khám Bác Sĩ Tôn Chi Nhân,Bệnh viện,0292 3822 546,"Phòng Khám Bác Sĩ Tôn Chi Nhân, 71A Trần Phú, Cái Khế, Ninh Kiều, Cần Thơ","Cái Khế, Ninh Kiều",71A Trần Phú,Cần Thơ,,"Ninh Kiều, Cần Thơ",VN
252,ChIJp4xiux2IoDER7god0vGr1P4,Phòng Khám BS Lý Kim Nhàn,Bệnh viện,0913 816 478,"Phòng Khám BS Lý Kim Nhàn, 105A Hoàng Văn Thụ, An Cư, Ninh Kiều, Cần Thơ","An Cư, Ninh Kiều",105A Hoàng Văn Thụ,Cần Thơ,,"Ninh Kiều, Cần Thơ",VN
253,ChIJtQY1tx2IoDERh6B4Qj9pLRE,Phòng Khám Bác Sĩ Lâm Đức Tâm,Bệnh viện,0945 141 567,"Phòng Khám Bác Sĩ Lâm Đức Tâm, 125/3, Hoàng Văn Thụ, Phường An Cư, Quận Ninh Kiều, Thành Phố Cần Thơ, An Cư, Ninh Kiều, Cần Thơ","An Cư, Ninh Kiều","125/3, Hoàng Văn Thụ, Phường An Cư, Quận Ninh Kiều, Thành Phố Cần Thơ",Cần Thơ,,"Ninh Kiều, Cần Thơ",VN
257,ChIJGzSrt-OJoDERsY2VaXBMa_g,Phòng khám Phúc An Cần Thơ,Phòng khám vật lý trị liệu,0939 625 107,"Phòng khám Phúc An Cần Thơ, Hẻm 44 Đ. Võ Trường Toản, An Hoà, Ninh Kiều, Cần Thơ","An Hoà, Ninh Kiều",Hẻm 44 Đ. Võ Trường Toản,Cần Thơ,,"Ninh Kiều, Cần Thơ",VN
259,ChIJk1LDLSaJoDERIusvcaAWnIM,Phòng Khám Da Liễu,Phòng khám,0976 271 388,"Phòng Khám Da Liễu, 44 Đ. Nguyễn Đệ, An Hoà, Ninh Kiều, Cần Thơ","An Hoà, Ninh Kiều",44 Đ. Nguyễn Đệ,Cần Thơ,,"Ninh Kiều, Cần Thơ",VN
261,ChIJVYAP-eCHoDERRA0h8WEjw8Q,Phòng Khám Bệnh BS Võ Minh Đạm,Phòng khám,0292 3885 618,"Phòng Khám Bệnh BS Võ Minh Đạm, 154/A8 Trần Quang Diệu, An Thới, Bình Thủy, Cần Thơ","An Thới, Bình Thủy",154/A8 Trần Quang Diệu,Cần Thơ,,"Bình Thủy, Cần Thơ",VN
263,ChIJO-5ED3qJoDERYBavSLhXE-8,Phòng khám Tim mạch Bs Ngọc Sơn,Phòng khám,0977 174 246,"Phòng khám Tim mạch Bs Ngọc Sơn, Đ. Mậu Thân, An Hoà, Ninh Kiều, Cần Thơ","An Hoà, Ninh Kiều",Đ. Mậu Thân,Cần Thơ,,"Ninh Kiều, Cần Thơ",VN
267,ChIJhWUuyhOIoDER9v39zlTIP64,Phòng Khám Tư - Bs Phan Thị Tuyên,Bác sĩ nội khoa,0292 3892 473,"Phòng Khám Tư - Bs Phan Thị Tuyên, 134 Đ. Nguyễn Văn Cừ, Phường An Khánh, Ninh Kiều, Cần Thơ","Phường An Khánh, Ninh Kiều",134 Đ. Nguyễn Văn Cừ,Cần Thơ,,"Ninh Kiều, Cần Thơ",VN
272,ChIJDeFAK8OJoDERK7WTUv6a358,Phòng Khám Bệnh Tư Nhân,Bệnh viện,,"2P9V+J8Q Phòng Khám Bệnh Tư Nhân, Đ. Hoàng Quốc Việt, An Bình, Ninh Kiều, Cần Thơ","An Bình, Ninh Kiều","2P9V+J8Q, Đ. Hoàng Quốc Việt",Cần Thơ,,"Ninh Kiều, Cần Thơ",VN
273,ChIJo60AEVGIoDERs4Q5V9_55p0,Phòng Khám Sản Phụ Khoa BS Huỳnh Thị Uyển Trang,Bệnh viện,0292 6288 488,"Phòng Khám Sản Phụ Khoa BS Huỳnh Thị Uyển Trang, 322 Đ.Xuân Thủy, An Bình, Ninh Kiều, Cần Thơ","An Bình, Ninh Kiều",322 Đ.Xuân Thủy,Cần Thơ,,"Ninh Kiều, Cần Thơ",VN
274,ChIJ_YmNBlCIoDERcQ8RJXifjxo,Phòng Khám Bác Sĩ Thuỳ Linh,Bệnh viện,0292 3892 401,"Phòng Khám Bác Sĩ Thuỳ Linh, 185, Đường Số 7, Khu Dân Cư Hồng Phát, Phường An Bình, Quận Ninh Kiều, Thành Phố Cần Thơ, An Bình, Ninh Kiều, Cần Thơ","An Bình, Ninh Kiều","185, Đường Số 7, Khu Dân Cư Hồng Phát, Phường An Bình, Quận Ninh Kiều, Thành Phố Cần Thơ",Cần Thơ,,"Ninh Kiều, Cần Thơ",VN
275,ChIJCwdlXkGIoDERZroEBlROPi0,Công Ty Tnhh Phòng Khám Đa Khoa Vạn Phước,Phòng khám nha khoa,,"2QH3+X55 Công Ty Tnhh Phòng Khám Đa Khoa Vạn Phước, 307F Đ. Nguyễn Văn Linh, Phường An Khánh, Ninh Kiều, Cần Thơ 900000","Phường An Khánh, Ninh Kiều","2QH3+X55, 307F Đ. Nguyễn Văn Linh",Cần Thơ,900000.0,"Ninh Kiều, Cần Thơ",VN
276,ChIJZ9cCtkyIoDERWzHDruiMdqY,Phòng Khám BS Tống Hải Dương,Bệnh viện,0948 710 883,"Phòng Khám BS Tống Hải Dương, 168/5 Đ. Trần Vĩnh Kiết, An Bình, Ninh Kiều, Cần Thơ","An Bình, Ninh Kiều",168/5 Đ. Trần Vĩnh Kiết,Cần Thơ,,"Ninh Kiều, Cần Thơ",VN
277,ChIJg22OMEuIoDERSxuRSPA_2YY,Phòng Khám Da Liễu Bs Hứa Văn Tửng,Bác sĩ da liễu,0918 727 712,"2Q73+4Q7 Phòng Khám Da Liễu Bs Hứa Văn Tửng, Hẻm 132 Đ. 3 Tháng 2, Hưng Lợi, Ninh Kiều, Cần Thơ","Hưng Lợi, Ninh Kiều","2Q73+4Q7, Hẻm 132 Đ. 3 Tháng 2",Cần Thơ,,"Ninh Kiều, Cần Thơ",VN
279,ChIJB2uj6UiIoDERv5JawZ_MGjM,Phòng Khám Tai Mũi Họng,Bệnh viện,0292 6505 777,"Phòng Khám Tai Mũi Họng, Khu Dân Cư Hưng Phú 1, Đường A3, Quận Cái Răng, Thành Phố Cần Thơ, Phường An Khánh, Ninh Kiều, Cần Thơ","Phường An Khánh, Ninh Kiều","Khu Dân Cư Hưng Phú 1, Đường A3, Quận Cái Răng, Thành Phố Cần Thơ",Cần Thơ,,"Ninh Kiều, Cần Thơ",VN
280,ChIJa1qsSjCIoDER7OomuqQc6fI,Phòng Khám Gia Đức,Phòng khám,0939 252 269,"Phòng Khám Gia Đức, 383 Đ. 30 Tháng 4, Hưng Lợi, Ninh Kiều, Cần Thơ","Hưng Lợi, Ninh Kiều",383 Đ. 30 Tháng 4,Cần Thơ,,"Ninh Kiều, Cần Thơ",VN
282,ChIJLeFl_zSIoDERR0UddOpD5TU,Phòng khám ThS.BS. Ngô Văn Út,Bác sĩ bệnh truyền nhiễm,0939 005 177,"Phòng khám ThS.BS. Ngô Văn Út, Số 118/4, Hẻm, 636 Hẻm 553, Hưng Lợi, Ninh Kiều, Cần Thơ","Hưng Lợi, Ninh Kiều","Số 118/4, Hẻm, 636 Hẻm 553",Cần Thơ,,"Ninh Kiều, Cần Thơ",VN
284,ChIJ9UGIBSOJoDERm-vEHyvhVn8,Phòng Khám Chuyên Khoa Y Học Cổ Truyền Thiện Nhân,Phòng khám,0834 023 629,"Phòng Khám Chuyên Khoa Y Học Cổ Truyền Thiện Nhân, 97 Tầm Vu, Hưng Lợi, Ninh Kiều, Cần Thơ","Hưng Lợi, Ninh Kiều",97 Tầm Vu,Cần Thơ,,"Ninh Kiều, Cần Thơ",VN
285,ChIJdVkAWYGJoDER7r0AuNUNnmU,Phòng khám chuyên khoa da liễu - BS Tuyến,Bác sĩ da liễu,0902 947 772,"Phòng khám chuyên khoa da liễu - BS Tuyến, 39c Đ. Trần Hoàng Na, Hưng Lợi, Ninh Kiều, Cần Thơ 900000","Hưng Lợi, Ninh Kiều",39c Đ. Trần Hoàng Na,Cần Thơ,900000.0,"Ninh Kiều, Cần Thơ",VN
286,ChIJYX5-Fy6IoDERjmoTrL3mjZo,Phòng Khám Đa Khoa Từ Thiện,Phòng khám miễn phí,,"2Q9C+6CG Phòng Khám Đa Khoa Từ Thiện, Hưng Lợi, Ninh Kiều, Cần Thơ","Hưng Lợi, Ninh Kiều",2Q9C+6CG,Cần Thơ,,"Ninh Kiều, Cần Thơ",VN
287,ChIJo9hUqjqIoDERExYjauuMWfI,Phòng Khám Nội Nhi - Bs Khánh Nguyệt,Phòng khám,0292 3838 242,"Phòng Khám Nội Nhi - Bs Khánh Nguyệt, 320 Đ. Trần Ngọc Quế, Xuân Khánh, Ninh Kiều, Cần Thơ 920000","Xuân Khánh, Ninh Kiều",320 Đ. Trần Ngọc Quế,Cần Thơ,920000.0,"Ninh Kiều, Cần Thơ",VN
289,ChIJi36muBiIoDERAhMwFttRmhs,Phòng Khám Bs Võ Hoàng Tâm,Bệnh viện,0989 756 979,"Phòng Khám Bs Võ Hoàng Tâm, 228H Đ. Trần Hưng Đạo, An Phú, Ninh Kiều, Cần Thơ","An Phú, Ninh Kiều",228H Đ. Trần Hưng Đạo,Cần Thơ,,"Ninh Kiều, Cần Thơ",VN
290,ChIJhyyfIZxioDER2Ca9Aj_aZ2A,Phòng Khám Bệnh Hội Chữ Thập Đỏ,Phòng khám,0292 3752 374,"Phòng Khám Bệnh Hội Chữ Thập Đỏ, Đường Nguyễn Thị Minh Khai, Tân An, Ninh Kiều, Cần Thơ","Tân An, Ninh Kiều",Đường Nguyễn Thị Minh Khai,Cần Thơ,,"Ninh Kiều, Cần Thơ",VN
295,ChIJz8JTBP-HoDERUDLoYrgc50Y,Phòng Khám Bệnh Tư Nhân BS Trương Quang Phổ,Bệnh viện,0903 856 044,"Phòng Khám Bệnh Tư Nhân BS Trương Quang Phổ, 17 Đ. Nguyễn Văn Cừ, An Hoà, Ninh Kiều, Cần Thơ","An Hoà, Ninh Kiều",17 Đ. Nguyễn Văn Cừ,Cần Thơ,,"Ninh Kiều, Cần Thơ",VN
296,ChIJfY6_GQeIoDERso2tJJtji4o,Phòng Khám Tư Nhân B.S Trần Văn Nô,Phòng khám,0913 618 112,"3Q3F+2MM Phòng Khám Tư Nhân B.S Trần Văn Nô, Cồn Khương, Cái Khế, Ninh Kiều, Cần Thơ","Cái Khế, Ninh Kiều","3Q3F+2MM, Cồn Khương",Cần Thơ,,"Ninh Kiều, Cần Thơ",VN
297,ChIJJbjcGf6HoDERDTJvygmglJc,Phòng Khám Y Học Cổ Truyền Thiện Phước,Bệnh viện,0918 057 142,"Phòng Khám Y Học Cổ Truyền Thiện Phước, 6 Đ. Nguyễn Văn Cừ, Cái Khế, Ninh Kiều, Cần Thơ","Cái Khế, Ninh Kiều",6 Đ. Nguyễn Văn Cừ,Cần Thơ,,"Ninh Kiều, Cần Thơ",VN
298,ChIJUQ6bUf2HoDERxsH2qK3ccwI,Phòng Khám Tư Nhân - Bs Trần Thị Mỹ Phượng,Phòng khám,0292 3762 448,"Phòng Khám Tư Nhân - Bs Trần Thị Mỹ Phượng, 2 Nguyễn Thị Tính, Cái Khế, Bình Thủy, Cần Thơ","Cái Khế, Bình Thủy",2 Nguyễn Thị Tính,Cần Thơ,,"Bình Thủy, Cần Thơ",VN
299,ChIJ4YPT4waIoDERANYUXMkujFA,Phòng Khám Tư Nhân Nội Nhi B.S Trần Châu,Phòng khám,0292 3822 405,"Phòng Khám Tư Nhân Nội Nhi B.S Trần Châu, 156 Đoàn Thị Điểm, Cái Khế, Ninh Kiều, Cần Thơ","Cái Khế, Ninh Kiều",156 Đoàn Thị Điểm,Cần Thơ,,"Ninh Kiều, Cần Thơ",VN
300,ChIJRb-rXgaIoDERCRVP7G1Z4AY,Phòng Khám - Bs Trần Văn Bùi,Phòng khám,0292 3827 314,"Phòng Khám - Bs Trần Văn Bùi, 41 Đ. Nguyễn Văn Cừ, An Hoà, Ninh Kiều, Cần Thơ","An Hoà, Ninh Kiều",41 Đ. Nguyễn Văn Cừ,Cần Thơ,,"Ninh Kiều, Cần Thơ",VN
301,ChIJRWzPAOSHoDERTLVylB8LikA,Phòng Khám - Bs Võ Hồng Sở,Phòng khám,0292 3884 729,"Phòng Khám - Bs Võ Hồng Sở, 33 Đ. Cách Mạng Tháng 8, Bùi Hữu Nghĩa, Bình Thủy, Cần Thơ","Bùi Hữu Nghĩa, Bình Thủy",33 Đ. Cách Mạng Tháng 8,Cần Thơ,,"Bình Thủy, Cần Thơ",VN
302,ChIJcbl05QWIoDERctWwimzVbgE,Phòng Khám BS Lê Nguyên Lâm,Phòng khám chuyên khoa,7103890850,"Phòng Khám BS Lê Nguyên Lâm, 159 Đ. Nguyễn Văn Cừ, An Hoà, Ninh Kiều, Cần Thơ","An Hoà, Ninh Kiều",159 Đ. Nguyễn Văn Cừ,Cần Thơ,,"Ninh Kiều, Cần Thơ",VN
303,ChIJ71DN-AaIoDERTmsN9JckOdo,Phòng Khám Răng Hàm Mặt Bs Nguyễn Thụy Bảo Trân,Phòng khám nha khoa,0292 3822 366,"Phòng Khám Răng Hàm Mặt Bs Nguyễn Thụy Bảo Trân, 176 Đ. Nguyễn Văn Cừ, An Hoà, Ninh Kiều, Cần Thơ","An Hoà, Ninh Kiều",176 Đ. Nguyễn Văn Cừ,Cần Thơ,,"Ninh Kiều, Cần Thơ",VN
304,ChIJ_7dUZ4mJoDERvnPOj7kyDyk,Phòng khám Nha khoa NGUYÊN PHÚC,Phòng khám nha khoa,0909 696 999,"Phòng khám Nha khoa NGUYÊN PHÚC, 70/17 Đ. Cách Mạng Tháng 8, Cái Khế, Ninh Kiều, Cần Thơ","Cái Khế, Ninh Kiều",70/17 Đ. Cách Mạng Tháng 8,Cần Thơ,,"Ninh Kiều, Cần Thơ",VN
305,ChIJOfGqLgOIoDERBuLn-EQuj7c,Phòng Khám,,,"Phòng Khám, 57 Hùng Vương, An Hội, Ninh Kiều, Cần Thơ","An Hội, Ninh Kiều",57 Hùng Vương,Cần Thơ,,"Ninh Kiều, Cần Thơ",VN
306,ChIJq6qqBw-IoDERKvtzvMqp1C4,Phòng Khám Nha Khoa Minh Tân,Phòng khám nha khoa,0292 3837 369,"Phòng Khám Nha Khoa Minh Tân, 176A, 30/4, Quận Ninh Kiều, Tp Cần Thơ, An Hoà, Ninh Kiều, Cần Thơ","An Hoà, Ninh Kiều","176A, 30/4, Quận Ninh Kiều, Tp Cần Thơ",Cần Thơ,,"Ninh Kiều, Cần Thơ",VN
307,ChIJieM8RKFioDERQNNuAQzV4Hw,Phòng Khám BS Đặng Thị Bích Phượng,Bệnh viện,0292 3817 141,"Phòng Khám BS Đặng Thị Bích Phượng, 8 Đ. Nguyễn Đình Chiểu, Tân An, Ninh Kiều, Cần Thơ","Tân An, Ninh Kiều",8 Đ. Nguyễn Đình Chiểu,Cần Thơ,,"Ninh Kiều, Cần Thơ",VN
308,ChIJ2XHAkKBioDER2PTnPTHKImQ,Phòng Khám Tư Nhân - Bs Lê Thị Kim Đài,Phòng khám,0292 3812 747,"Phòng Khám Tư Nhân - Bs Lê Thị Kim Đài, 3 Hẻm 22 Đ. Mạc Đĩnh Chi, Tân An, Ninh Kiều, Cần Thơ","Tân An, Ninh Kiều",3 Hẻm 22 Đ. Mạc Đĩnh Chi,Cần Thơ,,"Ninh Kiều, Cần Thơ",VN
309,ChIJnWyybKhioDERuwD-d5BQw1U,Phòng Khám Bệnh Tư Nhân,Phòng khám miễn phí,0292 3822 579,"Phòng Khám Bệnh Tư Nhân, 100, Đường Trần Văn Khéo, Phường Cái Khế, Quận Ninh Kiều, An Hội, Ninh Kiều, Cần Thơ","An Hội, Ninh Kiều","100, Đường Trần Văn Khéo, Phường Cái Khế, Quận Ninh Kiều",Cần Thơ,,"Ninh Kiều, Cần Thơ",VN
310,ChIJZ4D8M6dioDERTchpbnwtBVY,Phòng Khám Lê Quang Dũng,Phòng khám,0292 3823 475,"Phòng Khám Lê Quang Dũng, 25 Đ. Xô Viết Nghệ Tĩnh, An Hội, Ninh Kiều, Cần Thơ","An Hội, Ninh Kiều",25 Đ. Xô Viết Nghệ Tĩnh,Cần Thơ,,"Ninh Kiều, Cần Thơ",VN
311,ChIJ12aMHq9ioDERlOyOxr-4VS8,Phòng Khám Bệnh BS Trần Bửu Giám,Bệnh viện đa khoa,0949 196 586,"Phòng Khám Bệnh BS Trần Bửu Giám, 35, Đường Lê Lợi, Quận Thốt Nốt, Cái Khế, Ninh Kiều, Cần Thơ","Cái Khế, Ninh Kiều","35, Đường Lê Lợi, Quận Thốt Nốt",Cần Thơ,,"Ninh Kiều, Cần Thơ",VN
312,ChIJy1oqMqFioDERKEb64FjR2x0,Phòng Khám Nguyễn Hoàng Dũng,Phòng khám,0292 2220 427,"Phòng Khám Nguyễn Hoàng Dũng, 9 Võ Thị Sáu, Tân An, Ninh Kiều, Cần Thơ","Tân An, Ninh Kiều",9 Võ Thị Sáu,Cần Thơ,,"Ninh Kiều, Cần Thơ",VN
313,ChIJKRwuFR2IoDERGBtQT28SalY,Phòng Khám Bệnh Ngoài Giờ BS Trần Thị Hòa Minh,Phòng khám,0292 3813 987,"Phòng Khám Bệnh Ngoài Giờ BS Trần Thị Hòa Minh, 2A, Đinh Tiên Hoàng, Quận Ninh Kiều, Tp Cần Thơ","An Hội, Ninh Kiều","2A, Đinh Tiên Hoàng, Quận Ninh Kiều, Tp Cần Thơ",Cần Thơ,,"Ninh Kiều, Cần Thơ",VN
314,ChIJ6y03NqBioDERc5psuADaakA,Phòng Khám Tư Nhân - Bs Lưu Thị Nhất Phương,Phòng khám,0292 3738 320,"Phòng Khám Tư Nhân - Bs Lưu Thị Nhất Phương, 30 Đại lộ Hoà Bình, Tân An, Ninh Kiều, Cần Thơ","Tân An, Ninh Kiều",30 Đại lộ Hoà Bình,Cần Thơ,,"Ninh Kiều, Cần Thơ",VN
315,ChIJsd0ysKZioDERk8aaabNnoPE,Phòng Khám Chuyên Khoa Mắt,Bệnh viện,0908 951 747,"Phòng Khám Chuyên Khoa Mắt, 7 Nguyễn Trãi, Tân An, Ninh Kiều, Cần Thơ","Tân An, Ninh Kiều",7 Nguyễn Trãi,Cần Thơ,,"Ninh Kiều, Cần Thơ",VN
316,ChIJZy1Pi6BioDER_bXZO5QCg1g,Phòng Khám Hồ Đắc Hoàn,Phòng khám miễn phí,0292 3824 927,"2QPM+699 Phòng Khám Hồ Đắc Hoàn, Ấp Thạnh Hưng, Ninh Kiều, Cần Thơ","Ấp Thạnh Hưng, Ninh Kiều",2QPM+699,Cần Thơ,,"Ninh Kiều, Cần Thơ",VN
317,ChIJmaCSmqdioDERP3NH4Xd0mpc,Phòng Khám - Bs Trần Văn Phúc,Phòng khám,0292 3842 163,"Phòng Khám - Bs Trần Văn Phúc, 15 Hoàng Văn Thụ, An Hội, Ninh Kiều, Cần Thơ","An Hội, Ninh Kiều",15 Hoàng Văn Thụ,Cần Thơ,,"Ninh Kiều, Cần Thơ",VN
318,ChIJa3wvJgOIoDERAqLT47o_DuM,Phòng Khám Tư Nhân - Bs Lê Văn Tám,Phòng khám,,"Phòng Khám Tư Nhân - Bs Lê Văn Tám, 44 Hùng Vương, An Hội, Ninh Kiều, Cần Thơ","An Hội, Ninh Kiều",44 Hùng Vương,Cần Thơ,,"Ninh Kiều, Cần Thơ",VN
319,ChIJyTqX7qdioDER5w96-RhJ6f4,Phòng Khám Tư Nhân - Bs Nguyễn Phước Thiện,Phòng khám,0292 3811 025,"Phòng Khám Tư Nhân - Bs Nguyễn Phước Thiện, 7 Nguyễn Trãi, An Hội, Ninh Kiều, Cần Thơ","An Hội, Ninh Kiều",7 Nguyễn Trãi,Cần Thơ,,"Ninh Kiều, Cần Thơ",VN
320,ChIJhcZJlqBioDERF9l37sMq4Ck,Phòng Khám Danh Anh Khanh,Phòng khám miễn phí,0292 3824 922,"2QPM+G4M Phòng Khám Danh Anh Khanh, Ấp Thạnh Hưng, Ninh Kiều, Cần Thơ","Ấp Thạnh Hưng, Ninh Kiều",2QPM+G4M,Cần Thơ,,"Ninh Kiều, Cần Thơ",VN
321,ChIJ9TROJ6hioDER3yeXNTJgYJk,Phòng Khám Y Học Cổ Truyền Khánh Đan,Phòng khám miễn phí,0292 3827 364,"Phòng Khám Y Học Cổ Truyền Khánh Đan, 120/118B, Trần Quang Khải, Quận Ninh Kiều, An Hội, Ninh Kiều, Cần Thơ","An Hội, Ninh Kiều","120/118B, Trần Quang Khải, Quận Ninh Kiều",Cần Thơ,,"Ninh Kiều, Cần Thơ",VN
322,ChIJK5YGMKpioDERY2zQVR5UbFY,Phòng khám Đông Y Lê Hồng,Phòng khám,,"2QXM+QP8 Phòng khám Đông Y Lê Hồng, Cái Khế, Ninh Kiều, Cần Thơ","Cái Khế, Ninh Kiều",2QXM+QP8,Cần Thơ,,"Ninh Kiều, Cần Thơ",VN
323,ChIJieTTNxyIoDERxS3vLyaOyD0,Phòng Khám Bệnh BS Phan Thành Tường,Phòng khám,0292 3835 112,"Phòng Khám Bệnh BS Phan Thành Tường, 151/111, Đường Huỳnh Cương, Quận Ninh Kiều, Tp Cần Thơ, An Cư, Ninh Kiều, Cần Thơ","An Cư, Ninh Kiều","151/111, Đường Huỳnh Cương, Quận Ninh Kiều, Tp Cần Thơ",Cần Thơ,,"Ninh Kiều, Cần Thơ",VN
324,ChIJk6jp_R6IoDERaBosI6xtySc,Phòng Khám Tư Nhân - Nhi 86,Phòng khám miễn phí,0292 3831 310,"Phòng Khám Tư Nhân - Nhi 86, 86 Đường Đ. Lý Tự Trọng, An Cư, Ninh Kiều, Cần Thơ","An Cư, Ninh Kiều",86 Đường Đ. Lý Tự Trọng,Cần Thơ,,"Ninh Kiều, Cần Thơ",VN
325,ChIJlyBHi6lioDERBTYr4ssqt-0,Huynh Van Tuyen Traditional Medicine Clinic,Phòng khám miễn phí,0778 559 425,"Huynh Van Tuyen Traditional Medicine Clinic, 112C Trần Phú, Cái Khế, Ninh Kiều, Cần Thơ","Cái Khế, Ninh Kiều",112C Trần Phú,Cần Thơ,,"Ninh Kiều, Cần Thơ",VN
326,ChIJbbapE-GJoDER7UGuqQLBmNY,Phòng Khám Sản Phụ Khoa - Bác sĩ Nguyễn Thị Linh Hà,Phòng khám phụ khoa,0908 040 979,"Phòng Khám Sản Phụ Khoa - Bác sĩ Nguyễn Thị Linh Hà, 6 Đ. Trương Định, Tân An, Ninh Kiều, Cần Thơ","Tân An, Ninh Kiều",6 Đ. Trương Định,Cần Thơ,,"Ninh Kiều, Cần Thơ",VN
337,ChIJYUZ4Kh2IoDERpXoVgQHKr88,Phòng Khám Phan Thanh Trường,Phòng khám,0292 3500 153,"Phòng Khám Phan Thanh Trường, 16 Đ. Đinh Tiên Hoàng, An Hội, Ninh Kiều, Cần Thơ 900000","An Hội, Ninh Kiều",16 Đ. Đinh Tiên Hoàng,Cần Thơ,900000.0,"Ninh Kiều, Cần Thơ",VN
344,ChIJBQqumkeIoDERbtrgz8cNV1g,Phòng Khám Tai Mũi Họng Bsck2 Phạm Ngọc Minh Cần thơ,Bệnh viện,0919 232 959,"Phòng Khám Tai Mũi Họng Bsck2 Phạm Ngọc Minh Cần thơ, 102/9 Đ. Ung Văn Khiêm, An Hội, Ninh Kiều, Cần Thơ","An Hội, Ninh Kiều",102/9 Đ. Ung Văn Khiêm,Cần Thơ,,"Ninh Kiều, Cần Thơ",VN
345,ChIJ0UGgrQKIoDER5GKNxc-oz18,Phòng Khám Răng Hàm Mặt Phan Quốc Dũng,Phòng khám nha khoa,0918 648 561,"Phòng Khám Răng Hàm Mặt Phan Quốc Dũng, 53C Nguyễn Trãi, An Hội, Ninh Kiều, Cần Thơ","An Hội, Ninh Kiều",53C Nguyễn Trãi,Cần Thơ,,"Ninh Kiều, Cần Thơ",VN
357,ChIJ6zkD6AOIoDERACnRjUqIMmk,Phòng Khám Tư Nhân - Bs Nguyễn Hoàng Khải,Phòng khám,0913 794 507,"Phòng Khám Tư Nhân - Bs Nguyễn Hoàng Khải, 70 Đ. Cách Mạng Tháng 8, Cái Khế, Ninh Kiều, Cần Thơ","Cái Khế, Ninh Kiều",70 Đ. Cách Mạng Tháng 8,Cần Thơ,,"Ninh Kiều, Cần Thơ",VN
358,ChIJ8e6D4wOIoDERP2dcGiHWq60,Phòng Khám Bệnh BS Trần Thị Mỹ Phương,Phòng khám,0292 3894 356,"Phòng Khám Bệnh BS Trần Thị Mỹ Phương, 58, Đường Cách Mạng Tháng 8, Quận Ninh Kiều, Tp Cần Thơ, Cái Khế, Ninh Kiều, Cần Thơ","Cái Khế, Ninh Kiều","58, Đường Cách Mạng Tháng 8, Quận Ninh Kiều, Tp Cần Thơ",Cần Thơ,,"Ninh Kiều, Cần Thơ",VN
375,ChIJHSTm3gKIoDER9bx9sFqOm_8,Phòng Khám Y Học Cổ Truyền Phương Đông Hồng,Bệnh viện,0292 3767 288,"Phòng Khám Y Học Cổ Truyền Phương Đông Hồng, 17 Hùng Vương, An Hội, Ninh Kiều, Cần Thơ","An Hội, Ninh Kiều",17 Hùng Vương,Cần Thơ,,"Ninh Kiều, Cần Thơ",VN
376,ChIJpVIk4gKIoDERaHmhbznDnzY,Phòng Khám - Bs Trần Trọng Nghiêm,,0292 3810 532,"Phòng Khám - Bs Trần Trọng Nghiêm, 67 Đ. Phan Đăng Lưu, Thới Bình, Ninh Kiều, Cần Thơ","Thới Bình, Ninh Kiều",67 Đ. Phan Đăng Lưu,Cần Thơ,,"Ninh Kiều, Cần Thơ",VN
380,ChIJy9Gi0gSIoDERAPqcg0tFZTg,Phòng Khám Tư Nhân - Bs Nguyễn Tiến An,Phòng khám,,"Phòng Khám Tư Nhân - Bs Nguyễn Tiến An, 141 Đ. Phạm Ngũ Lão, Thới Bình, Ninh Kiều, Cần Thơ","Thới Bình, Ninh Kiều",141 Đ. Phạm Ngũ Lão,Cần Thơ,,"Ninh Kiều, Cần Thơ",VN
384,ChIJj5nwTgOIoDERB1Cf7iSids4,Phòng Khám Ngoài Giờ BS Lê Dũng,Bệnh viện,0947 223 478,"Phòng Khám Ngoài Giờ BS Lê Dũng, 8 Hùng Vương, Thới Bình, Ninh Kiều, Cần Thơ","Thới Bình, Ninh Kiều",8 Hùng Vương,Cần Thơ,,"Ninh Kiều, Cần Thơ",VN
389,ChIJFdUjsw6IoDERT3XIiG5Dh0o,Phòng Khám Y Học Ngọc Hân,Bệnh viện,0979 738 424,"Phòng Khám Y Học Ngọc Hân, 34 Đ. Nguyễn Đệ, An Hoà, Bình Thủy, Cần Thơ","An Hoà, Bình Thủy",34 Đ. Nguyễn Đệ,Cần Thơ,,"Bình Thủy, Cần Thơ",VN
390,ChIJldOjbAyIoDERPDpI99TtpCw,Phòng Khám Anh Tuấn,Bệnh viện,0292 6252 606,"Phòng Khám Anh Tuấn, 42, Nguyễn Đệ, Phường An Thới, Quận Bình Thuỷ, Thành Phố Cần Thơ, An Hoà, Ninh Kiều, Cần Thơ","An Hoà, Ninh Kiều","42, Nguyễn Đệ, Phường An Thới, Quận Bình Thuỷ, Thành Phố Cần Thơ",Cần Thơ,,"Ninh Kiều, Cần Thơ",VN
391,ChIJq6qqBw-IoDER_8eojfXUm-o,Cơ Sở Khám Bệnh Tư Nhân BS Lê Thị Tuyên CK Nội Thần Kinh,Phòng khám,0292 3892 473,"Cơ Sở Khám Bệnh Tư Nhân BS Lê Thị Tuyên CK Nội Thần Kinh, 134A Đ. Nguyễn Văn Cừ, An Hoà, Ninh Kiều, Cần Thơ","An Hoà, Ninh Kiều",134A Đ. Nguyễn Văn Cừ,Cần Thơ,,"Ninh Kiều, Cần Thơ",VN
392,ChIJvTgmcyaJoDER4Igy4UgNVLA,PHÒNG KHÁM BỆNH BÁC SĨ NGUYỄN VĂN LÂM,Phòng khám,0918 822 120,"PHÒNG KHÁM BỆNH BÁC SĨ NGUYỄN VĂN LÂM, 68 Đ. Đồng Văn Cống, An Thới, Bình Thủy, Cần Thơ","An Thới, Bình Thủy",68 Đ. Đồng Văn Cống,Cần Thơ,,"Bình Thủy, Cần Thơ",VN
393,ChIJq6qqBw-IoDER7UXKRk7Yofo,Phòng Khám BS Trần Anh Tiến,Phòng khám,0918 221 195,"Phòng Khám BS Trần Anh Tiến, 390V/14, Đường Nguyễn Văn Cừ, Quận Ninh Kiều, Tp Cần Thơ, An Hoà, Ninh Kiều, Cần Thơ","An Hoà, Ninh Kiều","390V/14, Đường Nguyễn Văn Cừ, Quận Ninh Kiều, Tp Cần Thơ",Cần Thơ,,"Ninh Kiều, Cần Thơ",VN
394,ChIJj0b34BGIoDERQ9sY2GAlKUE,Phòng Khám Tư Nhân - Bs Lương Văn Thái,Phòng khám,0919 455 477,"Phòng Khám Tư Nhân - Bs Lương Văn Thái, 387 Đ. Nguyễn Văn Cừ, An Hoà, Ninh Kiều, Cần Thơ","An Hoà, Ninh Kiều",387 Đ. Nguyễn Văn Cừ,Cần Thơ,,"Ninh Kiều, Cần Thơ",VN
396,ChIJCcEhwA-IoDERtL0rxAH3oVI,Phòng Khám Chuyên Khoa Nội Bs Trần Văn Tính,Bệnh viện,0982 770 998,"Phòng Khám Chuyên Khoa Nội Bs Trần Văn Tính, 35 Đ. Nguyễn Văn Cừ, An Hoà, Ninh Kiều, Cần Thơ","An Hoà, Ninh Kiều",35 Đ. Nguyễn Văn Cừ,Cần Thơ,,"Ninh Kiều, Cần Thơ",VN
397,ChIJUWPRBg2IoDERDc9zVKeXxTM,Phòng Khám Bệnh Tư Nhân Huỳnh Dương Hữu Hạnh,Phòng khám nha khoa,0292 3896 302,"Phòng Khám Bệnh Tư Nhân Huỳnh Dương Hữu Hạnh, 135 Đ. Mậu Thân, An Hoà, Ninh Kiều, Cần Thơ","An Hoà, Ninh Kiều",135 Đ. Mậu Thân,Cần Thơ,,"Ninh Kiều, Cần Thơ",VN
404,ChIJ0Y8LJQqJoDERT8TA1-7-LNA,Phòng khám chuyên khoa nội,Phòng khám chuyên khoa,,"Phòng khám chuyên khoa nội, 112 Đ. Phan Huy Chú, Phường An Khánh, Ninh Kiều, Cần Thơ","Phường An Khánh, Ninh Kiều",112 Đ. Phan Huy Chú,Cần Thơ,,"Ninh Kiều, Cần Thơ",VN
405,ChIJC9iAvxmIoDERz6LTmCPvk9A,Phòng Khám Tư Nhân B.S Nguyễn Văn Bi,Phòng khám,0903 111 661,"Phòng Khám Tư Nhân B.S Nguyễn Văn Bi, 106 Đ. Mậu Thân, An Nghiệp, Ninh Kiều, Cần Thơ","An Nghiệp, Ninh Kiều",106 Đ. Mậu Thân,Cần Thơ,,"Ninh Kiều, Cần Thơ",VN
407,ChIJX3tWc8SHoDERLABbUBJ6SmY,Phòng Khám Đông Y - Lâm Phượng Hưng,Phòng khám,0947 456 780,"Phòng Khám Đông Y - Lâm Phượng Hưng, 138D7 Đ. Nguyễn Văn Cừ, Phường An Khánh, Ninh Kiều, Cần Thơ 900000","Phường An Khánh, Ninh Kiều",138D7 Đ. Nguyễn Văn Cừ,Cần Thơ,900000.0,"Ninh Kiều, Cần Thơ",VN
408,ChIJIZOBeW2IoDERziLhwPzLJ2E,Phòng Khám BS Lưu Hùng Dũng,Bệnh viện,0292 3899 265,"Phòng Khám BS Lưu Hùng Dũng, 1B, Đường 6A, Khu Vực 4, Phường An Khánh, Quận Ninh Kiều, Thành Phố Cần Thơ, Phường An Khánh, Ninh Kiều, Cần Thơ","Phường An Khánh, Ninh Kiều","1B, Đường 6A, Khu Vực 4, Phường An Khánh, Quận Ninh Kiều, Thành Phố Cần Thơ",Cần Thơ,,"Ninh Kiều, Cần Thơ",VN
412,ChIJgb8b-BGIoDERrIsFxVGFsRU,Phòng Khám Bệnh Bác Sỹ Dương Hoàng Vũ,Bệnh viện,0913 822 633,"Phòng Khám Bệnh Bác Sỹ Dương Hoàng Vũ, 163 D1 Đ. Nguyễn Văn Cừ, An Hoà, Ninh Kiều, Cần Thơ","An Hoà, Ninh Kiều",163 D1 Đ. Nguyễn Văn Cừ,Cần Thơ,,"Ninh Kiều, Cần Thơ",VN
413,ChIJjygnSvyJoDERcUIO7XTIGSM,Phòng khám Lê Bé Sáu,Phòng khám,0945 902 211,"Phòng khám Lê Bé Sáu, 17 Đường Số 9, Phường An Khánh, Ninh Kiều, Cần Thơ 900000","Phường An Khánh, Ninh Kiều",17 Đường Số 9,Cần Thơ,900000.0,"Ninh Kiều, Cần Thơ",VN
415,ChIJ_fb4DGiIoDERyjk38lG0Qok,Phòng Khám Bác Sĩ Hiệp - Gấm,Phòng khám nha khoa,7103559509,"Phòng Khám Bác Sĩ Hiệp - Gấm, 329C, QL91B, Phường An Khánh, Bình Thủy, Cần Thơ","Phường An Khánh, Bình Thủy","329C, QL91B",Cần Thơ,,"Bình Thủy, Cần Thơ",VN
417,ChIJyePWpI-JoDERn-smNw5vLPo,Phòng khám BS Nguyễn Thành Công,Phòng khám chỉnh hình,0932 994 988,"Phòng khám BS Nguyễn Thành Công, Đường Số 7, Phường An Khánh, Ninh Kiều, Cần Thơ","Phường An Khánh, Ninh Kiều",Đường Số 7,Cần Thơ,,"Ninh Kiều, Cần Thơ",VN
419,ChIJt5AZ9m-JoDERgl_Jrf0ZuRo,Phòng khám ThS.BS Phan Thùy Ngân - Chuyên khoa Răng Hàm Mặt,Phòng khám nha khoa,0942 775 567,"Phòng khám ThS.BS Phan Thùy Ngân - Chuyên khoa Răng Hàm Mặt, 298/4 Hẻm 4, Phường An Khánh, Ninh Kiều, Cần Thơ","Phường An Khánh, Ninh Kiều",298/4 Hẻm 4,Cần Thơ,,"Ninh Kiều, Cần Thơ",VN
421,ChIJjbvD0VWIoDERE44yvX6kmgg,Phòng Khám Tư Nhân Bs Chuyên Khoa I: Lê Văn Viên,Phòng khám,,"2P9Q+42F Phòng Khám Tư Nhân Bs Chuyên Khoa I: Lê Văn Viên, Đường Số 3, An Bình, Bình Thủy, Cần Thơ","An Bình, Bình Thủy","2P9Q+42F, Đường Số 3",Cần Thơ,,"Bình Thủy, Cần Thơ",VN
422,ChIJNRcnOWyJoDERUtAFbIC_7XE,Phòng khám Nhi - ThS.BS. Nguyễn Huỳnh Ái Uyên,Phòng khám,0904 450 515,"Phòng khám Nhi - ThS.BS. Nguyễn Huỳnh Ái Uyên, 351AA Nguyễn Văn Cừ Nối Dài, An Bình, Ninh Kiều, Cần Thơ 900000","An Bình, Ninh Kiều",351AA Nguyễn Văn Cừ Nối Dài,Cần Thơ,900000.0,"Ninh Kiều, Cần Thơ",VN
423,ChIJ5xON6jTWgkURZWTgB2bDsHU,Phòng khám cơ xương khớp Tâm An,Phòng khám,0292 3838 115,,,,,,,
424,ChIJ0TzvQrOJoDER2CD2K2MUBCU,Phòng Khám Bệnh BS Phan Thị Thu Ngân,Phòng khám miễn phí,0918 542 879,"Phòng Khám Bệnh BS Phan Thị Thu Ngân, 115T/3, Quốc Lộ 1A, P. An Bình, Quận Ninh Kiều, An Bình, Ninh Kiều, Cần Thơ","An Bình, Ninh Kiều","115T/3, Quốc Lộ 1A, P. An Bình, Quận Ninh Kiều",Cần Thơ,,"Ninh Kiều, Cần Thơ",VN
425,ChIJzad8G7KJoDER0LtMPyz2Hhs,Phòng Khám Tư Nhân BS Nguyễn Thị Thanh Vân,Tư vấn viên,0292 3915 065,"Phòng Khám Tư Nhân BS Nguyễn Thị Thanh Vân, 185/3, Đường Lộ Vòng Cung, Quận Ninh Kiều, An Bình, Ninh Kiều, Cần Thơ","An Bình, Ninh Kiều","185/3, Đường Lộ Vòng Cung, Quận Ninh Kiều",Cần Thơ,,"Ninh Kiều, Cần Thơ",VN
426,ChIJEdZ1jbmJoDERaI3sn9l3oQ8,Phòng khám BS. Nguyễn Hữu Thuyết,Phòng khám chỉnh hình,,"Phòng khám BS. Nguyễn Hữu Thuyết, 82 Đường số 3, Phường An Khánh, Ninh Kiều, Cần Thơ","Phường An Khánh, Ninh Kiều",82 Đường số 3,Cần Thơ,,"Ninh Kiều, Cần Thơ",VN
427,ChIJG0hylgiJoDERREsqmyY4oHk,Phòng Khám Thạc Sĩ Bác Sĩ Luân,Phòng khám chuyên khoa,,"2Q62+JH8 Phòng Khám Thạc Sĩ Bác Sĩ Luân, An Bình, Ninh Kiều, Cần Thơ","An Bình, Ninh Kiều",2Q62+JH8,Cần Thơ,,"Ninh Kiều, Cần Thơ",VN
428,ChIJrauYP_iJoDERSWAdNmbrCPI,Phòng khám BS Phúc - BS Nhân,Phòng khám chuyên khoa,0794 966 579,"Phòng khám BS Phúc - BS Nhân, 30 Đ. Trần Hoàng Na, Khu dân cư 91B, Ninh Kiều, Cần Thơ","Khu dân cư 91B, Ninh Kiều",30 Đ. Trần Hoàng Na,Cần Thơ,,"Ninh Kiều, Cần Thơ",VN
429,ChIJp1RWUDeIoDERv_mJw12ZOwA,Phòng khám Nam Khoa Adam Health Care,Phòng khám,0916 466 276,"Phòng khám Nam Khoa Adam Health Care, 306 Đ. Nguyễn Văn Linh, Phường An Khánh, Ninh Kiều, Cần Thơ","Phường An Khánh, Ninh Kiều",306 Đ. Nguyễn Văn Linh,Cần Thơ,,"Ninh Kiều, Cần Thơ",VN
430,ChIJA8o06TqIoDER5KROIFnI8yI,Phòng Khám,,,"Phòng Khám, 164/1B Đ. Trần Ngọc Quế, Xuân Khánh, Ninh Kiều, Cần Thơ","Xuân Khánh, Ninh Kiều",164/1B Đ. Trần Ngọc Quế,Cần Thơ,,"Ninh Kiều, Cần Thơ",VN
432,ChIJqWjgPBSJoDERO1DkUuvkcyo,Phòng Khám Nội Nhi: Bs Khoa - Bs Quyên,Phòng khám chuyên khoa,,"XPW8+R8X Phòng Khám Nội Nhi: Bs Khoa - Bs Quyên, Nguyễn Văn Cừ Nối Dài, Mỹ Khánh, Phong Điền, Cần Thơ","Mỹ Khánh, Phong Điền","XPW8+R8X, Nguyễn Văn Cừ Nối Dài",Cần Thơ,,"Phong Điền, Cần Thơ",VN
433,ChIJa8mlhISJoDER6GX6Baa225Q,Phòng khám bs Đức,Phòng khám,,"Phòng khám bs Đức, A3, Khu dân cư 923, An Bình, Ninh Kiều","An Bình, Ninh Kiều","A3, Khu dân cư 923",Cần Thơ,,"Ninh Kiều, Cần Thơ",VN
434,ChIJ_W9MFqGJoDERlC8g2-ujR6M,Phòng Khám Tư Nguyễn Thanh Hồng,Phòng khám,0918 294 934,"Phòng Khám Tư Nguyễn Thanh Hồng, 54 Lộ Vòng Cung, An Bình, Ninh Kiều, Cần Thơ","An Bình, Ninh Kiều",54 Lộ Vòng Cung,Cần Thơ,,"Ninh Kiều, Cần Thơ",VN
441,ChIJe3E_1EqIoDERBc-exoi6R64,Phòng Khám Tư Nhân - Bs Đỗ Gia,Phòng khám,0292 2482 015,"Phòng Khám Tư Nhân - Bs Đỗ Gia, 27 Đ. 30 Tháng 4, Hưng Lợi, Ninh Kiều, Cần Thơ","Hưng Lợi, Ninh Kiều",27 Đ. 30 Tháng 4,Cần Thơ,,"Ninh Kiều, Cần Thơ",VN
442,ChIJIbpXxUqIoDERw0rq6JkDnZw,Phòng Khám Tư Nhân - Bs Cao Thành Quý,Phòng khám,,"Phòng Khám Tư Nhân - Bs Cao Thành Quý, 29 Đ. 3 Tháng 2, Hưng Lợi, Ninh Kiều, Cần Thơ","Hưng Lợi, Ninh Kiều",29 Đ. 3 Tháng 2,Cần Thơ,,"Ninh Kiều, Cần Thơ",VN
444,ChIJuWugAbeJoDER4X7kCRF3BL0,Phòng Khám Bệnh BS Minh - BS Linh,Phòng khám miễn phí,0292 3813 139,"Phòng Khám Bệnh BS Minh - BS Linh, 103, Đường Hậu Thạnh Mỹ, Quận Cái Răng, Lê Bình, Cái Răng, Cần Thơ","Lê Bình, Cái Răng","103, Đường Hậu Thạnh Mỹ, Quận Cái Răng",Cần Thơ,,"Cái Răng, Cần Thơ",VN
445,ChIJV3pXi7eJoDERTuojMkMTeTo,Phòng Khám Bs Ngọc Danh,Phòng khám,0916 687 983,"Phòng Khám Bs Ngọc Danh, 40 Trần Chiên, Lê Bình, Cái Răng, Cần Thơ","Lê Bình, Cái Răng",40 Trần Chiên,Cần Thơ,,"Cái Răng, Cần Thơ",VN
446,ChIJv5_NVDOIoDERib3MV2T7NMI,Phòng Khám Tư Nhân - Bs Nhân,Phòng khám,0292 3521 789,"Phòng Khám Tư Nhân - Bs Nhân, 40 Đ. Trần Hoàng Na, Hưng Lợi, Ninh Kiều, Cần Thơ 900000","Hưng Lợi, Ninh Kiều",40 Đ. Trần Hoàng Na,Cần Thơ,900000.0,"Ninh Kiều, Cần Thơ",VN
452,ChIJTePufkiIoDERp65aeVHhFUk,Phòng Khám Siêu Âm BS Huỳnh Đào,Bệnh viện,0292 3731 281,"2QF4+494 Phòng Khám Siêu Âm BS Huỳnh Đào, Đ. Nguyễn Hiền, Khu dân cư 91B, Ninh Kiều, Cần Thơ","Khu dân cư 91B, Ninh Kiều","2QF4+494, Đ. Nguyễn Hiền",Cần Thơ,,"Ninh Kiều, Cần Thơ",VN
454,ChIJnxgaw0eIoDERaNUsGk7uZj4,Phòng Khám Bệnh BS Võ Thị Hồng,Bệnh viện,0913 656 544,"Phòng Khám Bệnh BS Võ Thị Hồng, 67A1 Đ. Nguyễn Hiền, Khu dân cư 91B, Ninh Kiều, Cần Thơ","Khu dân cư 91B, Ninh Kiều",67A1 Đ. Nguyễn Hiền,Cần Thơ,,"Ninh Kiều, Cần Thơ",VN
455,ChIJFZgzf0iIoDERT1erMaVMoEw,Phòng Khám - Bs Cao Hoàng Anh,,0292 3731 281,"Phòng Khám - Bs Cao Hoàng Anh, 111 Đ. Nguyễn Hiền, Hưng Lợi, Ninh Kiều, Cần Thơ","Hưng Lợi, Ninh Kiều",111 Đ. Nguyễn Hiền,Cần Thơ,,"Ninh Kiều, Cần Thơ",VN
456,ChIJwy1k4HKJoDERTZX8s-AmH1E,Phòng khám siêu âm BS Đằng,Trung tâm y tế cộng đồng,0944 093 977,"2QC7+VMJ Phòng khám siêu âm BS Đằng, Hưng Lợi, Ninh Kiều, Cần Thơ","Hưng Lợi, Ninh Kiều",2QC7+VMJ,Cần Thơ,,"Ninh Kiều, Cần Thơ",VN
457,ChIJ6USSuEeIoDER2jcBLQDZWCk,Phòng Khám BS Hiệp,Bệnh viện,0913 737 376,"Phòng Khám BS Hiệp, 40, Đường B15, Quận Cái Răng, Thành Phố Cần Thơ, Hưng Lợi, Ninh Kiều, Cần Thơ","Hưng Lợi, Ninh Kiều","40, Đường B15, Quận Cái Răng, Thành Phố Cần Thơ",Cần Thơ,,"Ninh Kiều, Cần Thơ",VN
458,ChIJI1gqmDeIoDERGUSJTt66FQs,Phòng Khám BS Bảy,Bệnh viện,0292 3838 922,"Phòng Khám BS Bảy, 23 Đường Chính, Hưng Lợi, Ninh Kiều, Cần Thơ","Hưng Lợi, Ninh Kiều",23 Đường Chính,Cần Thơ,,"Ninh Kiều, Cần Thơ",VN
460,ChIJddr-izqIoDERBKX2rt5q4KM,Phòng Khám Bệnh Tư Nhân Bác Sĩ Trợ,Phòng khám miễn phí,0292 3739 207,"Phòng Khám Bệnh Tư Nhân Bác Sĩ Trợ, 172/11B Đ. Lê Bình, Xuân Khánh, Ninh Kiều, Cần Thơ","Xuân Khánh, Ninh Kiều",172/11B Đ. Lê Bình,Cần Thơ,,"Ninh Kiều, Cần Thơ",VN
463,ChIJa_qx1EaIoDER_2j8gRzq0Dk,Phòng Khám Bệnh Tư Nhân Trần Quốc Bảo,Phòng khám,0913 210 861,"Phòng Khám Bệnh Tư Nhân Trần Quốc Bảo, 329B Đ. Nguyễn Văn Linh, Phường An Khánh, Ninh Kiều, Cần Thơ","Phường An Khánh, Ninh Kiều",329B Đ. Nguyễn Văn Linh,Cần Thơ,,"Ninh Kiều, Cần Thơ",VN
464,ChIJN5Z__jSIoDER9scxnRjfSsI,Phòng Khám Bệnh Tư Nhân,Tư vấn viên,0292 3828 359,"Phòng Khám Bệnh Tư Nhân, 108/35 Đường 30/04, Hưng Lợi, Ninh Kiều, Cần Thơ","Hưng Lợi, Ninh Kiều",108/35 Đường 30/04,Cần Thơ,,"Ninh Kiều, Cần Thơ",VN
465,ChIJlXKZyUOIoDERiZRCeDOVSPI,Phòng Khám - Bs Trần Thị Phương Thảo,Phòng khám,,"Phòng Khám - Bs Trần Thị Phương Thảo, 289 Đ. Nguyễn Văn Linh, Phường An Khánh, Ninh Kiều, Cần Thơ","Phường An Khánh, Ninh Kiều",289 Đ. Nguyễn Văn Linh,Cần Thơ,,"Ninh Kiều, Cần Thơ",VN
466,ChIJAUw3y0aIoDERx_DmmO9ZLK0,Phòng Khám - Bs Lại Văn Nông & Nguyễn Hữu Kỳ Phương,Phòng khám,0292 3895 212,"Phòng Khám - Bs Lại Văn Nông & Nguyễn Hữu Kỳ Phương, 313 QL91B, Phường An Khánh, Bình Thủy, Cần Thơ","Phường An Khánh, Bình Thủy",313 QL91B,Cần Thơ,,"Bình Thủy, Cần Thơ",VN
467,ChIJx6JojzaIoDEREBuwUUeY6HE,Phòng Khám Bác Sĩ Năng,Bệnh viện,,"Phòng Khám Bác Sĩ Năng, 133D Đ. 3 Tháng 2, Hưng Lợi, Ninh Kiều, Cần Thơ","Hưng Lợi, Ninh Kiều",133D Đ. 3 Tháng 2,Cần Thơ,,"Ninh Kiều, Cần Thơ",VN
469,ChIJJUK7DGCJoDERbKErPGzCBf8,Phòng khám bệnh Bs Nghiêm Bs Hiền,Phòng khám chuyên khoa,0918 846 654,"Phòng khám bệnh Bs Nghiêm Bs Hiền, 18A1 Đ. Nguyễn Hiền, Khu dân cư 91B, Ninh Kiều, Cần Thơ","Khu dân cư 91B, Ninh Kiều",18A1 Đ. Nguyễn Hiền,Cần Thơ,,"Ninh Kiều, Cần Thơ",VN
470,ChIJ6-cwiDqIoDERlKFL5b00DrA,Phòng Khám Tư Nhân - Bs Trần Văn Thường,Phòng khám,0292 3739 468,"Phòng Khám Tư Nhân - Bs Trần Văn Thường, 174 Đ. Lê Bình, Hưng Lợi, Ninh Kiều, Cần Thơ","Hưng Lợi, Ninh Kiều",174 Đ. Lê Bình,Cần Thơ,,"Ninh Kiều, Cần Thơ",VN
476,ChIJ-UK6qTSIoDER8aSEhmiGWBI,Phòng Khám Siêu Âm Màu 40,Bệnh viện,0918 939 705,"2Q67+RMQ Phòng Khám Siêu Âm Màu 40, 39A Đ. Trần Hoàng Na, Hưng Lợi, Ninh Kiều, Cần Thơ","Hưng Lợi, Ninh Kiều","2Q67+RMQ, 39A Đ. Trần Hoàng Na",Cần Thơ,,"Ninh Kiều, Cần Thơ",VN
477,ChIJ1xU1bzGIoDERR-445rhTdkg,Phòng Khám BS Huỳnh Hùng Dũng,Bệnh viện,0918 025 052,"Phòng Khám BS Huỳnh Hùng Dũng, 524 Hẻm 553, Hưng Lợi, Ninh Kiều, Cần Thơ","Hưng Lợi, Ninh Kiều",524 Hẻm 553,Cần Thơ,,"Ninh Kiều, Cần Thơ",VN
480,ChIJLSuGSs2JoDERphcrfVP4JBc,Phòng Khám BS Nguyễn Văn Hải,Phòng khám,0292 3838 716,"Phòng Khám BS Nguyễn Văn Hải, 228B, Đường Tầm Vu, Quận Ninh Kiều, Tp Cần Thơ, Hưng Lợi, Ninh Kiều, Cần Thơ","Hưng Lợi, Ninh Kiều","228B, Đường Tầm Vu, Quận Ninh Kiều, Tp Cần Thơ",Cần Thơ,,"Ninh Kiều, Cần Thơ",VN
481,ChIJwxlJZC2IoDERL1H0Gos_Q_c,Phòng Khám Tư Nhân - Bs Đặng Văn Hải,Phòng khám,,"Phòng Khám Tư Nhân - Bs Đặng Văn Hải, 228 Tầm Vu, Hưng Lợi, Ninh Kiều, Cần Thơ","Hưng Lợi, Ninh Kiều",228 Tầm Vu,Cần Thơ,,"Ninh Kiều, Cần Thơ",VN
482,ChIJJZaIWzSIoDERwgdnyYwyop8,Phòng Khám Răng,Phòng khám,0292 3828 936,"Phòng Khám Răng, 232/16, Đường 30/4, Quận Ninh Kiều, TP Cần Thơ, Hưng Lợi, Ninh Kiều, Cần Thơ","Hưng Lợi, Ninh Kiều","232/16, Đường 30/4, Quận Ninh Kiều, TP Cần Thơ",Cần Thơ,,"Ninh Kiều, Cần Thơ",VN
483,ChIJKcyPpMqJoDERV68BvFmk-co,Phòng Khám Bác Sĩ Đỗ Văn Chính,Bệnh viện,0939 193 033,"Phòng Khám Bác Sĩ Đỗ Văn Chính, 91/28B, Đường 30/4, Phường Hưng Lợi, Quận Ninh Kiều, Thành Phố Cần Thơ, Hưng Lợi, Ninh Kiều, Cần Thơ","Hưng Lợi, Ninh Kiều","91/28B, Đường 30/4, Phường Hưng Lợi, Quận Ninh Kiều, Thành Phố Cần Thơ",Cần Thơ,,"Ninh Kiều, Cần Thơ",VN
485,ChIJ853AUCSIoDER0a5lt5dn_Fk,Phòng Khám Bệnh Phụ Sản Lê Minh Nguyệt,Phòng khám miễn phí,0859 146 868,"Phòng Khám Bệnh Phụ Sản Lê Minh Nguyệt, C90, Đường Đ. Trần Khánh Dư, Xuân Khánh, Ninh Kiều, Cần Thơ","Xuân Khánh, Ninh Kiều","C90, Đường Đ. Trần Khánh Dư",Cần Thơ,,"Ninh Kiều, Cần Thơ",VN
487,ChIJiVyCWSWIoDERtzs6Jhfoayc,Phòng Khám Tư Nhân Bác Sĩ Dạ Hương,Phòng khám chuyên khoa,0292 3646 666,"Phòng Khám Tư Nhân Bác Sĩ Dạ Hương, 17/15, Đường 30-4, Phường An Lạc, Quận Ninh Kiều, Thành Phố Cần Thơ, Xuân Khánh, Ninh Kiều, Cần Thơ","Xuân Khánh, Ninh Kiều","17/15, Đường 30-4, Phường An Lạc, Quận Ninh Kiều, Thành Phố Cần Thơ",Cần Thơ,,"Ninh Kiều, Cần Thơ",VN
489,ChIJoVXrUiGIoDERamga1Y1VzSs,Phòng Khám Nội - Bs Lê Thắng,Phòng khám,0292 3838 029,"Phòng Khám Nội - Bs Lê Thắng, 18 Đ. Mậu Thân, An Phú, Ninh Kiều, Cần Thơ","An Phú, Ninh Kiều",18 Đ. Mậu Thân,Cần Thơ,,"Ninh Kiều, Cần Thơ",VN
490,ChIJ0Wr7-zqIoDERTKQfxV_Gu_g,Phòng Khám - Bs Trần Trường Giang,Phòng khám,0292 3885 555,"Phòng Khám - Bs Trần Trường Giang, 166 Đ. 3 Tháng 2, Xuân Khánh, Ninh Kiều, Cần Thơ","Xuân Khánh, Ninh Kiều",166 Đ. 3 Tháng 2,Cần Thơ,,"Ninh Kiều, Cần Thơ",VN
493,ChIJcY9OShiIoDERUl7ApQG53eU,Phòng Khám Bệnh Tư Nhân Trần Thị Phương Đan,Phòng khám,,"Phòng Khám Bệnh Tư Nhân Trần Thị Phương Đan, 25K Đinh Công Tráng, An Nghiệp, Ninh Kiều, Cần Thơ","An Nghiệp, Ninh Kiều",25K Đinh Công Tráng,Cần Thơ,,"Ninh Kiều, Cần Thơ",VN
494,ChIJlV7tE5aJoDER-JRwT9TvyKA,Phòng khám Bắc Phương,Phòng khám,0906 828 161,"Phòng khám Bắc Phương, 25b Cao Thắng, Xuân Khánh, Ninh Kiều, Cần Thơ 902070","Xuân Khánh, Ninh Kiều",25b Cao Thắng,Cần Thơ,902070.0,"Ninh Kiều, Cần Thơ",VN
495,ChIJI-KR7RWIoDERLAj6W37qPxE,Phòng Khám Tư - Bs Đào Trọng Thắng,Phòng khám,,"2QM7+Q8R Phòng Khám Tư - Bs Đào Trọng Thắng, Nguyễn Văn Cừ Nối Dài, Xuân Khánh, Ninh Kiều, Cần Thơ","Xuân Khánh, Ninh Kiều","2QM7+Q8R, Nguyễn Văn Cừ Nối Dài",Cần Thơ,,"Ninh Kiều, Cần Thơ",VN
497,ChIJa8J4YhiIoDER16gTyXCeoWc,Phòng Khám Bệnh Tư Nhân,Phòng khám miễn phí,0292 3821 454,"Phòng Khám Bệnh Tư Nhân, 2 Đ. Mậu Thân, An Phú, Ninh Kiều, Cần Thơ","An Phú, Ninh Kiều",2 Đ. Mậu Thân,Cần Thơ,,"Ninh Kiều, Cần Thơ",VN
498,ChIJ8VsCENSJoDERtppaXKuenIk,Phòng Khám Bs Lam - BV 121,Phòng khám chuyên khoa,0988 988 399,"Phòng Khám Bs Lam - BV 121, C152 Đ. Trần Văn Hoài, Xuân Khánh, Ninh Kiều, Cần Thơ","Xuân Khánh, Ninh Kiều",C152 Đ. Trần Văn Hoài,Cần Thơ,,"Ninh Kiều, Cần Thơ",VN
499,ChIJiQEkXRiIoDERteDd4K0QVPs,Phòng Khám Răng,Phòng khám,0292 3830 273,"Phòng Khám Răng, 19/2, Mậu Thân, Quận Ninh Kiều, TP Cần Thơ, An Phú, Ninh Kiều, Cần Thơ","An Phú, Ninh Kiều","19/2, Mậu Thân, Quận Ninh Kiều, TP Cần Thơ",Cần Thơ,,"Ninh Kiều, Cần Thơ",VN
500,ChIJa6q9KlSJoDERisI3ubMw7W8,Phòng khám bệnh,Phòng khám,0983 707 763,"Phòng khám bệnh, Đ. Trần Khánh Dư, Xuân Khánh, Ninh Kiều, Cần Thơ 900000","Xuân Khánh, Ninh Kiều",Đ. Trần Khánh Dư,Cần Thơ,900000.0,"Ninh Kiều, Cần Thơ",VN
501,ChIJj55zLyKIoDER3XudIA9bCok,Phòng Khám Tư Nhân B.S Đàm Xuân Tùng,Phòng khám,,"Phòng Khám Tư Nhân B.S Đàm Xuân Tùng, 134 Đ. Mậu Thân, An Phú, Ninh Kiều, Cần Thơ","An Phú, Ninh Kiều",134 Đ. Mậu Thân,Cần Thơ,,"Ninh Kiều, Cần Thơ",VN
502,ChIJW9JrUSOIoDERvVclL_J_IQU,Phòng Khám Tư Nhân - Bs Trịnh Thị Bích Liên,Phòng khám,0292 3831 881,"Phòng Khám Tư Nhân - Bs Trịnh Thị Bích Liên, 128 Đ. 3 Tháng 2, Xuân Khánh, Ninh Kiều, Cần Thơ","Xuân Khánh, Ninh Kiều",128 Đ. 3 Tháng 2,Cần Thơ,,"Ninh Kiều, Cần Thơ",VN
503,ChIJ-XbRHCSIoDER2or5TwX8rDU,Phòng Khám Tư Nhân - Bs Lâm Thị Ngọc Danh,Phòng khám,0916 687 983,"Phòng Khám Tư Nhân - Bs Lâm Thị Ngọc Danh, 6 Đ. 30 Tháng 4, Xuân Khánh, Ninh Kiều, Cần Thơ","Xuân Khánh, Ninh Kiều",6 Đ. 30 Tháng 4,Cần Thơ,,"Ninh Kiều, Cần Thơ",VN
507,ChIJEXa01xiIoDER5pGwUdUg61s,Phòng Khám Nguyễn Văn Lâm,Phòng khám,0292 2240 878,"Phòng Khám Nguyễn Văn Lâm, 188 Đ. Trần Hưng Đạo, An Phú, Ninh Kiều, Cần Thơ","An Phú, Ninh Kiều",188 Đ. Trần Hưng Đạo,Cần Thơ,,"Ninh Kiều, Cần Thơ",VN
508,ChIJpZr2gx-IoDERl9271jINfcI,Phòng Khám Bệnh BS Tạ Vũ Quỳnh,Phòng khám,0292 3830 446,"Phòng Khám Bệnh BS Tạ Vũ Quỳnh, 18 Đ. Lê Lai, An Lạc, Ninh Kiều, Cần Thơ 92000","An Lạc, Ninh Kiều",18 Đ. Lê Lai,Cần Thơ,92000.0,"Ninh Kiều, Cần Thơ",VN
510,ChIJRTRkLyKIoDERIVTciAOA0Ms,Phòng Khám Bác Sĩ Phạm Thanh Phong,Phòng khám miễn phí,,"Phòng Khám Bác Sĩ Phạm Thanh Phong, 134E Đ. Mậu Thân, An Phú, Ninh Kiều, Cần Thơ","An Phú, Ninh Kiều",134E Đ. Mậu Thân,Cần Thơ,,"Ninh Kiều, Cần Thơ",VN
511,ChIJI172AiSIoDERxGF4Sh56NPw,Phòng Khám Nội Khoa - Bs Bùi Quang Trung,Phòng khám,0292 3840 056,"Phòng Khám Nội Khoa - Bs Bùi Quang Trung, 13 Đ. 30 Tháng 4, Xuân Khánh, Ninh Kiều, Cần Thơ","Xuân Khánh, Ninh Kiều",13 Đ. 30 Tháng 4,Cần Thơ,,"Ninh Kiều, Cần Thơ",VN
515,ChIJq8i76h-IoDERiEiPP-oiAzQ,Phòng khám bệnh tư nhân và siêu âm Bs,Phòng khám,,"Phòng khám bệnh tư nhân và siêu âm Bs, 86 Đ. Lý Tự Trọng, Tân An, Ninh Kiều, Cần Thơ","Tân An, Ninh Kiều",86 Đ. Lý Tự Trọng,Cần Thơ,,"Ninh Kiều, Cần Thơ",VN
521,ChIJxUzS7R-IoDERGi-_BM0UtJs,Phòng Khám BS Nguyễn Thị Ngọc Trâm,Bệnh viện,0292 3831 315,"Phòng Khám BS Nguyễn Thị Ngọc Trâm, 174, Lý Tự Trọng, Phường An Cư, Quận Ninh Kiều, Thành Phố Cần Thơ, Tân An, Ninh Kiều, Cần Thơ","Tân An, Ninh Kiều","174, Lý Tự Trọng, Phường An Cư, Quận Ninh Kiều, Thành Phố Cần Thơ",Cần Thơ,,"Ninh Kiều, Cần Thơ",VN
522,ChIJ4Rn-8qBioDERjGnsjg5kxUk,Phòng Khám Bệnh Đông Y,Bệnh viện,0292 3827 169,"Phòng Khám Bệnh Đông Y, 87A, Ngô Quyền, Quận Ninh Kiều, Tp Cần Thơ","Tân An, Ninh Kiều","87A, Ngô Quyền, Quận Ninh Kiều, Tp Cần Thơ",Cần Thơ,,"Ninh Kiều, Cần Thơ",VN
527,ChIJl-9cAh-IoDERSRnZMLBStXw,Phòng Khám Bệnh Ngoài Giờ Thạc Sĩ Bác Sĩ Nguyễn Thị Bạch Huệ,Phòng khám,0292 3830 725,"Phòng Khám Bệnh Ngoài Giờ Thạc Sĩ Bác Sĩ Nguyễn Thị Bạch Huệ, 86/22, Lý Tự Trọng, Quận Ninh Kiều, Phường An Cư, TP Cần Thơ","An Cư, Ninh Kiều","86/22, Lý Tự Trọng, Quận Ninh Kiều, Phường An Cư, TP Cần Thơ",Cần Thơ,,"Ninh Kiều, Cần Thơ",VN
528,ChIJfcNNkh-IoDERJXcSfZxA1EY,Phòng khám Câu Lạc bộ Sức khoẻ Phụ nữ,Phòng khám,0292 3834 807,"2QMJ+C49 Phòng khám Câu Lạc bộ Sức khoẻ Phụ nữ, Nhà chữ C, Công viên Lưu Hữu Phước, Đ. Phan Văn Trị, An Lạc, Ninh Kiều, Cần Thơ","An Lạc, Ninh Kiều","2QMJ+C49, Nhà chữ C, Công viên Lưu Hữu Phước, Đ. Phan Văn Trị",Cần Thơ,,"Ninh Kiều, Cần Thơ",VN
534,ChIJTR6GAiSIoDERiBPNZWFEdS8,Phòng Khám Nội Khoa - Bs Lương Được Em,Phòng khám,0292 3828 483,"Phòng Khám Nội Khoa - Bs Lương Được Em, 14 Đ. 30 Tháng 4, Xuân Khánh, Ninh Kiều, Cần Thơ","Xuân Khánh, Ninh Kiều",14 Đ. 30 Tháng 4,Cần Thơ,,"Ninh Kiều, Cần Thơ",VN
535,ChIJJYbJvZ9ioDERCaZdXpxE8mo,Phòng Khám 153,Bệnh viện,0292 3820 826,"Phòng Khám 153, 153 Đường Châu Văn Liêm, Tân An, Ninh Kiều, Cần Thơ","Tân An, Ninh Kiều",153 Đường Châu Văn Liêm,Cần Thơ,,"Ninh Kiều, Cần Thơ",VN
