,place_id,name,main_category,phone,address,address_ward,address_street,address_city,address_postal_code,address_state,address_country_code
0,ChIJT8byj0WJoDERXX86J7NCn_k,YODY Nguyễn Trãi - Cần Thơ 2,Cửa hàng quần áo,0888 064 258,"YODY Nguyễn Trãi - Cần Thơ 2, 90-92 Nguyễn Trãi, An Hội, Ninh Kiều, Cần Thơ 94107","An Hội, Ninh Kiều",90-92 Nguyễn Trãi,Cần Thơ,94107.0,"Ninh Kiều, Cần Thơ",VN
4,ChIJvxc2B1OJoDERB-ymIKta8UM,HƯỚNG DƯƠNG STORE - Chuyên Hàng Thanh Lý Giá Rẻ Cần Thơ,Cửa hàng quần áo nữ,0975 574 594,"HƯỚNG DƯƠNG STORE - Chuyên Hàng Thanh Lý Giá Rẻ Cần Thơ, 394/5 Hẻm Liên Tổ 4-5, Phường An Khánh, Ninh Kiều, Cần Thơ","Phường An Khánh, Ninh Kiều",394/5 Hẻm Liên Tổ 4-5,Cần Thơ,,"Ninh Kiều, Cần Thơ",VN
5,ChIJkUlalSOIoDERlSyWoWMgW6I,SUPIHOUSE,Cửa hàng quần áo,0869 170 917,"SUPIHOUSE, 44 Đ. Mạc Thiên Tích, Xuân Khánh, Ninh Kiều, Cần Thơ","Xuân Khánh, Ninh Kiều",44 Đ. Mạc Thiên Tích,Cần Thơ,,"Ninh Kiều, Cần Thơ",VN
6,ChIJsS99ph-IoDERkYOYO_B8SeM,Adam Store,Cửa hàng quần áo nam,0292 6559 555,"Adam Store, 187 Đ. Nguyễn Văn Cừ, An Bình, Ninh Kiều, Cần Thơ","An Bình, Ninh Kiều",187 Đ. Nguyễn Văn Cừ,Cần Thơ,,"Ninh Kiều, Cần Thơ",VN
7,ChIJt4in7ttjoDERUlfh_WTzk3U,OLV Cần Thơ,Cửa hàng quần áo nữ,0907 858 086,"OLV Cần Thơ, 55 Đ. Ngô Văn Sở, Tân An, Ninh Kiều, Cần Thơ","Tân An, Ninh Kiều",55 Đ. Ngô Văn Sở,Cần Thơ,,"Ninh Kiều, Cần Thơ",VN
8,ChIJKTm9rLyJoDERSnE3kpx03qk,COMI · Thanh Lý Ký Gửi,Cửa hàng quần áo nữ,0907 901 685,"COMI · Thanh Lý Ký Gửi, 52/2B Hùng Vương, An Cư, Ninh Kiều, Cần Thơ 900000","An Cư, Ninh Kiều",52/2B Hùng Vương,Cần Thơ,900000.0,"Ninh Kiều, Cần Thơ",VN
14,ChIJFRZEDSKIoDERVhDmucVmMvY,Thời trang trẻ TG,Cửa hàng quần áo,0932 942 030,"Thời trang trẻ TG, 58 Đường số 3, KDC Metro, Ninh Kiều, Cần Thơ 900000","KDC Metro, Ninh Kiều",58 Đường số 3,Cần Thơ,900000.0,"Ninh Kiều, Cần Thơ",VN
25,ChIJiyBxSlmJoDERcnQWnwOGU5Y,Nàng Thơ Boutique,Cửa hàng quần áo,0924 962 142,"Nàng Thơ Boutique, 125/4 (hẻm, 4 Đ. Nguyễn Việt Hồng, Xuân Khánh, Ninh Kiều, Cần Thơ","Xuân Khánh, Ninh Kiều","125/4 (hẻm, 4 Đ. Nguyễn Việt Hồng",Cần Thơ,,"Ninh Kiều, Cần Thơ",VN
26,ChIJQcYa6TyJoDERlcizw1kqeO0,Nabi shop - 12M fashion,Cửa hàng quần áo,0976 265 654,"Nabi shop - 12M fashion, 10 Đường số 3, khu dân cư Metro, Ninh Kiều, Cần Thơ 902070","khu dân cư Metro, Ninh Kiều",10 Đường số 3,Cần Thơ,902070.0,"Ninh Kiều, Cần Thơ",VN
40,ChIJc4I6s_WJoDERN69H6Kg18po,Shop Thời Trang Nam Owen,Cửa hàng quần áo nam,0292 2468 822,"Shop Thời Trang Nam Owen, 118 Đ. 30 Tháng 4, An Lạc, Ninh Kiều, Cần Thơ","An Lạc, Ninh Kiều",118 Đ. 30 Tháng 4,Cần Thơ,,"Ninh Kiều, Cần Thơ",VN
48,ChIJYam6JjmJoDERwLah78ukiDA,Thời Trang Trẻ Em Rabity - Vincom Plaza Xuân Khánh,Cửa hàng quần áo trẻ em,1900 633520,"Thời Trang Trẻ Em Rabity - Vincom Plaza Xuân Khánh, Vincom Plaza, L3-K1-K2, 900000","Xuân Khánh, Ninh Kiều","Vincom Plaza, L3-K1-K2",Cần Thơ,900000.0,"Ninh Kiều, Cần Thơ",VN
49,ChIJi52k6wyJoDERz0pVBDl5Iu4,4MEN Cần Thơ,Cửa hàng quần áo nam,0989 662 315,"4MEN Cần Thơ, 73 Đ. Nguyễn Việt Hồng, An Lạc, Ninh Kiều, Cần Thơ","An Lạc, Ninh Kiều",73 Đ. Nguyễn Việt Hồng,Cần Thơ,,"Ninh Kiều, Cần Thơ",VN
50,ChIJz1hEdsuJoDERVA3Tg8S9duQ,PÉ ĐIỆU SHOP,Cửa hàng quần áo trẻ em,0387 354 035,"PÉ ĐIỆU SHOP, C8 Đ. Mậu Thân, Xuân Khánh, Ninh Kiều, Cần Thơ 94115","Xuân Khánh, Ninh Kiều",C8 Đ. Mậu Thân,Cần Thơ,94115.0,"Ninh Kiều, Cần Thơ",VN
51,ChIJyZjmgzqIoDER4orpqZei_No,SHOP EROS SPORT,Cửa hàng quần áo,0939 346 669,"SHOP EROS SPORT, 12 Đ. Số 1, Phường An Khánh, Ninh Kiều, Cần Thơ","Phường An Khánh, Ninh Kiều",12 Đ. Số 1,Cần Thơ,,"Ninh Kiều, Cần Thơ",VN
52,ChIJmXQEXiGIoDERfGy4XYqdvqc,Thời Trang Trẻ Em Subeo,Cửa hàng quần áo,0907 443 370,"Thời Trang Trẻ Em Subeo, 74A, Đ. Mậu Thân/142 Đ. Nguyễn Việt Hồng, An Nghiệp, Ninh Kiều, Cần Thơ","An Nghiệp, Ninh Kiều","74A, Đ. Mậu Thân/142 Đ. Nguyễn Việt Hồng",Cần Thơ,,"Ninh Kiều, Cần Thơ",VN
67,ChIJ-Zi2XyGIoDERwEjFXM5z-jg,Thời Trang Công Sở Anh Đức,Cửa hàng quần áo,0918 414 037,"Thời Trang Công Sở Anh Đức, 27 Đ. Mậu Thân, Xuân Khánh, Ninh Kiều, Cần Thơ 94000","Xuân Khánh, Ninh Kiều",27 Đ. Mậu Thân,Cần Thơ,94000.0,"Ninh Kiều, Cần Thơ",VN
68,ChIJoWAW5keIoDERUIJdrNSguGU,Trang Phục Múa Cần Thơ,Cửa hàng quần áo,0914 761 766,"Trang Phục Múa Cần Thơ, 09 Đường B4, Hưng Lợi, Ninh Kiều, Cần Thơ","Hưng Lợi, Ninh Kiều",09 Đường B4,Cần Thơ,,"Ninh Kiều, Cần Thơ",VN
69,ChIJN6zSPuyJoDERZfToI2i5mP0,SHOP LIỄU,Cửa hàng quần áo nữ,0963 877 572,"SHOP LIỄU, 9 Đ. Mạc Thiên Tích, Xuân Khánh, Ninh Kiều, Cần Thơ 900000","Xuân Khánh, Ninh Kiều",9 Đ. Mạc Thiên Tích,Cần Thơ,900000.0,"Ninh Kiều, Cần Thơ",VN
70,ChIJqzp2YiGIoDERR-F-LBhWmQI,Shop AT ( Thời Trang Nam),Cửa hàng quần áo,0934 261 612,"Shop AT ( Thời Trang Nam), 49 Đ. Mậu Thân, Xuân Khánh, Ninh Kiều, Cần Thơ","Xuân Khánh, Ninh Kiều",49 Đ. Mậu Thân,Cần Thơ,,"Ninh Kiều, Cần Thơ",VN
74,ChIJXbYkcByIoDERDTo0o-X_F84,May áo dài Hiệp Hương Cần Thơ - Aodaicantho.com,Cửa hàng quần áo,0292 3832 870,"May áo dài Hiệp Hương Cần Thơ - Aodaicantho.com, 19/5 Đ. Huỳnh Thúc Kháng, An Cư, Ninh Kiều, Cần Thơ","An Cư, Ninh Kiều",19/5 Đ. Huỳnh Thúc Kháng,Cần Thơ,,"Ninh Kiều, Cần Thơ",VN
87,ChIJu3F_wbyJoDERt4dMzda4VOQ,Tiệm Củ,Cửa hàng quần áo cũ,,"Tiệm Củ, Hẻm 138 Đ. Trần Hưng Đạo, An Phú, Ninh Kiều, Cần Thơ 900000","An Phú, Ninh Kiều",Hẻm 138 Đ. Trần Hưng Đạo,Cần Thơ,900000.0,"Ninh Kiều, Cần Thơ",VN
88,ChIJgcwnRyKIoDERcC0F1YLw880,Nàng Bốn-Áo Dài Cần Thơ,Cửa hàng quần áo,0939 824 678,"Nàng Bốn-Áo Dài Cần Thơ, 95 / 34 Đ. Mậu Thân, Xuân Khánh, Ninh Kiều, Cần Thơ","Xuân Khánh, Ninh Kiều",95 / 34 Đ. Mậu Thân,Cần Thơ,,"Ninh Kiều, Cần Thơ",VN
89,ChIJf8LqBjOJoDERWkiIHRY0_zQ,Laneko,Cửa hàng quần áo nữ,0939 132 535,"Laneko, 93A Đ. Lý Tự Trọng, An Phú, Ninh Kiều, Cần Thơ 90000","An Phú, Ninh Kiều",93A Đ. Lý Tự Trọng,Cần Thơ,90000.0,"Ninh Kiều, Cần Thơ",VN
93,ChIJSd963hCJoDER6uaEhtCluh0,COMI TRẦN HƯNG ĐẠO,Cửa hàng quần áo nữ,0907 901 685,"COMI TRẦN HƯNG ĐẠO, 133/1 Đ. Trần Hưng Đạo, P, Ninh Kiều, Cần Thơ 900000","P, Ninh Kiều",133/1 Đ. Trần Hưng Đạo,Cần Thơ,900000.0,"Ninh Kiều, Cần Thơ",VN
95,ChIJV8qSrh2JoDERE24rfmEKx4Q,Kapi - Baby & Kids Shop quần áo trẻ em,Cửa hàng quần áo trẻ em,0903 186 048,"Kapi - Baby & Kids Shop quần áo trẻ em, 160/26 Đ. 30 Tháng 4, An Phú, Ninh Kiều, Cần Thơ 900000","An Phú, Ninh Kiều",160/26 Đ. 30 Tháng 4,Cần Thơ,900000.0,"Ninh Kiều, Cần Thơ",VN
97,ChIJP7n5BhCJoDERDRv1uKK0WB0,NOW - Thanh lý ký gửi Cần Thơ,Cửa hàng quần áo nữ,,"NOW - Thanh lý ký gửi Cần Thơ, 141P1/18, 12-20 Hẻm liên tổ, Phường An Khánh, Ninh Kiều, Cần Thơ 94000","Phường An Khánh, Ninh Kiều","141P1/18, 12-20 Hẻm liên tổ",Cần Thơ,94000.0,"Ninh Kiều, Cần Thơ",VN
100,ChIJpwAQgRaIoDERtOnICidKilQ,Thùy Unni - Quần Áo Trẻ Em Sỉ Lẻ Cần Thơ,Cửa hàng quần áo,0938 646 062,"Thùy Unni - Quần Áo Trẻ Em Sỉ Lẻ Cần Thơ, 63H3A Tổ 10, Hẻm 6 Khu Vực 2, Phường An Khánh, Ninh Kiều, Cần Thơ","Phường An Khánh, Ninh Kiều","63H3A Tổ 10, Hẻm 6 Khu Vực 2",Cần Thơ,,"Ninh Kiều, Cần Thơ",VN
104,ChIJzWHD40eJoDER4Egg5S-DTbw,Hmen Shop Cần Thơ,Cửa hàng quần áo,0823 656 565,"Hmen Shop Cần Thơ, 140 Nguyễn Trãi, An Hội, Ninh Kiều, Cần Thơ 90000","An Hội, Ninh Kiều",140 Nguyễn Trãi,Cần Thơ,90000.0,"Ninh Kiều, Cần Thơ",VN
114,ChIJsSGA_hVjoDERhsEBviYtaAQ,VICTORY Boutique,Cửa hàng quần áo,0939 888 249,"VICTORY Boutique, 45 Đ. Nguyễn Khuyến, Tân An, Ninh Kiều, Cần Thơ","Tân An, Ninh Kiều",45 Đ. Nguyễn Khuyến,Cần Thơ,,"Ninh Kiều, Cần Thơ",VN
116,ChIJF1hMxYOJoDERgjsP3rSiils,Xưởng KKim Shop,Cửa hàng quần áo nữ,0898 845 095,"Xưởng KKim Shop, Ẩm thực chay Thiện Phước 2, 3 Đường 30/04, Xuân Khánh, Ninh Kiều, Cần Thơ 94000","Xuân Khánh, Ninh Kiều","Ẩm thực chay Thiện Phước 2, 3 Đường 30/04",Cần Thơ,94000.0,"Ninh Kiều, Cần Thơ",VN
119,ChIJg6rIbWKJoDERBmpY2Ga5DY4,JAN SHOP - HÀNG HIỆU XUẤT KHẨU,Cửa hàng quần áo nam,0393 474 590,"JAN SHOP - HÀNG HIỆU XUẤT KHẨU, 195 Nguyễn Trãi, An Hội, Ninh Kiều, Cần Thơ","An Hội, Ninh Kiều",195 Nguyễn Trãi,Cần Thơ,,"Ninh Kiều, Cần Thơ",VN
129,ChIJH3dXA4yJoDERzsp47E7SRT4,Bí Đỏ Babyhouse - Quần áo trẻ em thiết kế,Cửa hàng quần áo trẻ em,0918 677 639,"Bí Đỏ Babyhouse - Quần áo trẻ em thiết kế, 251/48 Đ. Trần Ngọc Quế, Xuân Khánh, Ninh Kiều, Cần Thơ","Xuân Khánh, Ninh Kiều",251/48 Đ. Trần Ngọc Quế,Cần Thơ,,"Ninh Kiều, Cần Thơ",VN
134,ChIJkZTBuqFioDERCzofmzLmM3o,Milvus Cần Thơ,Cửa hàng quần áo nam,028 3717 7650,"Milvus Cần Thơ, 01 Đại lộ Hoà Bình, Tân An, Ninh Kiều, Cần Thơ","Tân An, Ninh Kiều",01 Đại lộ Hoà Bình,Cần Thơ,,"Ninh Kiều, Cần Thơ",VN
136,ChIJNxtmn4eJoDERrLPAcVXy5x4,Shop quần áo Thư Các,Cửa hàng quần áo,0907 677 605,"Shop quần áo Thư Các, 10 Đ. Lý Chính Thắng, Hưng Lợi, Ninh Kiều, Cần Thơ","Hưng Lợi, Ninh Kiều",10 Đ. Lý Chính Thắng,Cần Thơ,,"Ninh Kiều, Cần Thơ",VN
137,ChIJDUx7_tyJoDERc_jYNNj7jR0,"Xưởng may thời trang nam nữ: áo thun, áo sơ mi, áo hoodie, túi vải, quần jogger,... Uy tín chất lượng",Công ty may,0939 072 574,"Xưởng may thời trang nam nữ: áo thun, áo sơ mi, áo hoodie, túi vải, quần jogger,... Uy tín chất lượng, 75/38 Đ. Võ Trường Toản, An Hoà, Ninh Kiều, Cần Thơ 900000","An Hoà, Ninh Kiều",75/38 Đ. Võ Trường Toản,Cần Thơ,900000.0,"Ninh Kiều, Cần Thơ",VN
145,ChIJAeVq1vGJoDERZlrHUkkNF7g,Tiny for kids,Cửa hàng quần áo trẻ em,0939 006 818,"Tiny for kids, 136 Huỳnh Cương, An Cư, Ninh Kiều, Cần Thơ","An Cư, Ninh Kiều",136 Huỳnh Cương,Cần Thơ,,"Ninh Kiều, Cần Thơ",VN
163,ChIJPZZXqrpjoDERKHG3ZRsSRwM,Shop Mẹ Voi quần áo trẻ em,Cửa hàng quần áo trẻ em,0782 808 788,"Shop Mẹ Voi quần áo trẻ em, 97/12A Đ. Ngô Quyền, Tân An, Ninh Kiều, Cần Thơ 94000","Tân An, Ninh Kiều",97/12A Đ. Ngô Quyền,Cần Thơ,94000.0,"Ninh Kiều, Cần Thơ",VN
168,ChIJ-58cmQqJoDERmeLKl8VquZQ,Pooh Fashion,Cửa hàng quần áo,0907 289 399,"Pooh Fashion, 49 Đ. Võ Trường Toản, P, Ninh Kiều, Cần Thơ 900000","P, Ninh Kiều",49 Đ. Võ Trường Toản,Cần Thơ,900000.0,"Ninh Kiều, Cần Thơ",VN
172,ChIJXbOQCnaJoDERpLqkDRptHtY,Lullaby - Cho thuê đầm thiết kế Cần Thơ,Cửa hàng quần áo,0783 742 752,"Lullaby - Cho thuê đầm thiết kế Cần Thơ, 288 Hẻm 139 30 Tháng 4, Xuân Khánh, Ninh Kiều, Cần Thơ","Xuân Khánh, Ninh Kiều",288 Hẻm 139 30 Tháng 4,Cần Thơ,,"Ninh Kiều, Cần Thơ",VN
176,ChIJjZ0WKjqJoDERL4Oq4IPl4aA,DUYÊN DÁNG THỜI TRANG | ĐỒ BỘ TRUNG NIÊN QUẬN NINH KIỀU,Cửa hàng quần áo,0796 838 279,"DUYÊN DÁNG THỜI TRANG | ĐỒ BỘ TRUNG NIÊN QUẬN NINH KIỀU, 77/37 Đ. Phạm Ngũ Lão, Thới Bình, Ninh Kiều, Cần Thơ 94000","Thới Bình, Ninh Kiều",77/37 Đ. Phạm Ngũ Lão,Cần Thơ,94000.0,"Ninh Kiều, Cần Thơ",VN
179,ChIJwTtUICKJoDERFHeML7laX4w,Thế Giới Sơ Sinh,Cửa hàng quần áo sơ sinh,0869 666 692,"Thế Giới Sơ Sinh, 102 Đ. Mậu Thân, An Hoà, Ninh Kiều, Cần Thơ 94108","An Hoà, Ninh Kiều",102 Đ. Mậu Thân,Cần Thơ,94108.0,"Ninh Kiều, Cần Thơ",VN
180,ChIJr3S2dzaJoDEROSmNzE02uFo,Một Xíu Vintage,Cửa hàng quần áo nữ,0765 501 747,"Một Xíu Vintage, 204 Đ. Phan Huy Chú, Phường An Khánh, Ninh Kiều, Cần Thơ","Phường An Khánh, Ninh Kiều",204 Đ. Phan Huy Chú,Cần Thơ,,"Ninh Kiều, Cần Thơ",VN
189,ChIJF6FDm3aJoDERhQmlejlrqow,Áo bóng đá Cần Thơ - COSI,Cửa hàng quần áo,0379 484 265,"Áo bóng đá Cần Thơ - COSI, 108/6D Đ. 30 Tháng 4, An Lạc, Ninh Kiều, Cần Thơ","An Lạc, Ninh Kiều",108/6D Đ. 30 Tháng 4,Cần Thơ,,"Ninh Kiều, Cần Thơ",VN
192,ChIJO0qAFdKJoDERoZeH2UNMU-8,Đỏ Luxury - Thời trang hàng nhập cao cấp,Cửa hàng quần áo nữ,0909 039 789,"Đỏ Luxury - Thời trang hàng nhập cao cấp, 203 Nguyễn Trãi, An Hội, Ninh Kiều, Cần Thơ","An Hội, Ninh Kiều",203 Nguyễn Trãi,Cần Thơ,,"Ninh Kiều, Cần Thơ",VN
193,ChIJx5Mw0nJjoDERwyte_Q54WX0,Shop Thời Trang Nam Owen,Cửa hàng quần áo nam,0292 3819 486,"Shop Thời Trang Nam Owen, 23 Nguyễn Trãi, An Hội, Ninh Kiều, Cần Thơ","An Hội, Ninh Kiều",23 Nguyễn Trãi,Cần Thơ,,"Ninh Kiều, Cần Thơ",VN
194,ChIJNfxeK3-JoDERI2j-mW21LhM,Thời Trang Shi Like To Shop,Cửa hàng quần áo,,"Thời Trang Shi Like To Shop, 148 Đ. Nguyễn Việt Hồng, Xuân Khánh, Ninh Kiều, Cần Thơ","Xuân Khánh, Ninh Kiều",148 Đ. Nguyễn Việt Hồng,Cần Thơ,,"Ninh Kiều, Cần Thơ",VN
195,ChIJ9Q6iH0WJoDERajn4a89kiHI,379 store,Cửa hàng quần áo,0707 379 379,"379 store, 119 Đ. Mậu Thân, Xuân Khánh, Ninh Kiều, Cần Thơ","Xuân Khánh, Ninh Kiều",119 Đ. Mậu Thân,Cần Thơ,,"Ninh Kiều, Cần Thơ",VN
196,ChIJifGv2QSJoDERB4znVPmOKKk,Shop Tuyền - Quần áo trẻ em Cần Thơ,Cửa hàng quần áo trẻ em,0908 365 836,"Shop Tuyền - Quần áo trẻ em Cần Thơ, 145 Đ. Trần Hưng Đạo, An Phú, Ninh Kiều, Cần Thơ","An Phú, Ninh Kiều",145 Đ. Trần Hưng Đạo,Cần Thơ,,"Ninh Kiều, Cần Thơ",VN
202,ChIJe5DiyjljoDERXQ8EvdmxFsk,Shop Mon & Sisters,Cửa hàng quần áo nữ,0838 115 531,"Shop Mon & Sisters, 120/10 Trần Phú, Cái Khế, Ninh Kiều, Cần Thơ 94000","Cái Khế, Ninh Kiều",120/10 Trần Phú,Cần Thơ,94000.0,"Ninh Kiều, Cần Thơ",VN
215,ChIJO54TF1iJoDER25fO3ism-YM,Pantio,Cửa hàng quần áo,0292 3865 588,"Pantio, TTTM Vincom Plaza, 2 Hùng Vương, Thái Bình, Ninh Kiều, Cần Thơ","Thái Bình, Ninh Kiều","TTTM Vincom Plaza, 2 Hùng Vương",Cần Thơ,,"Ninh Kiều, Cần Thơ",VN
220,ChIJI32eQSeJoDERZptzto0DV_k,"Thanh lí, Kí gửi quần áo T&d",Cửa hàng quần áo nữ,0358 323 344,"Thanh lí, Kí gửi quần áo T&d, 567 Đ. Hồ Bún Xáng, Phường An Khánh, Ninh Kiều, Cần Thơ","Phường An Khánh, Ninh Kiều",567 Đ. Hồ Bún Xáng,Cần Thơ,,"Ninh Kiều, Cần Thơ",VN
232,ChIJxbIriimJoDERsxhl0fxrBAU,Nhi Nhi Shop Quần Áo Gym,Cửa hàng quần áo thể thao,0848 119 698,"Nhi Nhi Shop Quần Áo Gym, 132 Đ. 3 Tháng 2, Hưng Lợi, Ninh Kiều, Cần Thơ","Hưng Lợi, Ninh Kiều",132 Đ. 3 Tháng 2,Cần Thơ,,"Ninh Kiều, Cần Thơ",VN
279,ChIJlSGHajaIoDER2UFDlrDWd6M,Thời trang T&B,Cửa hàng quần áo,0947 717 997,"Thời trang T&B, 58 Đường số 3, KDC Metro, Ninh Kiều, Cần Thơ","KDC Metro, Ninh Kiều",58 Đường số 3,Cần Thơ,,"Ninh Kiều, Cần Thơ",VN
280,ChIJdZ_R8hKIoDERMzMpY7YKkOE,SHOP 1379 - Chuyên sỉ & lẻ áo quần giá rẻ,Cửa hàng quần áo,0865 193 340,"SHOP 1379 - Chuyên sỉ & lẻ áo quần giá rẻ, Đ/C:/158A2/16 Hẻm liên tổ 12...20, Phường An Khánh, Ninh Kiều, Cần Thơ","Phường An Khánh, Ninh Kiều",Đ/C:/158A2/16 Hẻm liên tổ 12...20,Cần Thơ,,"Ninh Kiều, Cần Thơ",VN
283,ChIJ3fxWuyGIoDERFWjNwYKZp_A,Shop Thời Trang Bí Đỏ,Cửa hàng quần áo,0944 949 894,"Shop Thời Trang Bí Đỏ, 108 Đ. Nguyễn Việt Hồng, An Lạc, Ninh Kiều, Cần Thơ","An Lạc, Ninh Kiều",108 Đ. Nguyễn Việt Hồng,Cần Thơ,,"Ninh Kiều, Cần Thơ",VN
297,ChIJ7Z16uiGIoDERajvAYD8j6V8,Miu shop,Cửa hàng quần áo,0907 707 246,"Miu shop, 174 Đ. Nguyễn Việt Hồng, Xuân Khánh, Ninh Kiều, Cần Thơ","Xuân Khánh, Ninh Kiều",174 Đ. Nguyễn Việt Hồng,Cần Thơ,,"Ninh Kiều, Cần Thơ",VN
312,ChIJGUh5K-iJoDERC7KMkD3_ktg,Xéo Closet,Cửa hàng quần áo,0932 865 832,"2QHC+GJM Xéo Closet, Đầu bờ kè Mạc Thiên Tích - Đối diện cổng B Đại Học, Ninh Kiều, Cần Thơ","Xuân Khánh, Ninh Kiều","2QHC+GJM, Đầu bờ kè Mạc Thiên Tích - Đối diện cổng B Đại Học",Cần Thơ,,"Ninh Kiều, Cần Thơ",VN
313,ChIJbfO_N6BioDER2UE5zJ8oTeg,Cửa Hàng Áo Tắm Cao Cấp Lan Hạnh,Cửa hàng đồ bơi,0292 3828 728,"Cửa Hàng Áo Tắm Cao Cấp Lan Hạnh, 32 A, Đại lộ Hoà Bình, Tân An, Ninh Kiều, Cần Thơ","Tân An, Ninh Kiều","32 A, Đại lộ Hoà Bình",Cần Thơ,,"Ninh Kiều, Cần Thơ",VN
314,ChIJjVMhY82JoDERpK9E-Q6wwkk,Shop thời trang 1992,Cửa hàng quần áo,,"Shop thời trang 1992, 108 Đ. Mậu Thân, Xuân Khánh, Ninh Kiều, Cần Thơ","Xuân Khánh, Ninh Kiều",108 Đ. Mậu Thân,Cần Thơ,,"Ninh Kiều, Cần Thơ",VN
329,ChIJO6vXnQ6IoDER2FdtiB5x-eI,TyBon'shop (Quần áo trẻ em),Cửa hàng quần áo trẻ em,0939 225 044,"TyBon'shop (Quần áo trẻ em), 79/41 Nguyễn Đệ, P An Hoà, Q Ninh Kiều, TP Cần Thơ, Cần Thơ, 900000","An Hoà, Cần Thơ","79/41 Nguyễn Đệ, P An Hoà, Q Ninh Kiều, TP Cần Thơ",Cần Thơ,900000.0,Cần Thơ,VN
330,ChIJR4vCIrqJoDERtPpIqLmBVJs,Xịn Store,Cửa hàng quần áo nữ,0932 422 045,"Xịn Store, 87a Đ. Mạc Thiên Tích, Xuân Khánh, Ninh Kiều, Cần Thơ","Xuân Khánh, Ninh Kiều",87a Đ. Mạc Thiên Tích,Cần Thơ,,"Ninh Kiều, Cần Thơ",VN
331,ChIJn9FhErGJoDERm0u5V_pOs6k,SHOP QUẦN ÁO HUYỀN ANH,Cửa hàng quần áo,0939 391 097,"SHOP QUẦN ÁO HUYỀN ANH, 59/3 Đinh Tiên Hoàng, Lê Bình, Cái Răng, Cần Thơ","Lê Bình, Cái Răng",59/3 Đinh Tiên Hoàng,Cần Thơ,,"Cái Răng, Cần Thơ",VN
335,ChIJtSEI6zOJoDERpCvaT14iubA,Shop Quần Áo Hương,Cửa hàng quần áo,,"2PJG+CPF Shop Quần Áo Hương, Đinh Công Chánh, Khu Vực Bình Phó A, Bình Thủy, Cần Thơ","Khu Vực Bình Phó A, Bình Thủy","2PJG+CPF, Đinh Công Chánh",Cần Thơ,,"Bình Thủy, Cần Thơ",VN
346,ChIJxzza2dGJoDERFBIJLWsT3Sk,Tháng 9 Store,Cửa hàng quần áo,0931 178 906,"Tháng 9 Store, 122/7 Đ. 3 Tháng 2, Xuân Khánh, Ninh Kiều, Cần Thơ","Xuân Khánh, Ninh Kiều",122/7 Đ. 3 Tháng 2,Cần Thơ,,"Ninh Kiều, Cần Thơ",VN
386,ChIJC1x00R-IoDERDrZSNkw_q-8,Shop quần áo thời trang VNXK tại Cần Thơ - Liloshop.net,Cửa hàng quần áo,0766 958 928,"Shop quần áo thời trang VNXK tại Cần Thơ - Liloshop.net, 53 Nguyễn Thị Minh Khai, An Lạc, Ninh Kiều, Cần Thơ","An Lạc, Ninh Kiều",53 Nguyễn Thị Minh Khai,Cần Thơ,,"Ninh Kiều, Cần Thơ",VN
387,ChIJ_8pM4hCIoDERkRcc1MSacng,Shop Thơi Trang Nam Vương,Cửa hàng quần áo,0963 375 292,"Shop Thơi Trang Nam Vương, 31 Đ. Mậu Thân, An Nghiệp, Ninh Kiều, Cần Thơ","An Nghiệp, Ninh Kiều",31 Đ. Mậu Thân,Cần Thơ,,"Ninh Kiều, Cần Thơ",VN
388,ChIJ7yXqsPqHoDERlVYjn1wnH8U,Shop Quần áo Thiên Nga,Cửa hàng quần áo,,"Shop Quần áo Thiên Nga, Nguyễn Chí Thanh, Trà Nóc, Cần Thơ, 92000","Trà Nóc, Cần Thơ",Nguyễn Chí Thanh,Cần Thơ,92000.0,Cần Thơ,VN
390,ChIJ7QZ2r4aJoDERPi9_iGMNUJ8,Store Bư Shop Quần Áo,Cửa hàng quần áo,0939 947 397,"Store Bư Shop Quần Áo, 3/2, Bờ kè/122/7c Đ. Mạc Thiên Tích, Xuân Khánh, Ninh Kiều, Cần Thơ 90000","Xuân Khánh, Ninh Kiều","3/2, Bờ kè/122/7c Đ. Mạc Thiên Tích",Cần Thơ,90000.0,"Ninh Kiều, Cần Thơ",VN
399,ChIJx41HuwKIoDER2KxrPWYH060,Alice Blue,Cửa hàng quần áo nữ,0917 637 376,"Alice Blue, 10/12D Nguyễn Trãi, An Hội, Ninh Kiều, Cần Thơ","An Hội, Ninh Kiều",10/12D Nguyễn Trãi,Cần Thơ,,"Ninh Kiều, Cần Thơ",VN
405,ChIJd9L16hKIoDERr7eXQzqFOsw,Shop Anh Ngọc Sỉ Quần Áo =mỹ Phẩm,Cửa hàng quần áo,0377 489 719,"Shop Anh Ngọc Sỉ Quần Áo =mỹ Phẩm, Đ/C 160y/14 hẻm liên tổ 12.đến 20, Phường An Khánh, Ninh Kiều, Cần Thơ","Phường An Khánh, Ninh Kiều",Đ/C 160y/14 hẻm liên tổ 12.đến 20,Cần Thơ,,"Ninh Kiều, Cần Thơ",VN
408,ChIJO-N7UsaJoDERDRQCL1EIFyk,Shop Mẹ Beo sỉ lẻ quần áo trẻ em,Cửa hàng quần áo,0987 082 969,"2QQ4+HQM Shop Mẹ Beo sỉ lẻ quần áo trẻ em, Đường số 21, Phường An Khánh, Ninh Kiều, Cần Thơ","Phường An Khánh, Ninh Kiều","2QQ4+HQM, Đường số 21",Cần Thơ,,"Ninh Kiều, Cần Thơ",VN
409,ChIJbTVeXxWIoDERcTMQDPKRRws,Tiệm sửa xe uy tín Minh/ Sửa quần áo Nương.,Cửa hàng quần áo,0939 317 666,"Tiệm sửa xe uy tín Minh/ Sửa quần áo Nương., 387B/14B Đ. Trần Nam Phú, Phường An Khánh, Ninh Kiều, Cần Thơ 902494","Phường An Khánh, Ninh Kiều",387B/14B Đ. Trần Nam Phú,Cần Thơ,902494.0,"Ninh Kiều, Cần Thơ",VN
424,ChIJsVeuPD2JoDERzseO5HcGn6Y,Shop thời trang nữ Lê Trân,Cửa hàng quần áo nữ,0903 178 219,"Shop thời trang nữ Lê Trân, 145/4 Đ. Trần Vĩnh Kiết, An Bình, Ninh Kiều, Cần Thơ","An Bình, Ninh Kiều",145/4 Đ. Trần Vĩnh Kiết,Cần Thơ,,"Ninh Kiều, Cần Thơ",VN
428,ChIJ2YoHrPmJoDERMPfYYRNu_KE,Chibest Cần Thơ,Cửa hàng quần áo nữ,0901 204 779,"Chibest Cần Thơ, 136 Đ. 3 Tháng 2, Hưng Lợi, Ninh Kiều, Cần Thơ","Hưng Lợi, Ninh Kiều",136 Đ. 3 Tháng 2,Cần Thơ,,"Ninh Kiều, Cần Thơ",VN
442,ChIJlwvaIzOLoDERXPb-FUREtkI,cửa hàng quần áo Nhà Thư,Cửa hàng quần áo,0832 095 226,"cửa hàng quần áo Nhà Thư, 34 Đ. Nguyễn Minh Quang, P, Ninh Kiều, Cần Thơ 900000","P, Ninh Kiều",34 Đ. Nguyễn Minh Quang,Cần Thơ,900000.0,"Ninh Kiều, Cần Thơ",VN
443,ChIJBS0XYCGIoDERpAjV8yqjgYY,Thời Trang Vietinmex,Cửa hàng quần áo,0985 919 376,"Thời Trang Vietinmex, 35 Đ. Mậu Thân, Xuân Khánh, Ninh Kiều, Cần Thơ","Xuân Khánh, Ninh Kiều",35 Đ. Mậu Thân,Cần Thơ,,"Ninh Kiều, Cần Thơ",VN
444,ChIJaQDnXlSJoDERouY1V1kRUGI,Hàng xuất khẩu giá rẻ,Cửa hàng quần áo,,"Hàng xuất khẩu giá rẻ, 144 Đ. 30 Tháng 4, An Phú, Ninh Kiều, Cần Thơ 900000","An Phú, Ninh Kiều",144 Đ. 30 Tháng 4,Cần Thơ,900000.0,"Ninh Kiều, Cần Thơ",VN
445,ChIJE32WRZ9ioDERWenO0gHWQkE,Cửa Hàng Quần Áo May Sẵn Yến Cầu,Cửa hàng quần áo,0292 3815 226,"Cửa Hàng Quần Áo May Sẵn Yến Cầu, 22 Ngô Đức Kế, Tân An, Ninh Kiều, Cần Thơ","Tân An, Ninh Kiều",22 Ngô Đức Kế,Cần Thơ,,"Ninh Kiều, Cần Thơ",VN
448,ChIJh4o3yp1ioDERDlIPkS2paGY,Cửa Hàng Quần Áo Mẹ & Bé,Cửa hàng quần áo trẻ em,0292 6252 348,"Cửa Hàng Quần Áo Mẹ & Bé, 37 Nguyễn Thị Minh Khai, Tân An, Ninh Kiều, Cần Thơ","Tân An, Ninh Kiều",37 Nguyễn Thị Minh Khai,Cần Thơ,,"Ninh Kiều, Cần Thơ",VN
457,ChIJBRaB5beJoDERh2nAWljoVx0,CHIN 2HAND,Cửa hàng quần áo cũ,0939 882 212,"CHIN 2HAND, Lô 23 Đ. Nguyễn Đệ, An Hoà, Ninh Kiều, Cần Thơ","An Hoà, Ninh Kiều",Lô 23 Đ. Nguyễn Đệ,Cần Thơ,,"Ninh Kiều, Cần Thơ",VN
458,ChIJw7FiNQ6IoDERjq2bgrK5m9M,CỬA HÀNG MAY TÂY ĐÔ,Cửa hàng quần áo công sở,0292 3894 093,"CỬA HÀNG MAY TÂY ĐÔ, 349 Đ. Nguyễn Văn Cừ, An Hoà, Ninh Kiều, Cần Thơ","An Hoà, Ninh Kiều",349 Đ. Nguyễn Văn Cừ,Cần Thơ,,"Ninh Kiều, Cần Thơ",VN
464,ChIJFePtxE-JoDERw8nGaOi-Rbw,QUANG Sỉ Quần Áo Trẻ Em,Cửa hàng quần áo,0939 567 443,"2PQW+MP7 QUANG Sỉ Quần Áo Trẻ Em, Cầu Bà Bộ, Phường An Khánh, Bình Thủy, Cần Thơ","Phường An Khánh, Bình Thủy","2PQW+MP7, Cầu Bà Bộ",Cần Thơ,,"Bình Thủy, Cần Thơ",VN
467,ChIJN7lafI2JoDER5-eekaLx4Jc,Ba Đen - Store Chuyên Hàng VNXK,Cửa hàng quần áo,,"Ba Đen - Store Chuyên Hàng VNXK, 26 Hẻm 132 Đ. 3 Tháng 2, Hưng Lợi, Ninh Kiều, Cần Thơ","Hưng Lợi, Ninh Kiều",26 Hẻm 132 Đ. 3 Tháng 2,Cần Thơ,,"Ninh Kiều, Cần Thơ",VN
469,ChIJJ6N-_8mJoDERRbqS68fNzSU,Shop Gia Hân- Quần áo trẻ em,Cửa hàng quần áo trẻ em,0909 998 113,"Shop Gia Hân- Quần áo trẻ em, 06 Đường B30, Hưng Lợi, Ninh Kiều, Cần Thơ","Hưng Lợi, Ninh Kiều",06 Đường B30,Cần Thơ,,"Ninh Kiều, Cần Thơ",VN
486,ChIJeakIUEyIoDER_kQHqRIuFEI,Cửa Hàng Thời Trang Quần Áo Thể Thao Gi,Cửa hàng phụ kiện thời trang,,"Cửa Hàng Thời Trang Quần Áo Thể Thao Gi, 172D Đ. Trần Vĩnh Kiết, An Bình, Ninh Kiều, Cần Thơ","An Bình, Ninh Kiều",172D Đ. Trần Vĩnh Kiết,Cần Thơ,,"Ninh Kiều, Cần Thơ",VN
492,ChIJb7P93kOIoDERXDBwcVQzG74,Tiệm Sửa Quần Áo Ngọc Lan,Cửa hàng phụ kiện thời trang,0916 815 709,"Tiệm Sửa Quần Áo Ngọc Lan, 306 Đ. Nguyễn Văn Linh, Phường An Khánh, Ninh Kiều, Cần Thơ","Phường An Khánh, Ninh Kiều",306 Đ. Nguyễn Văn Linh,Cần Thơ,,"Ninh Kiều, Cần Thơ",VN
497,ChIJh3LKLiKIoDERiAWMHhNidoQ,Shop Anh Nil,Cửa hàng quần áo,0939 529 659,"2QJG+595 Shop Anh Nil, Đ. Mậu Thân, Xuân Khánh, Ninh Kiều, Cần Thơ","Xuân Khánh, Ninh Kiều","2QJG+595, Đ. Mậu Thân",Cần Thơ,,"Ninh Kiều, Cần Thơ",VN
498,ChIJ1XQ4rSaIoDERkm4sj-pIwNU,Shop Thời Trang Thi Thuận ( chuyên quần áo big size),Cửa hàng quần áo,0292 3832 829,"Shop Thời Trang Thi Thuận ( chuyên quần áo big size), 2 Đ. Mậu Thân, Xuân Khánh, Ninh Kiều, Cần Thơ","Xuân Khánh, Ninh Kiều",2 Đ. Mậu Thân,Cần Thơ,,"Ninh Kiều, Cần Thơ",VN
505,ChIJNzl-NSCIoDER8g7P_3PpIRk,Cửa Hàng Sửa Quần Áo,Cửa hàng phụ kiện thời trang,0795 018 640,"Cửa Hàng Sửa Quần Áo, 95, Nguyễn Việt Hồng, Phường An Phú, Quận Ninh Kiều, Thành Phố Cần Thơ, An Lạc, Ninh Kiều, Cần Thơ","An Lạc, Ninh Kiều","95, Nguyễn Việt Hồng, Phường An Phú, Quận Ninh Kiều, Thành Phố Cần Thơ",Cần Thơ,,"Ninh Kiều, Cần Thơ",VN
506,ChIJPUo7VpmJoDERn72irKQuykU,Hi Lam in Cantho,Cửa hàng quần áo nữ,0839 536 433,"Hi Lam in Cantho, 73 Đ. Trần Bình Trọng, An Phú, Ninh Kiều, Cần Thơ","An Phú, Ninh Kiều",73 Đ. Trần Bình Trọng,Cần Thơ,,"Ninh Kiều, Cần Thơ",VN
511,ChIJ4XzyT2qJoDERK7c9zSX5ZOo,Quynn Sốp Cần Thơ,Cửa hàng quần áo nữ,0899 052 098,"Quynn Sốp Cần Thơ, 86a2 Hẻm Lò Mổ, Phường An Khánh, Ninh Kiều, Cần Thơ","Phường An Khánh, Ninh Kiều",86a2 Hẻm Lò Mổ,Cần Thơ,,"Ninh Kiều, Cần Thơ",VN
512,ChIJG3j8gCGIoDERBEo_BryqpMU,Shop Lion,Cửa hàng quần áo,0908 110 470,"Shop Lion, 75/35/17 Trần Phú, Xuân Khánh, Ninh Kiều, Cần Thơ","Xuân Khánh, Ninh Kiều",75/35/17 Trần Phú,Cần Thơ,,"Ninh Kiều, Cần Thơ",VN
513,ChIJ-XkfbmaJoDERmnN40At0UWQ,Larva_2hand Đồ si,Cửa hàng quần áo,0383 653 836,"Larva_2hand Đồ si, 9 Đ. 30 Tháng 4, Xuân Khánh, Ninh Kiều, Cần Thơ","Xuân Khánh, Ninh Kiều",9 Đ. 30 Tháng 4,Cần Thơ,,"Ninh Kiều, Cần Thơ",VN
514,ChIJteQtLwiJoDER_HpxII027Pw,Shop quần áo Bà ba Ngọc Linh,Cửa hàng quần áo cổ điển,,"Shop quần áo Bà ba Ngọc Linh, 2 Đ. Mậu Thân, An Phú, Ninh Kiều, Cần Thơ","An Phú, Ninh Kiều",2 Đ. Mậu Thân,Cần Thơ,,"Ninh Kiều, Cần Thơ",VN
515,ChIJvR6tlqBioDERC0ZvfjAgJHM,Tiệm Sửa Quần Áo Mỹ,Cửa hàng quần áo,0292 3830 528,"Tiệm Sửa Quần Áo Mỹ, 111, Đường Trương Định, Phường An Cư, Quận Ninh Kiều, Tp Cần Thơ, Tân An, Ninh Kiều, Cần Thơ","Tân An, Ninh Kiều","111, Đường Trương Định, Phường An Cư, Quận Ninh Kiều, Tp Cần Thơ",Cần Thơ,,"Ninh Kiều, Cần Thơ",VN
516,ChIJB4fAC4VjoDERR5LiVYKPgzA,Cửa hàng thời trang FREELANCER,Cửa hàng quần áo,0292 3864 009,"Cửa hàng thời trang FREELANCER, 16 Nguyễn Trãi, Tân An, Ninh Kiều, Cần Thơ","Tân An, Ninh Kiều",16 Nguyễn Trãi,Cần Thơ,,"Ninh Kiều, Cần Thơ",VN
517,ChIJwWfrCh-JoDERQyzVK0EnN3g,Thảo Tiên shop ( quần áo - phụ kiện giá rẻ),Cửa hàng quần áo nữ,0973 727 376,"Thảo Tiên shop ( quần áo - phụ kiện giá rẻ), Đ. Trương Vĩnh Nguyên, Thường Thạnh, Cái Răng, Cần Thơ","Thường Thạnh, Cái Răng",Đ. Trương Vĩnh Nguyên,Cần Thơ,,"Cái Răng, Cần Thơ",VN
518,ChIJ0YIfU59ioDERkEGTpbq14pY,Vong A Tai Clothing Store,Cửa hàng quần áo nữ,0812 042 370,"Vong A Tai Clothing Store, Kios B46, Dem Ninh Kieu Market, Tan An Ward, Ninh Kieu District, Tân An, Ninh Kiều, Cần Thơ","Tân An, Ninh Kiều","Kios B46, Dem Ninh Kieu Market, Tan An Ward, Ninh Kieu District",Cần Thơ,,"Ninh Kiều, Cần Thơ",VN
519,ChIJS4fVIjCIoDERKXg1seoB9Vs,Shop Thời Trang Dễ Thương,Cửa hàng quần áo,0292 2486 339,"Shop Thời Trang Dễ Thương, 290 Đ. 30 Tháng 4, Hưng Lợi, Ninh Kiều, Cần Thơ","Hưng Lợi, Ninh Kiều",290 Đ. 30 Tháng 4,Cần Thơ,,"Ninh Kiều, Cần Thơ",VN
520,ChIJbRjVmyGIoDERhFosl-CNdQY,Tran Thi Thuy Anh Fashion Shop,Cửa hàng quần áo nữ,0858 568 274,"Tran Thi Thuy Anh Fashion Shop, 108/95/10B, Nguyen Viet Hong Street, An Phu Ward, Ninh Kieu District, An Lạc, Ninh Kiều, Cần Thơ","An Lạc, Ninh Kiều","108/95/10B, Nguyen Viet Hong Street, An Phu Ward, Ninh Kieu District",Cần Thơ,,"Ninh Kiều, Cần Thơ",VN
521,ChIJye3LXziIoDERBHth0kqoyWM,Cửa Hàng Quần Áo Ngân,Cửa hàng quần áo,0292 3894 834,"Cửa Hàng Quần Áo Ngân, 40 Quốc Lộ 91B, Quận Ninh Kiều, Hưng Lợi, Ninh Kiều, Cần Thơ","Hưng Lợi, Ninh Kiều","40 Quốc Lộ 91B, Quận Ninh Kiều",Cần Thơ,,"Ninh Kiều, Cần Thơ",VN
522,ChIJpzErbjqIoDERLTVLnYkR26U,Shop Thời Trang Jean's 2,Cửa hàng quần áo,,"Shop Thời Trang Jean's 2, 180 Đ. 3 Tháng 2, Hưng Lợi, Ninh Kiều, Cần Thơ","Hưng Lợi, Ninh Kiều",180 Đ. 3 Tháng 2,Cần Thơ,,"Ninh Kiều, Cần Thơ",VN
523,ChIJBSBJMxKIoDERrqGSYiesnrI,Shop Tipu Fashion,Cửa hàng quần áo,0982 040 040,"Shop Tipu Fashion, 134 Đ. Nguyễn Văn Cừ, Phường An Khánh, Ninh Kiều, Cần Thơ","Phường An Khánh, Ninh Kiều",134 Đ. Nguyễn Văn Cừ,Cần Thơ,,"Ninh Kiều, Cần Thơ",VN
524,ChIJpxlnFbGJoDERx4TP3EUKmw4,Shop Quần Áo May Sẵn Phương,Cửa hàng phụ kiện thời trang,0292 4580 024,"Shop Quần Áo May Sẵn Phương, 59/4 Đinh Tiên Hoàng, Lê Bình, Cái Răng, Cần Thơ","Lê Bình, Cái Răng",59/4 Đinh Tiên Hoàng,Cần Thơ,,"Cái Răng, Cần Thơ",VN
525,ChIJZ55RAEiHoDERDUc4kQ2pBsY,QUANG Sỉ Quần Áo Trẻ Em,Cửa hàng quần áo,0939 567 443,"QUANG Sỉ Quần Áo Trẻ Em, Đường Huỳnh Thị Nỡ, Thường Thạnh, Cái Răng, Cần Thơ 94908","Thường Thạnh, Cái Răng",Đường Huỳnh Thị Nỡ,Cần Thơ,94908.0,"Cái Răng, Cần Thơ",VN
526,ChIJ31EnL6BioDERdKSFkMrsfYI,Cửa Hàng Thời Trang Thoa,Cửa hàng quần áo,0292 2470 592,"Cửa Hàng Thời Trang Thoa, 76 Nguyễn Thái Học, Tân An, Ninh Kiều, Cần Thơ","Tân An, Ninh Kiều",76 Nguyễn Thái Học,Cần Thơ,,"Ninh Kiều, Cần Thơ",VN
527,ChIJbWrrUaFioDERQI8n3sTqMVE,Shop Thời Trang Tuxedo,Cửa hàng quần áo,,"Shop Thời Trang Tuxedo, 8 Đ. Nguyễn Đình Chiểu, Tân An, Ninh Kiều, Cần Thơ","Tân An, Ninh Kiều",8 Đ. Nguyễn Đình Chiểu,Cần Thơ,,"Ninh Kiều, Cần Thơ",VN
532,ChIJhSa9N59ioDERbLSHEAi7edg,Cửa Hàng Quần Áo Trẻ Em Hoàng Yến,Cửa hàng quần áo,0292 3814 430,"Cửa Hàng Quần Áo Trẻ Em Hoàng Yến, 23 Đường Nguyễn An Ninh, Tân An, Ninh Kiều, Cần Thơ","Tân An, Ninh Kiều",23 Đường Nguyễn An Ninh,Cần Thơ,,"Ninh Kiều, Cần Thơ",VN
544,ChIJxbsPmaBioDER5Wwj32Os2Lc,Pía vintage clothing,Cửa hàng quần áo,,"Pía vintage clothing, 22/23, 25 Hẻm 22 Đ. Mạc Đĩnh Chi, Tân An, Ninh Kiều, Cần Thơ","Tân An, Ninh Kiều","22/23, 25 Hẻm 22 Đ. Mạc Đĩnh Chi",Cần Thơ,,"Ninh Kiều, Cần Thơ",VN
577,ChIJfUteEuuJoDERQlA1trtbxWk,SUNSHINE STORE,Cửa hàng quần áo nữ,0354 798 069,"SUNSHINE STORE, 123 Đ.Xô Viết Nghệ Tĩnh, An Hội, Ninh Kiều, Cần Thơ","An Hội, Ninh Kiều",123 Đ.Xô Viết Nghệ Tĩnh,Cần Thơ,,"Ninh Kiều, Cần Thơ",VN
579,ChIJVbHMtiGIoDERVvg_vlWm0qc,Shop Thời Trang Tee's,Cửa hàng quần áo,,"Shop Thời Trang Tee's, 69 Đ. Nguyễn Việt Hồng, An Lạc, Ninh Kiều, Cần Thơ","An Lạc, Ninh Kiều",69 Đ. Nguyễn Việt Hồng,Cần Thơ,,"Ninh Kiều, Cần Thơ",VN
583,ChIJl7Q9QDqJoDERA-PFMfcconY,Shop Bụi. Cửa Hàng Thời Trang Nam,Cửa hàng quần áo,0976 626 665,"Shop Bụi. Cửa Hàng Thời Trang Nam, 176 Đ. 3 Tháng 2, Hưng Lợi, Ninh Kiều, Cần Thơ","Hưng Lợi, Ninh Kiều",176 Đ. 3 Tháng 2,Cần Thơ,,"Ninh Kiều, Cần Thơ",VN
592,ChIJK8ltqbWJoDER1fCIsCGWtcM,BOVIS HOMME CẦN THƠ,Cửa hàng quần áo nam,0939 958 680,"BOVIS HOMME CẦN THƠ, Đầu lộ 20 ( ngã 4 NVC giáp Vs CMT8, 226 Đ. Nguyễn Văn Cừ, An Hoà, Ninh Kiều, Cần Thơ 94100","An Hoà, Ninh Kiều","Đầu lộ 20 ( ngã 4 NVC giáp Vs CMT8, 226 Đ. Nguyễn Văn Cừ",Cần Thơ,94100.0,"Ninh Kiều, Cần Thơ",VN
618,ChIJL4OXAs-JoDERdcol1DzlXao,Shop Quần áo Trẻ em KTC Babies,Cửa hàng quần áo trẻ em,0356 817 293,"Shop Quần áo Trẻ em KTC Babies, 42 Đường B22, Khu dân cư 91B, Ninh Kiều, Cần Thơ 92000","Khu dân cư 91B, Ninh Kiều",42 Đường B22,Cần Thơ,92000.0,"Ninh Kiều, Cần Thơ",VN
619,ChIJ-X2I31eJoDERuMgwiA77W3o,Kho Sỉ Quần Áo Giày Dép Minh Tuyền,Cửa hàng quần áo,0796 854 868,"Kho Sỉ Quần Áo Giày Dép Minh Tuyền, Số 9 đường số 2 Khu Dân Cư Metro, QL91B, Hưng Lợi, Ninh Kiều, Cần Thơ","Hưng Lợi, Ninh Kiều","Số 9 đường số 2 Khu Dân Cư Metro, QL91B",Cần Thơ,,"Ninh Kiều, Cần Thơ",VN
664,ChIJuauy6DqJoDERGzrmbTB8mGk,Shop quần áo Việt Tiến,Cửa hàng quần áo,,"Shop quần áo Việt Tiến, 332 Đ. 30 Tháng 4, Xuân Khánh, Ninh Kiều, Cần Thơ","Xuân Khánh, Ninh Kiều",332 Đ. 30 Tháng 4,Cần Thơ,,"Ninh Kiều, Cần Thơ",VN
673,ChIJNdVM_7eJoDERuGRGgBdsd3E,Mua Bán Quần Áo Online,Cửa hàng quần áo,0973 456 838,"2Q25+G73 Mua Bán Quần Áo Online, Lô Hậu Thạnh Mỹ, P. Lê Bình,, Lê Bình, Cái Răng, Cần Thơ","Lê Bình, Cái Răng","2Q25+G73, Lô Hậu Thạnh Mỹ, P. Lê Bình,",Cần Thơ,,"Cái Răng, Cần Thơ",VN
679,ChIJs5oVmlaJoDERGiIScff4b6g,Shop ForKids,Cửa hàng quần áo,0914 656 106,"Shop ForKids, 25 Đường B8, Phường An Khánh, Ninh Kiều, Cần Thơ","Phường An Khánh, Ninh Kiều",25 Đường B8,Cần Thơ,,"Ninh Kiều, Cần Thơ",VN
686,ChIJfUNiYjSIoDERltswkfH1HBw,"Cửa Hàng Quần Áo, Giày Dép, Đồ Trang Sức Đặng Quốc Hữu",Cửa hàng phụ kiện thời trang,0905 380 599,"Cửa Hàng Quần Áo, Giày Dép, Đồ Trang Sức Đặng Quốc Hữu, 10, Đường 30 Tháng 4, Phường Hưng Lợi, Quận Ninh Kiều, Hưng Lợi, Ninh Kiều, Cần Thơ","Hưng Lợi, Ninh Kiều","10, Đường 30 Tháng 4, Phường Hưng Lợi, Quận Ninh Kiều",Cần Thơ,,"Ninh Kiều, Cần Thơ",VN
723,ChIJLYwi0diJoDER_i5L4fC5yTE,Sửa quần áo,Cửa hàng may vá,,"Sửa quần áo, 4 Hẻm 9, Mậu Thân, Ninh Kiều, Cần Thơ","Mậu Thân, Ninh Kiều",4 Hẻm 9,Cần Thơ,,"Ninh Kiều, Cần Thơ",VN
734,ChIJgUfWQiqJoDERL4BMhiwzEeE,Tiệm Của Hân - chuyên quần áo bigsize,Cửa hàng quần áo nữ,,"2QVG+WR8 Tiệm Của Hân - chuyên quần áo bigsize, Hẻm 43, Thới Bình, Ninh Kiều, Cần Thơ","Thới Bình, Ninh Kiều","2QVG+WR8, Hẻm 43",Cần Thơ,,"Ninh Kiều, Cần Thơ",VN
735,ChIJDSDbtd-JoDER1B1edHiDA3E,Shop quần áo khánh linh,Cửa hàng quần áo,0988 227 983,"Shop quần áo khánh linh, 2 Đ. Mậu Thân, Xuân Khánh, Ninh Kiều, Cần Thơ 900000","Xuân Khánh, Ninh Kiều",2 Đ. Mậu Thân,Cần Thơ,900000.0,"Ninh Kiều, Cần Thơ",VN
736,ChIJZznUsTaJoDERF1XJqvX7Vjk,Shop quần áo CHING,Cửa hàng quần áo nữ,0933 333 298,"Shop quần áo CHING, 317 Đ. Nguyễn Văn Linh, Phường An Khánh, Ninh Kiều, Cần Thơ","Phường An Khánh, Ninh Kiều",317 Đ. Nguyễn Văn Linh,Cần Thơ,,"Ninh Kiều, Cần Thơ",VN
737,ChIJAXvqOiKIoDERsW8ZAn41go0,Lọlem Clothing Store,Cửa hàng quần áo,,"Lọlem Clothing Store, 83 Đ. Mậu Thân, Xuân Khánh, Ninh Kiều, Cần Thơ","Xuân Khánh, Ninh Kiều",83 Đ. Mậu Thân,Cần Thơ,,"Ninh Kiều, Cần Thơ",VN
738,ChIJi17hYSGIoDER39ntWfIGLWw,Quần Áo Thời Trang Nam Nữ Guu 1991,Cửa hàng quần áo,,"Quần Áo Thời Trang Nam Nữ Guu 1991, 19C Đ. Mậu Thân, Xuân Khánh, Ninh Kiều, Cần Thơ","Xuân Khánh, Ninh Kiều",19C Đ. Mậu Thân,Cần Thơ,,"Ninh Kiều, Cần Thơ",VN
739,ChIJ4R9oaTKIoDER4MAkqn9Zf0k,Shop Thời Trang - ANBO,Cửa hàng quần áo,0984 847 920,"Shop Thời Trang - ANBO, 246/18L/7 Tầm Vu, Hưng Lợi, Ninh Kiều, Cần Thơ 900000","Hưng Lợi, Ninh Kiều",246/18L/7 Tầm Vu,Cần Thơ,900000.0,"Ninh Kiều, Cần Thơ",VN
740,ChIJ2UCCiZ9ioDERV1dk-l0_1sI,Cửa Hàng Áo Quần Thời Trang 3TS,Cửa hàng quần áo,0292 3508 111,"Cửa Hàng Áo Quần Thời Trang 3TS, 60C Đ. Nam Kỳ Khởi Nghĩa, Tân An, Ninh Kiều, Cần Thơ","Tân An, Ninh Kiều",60C Đ. Nam Kỳ Khởi Nghĩa,Cần Thơ,,"Ninh Kiều, Cần Thơ",VN
741,ChIJk_wQDJ9ioDER2zUd3UWRQlQ,Cửa Hàng Quần Áo Trẻ Em Cao Cấp Ngọc Thiện,Cửa hàng quần áo,0292 3823 658,"Cửa Hàng Quần Áo Trẻ Em Cao Cấp Ngọc Thiện, Đường Đ. Điện Biên Phủ, Tân An, Ninh Kiều, Cần Thơ","Tân An, Ninh Kiều",Đường Đ. Điện Biên Phủ,Cần Thơ,,"Ninh Kiều, Cần Thơ",VN
742,ChIJUUfMJTiJoDERoy2nCs6uwF4,Shop quần áo Én Boutique,Cửa hàng quần áo,0932 989 105,"Shop quần áo Én Boutique, 5 Đ. 3 Tháng 2, An Phú, Ninh Kiều, Cần Thơ 94000","An Phú, Ninh Kiều",5 Đ. 3 Tháng 2,Cần Thơ,94000.0,"Ninh Kiều, Cần Thơ",VN
743,ChIJm-jXDyOIoDER12KiZDIvkDo,Cửa Hàng Áo Quần 135,Cửa hàng quần áo,0939 809 612,"Cửa Hàng Áo Quần 135, 37, Đường 3/2, Quận Ninh Kiều, Tp Cần Thơ, Xuân Khánh, Ninh Kiều, Cần Thơ","Xuân Khánh, Ninh Kiều","37, Đường 3/2, Quận Ninh Kiều, Tp Cần Thơ",Cần Thơ,,"Ninh Kiều, Cần Thơ",VN
744,ChIJo-_75LWJoDERE2Wc4tPouiM,Uyên Shop Cần Thơ,Cửa hàng quần áo,,"2QC3+JF6 Uyên Shop Cần Thơ, Đường B29, Khu dân cư 91B, Ninh Kiều, Cần Thơ","Khu dân cư 91B, Ninh Kiều","2QC3+JF6, Đường B29",Cần Thơ,,"Ninh Kiều, Cần Thơ",VN
745,ChIJldAvUraJoDERsXRdTf2Xagw,Shop thời trang Hà LD,Cửa hàng quần áo,,"Shop thời trang Hà LD, 5 Đ. Mậu Thân, Xuân Khánh, Ninh Kiều, Cần Thơ","Xuân Khánh, Ninh Kiều",5 Đ. Mậu Thân,Cần Thơ,,"Ninh Kiều, Cần Thơ",VN
746,ChIJL8Gph9aJoDERdwc4yDZNyl0,Shop Quần áo Trẻ em BÍBO,Cửa hàng quần áo,0909 998 980,"Shop Quần áo Trẻ em BÍBO, Hẻm 5 Đ. Nguyễn Việt Hồng, An Lạc, Ninh Kiều, Cần Thơ","An Lạc, Ninh Kiều",Hẻm 5 Đ. Nguyễn Việt Hồng,Cần Thơ,,"Ninh Kiều, Cần Thơ",VN
747,ChIJp8lnJhqJoDERVqct2Uq7N_g,Shop quần áo giáng kiều,Cửa hàng quần áo nữ,0909 559 242,"Shop quần áo giáng kiều, 209 Đ. 30 Tháng 4, An Lạc, Ninh Kiều, Cần Thơ","An Lạc, Ninh Kiều",209 Đ. 30 Tháng 4,Cần Thơ,,"Ninh Kiều, Cần Thơ",VN
748,ChIJV_cmD2WJoDERj7xcWJXuI8k,Trang Mun Shop,Cửa hàng quần áo nữ,0912 567 819,"Trang Mun Shop, 76 Đ. Nguyễn Việt Hồng, An Lạc, Ninh Kiều, Cần Thơ","An Lạc, Ninh Kiều",76 Đ. Nguyễn Việt Hồng,Cần Thơ,,"Ninh Kiều, Cần Thơ",VN
749,ChIJS9u3SjWIoDERBuaKAjys7SE,Shop Quần Áo Dễ Thương,Cửa hàng quần áo,,"Shop Quần Áo Dễ Thương, 290 Hẻm 553, Hưng Lợi, Ninh Kiều, Cần Thơ","Hưng Lợi, Ninh Kiều",290 Hẻm 553,Cần Thơ,,"Ninh Kiều, Cần Thơ",VN
750,ChIJkR7fUiGIoDER3z_2FNiBL88,Shop Jean's 135,Cửa hàng quần áo,,"Shop Jean's 135, 2 Đ. Mậu Thân, Xuân Khánh, Ninh Kiều, Cần Thơ","Xuân Khánh, Ninh Kiều",2 Đ. Mậu Thân,Cần Thơ,,"Ninh Kiều, Cần Thơ",VN
751,ChIJEzxeAiGIoDER3XzUKr9F4yQ,Cửa Hàng Quần Áo De INH,Cửa hàng phụ kiện thời trang,0939 841 007,"Cửa Hàng Quần Áo De INH, 5 Đ. 30 Tháng 4, An Phú, Ninh Kiều, Cần Thơ","An Phú, Ninh Kiều",5 Đ. 30 Tháng 4,Cần Thơ,,"Ninh Kiều, Cần Thơ",VN
752,ChIJ4eV5PJ9ioDER131uGOfJSVo,Cửa Hàng Quần Áo Phạm Thị Hương,Cửa hàng phụ kiện thời trang,0935 687 894,"Cửa Hàng Quần Áo Phạm Thị Hương, Đường Đ. Nguyễn Du, Tân An, Ninh Kiều, Cần Thơ","Tân An, Ninh Kiều",Đường Đ. Nguyễn Du,Cần Thơ,,"Ninh Kiều, Cần Thơ",VN
753,ChIJwRzBTkGIoDERFud2B5K-RzM,Shop Thời Trang Đồng Phục Cần Thơ,Cửa hàng quần áo,,"2QH3+HFP Shop Thời Trang Đồng Phục Cần Thơ, Đ. Nguyễn Văn Linh, Phường An Khánh, Ninh Kiều, Cần Thơ","Phường An Khánh, Ninh Kiều","2QH3+HFP, Đ. Nguyễn Văn Linh",Cần Thơ,,"Ninh Kiều, Cần Thơ",VN
754,ChIJJVIqqiaIoDEReAQdxq_IoGM,Shop Đồ Si Tuyết Anh Secondhand Chuyên Sỉ & Lẻ Đổ Sỉ Nước Á-Âu,Cửa hàng quần áo,,"Shop Đồ Si Tuyết Anh Secondhand Chuyên Sỉ & Lẻ Đổ Sỉ Nước Á-Âu, Hẻm 1 Đ. Mậu Thân, Xuân Khánh, Ninh Kiều, Cần Thơ","Xuân Khánh, Ninh Kiều",Hẻm 1 Đ. Mậu Thân,Cần Thơ,,"Ninh Kiều, Cần Thơ",VN
755,ChIJRZw_2CdjoDERhY7vuHUZDpI,Shop đồ nam,Cửa hàng quần áo,,"Shop đồ nam, 85 Nguyễn Thị Minh Khai, An Lạc, Ninh Kiều, Cần Thơ","An Lạc, Ninh Kiều",85 Nguyễn Thị Minh Khai,Cần Thơ,,"Ninh Kiều, Cần Thơ",VN
756,ChIJlW9YrzSIoDER_xtRll8Y5go,Shop Đồ Si Cao Cấp Tuyết Anh,Cửa hàng quần áo,,"Shop Đồ Si Cao Cấp Tuyết Anh, 29 Đ. Trần Hoàng Na, Hưng Lợi, Ninh Kiều, Cần Thơ","Hưng Lợi, Ninh Kiều",29 Đ. Trần Hoàng Na,Cần Thơ,,"Ninh Kiều, Cần Thơ",VN
757,ChIJtfdLJ0yJoDERJ23Bj9YoctU,"Phương Phạm cho thuê quần áo phụ kiện du lịch, đi tiệc tại Cần Thơ",Cửa hàng quần áo,0849 180 996,"Phương Phạm cho thuê quần áo phụ kiện du lịch, đi tiệc tại Cần Thơ, 124/11A Đ. Mạc Thiên Tích, Xuân Khánh, Ninh Kiều, Cần Thơ 900000","Xuân Khánh, Ninh Kiều",124/11A Đ. Mạc Thiên Tích,Cần Thơ,900000.0,"Ninh Kiều, Cần Thơ",VN
758,ChIJySWo4gqJoDER0RZ7pDuaqeU,thời trang nam,Chợ bán buôn quần áo,0988 683 069,"thời trang nam, 99 Đ. Mậu Thân, An Phú, Ninh Kiều, Cần Thơ","An Phú, Ninh Kiều",99 Đ. Mậu Thân,Cần Thơ,,"Ninh Kiều, Cần Thơ",VN
759,ChIJFb-3DahioDER9f5-BECIRIM,Shop Thời Trang 47,Cửa hàng quần áo,0933 222 426,"Shop Thời Trang 47, 47 Trần Văn Khéo, An Hội, Ninh Kiều, Cần Thơ","An Hội, Ninh Kiều",47 Trần Văn Khéo,Cần Thơ,,"Ninh Kiều, Cần Thơ",VN
760,ChIJ7Z7_UiGIoDERQUA9ZD_z_XU,Shop Thời Trang Chi,Cửa hàng quần áo,0919 306 960,"Shop Thời Trang Chi, 20 Đ. Mậu Thân, Xuân Khánh, Ninh Kiều, Cần Thơ","Xuân Khánh, Ninh Kiều",20 Đ. Mậu Thân,Cần Thơ,,"Ninh Kiều, Cần Thơ",VN
761,ChIJf1RCtqFioDERns-qwF1XAXE,Cửa Hàng Quần Áo Châu,Cửa hàng quần áo,0937 790 699,"Cửa Hàng Quần Áo Châu, 41 Đ. Ngô Văn Sở, Tân An, Ninh Kiều, Cần Thơ","Tân An, Ninh Kiều",41 Đ. Ngô Văn Sở,Cần Thơ,,"Ninh Kiều, Cần Thơ",VN
762,ChIJMww81KNioDERr-fLi_24MMo,Tuyền Fashion,Cửa hàng quần áo,,"Tuyền Fashion, 21 Ngô Gia Tự, Tân An, Ninh Kiều, Cần Thơ","Tân An, Ninh Kiều",21 Ngô Gia Tự,Cần Thơ,,"Ninh Kiều, Cần Thơ",VN
763,ChIJmYwiqqdioDERBp4gB2G5oCU,Shop Thời Trang Poupon,Cửa hàng quần áo,,"Shop Thời Trang Poupon, 72 Nguyễn Trãi, An Hội, Ninh Kiều, Cần Thơ 90000","An Hội, Ninh Kiều",72 Nguyễn Trãi,Cần Thơ,90000.0,"Ninh Kiều, Cần Thơ",VN
764,ChIJ8Ub-_XyJoDERMcM7BvRMxFY,MinChu shop,Cửa hàng quần áo,,"MinChu shop, C1A/3T2, Xuân Khánh, Ninh Kiều, Cần Thơ","Xuân Khánh, Ninh Kiều",C1A/3T2,Cần Thơ,,"Ninh Kiều, Cần Thơ",VN
765,ChIJpT2DXiGIoDERWojIGV15buc,Shop Thời Trang Jean's T & H,Cửa hàng quần áo,,"Shop Thời Trang Jean's T & H, 64 Đ. Mậu Thân, Xuân Khánh, Ninh Kiều, Cần Thơ","Xuân Khánh, Ninh Kiều",64 Đ. Mậu Thân,Cần Thơ,,"Ninh Kiều, Cần Thơ",VN
766,ChIJc7NmmSGIoDERoXHJre55dZE,Shop Thời Trang A Lum,Cửa hàng quần áo,,"Shop Thời Trang A Lum, 110 Đ. Nguyễn Việt Hồng, Xuân Khánh, Ninh Kiều, Cần Thơ","Xuân Khánh, Ninh Kiều",110 Đ. Nguyễn Việt Hồng,Cần Thơ,,"Ninh Kiều, Cần Thơ",VN
767,ChIJ0U4vQ59ioDERxV5c-AKoRiU,Tu Oanh Fashion Store,Cửa hàng quần áo,0292 3827 203,"Tu Oanh Fashion Store, 56C Đ. Nam Kỳ Khởi Nghĩa, Tân An, Ninh Kiều, Cần Thơ","Tân An, Ninh Kiều",56C Đ. Nam Kỳ Khởi Nghĩa,Cần Thơ,,"Ninh Kiều, Cần Thơ",VN
768,ChIJ-XPvB6hioDERt-XDDvOsk0Q,Shop Quấn Áo Pl,Cửa hàng,0292 3763 666,"Shop Quấn Áo Pl, 8 Trần Văn Khéo, An Hội, Ninh Kiều, Cần Thơ","An Hội, Ninh Kiều",8 Trần Văn Khéo,Cần Thơ,,"Ninh Kiều, Cần Thơ",VN
769,ChIJkbutEiKIoDERmAolTewWbUU,Shop Quần áo 379,Trung tâm mua sắm,,"Shop Quần áo 379, 123 Đ. Mậu Thân, Xuân Khánh, Ninh Kiều, Cần Thơ","Xuân Khánh, Ninh Kiều",123 Đ. Mậu Thân,Cần Thơ,,"Ninh Kiều, Cần Thơ",VN
778,ChIJEV5KeY2JoDERZKoaQmd43M0,Shop quần áo Meci,Cửa hàng quần áo,,"Shop quần áo Meci, 134C Đ. Mậu Thân, An Phú, Ninh Kiều, Cần Thơ","An Phú, Ninh Kiều",134C Đ. Mậu Thân,Cần Thơ,,"Ninh Kiều, Cần Thơ",VN
788,ChIJG92_7AhjoDER994-Nvsl6VI,ZUKA Store Quần Áo Trẻ Em,Cửa hàng,0944 678 536,"ZUKA Store Quần Áo Trẻ Em, 80b Đ.Xô Viết Nghệ Tĩnh, An Hội, Ninh Kiều, Cần Thơ","An Hội, Ninh Kiều",80b Đ.Xô Viết Nghệ Tĩnh,Cần Thơ,,"Ninh Kiều, Cần Thơ",VN
795,ChIJzzJHNJ9ioDER5hvVIf08DtQ,Cửa Hàng Quần Áo Trẻ Em Cà Rốt,Cửa hàng quần áo,0292 2220 504,"Cửa Hàng Quần Áo Trẻ Em Cà Rốt, 7 Đường Châu Văn Liêm, Tân An, Ninh Kiều, Cần Thơ","Tân An, Ninh Kiều",7 Đường Châu Văn Liêm,Cần Thơ,,"Ninh Kiều, Cần Thơ",VN
801,ChIJ7c1W4dhjoDERJ6S1nTO3hDs,"Bán móc áo, quần kẹp",Cửa hàng quần áo,0909 666 121,"Bán móc áo, quần kẹp, 70 Đ. Nguyễn Đức Cảnh, An Hội, Ninh Kiều, Cần Thơ","An Hội, Ninh Kiều",70 Đ. Nguyễn Đức Cảnh,Cần Thơ,,"Ninh Kiều, Cần Thơ",VN
866,ChIJf-lSCLeJoDERlyZdvrmtlEk,Shop đồ lót Phạm Trang,Cửa hàng quần áo nữ,0931 080 491,"Shop đồ lót Phạm Trang, 39/11 Đường Yết Kiêu, An Cư, Ninh Kiều, Cần Thơ","An Cư, Ninh Kiều",39/11 Đường Yết Kiêu,Cần Thơ,,"Ninh Kiều, Cần Thơ",VN
871,ChIJSWVfBCmJoDERwwQQacBwdeI,Sửa quần áo,Cửa hàng may vá,0949 337 828,"Sửa quần áo, 140/37A, Đ. Lý Tự Trọng, p, Ninh Kiều, Cần Thơ","p, Ninh Kiều","140/37A, Đ. Lý Tự Trọng",Cần Thơ,,"Ninh Kiều, Cần Thơ",VN
875,ChIJHxb7Z-GJoDERjuJkPwmT9mg,Shop Hoàng Anh,Cửa hàng quần áo nam,0847 470 600,"Shop Hoàng Anh, 39 Mậu Thân, Xuân Khánh, Ninh Kiều, Cần Thơ","Xuân Khánh, Ninh Kiều",39 Mậu Thân,Cần Thơ,,"Ninh Kiều, Cần Thơ",VN
878,ChIJ4ZXAOSCIoDER_DlFmL-kqU4,Cửa Hàng Quần Áo Marco Polo,Cửa hàng quần áo,0292 3780 222,"Cửa Hàng Quần Áo Marco Polo, 74, Đường Đ. Nguyễn Việt Hồng, An Lạc, Ninh Kiều, Cần Thơ","An Lạc, Ninh Kiều","74, Đường Đ. Nguyễn Việt Hồng",Cần Thơ,,"Ninh Kiều, Cần Thơ",VN
879,ChIJfzWDCTqIoDERA6JBV6yge34,Tiệm Quần Áo May Sẵn Hùng Đào,Cửa hàng quần áo,0292 3782 901,"Tiệm Quần Áo May Sẵn Hùng Đào, 221, Đường 3/2, Quận Ninh Kiều, Hưng Lợi, Ninh Kiều, Cần Thơ","Hưng Lợi, Ninh Kiều","221, Đường 3/2, Quận Ninh Kiều",Cần Thơ,,"Ninh Kiều, Cần Thơ",VN
883,ChIJVcN97zeJoDERhTirWPGF8HU,Đại Lý Quần Áo Tây Đô,Cửa hàng quần áo,,"Đại Lý Quần Áo Tây Đô, 372P Nguyễn Văn Cừ Nối Dài, Phường An Khánh, Ninh Kiều, Cần Thơ","Phường An Khánh, Ninh Kiều",372P Nguyễn Văn Cừ Nối Dài,Cần Thơ,,"Ninh Kiều, Cần Thơ",VN
890,ChIJq6qqBw-IoDERgeHr4R8Ayew,Cửa Hàng Bán Áo Đầm Bầu Hana,Cửa hàng quần áo,0909 575 769,"Cửa Hàng Bán Áo Đầm Bầu Hana, 50, 30/4, Quận Ninh Kiều, Tp Cần Thơ, An Hoà, Ninh Kiều, Cần Thơ","An Hoà, Ninh Kiều","50, 30/4, Quận Ninh Kiều, Tp Cần Thơ",Cần Thơ,,"Ninh Kiều, Cần Thơ",VN
891,ChIJazitggOJoDER3imsw0u_gtk,SHOP QUẦN ÁO TRẺ EM SHINHOUSE,Cửa hàng quần áo,,"SHOP QUẦN ÁO TRẺ EM SHINHOUSE, 42E4/5, Đ. Trần Nam Phú, Phường An Khánh, Ninh Kiều, Cần Thơ","Phường An Khánh, Ninh Kiều","42E4/5, Đ. Trần Nam Phú",Cần Thơ,,"Ninh Kiều, Cần Thơ",VN
892,ChIJ8b_PuwmJoDEREzaphS9okKE,May quần áo nữ,Cửa hàng quần áo,,"2QH5+7PW May quần áo nữ, Hưng Lợi, Ninh Kiều, Cần Thơ","Hưng Lợi, Ninh Kiều",2QH5+7PW,Cần Thơ,,"Ninh Kiều, Cần Thơ",VN
898,ChIJ8x2wyg-IoDERzFbBC_A7Fuo,Cửa Hàng Quần Áo Loan,Cửa hàng phụ kiện thời trang,0292 3893 330,"Cửa Hàng Quần Áo Loan, 331 Đ. Nguyễn Văn Cừ, An Hoà, Ninh Kiều, Cần Thơ","An Hoà, Ninh Kiều",331 Đ. Nguyễn Văn Cừ,Cần Thơ,,"Ninh Kiều, Cần Thơ",VN
900,ChIJgbLuFjiJoDERtiSXEQRzvO4,INA Store,Cửa hàng quần áo,,"INA Store, C9 Đ. Mậu Thân, Xuân Khánh, Ninh Kiều, Cần Thơ","Xuân Khánh, Ninh Kiều",C9 Đ. Mậu Thân,Cần Thơ,,"Ninh Kiều, Cần Thơ",VN
902,ChIJ6xLriJeJoDERrYG883NgCkw,Cô Phương - May & Sửa quần áo,Thợ may quần áo,,"Cô Phương - May & Sửa quần áo, 30 Đ. Tô Hiến Thành, Phường An Khánh, Ninh Kiều, Cần Thơ","Phường An Khánh, Ninh Kiều",30 Đ. Tô Hiến Thành,Cần Thơ,,"Ninh Kiều, Cần Thơ",VN
908,ChIJLwhgiEyJoDERDXtxAnNhY8I,Vân Shop,Cửa hàng quần áo nữ,,"Vân Shop, Hẻm 51 Đ. 3 Tháng 2, Xuân Khánh, Ninh Kiều, Cần Thơ 94000","Xuân Khánh, Ninh Kiều",Hẻm 51 Đ. 3 Tháng 2,Cần Thơ,94000.0,"Ninh Kiều, Cần Thơ",VN
911,ChIJ68KGjb2JoDERL7pjm68SkLo,Quỳnh Shop,Cửa hàng quần áo nữ,,"Quỳnh Shop, 301/12a Đ. Nguyễn Văn Linh, Phường An Khánh, Ninh Kiều, Cần Thơ","Phường An Khánh, Ninh Kiều",301/12a Đ. Nguyễn Văn Linh,Cần Thơ,,"Ninh Kiều, Cần Thơ",VN
915,ChIJJ6LpXtqJoDERTANQ0Bu-ILc,Đồng Phục Áo Lớp - Lê Vũ,Cửa hàng quần áo thanh niên,0949 870 849,"Đồng Phục Áo Lớp - Lê Vũ, 35 Đ. Chu Văn An, KDC Thới Nhựt 1, Ninh Kiều, Cần Thơ 900000","KDC Thới Nhựt 1, Ninh Kiều",35 Đ. Chu Văn An,Cần Thơ,900000.0,"Ninh Kiều, Cần Thơ",VN
917,ChIJH59nIcyJoDERkzpuUb6VhcQ,Quần Áo Trẻ Em (BÔNG KIDS),Cửa hàng quần áo,0944 848 154,"Quần Áo Trẻ Em (BÔNG KIDS), 21 Đ. Tô Hiến Thành, Phường An Khánh, Ninh Kiều, Cần Thơ","Phường An Khánh, Ninh Kiều",21 Đ. Tô Hiến Thành,Cần Thơ,,"Ninh Kiều, Cần Thơ",VN
925,ChIJeZejqBSIoDERMQ9sa4Vwoq0,Shop Quần Áo Liễu Nhung 2,Cửa hàng phụ kiện thời trang,0933 337 306,"Shop Quần Áo Liễu Nhung 2, 171A Đ. Nguyễn Tri Phương, Phường An Khánh, Ninh Kiều, Cần Thơ","Phường An Khánh, Ninh Kiều",171A Đ. Nguyễn Tri Phương,Cần Thơ,,"Ninh Kiều, Cần Thơ",VN
934,ChIJnU4s9GqJoDERNN6Vr8TOUcU,SONY KIDS - CHUYÊN SỈ LẺ QUẦN ÁO TRẺ EM,Cửa hàng quần áo sơ sinh,0932 883 929,"SONY KIDS - CHUYÊN SỈ LẺ QUẦN ÁO TRẺ EM, Số 238 Nguyễn Tri Phương, An Khánh, Ninh Kiều, Tp. Cần Thơ Cần Thơ Can Tho City, 900000","Phường An Khánh, Ninh Kiều","Số 238 Nguyễn Tri Phương, An Khánh, Ninh Kiều, Tp. Cần Thơ Cần Thơ Can Tho City",Cần Thơ,900000.0,"Ninh Kiều, Cần Thơ",VN
950,ChIJm98lW7OJoDERzjbVW6k6CBQ,Cửa Hàng Quần Áo Mẹ & Bé Gấu,Cửa hàng quần áo trẻ em,0979 023 232,"Cửa Hàng Quần Áo Mẹ & Bé Gấu, 1153, Khu Vực 2, Quốc Lộ 1A, P. An Bình, Quận Ninh Kiều, An Bình, Ninh Kiều, Cần Thơ","An Bình, Ninh Kiều","1153, Khu Vực 2, Quốc Lộ 1A, P. An Bình, Quận Ninh Kiều",Cần Thơ,,"Ninh Kiều, Cần Thơ",VN
953,ChIJU_HjfbCJoDER-zTI6YLG7aE,Cửa Hàng Quần Áo Thanh Phong,Cửa hàng quần áo,0918 865 650,"Cửa Hàng Quần Áo Thanh Phong, 75/10, Đường Nguyễn Trãi, Quận Cái Răng, TP Cần Thơ, Lê Bình, Cái Răng, Cần Thơ","Lê Bình, Cái Răng","75/10, Đường Nguyễn Trãi, Quận Cái Răng, TP Cần Thơ",Cần Thơ,,"Cái Răng, Cần Thơ",VN
955,ChIJP7wdAVCJoDERpckZCfhqyTg,Uyen Boutique,Cửa hàng quần áo nữ,0966 690 699,"Uyen Boutique, 132 Trần Việt Châu Cần Thơ Can Tho City, 900000","An Hoà, Ninh Kiều",132 Trần Việt Châu Cần Thơ Can Tho City,Cần Thơ,900000.0,"Ninh Kiều, Cần Thơ",VN
961,ChIJRYZMUsWJoDERf_gN7LNnW5o,Trinh Tây Boutique,Cửa hàng quần áo,0966 662 532,"Trinh Tây Boutique, 48a Đ. 3 Tháng 2, Xuân Khánh, Ninh Kiều, Cần Thơ","Xuân Khánh, Ninh Kiều",48a Đ. 3 Tháng 2,Cần Thơ,,"Ninh Kiều, Cần Thơ",VN
975,ChIJw6aRPACJoDER6Ahsz0ZXJUg,Tiệm quần áo mèo ú,Cửa hàng quần áo nữ,,"2Q45+8RP Tiệm quần áo mèo ú, Hưng Thành, Cái Răng, Cần Thơ","Hưng Thành, Cái Răng",2Q45+8RP,Cần Thơ,,"Cái Răng, Cần Thơ",VN
976,ChIJRV_hUL-JoDERf38QHLs8DaM,shop quần áo si Mười Loan,Cửa hàng quần áo,,"shop quần áo si Mười Loan, 326d Đ. Nguyễn Văn Linh, Phường An Khánh, Ninh Kiều, Cần Thơ","Phường An Khánh, Ninh Kiều",326d Đ. Nguyễn Văn Linh,Cần Thơ,,"Ninh Kiều, Cần Thơ",VN
979,ChIJBZ_wiGCJoDERP4AOj4h2kb8,Lê Quỳnh - Kho Sỉ Thời Trang,Cửa hàng quần áo,,"Lê Quỳnh - Kho Sỉ Thời Trang, Liên Tổ/14 Cầu Rau Râm, An Bình, Ninh Kiều, Cần Thơ","An Bình, Ninh Kiều",Liên Tổ/14 Cầu Rau Râm,Cần Thơ,,"Ninh Kiều, Cần Thơ",VN
981,ChIJm95_tSaJoDERv3xhp_eut6I,Tiệm Bán Quần Áo May Sẳn 142,Cửa hàng quần áo,,"Tiệm Bán Quần Áo May Sẳn 142, Mỹ Khánh, Phong Điền, Cần Thơ","Mỹ Khánh, Phong Điền",,Cần Thơ,,"Phong Điền, Cần Thơ",VN
1016,ChIJ6UGcpyaIoDERYqSPODuy3RU,Shop Thời Trang Sheeps,Cửa hàng quần áo,0932 841 109,"Shop Thời Trang Sheeps, 222 Đ. 30 Tháng 4, Xuân Khánh, Ninh Kiều, Cần Thơ","Xuân Khánh, Ninh Kiều",222 Đ. 30 Tháng 4,Cần Thơ,,"Ninh Kiều, Cần Thơ",VN
1018,ChIJbRQ_dsmJoDERxZKh84nUacc,Shop Thời trang DH,Cửa hàng quần áo nữ,,"Shop Thời trang DH, 5 Đ. Nguyễn Việt Hồng, An Phú, Ninh Kiều, Cần Thơ 900000","An Phú, Ninh Kiều",5 Đ. Nguyễn Việt Hồng,Cần Thơ,900000.0,"Ninh Kiều, Cần Thơ",VN
1019,ChIJ1zOEuiGIoDERuZfmfoKZ2rI,Cửa Hàng Quần Áo Giang,Cửa hàng phụ kiện thời trang,0916 467 970,"Cửa Hàng Quần Áo Giang, 112 Đ. Nguyễn Việt Hồng, An Phú, Ninh Kiều, Cần Thơ","An Phú, Ninh Kiều",112 Đ. Nguyễn Việt Hồng,Cần Thơ,,"Ninh Kiều, Cần Thơ",VN
1020,ChIJN_e7HSSIoDER4uRWbdByiZo,Diễm Khuê Clothing & Accessories,Cửa hàng quần áo,,"Diễm Khuê Clothing & Accessories, 226 Đ. 30 Tháng 4, Xuân Khánh, Ninh Kiều, Cần Thơ 900000","Xuân Khánh, Ninh Kiều",226 Đ. 30 Tháng 4,Cần Thơ,900000.0,"Ninh Kiều, Cần Thơ",VN
1022,ChIJi3STYSGIoDEROuMeh0SVPMQ,Shop Tp Jeans,Cửa hàng phụ kiện thời trang,0913 923 459,"Shop Tp Jeans, 94 Đ. Mậu Thân, Xuân Khánh, Ninh Kiều, Cần Thơ","Xuân Khánh, Ninh Kiều",94 Đ. Mậu Thân,Cần Thơ,,"Ninh Kiều, Cần Thơ",VN
1025,ChIJR7B8GLyJoDERLr8WcmdF4Xs,Cửa Hàng Quần Áo Anh Hoàng,Cửa hàng quần áo,0292 3842 981,"Cửa Hàng Quần Áo Anh Hoàng, 63/3A, Đường Trần Hưng Đạo, Quận Cái Răng, Lê Bình, Cái Răng, Cần Thơ","Lê Bình, Cái Răng","63/3A, Đường Trần Hưng Đạo, Quận Cái Răng",Cần Thơ,,"Cái Răng, Cần Thơ",VN
1066,ChIJf8MRJyWJoDERHX8tthOkmtY,Tiệm may quần áo Chế Ken,Cửa hàng may vá,0367 706 164,"2Q32+JF3 Tiệm may quần áo Chế Ken, Trần Hưng Đạo, Lê Bình, Cái Răng, Cần Thơ","Lê Bình, Cái Răng","2Q32+JF3, Trần Hưng Đạo",Cần Thơ,,"Cái Răng, Cần Thơ",VN
1069,ChIJN3TPohOJoDERSELHa2BLb9k,Na Danh Store,Cửa hàng quần áo nữ,0844 448 044,"Na Danh Store, 95 Đ. Mậu Thân, An Phú, Ninh Kiều, Cần Thơ","An Phú, Ninh Kiều",95 Đ. Mậu Thân,Cần Thơ,,"Ninh Kiều, Cần Thơ",VN
1096,ChIJN2usLkSJoDERGFPMZq54sOk,2hand,Cửa hàng quần áo,0916 161 608,"2hand, 30 Đ. Số 2, Hưng Lợi, Ninh Kiều, Cần Thơ","Hưng Lợi, Ninh Kiều",30 Đ. Số 2,Cần Thơ,,"Ninh Kiều, Cần Thơ",VN
1099,ChIJ_9s7KTaIoDER5lqvJrgFepI,Cửa Hàng Quần Áo Tú Thuận,Cửa hàng phụ kiện thời trang,0947 976 906,"Cửa Hàng Quần Áo Tú Thuận, 132/29A Đ. 3 Tháng 2, Hưng Lợi, Ninh Kiều, Cần Thơ","Hưng Lợi, Ninh Kiều",132/29A Đ. 3 Tháng 2,Cần Thơ,,"Ninh Kiều, Cần Thơ",VN
1106,ChIJK5cVpTCIoDERjDblNvPNSU0,Cửa Hàng Quần Áo May Sẵn Định Thúy,Cửa hàng phụ kiện thời trang,0908 707 703,"Cửa Hàng Quần Áo May Sẵn Định Thúy, 221 Hẻm 132 Đ. 3 Tháng 2, Hưng Lợi, Ninh Kiều, Cần Thơ","Hưng Lợi, Ninh Kiều",221 Hẻm 132 Đ. 3 Tháng 2,Cần Thơ,,"Ninh Kiều, Cần Thơ",VN
1112,ChIJtcSezw2JoDERUF4n8tRDW5I,88 Store Thanh lý - Ký gửi Cần Thơ,Cửa hàng quần áo nữ,0828 113 881,"88 Store Thanh lý - Ký gửi Cần Thơ, 180/8l Hẻm 558, đường 30/4, Ninh Kiều, Cần Thơ","đường 30/4, Ninh Kiều",180/8l Hẻm 558,Cần Thơ,,"Ninh Kiều, Cần Thơ",VN
1140,ChIJ20G2J2CJoDERudsOLnfNeEk,Thanh lý ký gửi quần áo phụ kiện Ngăn Ngăn,Cửa hàng,0909 506 050,"Thanh lý ký gửi quần áo phụ kiện Ngăn Ngăn, 49 7trần hoàng na, Hưng Lợi, Ninh Kiều, Cần Thơ","Hưng Lợi, Ninh Kiều",49 7trần hoàng na,Cần Thơ,,"Ninh Kiều, Cần Thơ",VN
1141,ChIJD46rdyWIoDERxJDPyndTSLQ,Cửa Hàng Quần Áo Mẹ & Bé,Cửa hàng quần áo trẻ em,0292 4461 666,"Cửa Hàng Quần Áo Mẹ & Bé, 1/1B, Đường 30/4, Quận Ninh Kiều, Xuân Khánh, Ninh Kiều, Cần Thơ","Xuân Khánh, Ninh Kiều","1/1B, Đường 30/4, Quận Ninh Kiều",Cần Thơ,,"Ninh Kiều, Cần Thơ",VN
1146,ChIJ94CLVjCIoDERXkX2uY-xLpE,Cửa Hàng Quần Áo May Sẵn Phong Phú,Cửa hàng phụ kiện thời trang,0939 415 709,"Cửa Hàng Quần Áo May Sẵn Phong Phú, 268 Đ. Nguyễn Văn Linh, Hưng Lợi, Ninh Kiều, Cần Thơ","Hưng Lợi, Ninh Kiều",268 Đ. Nguyễn Văn Linh,Cần Thơ,,"Ninh Kiều, Cần Thơ",VN
1161,ChIJwRpjd4qJoDER1nzkW0_zVtE,NYU&more - clothing and more,Cửa hàng quần áo nữ,0965 578 782,"NYU&more - clothing and more, 35i Đ. Mạc Thiên Tích, An Phú, Ninh Kiều, Cần Thơ","An Phú, Ninh Kiều",35i Đ. Mạc Thiên Tích,Cần Thơ,,"Ninh Kiều, Cần Thơ",VN
1181,ChIJp912maBioDER5f3ChF8XIHE,Tiệm Sửa Quần Áo Oanh,Cửa hàng phụ kiện thời trang,0939 882 270,"Tiệm Sửa Quần Áo Oanh, 17 Hẻm 22 Đ. Mạc Đĩnh Chi, Tân An, Ninh Kiều, Cần Thơ","Tân An, Ninh Kiều",17 Hẻm 22 Đ. Mạc Đĩnh Chi,Cần Thơ,,"Ninh Kiều, Cần Thơ",VN
1185,ChIJM-KLcZ9ioDERQHmNaOvkO-c,Tiệm Sửa Quần Áo,Cửa hàng phụ kiện thời trang,0909 098 707,"Tiệm Sửa Quần Áo, 14B Đ. Điện Biên Phủ, Tân An, Ninh Kiều, Cần Thơ","Tân An, Ninh Kiều",14B Đ. Điện Biên Phủ,Cần Thơ,,"Ninh Kiều, Cần Thơ",VN
1192,ChIJj5NA-DOIoDERoS6pZdItT88,boniwa chuyên sỉ thời trang,Cửa hàng quần áo,0907 256 146,"boniwa chuyên sỉ thời trang, 180/4 đường 30/4, Hưng Lợi, Ninh Kiều, Hưng Lợi, Ninh Kiều, Cần Thơ","Hưng Lợi, Ninh Kiều","180/4 đường 30/4, Hưng Lợi, Ninh Kiều",Cần Thơ,,"Ninh Kiều, Cần Thơ",VN
1199,ChIJw_2dGJ9ioDERLUZDqxg9Mbc,Tiệm Sửa Quần Áo Hồng Dung,Cửa hàng phụ kiện thời trang,0946 383 033,"Tiệm Sửa Quần Áo Hồng Dung, 89A Phan Đình Phùng, Tân An, Ninh Kiều, Cần Thơ","Tân An, Ninh Kiều",89A Phan Đình Phùng,Cần Thơ,,"Ninh Kiều, Cần Thơ",VN
