,place_id,name,main_category,phone,address,address_ward,address_street,address_city,address_postal_code,address_state,address_country_code
0,ChIJOa5oAjuIoDERmHb1YUOmtTw,Salon VŨ IRAN 3,Hiệu làm tóc,0933 466 911,"Salon VŨ IRAN 3, 45 Đ. 3 Tháng 2, Xuân Khánh, Ninh Kiều, Cần Thơ","Xuân Khánh, Ninh Kiều",45 Đ. 3 Tháng 2,Cần Thơ,,"Ninh Kiều, Cần Thơ",VN
4,ChIJger5LtiJoDERAOxqq_XuorA,July Hair Salon - Chi nhánh Cần Thơ,Hiệu làm tóc,0372 037 803,"July Hair Salon - Chi nhánh Cần Thơ, 42 Đ. Mậu Thân, An Phú, Ninh Kiều, Cần Thơ","An Phú, Ninh Kiều",42 Đ. Mậu Thân,Cần Thơ,,"Ninh Kiều, Cần Thơ",VN
19,ChIJO7fCwR6IoDERJVUZ4zVK_9I,Hair Salon Thảo Tây,Hiệu làm tóc,0966 666 337,"Hair Salon Thảo Tây, 130 Đ. Lý Tự Trọng, An Cư, Ninh Kiều, Cần Thơ 700000","An Cư, Ninh Kiều",130 Đ. Lý Tự Trọng,Cần Thơ,700000.0,"Ninh Kiều, Cần Thơ",VN
22,ChIJbdqb0n2JoDER2xIqsSribbo,Trendy Hair Studio,Hiệu làm tóc,0974 218 194,"Trendy Hair Studio, đường Đ. Trần Văn Hoài, Xuân Khánh, Ninh Kiều, Cần Thơ","Xuân Khánh, Ninh Kiều",đường Đ. Trần Văn Hoài,Cần Thơ,,"Ninh Kiều, Cần Thơ",VN
37,ChIJ8d7GmoapCjER9UtAdz8-6ek,KyO Hair Salon,Hiệu làm tóc,0917 513 923,"KyO Hair Salon, 381 Đ. Trần Nam Phú, Phường An Khánh, Ninh Kiều, Cần Thơ","Phường An Khánh, Ninh Kiều",381 Đ. Trần Nam Phú,Cần Thơ,,"Ninh Kiều, Cần Thơ",VN
38,ChIJ8dJ8abVjoDER6XdeMf_MXJc,Salon Nguyên,Hiệu làm tóc,0907 715 707,"2Q4M+HC6 Salon Nguyên, Hưng Phú, Cái Răng, Cần Thơ","Hưng Phú, Cái Răng",2Q4M+HC6,Cần Thơ,,"Cái Răng, Cần Thơ",VN
66,ChIJSf0Vwl-JoDERlYLNxBXBRn8,Hair salon Đào Lê- Tóc Đẹp Cần Thơ,Tiệm cắt tóc,0348 181 477,"Hair salon Đào Lê- Tóc Đẹp Cần Thơ, 583 Đ. 30 Tháng 4, Hưng Lợi, Ninh Kiều, Cần Thơ 902220","Hưng Lợi, Ninh Kiều",583 Đ. 30 Tháng 4,Cần Thơ,902220.0,"Ninh Kiều, Cần Thơ",VN
80,ChIJl1v6R3qJoDER5q9-WIof8KM,TH Hair Salon,Tiệm cắt tóc,0356 656 039,"TH Hair Salon, Đường 305A Đ. Nguyễn Văn Cừ, An Hoà, Ninh Kiều, Cần Thơ 94000","An Hoà, Ninh Kiều",Đường 305A Đ. Nguyễn Văn Cừ,Cần Thơ,94000.0,"Ninh Kiều, Cần Thơ",VN
91,ChIJr3TRYsaJoDER7kcitPG5EoY,Salon Ái Thu,Hiệu làm tóc,0969 788 898,"2Q95+PV6 Salon Ái Thu, Hẻm 132, Hưng Lợi, Ninh Kiều, Cần Thơ","Hưng Lợi, Ninh Kiều","2Q95+PV6, Hẻm 132",Cần Thơ,,"Ninh Kiều, Cần Thơ",VN
103,ChIJbdlvLiKJoDEReY-HrGHqI-A,Sinh Anh Hair Salon Cần Thơ,Hiệu làm tóc,0393 823 888,"Sinh Anh Hair Salon Cần Thơ, Đ. Lý Tự Trọng/40 đoạn 2 chiều, An Cư, Ninh Kiều, Cần Thơ","An Cư, Ninh Kiều",Đ. Lý Tự Trọng/40 đoạn 2 chiều,Cần Thơ,,"Ninh Kiều, Cần Thơ",VN
118,ChIJr0WfNyCIoDERG6OYZgN2Yzw,Salon Hair - Nail Thanh Tiếm,Người tạo mẫu,0909 161 904,"Salon Hair - Nail Thanh Tiếm, 50m về hướng, 139/39 Đường 30 Tháng 4 Xuân Khánh Ngay đầu bờ kè cách chợ, Đại lộ Hoà Bình, Xuân Khánh, Ninh Kiều, Cần Thơ","Xuân Khánh, Ninh Kiều","50m về hướng, 139/39 Đường 30 Tháng 4 Xuân Khánh Ngay đầu bờ kè cách chợ, Đại lộ Hoà Bình",Cần Thơ,,"Ninh Kiều, Cần Thơ",VN
119,ChIJv-bpCUeJoDERjZ-OWnfNpsQ,Hair Salon,Hiệu làm tóc,0799 556 714,"Hair Salon, 111 Đ. 30 Tháng 4, An Lạc, Ninh Kiều, Cần Thơ","An Lạc, Ninh Kiều",111 Đ. 30 Tháng 4,Cần Thơ,,"Ninh Kiều, Cần Thơ",VN
120,ChIJH5be9NOJoDERUK6PaiimD6M,Salon hair beauty &nail gội đầu dưỡng sinh,Chuyên gia làm đẹp,0396 875 827,"Salon hair beauty &nail gội đầu dưỡng sinh, 166 Đ. Nguyễn Đệ, An Hoà, tp, Cần Thơ","An Hoà, tp",166 Đ. Nguyễn Đệ,Cần Thơ,,"tp, Cần Thơ",VN
128,ChIJtUnaGQa8G4cR7Nr0hWvjiAQ,DIAMOND HAIR SALON,Hiệu làm tóc,0902 908 469,,,,,,,
142,ChIJBVjR1VmJoDERbkwedOboSkQ,hair salon Minh Tài,Hiệu làm tóc,0762 450 809,"hair salon Minh Tài, 162/23 hẻm 1 Đ. Nguyễn Việt Hồng, An Lạc, Ninh Kiều, Cần Thơ","An Lạc, Ninh Kiều",162/23 hẻm 1 Đ. Nguyễn Việt Hồng,Cần Thơ,,"Ninh Kiều, Cần Thơ",VN
145,ChIJRyYx6FWJoDERBe6oKaLmJBo,Hair Salon Giang Sơn Cần Thơ,Hiệu làm tóc,0939 362 803,"Hair Salon Giang Sơn Cần Thơ, 239 Đ. Nguyễn Văn Cừ, An Hoà, Ninh Kiều, Cần Thơ","An Hoà, Ninh Kiều",239 Đ. Nguyễn Văn Cừ,Cần Thơ,,"Ninh Kiều, Cần Thơ",VN
160,ChIJoYjsHiSIoDERzdlAzhmRfvs,Hair Salon Nguyễn Vàng 1,Thợ làm tóc,0939 391 313,"Hair Salon Nguyễn Vàng 1, 11 Trần Văn Khéo, An Hội, Ninh Kiều, Cần Thơ","An Hội, Ninh Kiều",11 Trần Văn Khéo,Cần Thơ,,"Ninh Kiều, Cần Thơ",VN
165,ChIJqTs99dCJoDERbj6i3Md93IU,Traky Hair Salon,Hiệu làm tóc,0786 239 999,"Traky Hair Salon, 133 Đ. Trần Hưng Đạo, An Phú, Ninh Kiều, Cần Thơ 90000","An Phú, Ninh Kiều",133 Đ. Trần Hưng Đạo,Cần Thơ,90000.0,"Ninh Kiều, Cần Thơ",VN
174,ChIJOwKbnbyJoDER96aif_PPci4,Emi Hair Salon,Hiệu làm tóc,0932 321 900,"Emi Hair Salon, 88 Đ. Nguyễn Việt Hồng, An Lạc, Ninh Kiều, Cần Thơ","An Lạc, Ninh Kiều",88 Đ. Nguyễn Việt Hồng,Cần Thơ,,"Ninh Kiều, Cần Thơ",VN
189,ChIJQWymkzaIoDERR3M6eBX-S6I,Salon Bắc Trần Tiến,Hiệu làm tóc,0986 363 551,"Salon Bắc Trần Tiến, 145 Đ. 3 Tháng 2, Hưng Lợi, Ninh Kiều, Cần Thơ","Hưng Lợi, Ninh Kiều",145 Đ. 3 Tháng 2,Cần Thơ,,"Ninh Kiều, Cần Thơ",VN
193,ChIJYRyNcA-JoDEREpmLCjY6nbw,SALON TÓC NAM NỮ MIKIO CẦN THƠ,Tiệm cắt tóc,0908 990 996,"SALON TÓC NAM NỮ MIKIO CẦN THƠ, 10 Đ. Trần Hưng Đạo, An Cư, Ninh Kiều, Cần Thơ 90000","An Cư, Ninh Kiều",10 Đ. Trần Hưng Đạo,Cần Thơ,90000.0,"Ninh Kiều, Cần Thơ",VN
195,ChIJV2xILVqJoDERUfb4NRcBbkk,Salon Tóc Nam Anh Hair Salon,Tiệm cắt tóc,0973 623 035,"Salon Tóc Nam Anh Hair Salon, 478 Đ. Nguyễn Văn Cừ, An Hoà, Ninh Kiều, Cần Thơ 94000","An Hoà, Ninh Kiều",478 Đ. Nguyễn Văn Cừ,Cần Thơ,94000.0,"Ninh Kiều, Cần Thơ",VN
202,ChIJa_Lj-8yJoDERjP6cU5oVyzY,Beauty Salon Thúy Nga,Hiệu làm tóc,,"Beauty Salon Thúy Nga, 72 Đ. Trần Hoàng Na, Hưng Lợi, Ninh Kiều, Cần Thơ","Hưng Lợi, Ninh Kiều",72 Đ. Trần Hoàng Na,Cần Thơ,,"Ninh Kiều, Cần Thơ",VN
206,ChIJ551U3xuJoDERb5UR0hUBtxM,Salon Tony Thực,Hiệu làm tóc,0974 047 929,"Salon Tony Thực, 146K1/19 Hẻm liên tổ 12-20, Nguyễn Văn Cừ Nối Dài, Phường An Khánh, Ninh Kiều, Cần Thơ","Phường An Khánh, Ninh Kiều","146K1/19 Hẻm liên tổ 12-20, Nguyễn Văn Cừ Nối Dài",Cần Thơ,,"Ninh Kiều, Cần Thơ",VN
209,ChIJYRrFT59ioDERKdWydPCd5Bk,Salon Hair Minh Nhựt,Hiệu làm tóc,0292 3814 720,"Salon Hair Minh Nhựt, 27 Đường Châu Văn Liêm, Tân An, Ninh Kiều, Cần Thơ 94113","Tân An, Ninh Kiều",27 Đường Châu Văn Liêm,Cần Thơ,94113.0,"Ninh Kiều, Cần Thơ",VN
211,ChIJtbBl4J5ioDERBzgjbPeYTmw,Hair Salon Giàu Tóc Nam - Nữ,Hiệu làm tóc,0937 116 719,"Hair Salon Giàu Tóc Nam - Nữ, 6a Hẻm 3 Mậu Thân, Xuân Khánh, Ninh Kiều, Cần Thơ","Xuân Khánh, Ninh Kiều",6a Hẻm 3 Mậu Thân,Cần Thơ,,"Ninh Kiều, Cần Thơ",VN
216,ChIJwXxHClyJoDERd4Zb0kAYiJ8,Salon tóc đẹp hồng Nhung,Hiệu làm tóc,0765 167 867,"Salon tóc đẹp hồng Nhung, 44 Đ. Võ Trường Toản, An Hoà, Ninh Kiều, Cần Thơ","An Hoà, Ninh Kiều",44 Đ. Võ Trường Toản,Cần Thơ,,"Ninh Kiều, Cần Thơ",VN
227,ChIJd_SL8KyJoDERLO_Dz1LAJbs,Salon trong,Hiệu làm tóc,0985 599 816,"Salon trong, 2a Trần Quang Khải, An Hội, Ninh Kiều, Cần Thơ","An Hội, Ninh Kiều",2a Trần Quang Khải,Cần Thơ,,"Ninh Kiều, Cần Thơ",VN
228,ChIJQ2m1Y4mJoDERjcmmoZAMeK0,HOANG PHONG Hair Salon,Hiệu làm tóc,0767 003 322,"HOANG PHONG Hair Salon, 127 Đ. Cách Mạng Tháng 8, P, Ninh Kiều, Cần Thơ 94000","P, Ninh Kiều",127 Đ. Cách Mạng Tháng 8,Cần Thơ,94000.0,"Ninh Kiều, Cần Thơ",VN
229,ChIJ0WcANuiJoDERm0-Tb64wgB0,Salon Hair Star Cần Thơ 1,Tiệm cắt tóc,0788 768 916,"Salon Hair Star Cần Thơ 1, 146d Đ. Trần Văn Hoài, Xuân Khánh, Ninh Kiều, Cần Thơ","Xuân Khánh, Ninh Kiều",146d Đ. Trần Văn Hoài,Cần Thơ,,"Ninh Kiều, Cần Thơ",VN
230,ChIJOYYaz22JoDER01XHVd4t3gI,Salon - Nail 1986,Tiệm cắt tóc,0964 688 949,"Salon - Nail 1986, 128 Đường Trần Hoàng Na, Hưng Thành, Cái Răng, Cần Thơ","Hưng Thành, Cái Răng",128 Đường Trần Hoàng Na,Cần Thơ,,"Cái Răng, Cần Thơ",VN
231,ChIJ34xMZpaJoDERWcaRfF8pn88,Hair Salon Nice - Cần Thơ,Tiệm cắt tóc,0332 773 939,"Hair Salon Nice - Cần Thơ, Số 146 Đ. 3 Tháng 2, Xuân Khánh, Ninh Kiều, Cần Thơ","Xuân Khánh, Ninh Kiều",Số 146 Đ. 3 Tháng 2,Cần Thơ,,"Ninh Kiều, Cần Thơ",VN
251,ChIJY5TTZWqJoDERztTrWrbBc4s,Update - Hair Salon,Hiệu làm tóc,0896 695 242,"Update - Hair Salon, 70b Bế Văn Đàn, An Hoà, Ninh Kiều, Cần Thơ","An Hoà, Ninh Kiều",70b Bế Văn Đàn,Cần Thơ,,"Ninh Kiều, Cần Thơ",VN
302,ChIJx9B3tqFioDER3P0qSqjX1dk,Trần Điền Hair Salon,Hiệu làm tóc,0907 866 840,"Trần Điền Hair Salon, 41 Đ. Ngô Văn Sở, Tân An, Ninh Kiều, Cần Thơ","Tân An, Ninh Kiều",41 Đ. Ngô Văn Sở,Cần Thơ,,"Ninh Kiều, Cần Thơ",VN
303,ChIJ2xE8TZljoDERd16CjboHP60,Hair Salon Linda Trịnh,Hiệu làm tóc,0907 089 008,"Hair Salon Linda Trịnh, 8 Đ. Nguyễn Khuyến, Tân An, Ninh Kiều, Cần Thơ","Tân An, Ninh Kiều",8 Đ. Nguyễn Khuyến,Cần Thơ,,"Ninh Kiều, Cần Thơ",VN
311,ChIJMakJV2uIoDERxsMrbordRbI,Salon Tóc Bảo Trân,Hiệu làm tóc,0939 259 366,"Salon Tóc Bảo Trân, Số 2B, Trần Khánh Dư, Phường An Khánh, Ninh Kiều, Cần Thơ","Phường An Khánh, Ninh Kiều","Số 2B, Trần Khánh Dư",Cần Thơ,,"Ninh Kiều, Cần Thơ",VN
327,ChIJkewWfYKJoDER1IpvcCIz6ww,DunnHairSalon,Hiệu làm tóc,0378 680 823,"DunnHairSalon, 23B Đ. Mậu Thân, Xuân Khánh, Ninh Kiều, Cần Thơ","Xuân Khánh, Ninh Kiều",23B Đ. Mậu Thân,Cần Thơ,,"Ninh Kiều, Cần Thơ",VN
328,ChIJXbs0U59ioDER8ig1J_OuGuM,Hair Salon - Spa Thanh Hà,Hiệu làm tóc,,"Hair Salon - Spa Thanh Hà, Đường Hai Bà Trưng, Tân An, Ninh Kiều, Cần Thơ","Tân An, Ninh Kiều",Đường Hai Bà Trưng,Cần Thơ,,"Ninh Kiều, Cần Thơ",VN
329,ChIJPaiRvKFioDER8AUj4lu8MSs,Thuy Tien Hair Beauty Salon,Hiệu làm tóc,0292 3848 191,"Thuy Tien Hair Beauty Salon, 29/3, Ngo Quyen Street, Cai Rang District, Can Tho City, Tân An, Ninh Kiều, Cần Thơ","Tân An, Ninh Kiều","29/3, Ngo Quyen Street, Cai Rang District, Can Tho City",Cần Thơ,,"Ninh Kiều, Cần Thơ",VN
335,ChIJo8JOZIeJoDER_mvUxzlUzYw,CHI CHI Hair Salon,Hiệu làm tóc,,"CHI CHI Hair Salon, 122 Đ. Nguyễn Việt Hồng, An Lạc, Ninh Kiều, Cần Thơ 900000","An Lạc, Ninh Kiều",122 Đ. Nguyễn Việt Hồng,Cần Thơ,900000.0,"Ninh Kiều, Cần Thơ",VN
339,ChIJu8Xrt0OIoDERrPnQ7XdYjYk,Salon Minh Thắng Cần Thơ,Hiệu làm tóc,0917 160 422,"Salon Minh Thắng Cần Thơ, 306B4, Quốc Lộ 91B, Quận Ninh Kiều, Tp Cần Thơ, Phường An Khánh, Ninh Kiều, Cần Thơ","Phường An Khánh, Ninh Kiều","306B4, Quốc Lộ 91B, Quận Ninh Kiều, Tp Cần Thơ",Cần Thơ,,"Ninh Kiều, Cần Thơ",VN
345,ChIJt1CPplCIoDER6SdPSgC8qYA,Thao Nhu Hair Beauty Salon,Hiệu làm tóc,0292 6259 876,"Thao Nhu Hair Beauty Salon, 221, Cai Son Hang Bang Street, Cai Rang District, Can Tho City, An Bình, Ninh Kiều, Cần Thơ","An Bình, Ninh Kiều","221, Cai Son Hang Bang Street, Cai Rang District, Can Tho City",Cần Thơ,,"Ninh Kiều, Cần Thơ",VN
350,ChIJrQq2hTWJoDER_dCMBRViayw,SALON KIM THOA,Hiệu làm tóc,0917 011 055,"SALON KIM THOA, 12/69 Hẻm 12 Đ. 3 Tháng 2, Hưng Lợi, Ninh Kiều, Cần Thơ","Hưng Lợi, Ninh Kiều",12/69 Hẻm 12 Đ. 3 Tháng 2,Cần Thơ,,"Ninh Kiều, Cần Thơ",VN
367,ChIJUelwEuOJoDERLTgjsK-w4Jo,Hair salon Nguyễn Cần,Hiệu làm tóc,0934 101 482,"Hair salon Nguyễn Cần, 108 Đ. Lê Anh Xuân, An Nghiệp, Ninh Kiều, Cần Thơ","An Nghiệp, Ninh Kiều",108 Đ. Lê Anh Xuân,Cần Thơ,,"Ninh Kiều, Cần Thơ",VN
368,ChIJfxtTt0iJoDERjiHfgWWejbc,THANH’S HAIR SALON & ACADEMY,Tiệm cắt tóc,0939 193 907,"THANH’S HAIR SALON & ACADEMY, 17b Đ. Trần Khánh Dư, Xuân Khánh, Ninh Kiều, Cần Thơ","Xuân Khánh, Ninh Kiều",17b Đ. Trần Khánh Dư,Cần Thơ,,"Ninh Kiều, Cần Thơ",VN
369,ChIJyzQq-qdjoDERybPy6OxnZm4,SALON Hair Pro Cần thơ,Hiệu làm tóc,0909 004 947,"SALON Hair Pro Cần thơ, Hẻm 38 Đ. Nguyễn Trãi, An Hội, Ninh Kiều, Cần Thơ","An Hội, Ninh Kiều",Hẻm 38 Đ. Nguyễn Trãi,Cần Thơ,,"Ninh Kiều, Cần Thơ",VN
373,ChIJ1eKrbR2IoDERnKBX7GboyTM,Hair Salon Khải Tuấn,Hiệu làm tóc,,"Hair Salon Khải Tuấn, 2 Đ. Đinh Tiên Hoàng, An Hội, Ninh Kiều, Cần Thơ","An Hội, Ninh Kiều",2 Đ. Đinh Tiên Hoàng,Cần Thơ,,"Ninh Kiều, Cần Thơ",VN
384,ChIJP4WFA3CJoDER_0AnRBnVbhY,Ngọc Huyền Beauty,Thẩm mỹ viện,0344 463 815,"Ngọc Huyền Beauty, 6/29a, Đ. Mậu Thân, Xuân Khánh, Ninh Kiều, Cần Thơ","Xuân Khánh, Ninh Kiều","6/29a, Đ. Mậu Thân",Cần Thơ,,"Ninh Kiều, Cần Thơ",VN
388,ChIJ1x2jhmuIoDER37ZDjICL_8k,Hair Salon Ngọc Nhi,Hiệu làm tóc,0848 877 788,"Hair Salon Ngọc Nhi, 49 Đ. Số 5A, Phường An Khánh, Ninh Kiều, Cần Thơ","Phường An Khánh, Ninh Kiều",49 Đ. Số 5A,Cần Thơ,,"Ninh Kiều, Cần Thơ",VN
392,ChIJ_eHn5b2JoDERizG_73KnfiU,Salon Salil Nguyễn,Hiệu làm tóc,0919 000 000,,,,,,,
393,ChIJu8YxGFCJoDER8m_9Kk1Vo98,Du hair salon,Tiệm cắt tóc,0766 900 007,"Du hair salon, 34AC1 Đ. Trần Hoàng Na, An Bình, Ninh Kiều, Cần Thơ","An Bình, Ninh Kiều",34AC1 Đ. Trần Hoàng Na,Cần Thơ,,"Ninh Kiều, Cần Thơ",VN
417,ChIJ_6P9MSWJoDERlp1am7f6c4k,Hair salon Nail-Spa OT,Hiệu làm tóc,,"Hair salon Nail-Spa OT, 117A Đ. Phạm Ngũ Lão, Thới Bình, Ninh Kiều, Cần Thơ","Thới Bình, Ninh Kiều",117A Đ. Phạm Ngũ Lão,Cần Thơ,,"Ninh Kiều, Cần Thơ",VN
418,ChIJAxgsTixjoDERtLK-RWTKn-4,Spa gội đầu nina kiều,Hiệu làm tóc,0938 867 579,"Spa gội đầu nina kiều, 86/7 Đ. Ung Văn Khiêm, An Hội, Ninh Kiều, Cần Thơ 900000","An Hội, Ninh Kiều",86/7 Đ. Ung Văn Khiêm,Cần Thơ,900000.0,"Ninh Kiều, Cần Thơ",VN
419,ChIJ61cjtTuIoDERiAS4qsDsFpw,beauty hair Ngọc Kiều,Hiệu làm tóc,0962 141 142,"beauty hair Ngọc Kiều, 3/2, Hưng Lợi, Ninh Kiều, Cần Thơ","Hưng Lợi, Ninh Kiều",3/2,Cần Thơ,,"Ninh Kiều, Cần Thơ",VN
420,ChIJT6dcy3-JoDERpKbnmZ2VV2w,Hair Salon Tóc Anh,Hiệu làm tóc,0917 108 038,"Hair Salon Tóc Anh, 410P QL91B, Hưng Lợi, Ninh Kiều, Cần Thơ","Hưng Lợi, Ninh Kiều",410P QL91B,Cần Thơ,,"Ninh Kiều, Cần Thơ",VN
421,ChIJAXBWIUeIoDERd_ZHyfo-EBk,Hair Salon Cung,Hiệu làm tóc,0939 222 736,"Hair Salon Cung, 328 Đ. Nguyễn Văn Linh, Phường An Khánh, Ninh Kiều, Cần Thơ","Phường An Khánh, Ninh Kiều",328 Đ. Nguyễn Văn Linh,Cần Thơ,,"Ninh Kiều, Cần Thơ",VN
422,ChIJpwpfTAGJoDERFozUSiUYGTY,Beauty Salon Thanh Tiếm,Hiệu làm tóc,0909 161 904,"Beauty Salon Thanh Tiếm, 39 Hẻm 553, P, Ninh Kiều, Cần Thơ","P, Ninh Kiều",39 Hẻm 553,Cần Thơ,,"Ninh Kiều, Cần Thơ",VN
424,ChIJw-MHp2mJoDERwzta8d50N9U,Hair salon trí nguyễn cây kéo vàng 2010,Hiệu làm tóc,0764 255 556,"Hair salon trí nguyễn cây kéo vàng 2010, 1 Đ. Đinh Tiên Hoàng, An Hội, Ninh Kiều, Cần Thơ","An Hội, Ninh Kiều",1 Đ. Đinh Tiên Hoàng,Cần Thơ,,"Ninh Kiều, Cần Thơ",VN
425,ChIJNQLjESiJoDER6ybw6h1mOFw,Hair Salon MTV - by Thuong Vo Group,Hiệu làm tóc,,"Hair Salon MTV - by Thuong Vo Group, C2 Đ. Mậu Thân, Xuân Khánh, Ninh Kiều, Cần Thơ","Xuân Khánh, Ninh Kiều",C2 Đ. Mậu Thân,Cần Thơ,,"Ninh Kiều, Cần Thơ",VN
440,ChIJ4-mwPQeJoDER8aSukmSdX3U,"Vikey Hair Salon - 162 Lý Tự Trọng, Q. Ninh Kiều, Cần Thơ",Hiệu làm tóc,0356 786 806,"Vikey Hair Salon - 162 Lý Tự Trọng, Q. Ninh Kiều, Cần Thơ, 162 Đ. Lý Tự Trọng, An Cư, Ninh Kiều, Cần Thơ 67000","An Cư, Ninh Kiều",162 Đ. Lý Tự Trọng,Cần Thơ,67000.0,"Ninh Kiều, Cần Thơ",VN
451,ChIJDYLrUHaJoDERpY0fJ-q6u9E,Salon Tóc HIẾU JAPAN,Hiệu làm tóc,0903 040 790,"Salon Tóc HIẾU JAPAN, Hẻm 311 Đ. Nguyễn Văn Cừ, An Hoà, Ninh Kiều, Cần Thơ","An Hoà, Ninh Kiều",Hẻm 311 Đ. Nguyễn Văn Cừ,Cần Thơ,,"Ninh Kiều, Cần Thơ",VN
453,ChIJQSVWZCGIoDER_1XM7R13q44,Tiệm Hớt Tóc Xa Ly,Hiệu làm tóc,0708 558 686,"Tiệm Hớt Tóc Xa Ly, 64C, Đường Mậu Thân, Quận Ninh Kiều, Tp Cần Thơ, Xuân Khánh, Ninh Kiều, Cần Thơ","Xuân Khánh, Ninh Kiều","64C, Đường Mậu Thân, Quận Ninh Kiều, Tp Cần Thơ",Cần Thơ,,"Ninh Kiều, Cần Thơ",VN
465,ChIJkUFR3S-IoDERba7UR3NTcH8,Tiệm Cắt Tóc Oscar,Hiệu làm tóc,0292 3837 695,"Tiệm Cắt Tóc Oscar, 34, Đường Đ. Trần Ngọc Quế, Xuân Khánh, Ninh Kiều, Cần Thơ","Xuân Khánh, Ninh Kiều","34, Đường Đ. Trần Ngọc Quế",Cần Thơ,,"Ninh Kiều, Cần Thơ",VN
466,ChIJ4-j2uRKIoDERd7N6D2lhBAM,Salon Thúy Nga,Hiệu làm tóc,,"2QV5+CPG Salon Thúy Nga, Hẻm liên tổ 12-13-14-15-16-17-18-19-20, Phường An Khánh, Ninh Kiều, Cần Thơ","Phường An Khánh, Ninh Kiều","2QV5+CPG, Hẻm liên tổ 12-13-14-15-16-17-18-19-20",Cần Thơ,,"Ninh Kiều, Cần Thơ",VN
467,ChIJ570wOJSJoDERJsJnn8Y9exI,SALON Nguyễn Khôi 163C Nguyễn văn cừ nôi dài an khánh ninh kiều,Hiệu làm tóc,0909 266 405,"2QP5+H33 SALON Nguyễn Khôi 163C Nguyễn văn cừ nôi dài an khánh ninh kiều, Nguyễn Văn Cừ Nối Dài, Phường An Khánh, Ninh Kiều, Cần Thơ","Phường An Khánh, Ninh Kiều","2QP5+H33, Nguyễn Văn Cừ Nối Dài",Cần Thơ,,"Ninh Kiều, Cần Thơ",VN
468,ChIJKVMSWmuIoDERSeb-bGvBIOA,Salon Tóc Thanh Thủy,Hiệu làm tóc,0916 511 986,"Salon Tóc Thanh Thủy, 4b Đ. Phạm Thế Hiển, Phường An Khánh, Ninh Kiều, Cần Thơ","Phường An Khánh, Ninh Kiều",4b Đ. Phạm Thế Hiển,Cần Thơ,,"Ninh Kiều, Cần Thơ",VN
469,ChIJocqj5-CJoDERdQS3fHJm6oE,Salon Tóc Nguyễn Khôi Sài Gòn,Hiệu làm tóc,0932 409 688,"Salon Tóc Nguyễn Khôi Sài Gòn, 163 Đ. Nguyễn Văn Cừ, Phường An Khánh, Ninh Kiều, Cần Thơ","Phường An Khánh, Ninh Kiều",163 Đ. Nguyễn Văn Cừ,Cần Thơ,,"Ninh Kiều, Cần Thơ",VN
478,ChIJqzX0MRKJoDERCGBE1lutlPQ,SaLon Tóc Nguyễn Hồng,Hiệu làm tóc,0937 909 689,"SaLon Tóc Nguyễn Hồng, 277/8 Đ. Trần Vĩnh Kiết, An Bình, Ninh Kiều, Cần Thơ","An Bình, Ninh Kiều",277/8 Đ. Trần Vĩnh Kiết,Cần Thơ,,"Ninh Kiều, Cần Thơ",VN
495,ChIJRXoHWAOJoDERXQY22xbMM3w,Thành Barber shop,Hiệu làm tóc,0966 585 932,"Thành Barber shop, 06 Đ. 3-2, Hưng Lợi, Ninh Kiều, Cần Thơ","Hưng Lợi, Ninh Kiều",06 Đ. 3-2,Cần Thơ,,"Ninh Kiều, Cần Thơ",VN
499,ChIJcSIBChWJoDERxlrud-4lVKw,Hair Salon Quyên Quyên,Hiệu làm tóc,0949 996 300,"Hair Salon Quyên Quyên, 28/8E Đường, Nhật Tảo, Khu vực Yên Thượng, Cái Răng, Cần Thơ","Khu vực Yên Thượng, Cái Răng","28/8E Đường, Nhật Tảo",Cần Thơ,,"Cái Răng, Cần Thơ",VN
501,ChIJAWeOsbOJoDERJx1mMT0wNNo,Salon Thảo Tây,Hiệu làm tóc,0332 556 955,"Salon Thảo Tây, 24/1 Khu Vực 3, An Bình, Ninh Kiều, Cần Thơ","An Bình, Ninh Kiều",24/1 Khu Vực 3,Cần Thơ,,"Ninh Kiều, Cần Thơ",VN
502,ChIJ4VFKm7CJoDERIUXV1aReu88,Salon Lý Tiên,Hiệu làm tóc,,"2Q22+R5H Salon Lý Tiên, Đ. Phạm Hùng, Lê Bình, Cái Răng, Cần Thơ","Lê Bình, Cái Răng","2Q22+R5H, Đ. Phạm Hùng",Cần Thơ,,"Cái Răng, Cần Thơ",VN
510,ChIJw8qkt7CJoDER85sZB1dxwRU,An An Hair Beauty Salon,Hiệu làm tóc,0292 3849 827,"An An Hair Beauty Salon, 479D, Tran Hung Dao Street, Cai Rang District, Can Tho City, Lê Bình, Cái Răng, Cần Thơ","Lê Bình, Cái Răng","479D, Tran Hung Dao Street, Cai Rang District, Can Tho City",Cần Thơ,,"Cái Răng, Cần Thơ",VN
511,ChIJPa53ZjiIoDERempxxn1GbLE,Salon Tóc Nam Thái Trinh,Hiệu làm tóc,0934 102 029,"Salon Tóc Nam Thái Trinh, 31 Đ. Nguyễn Văn Linh, Hưng Lợi, Ninh Kiều, Cần Thơ","Hưng Lợi, Ninh Kiều",31 Đ. Nguyễn Văn Linh,Cần Thơ,,"Ninh Kiều, Cần Thơ",VN
513,ChIJUxapUjGIoDERZ8XrLW3UiXQ,Hair Salon Thoa Phạm,Hiệu làm tóc,,"Hair Salon Thoa Phạm, Hưng Lợi, Ninh Kiều, Cần Thơ","Hưng Lợi, Ninh Kiều",,Cần Thơ,,"Ninh Kiều, Cần Thơ",VN
522,ChIJn9QIyyCIoDERbInoR7ROUGc,Salon Tóc Tiến Thành 79,Hiệu làm tóc,0939 412 288,"Salon Tóc Tiến Thành 79, 79 Quang Trung, An Lạc, Ninh Kiều, Cần Thơ","An Lạc, Ninh Kiều",79 Quang Trung,Cần Thơ,,"Ninh Kiều, Cần Thơ",VN
524,ChIJu3jhFjCIoDER3NHyWBG5Q_M,Salon Tóc Toàn Hk,Hiệu làm tóc,0943 519 510,"2QC9+9QM Salon Tóc Toàn Hk, Đ. Lê Bình, Hưng Lợi, Ninh Kiều, Cần Thơ","Hưng Lợi, Ninh Kiều","2QC9+9QM, Đ. Lê Bình",Cần Thơ,,"Ninh Kiều, Cần Thơ",VN
532,ChIJbUOatyOIoDERUAeJ4mZ1lhU,Hair Salon Quốc Anh,Hiệu làm tóc,0908 699 221,"2QHF+RVJ Hair Salon Quốc Anh, Đ. Mậu Thân, Xuân Khánh, Ninh Kiều, Cần Thơ","Xuân Khánh, Ninh Kiều","2QHF+RVJ, Đ. Mậu Thân",Cần Thơ,,"Ninh Kiều, Cần Thơ",VN
533,ChIJS1XrjyGIoDER8udHQodIseg,Hair Salon Four,Hiệu làm tóc,0353 471 442,"Hair Salon Four, Hẻm 2 Đ. Nguyễn Việt Hồng, An Phú, Ninh Kiều, Cần Thơ","An Phú, Ninh Kiều",Hẻm 2 Đ. Nguyễn Việt Hồng,Cần Thơ,,"Ninh Kiều, Cần Thơ",VN
534,ChIJNfVRmyGIoDERLV9Z9R-eeaA,Hair Salon Bình Á Châu,Hiệu làm tóc,0706 788 456,"Hair Salon Bình Á Châu, 129 Đ. Nguyễn Việt Hồng, An Phú, Ninh Kiều, Cần Thơ","An Phú, Ninh Kiều",129 Đ. Nguyễn Việt Hồng,Cần Thơ,,"Ninh Kiều, Cần Thơ",VN
539,ChIJuYBPnxmIoDERe_LGcq4oy5M,Salon Tóc Phong Cách Mới,Hiệu làm tóc,0794 968 668,"Salon Tóc Phong Cách Mới, 52 Nguyễn Cư Trinh, An Phú, Ninh Kiều, Cần Thơ","An Phú, Ninh Kiều",52 Nguyễn Cư Trinh,Cần Thơ,,"Ninh Kiều, Cần Thơ",VN
540,ChIJ299mthiIoDERIo32tRV7cpg,Bao Ngoc Hair Salon,Hiệu làm tóc,0949 667 422,"Bao Ngoc Hair Salon, 54 Đ. Trần Bình Trọng, An Phú, Ninh Kiều, Cần Thơ","An Phú, Ninh Kiều",54 Đ. Trần Bình Trọng,Cần Thơ,,"Ninh Kiều, Cần Thơ",VN
556,ChIJlYZ4wmtjoDERKroPU5FPCog,Salon tóc Ngọc Diễm,Hiệu làm tóc,0782 989 099,"Salon tóc Ngọc Diễm, 6/122 Trần Phú, KV3, Cồn Khương, P, Ninh Kiều, Cần Thơ","P, Ninh Kiều","6/122 Trần Phú, KV3, Cồn Khương",Cần Thơ,,"Ninh Kiều, Cần Thơ",VN
557,ChIJe_sU8KdioDERxxS_W2NrF6U,Beauty Salon Hair Thành,Hiệu làm tóc,0292 2240 566,"Beauty Salon Hair Thành, 9 Nguyễn Trãi, An Hội, Ninh Kiều, Cần Thơ","An Hội, Ninh Kiều",9 Nguyễn Trãi,Cần Thơ,,"Ninh Kiều, Cần Thơ",VN
558,ChIJGUrX4zWJoDER4N26zzll1bY,Salon HỒ MY,Hiệu làm tóc,0842 023 452,"Salon HỒ MY, 66 Đ. Đinh Tiên Hoàng, An Hội, Ninh Kiều, Cần Thơ 900000","An Hội, Ninh Kiều",66 Đ. Đinh Tiên Hoàng,Cần Thơ,900000.0,"Ninh Kiều, Cần Thơ",VN
559,ChIJCxM-EKlioDERvoc28rnY_14,Salon Tóc Phúc,Hiệu làm tóc,,"Salon Tóc Phúc, 28 Đ. Nguyễn Bình, Cái Khế, Ninh Kiều, Cần Thơ","Cái Khế, Ninh Kiều",28 Đ. Nguyễn Bình,Cần Thơ,,"Ninh Kiều, Cần Thơ",VN
560,ChIJzYhdRYGJoDER1G0ffshGpDg,Hair salon KOREA,Hiệu làm tóc,0907 955 729,"Hair salon KOREA, 1/51, 1 Đ. Đinh Tiên Hoàng, An Hội, Ninh Kiều, Cần Thơ","An Hội, Ninh Kiều","1/51, 1 Đ. Đinh Tiên Hoàng",Cần Thơ,,"Ninh Kiều, Cần Thơ",VN
561,ChIJ_xNBUKqJoDERnTnnpO53-1w,Salon Uyên Trinh,Hiệu làm tóc,0919 900 906,"Salon Uyên Trinh, 179c Đ. Huỳnh Thúc Kháng, An Nghiệp, Ninh Kiều, Cần Thơ 900000","An Nghiệp, Ninh Kiều",179c Đ. Huỳnh Thúc Kháng,Cần Thơ,900000.0,"Ninh Kiều, Cần Thơ",VN
562,ChIJvYp5EByIoDERbfHtypBJ1YY,Beauty Salon Ti Ti,Hiệu làm tóc,0292 3830 768,"Beauty Salon Ti Ti, 45 Đ. Trần Hưng Đạo, An Cư, Ninh Kiều, Cần Thơ","An Cư, Ninh Kiều",45 Đ. Trần Hưng Đạo,Cần Thơ,,"Ninh Kiều, Cần Thơ",VN
563,ChIJuUcHkxKIoDERjdS9SoI-p0g,Hair Salon Xuyên,Hiệu làm tóc,0939 333 562,"2QV6+964 Hair Salon Xuyên, Nguyễn Văn Cừ Nối Dài, Phường An Khánh, Ninh Kiều, Cần Thơ","Phường An Khánh, Ninh Kiều","2QV6+964, Nguyễn Văn Cừ Nối Dài",Cần Thơ,,"Ninh Kiều, Cần Thơ",VN
564,ChIJ-43O3qlioDERFaXPocTVMzM,Beauty Salon Hair Sáu,Thẩm mỹ viện,0292 2211 199,"Beauty Salon Hair Sáu, 4 Trần Phú, Cái Khế, Ninh Kiều, Cần Thơ","Cái Khế, Ninh Kiều",4 Trần Phú,Cần Thơ,,"Ninh Kiều, Cần Thơ",VN
565,ChIJcazozB-IoDERndZVSadC7Hc,Tu Linh Hair Salon,Hiệu làm tóc,0939 590 759,"Tu Linh Hair Salon, 88/1 Đ. Đề Thám, Tân An, Ninh Kiều, Cần Thơ","Tân An, Ninh Kiều",88/1 Đ. Đề Thám,Cần Thơ,,"Ninh Kiều, Cần Thơ",VN
566,ChIJeeisi_WJoDERBCUdRzInpzw,Hair Salon Vũ FreeDom,Thợ làm tóc,0907 357 615,"Hair Salon Vũ FreeDom, 82/7 Đ. Mậu Thân, Xuân Khánh, Ninh Kiều, Cần Thơ 900000","Xuân Khánh, Ninh Kiều",82/7 Đ. Mậu Thân,Cần Thơ,900000.0,"Ninh Kiều, Cần Thơ",VN
567,ChIJp2B36hCIoDERSETrJUibBGI,Salon Tóc Phú,Hiệu làm tóc,0912 611 075,"Salon Tóc Phú, 22 Đ. Mậu Thân, An Phú, Ninh Kiều, Cần Thơ","An Phú, Ninh Kiều",22 Đ. Mậu Thân,Cần Thơ,,"Ninh Kiều, Cần Thơ",VN
568,ChIJTWLffh-IoDERNwYOoTs--SI,Loan Hong Hair Design,Hiệu làm tóc,0292 3892 146,"Loan Hong Hair Design, 12/19C Đ. Lê Lai, An Lạc, Ninh Kiều, Cần Thơ","An Lạc, Ninh Kiều",12/19C Đ. Lê Lai,Cần Thơ,,"Ninh Kiều, Cần Thơ",VN
569,ChIJ1XrivSOIoDERTRB7gYTCktU,Salon Tel Huynh,Hiệu làm tóc,0932 865 709,"Salon Tel Huynh, 40/2A Đ. Mạc Thiên Tích, Xuân Khánh, Ninh Kiều, Cần Thơ","Xuân Khánh, Ninh Kiều",40/2A Đ. Mạc Thiên Tích,Cần Thơ,,"Ninh Kiều, Cần Thơ",VN
570,ChIJi_GJ6p1ioDERTi1Anaku1rU,Salon New Hair Cắt Uốn - Duỗi - Nhuộm,Hiệu làm tóc,,"Salon New Hair Cắt Uốn - Duỗi - Nhuộm, 99 Nguyễn Thị Minh Khai, Tân An, Ninh Kiều, Cần Thơ","Tân An, Ninh Kiều",99 Nguyễn Thị Minh Khai,Cần Thơ,,"Ninh Kiều, Cần Thơ",VN
571,ChIJzbcxWRWIoDERp4sclnHxW7U,Salon Tóc Chi,Hiệu làm tóc,0898 014 429,"Salon Tóc Chi, 380B1 Đ. Trần Nam Phú, Phường An Khánh, Ninh Kiều, Cần Thơ","Phường An Khánh, Ninh Kiều",380B1 Đ. Trần Nam Phú,Cần Thơ,,"Ninh Kiều, Cần Thơ",VN
572,ChIJC2y1TBWIoDERCxzDaSGSTwY,Hair Salon Tiền Poly,Hiệu làm tóc,0939 695 996,"Hair Salon Tiền Poly, 390F7 Đ. Trần Nam Phú, Phường An Khánh, Ninh Kiều, Cần Thơ","Phường An Khánh, Ninh Kiều",390F7 Đ. Trần Nam Phú,Cần Thơ,,"Ninh Kiều, Cần Thơ",VN
573,ChIJsXxzOySIoDERrxcvzcojaGA,Beauty Salon Hoàng Vinh,Hiệu làm tóc,0778 180 011,"Beauty Salon Hoàng Vinh, 280 Đ. 30 Tháng 4, Xuân Khánh, Ninh Kiều, Cần Thơ","Xuân Khánh, Ninh Kiều",280 Đ. 30 Tháng 4,Cần Thơ,,"Ninh Kiều, Cần Thơ",VN
574,ChIJQ7mKLjCIoDERnmQTgjI6nAk,Salon Nail Beauty Trâm,Hiệu làm tóc,0949 799 007,"Salon Nail Beauty Trâm, 16 Đ. Trần Ngọc Quế, Xuân Khánh, Ninh Kiều, Cần Thơ","Xuân Khánh, Ninh Kiều",16 Đ. Trần Ngọc Quế,Cần Thơ,,"Ninh Kiều, Cần Thơ",VN
575,ChIJWeW_YEGIoDERsyy4ACPj7aw,Salon Beauty & Spa Lo'ann,Hiệu làm tóc,0939 351 125,"Salon Beauty & Spa Lo'ann, 305c Đ. Nguyễn Văn Linh, Phường An Khánh, Ninh Kiều, Cần Thơ","Phường An Khánh, Ninh Kiều",305c Đ. Nguyễn Văn Linh,Cần Thơ,,"Ninh Kiều, Cần Thơ",VN
576,ChIJq6qqBw-IoDERBYj07_9mfmY,Trung Tâm Chăm Sóc Tóc 101,Hiệu làm tóc,0292 3819 123,"Trung Tâm Chăm Sóc Tóc 101, 160, 30/4, Quận Ninh Kiều, Tp Cần Thơ, An Hoà, Ninh Kiều, Cần Thơ","An Hoà, Ninh Kiều","160, 30/4, Quận Ninh Kiều, Tp Cần Thơ",Cần Thơ,,"Ninh Kiều, Cần Thơ",VN
577,ChIJv1guE31joDERG8Pr1TeKoT0,Asi hair salon,Hiệu làm tóc,,"Asi hair salon, 82 Đ. Lý Thái Tổ, KDC Hưng Phú 1, Cái Răng, Cần Thơ","KDC Hưng Phú 1, Cái Răng",82 Đ. Lý Thái Tổ,Cần Thơ,,"Cái Răng, Cần Thơ",VN
578,ChIJb1HGbyWIoDERh0I9kfO4Ot4,Hair Salon An An,Hiệu làm tóc,0987 970 007,"Hair Salon An An, 263 Đ. 30 Tháng 4, Xuân Khánh, Ninh Kiều, Cần Thơ","Xuân Khánh, Ninh Kiều",263 Đ. 30 Tháng 4,Cần Thơ,,"Ninh Kiều, Cần Thơ",VN
579,ChIJj0jY8zeIoDERRk_ldm74Oz0,Hair Salon Các Lil,Hiệu làm tóc,0907 249 730,"Hair Salon Các Lil, 40, KDC Metro, QL1A, Hưng Lợi, Ninh Kiều, Cần Thơ","Hưng Lợi, Ninh Kiều","40, KDC Metro, QL1A",Cần Thơ,,"Ninh Kiều, Cần Thơ",VN
580,ChIJHbuAkOmJoDERFcRqWIJBhKI,Hair Salon Mr Lưu Cần Thơ,Tiệm cắt tóc,0349 984 843,"Hair Salon Mr Lưu Cần Thơ, 67 Đ. Trương Định, An Cư, Ninh Kiều, Cần Thơ 900000","An Cư, Ninh Kiều",67 Đ. Trương Định,Cần Thơ,900000.0,"Ninh Kiều, Cần Thơ",VN
581,ChIJ0ViXeLWJoDERxeI9aizZONk,Salon Hair Ngọc Duyên,Hiệu làm tóc,,"Salon Hair Ngọc Duyên, 24 Tầm Vu, Hưng Lợi, Ninh Kiều, Cần Thơ","Hưng Lợi, Ninh Kiều",24 Tầm Vu,Cần Thơ,,"Ninh Kiều, Cần Thơ",VN
582,ChIJ_2teqcqJoDERTfdJYUs2N7g,Salon Tóc Nam Quý,Hiệu làm tóc,0939 722 948,"Salon Tóc Nam Quý, 748 Đ. 30 Tháng 4, Hưng Lợi, Ninh Kiều, Cần Thơ","Hưng Lợi, Ninh Kiều",748 Đ. 30 Tháng 4,Cần Thơ,,"Ninh Kiều, Cần Thơ",VN
583,ChIJZ5fAc6lioDER-Ybkw_7VlYU,Hair Salon Huyền,Hiệu làm tóc,0935 066 300,"Hair Salon Huyền, 120/20D Trần Quang Khải, An Hội, Ninh Kiều, Cần Thơ","An Hội, Ninh Kiều",120/20D Trần Quang Khải,Cần Thơ,,"Ninh Kiều, Cần Thơ",VN
584,ChIJhzfoPKhioDERkZ7FWTkCOC4,Salon Ngọc Ruby,Hiệu làm tóc,0949 495 050,"Salon Ngọc Ruby, 65 Đ. Ung Văn Khiêm, An Hội, Ninh Kiều, Cần Thơ 900000","An Hội, Ninh Kiều",65 Đ. Ung Văn Khiêm,Cần Thơ,900000.0,"Ninh Kiều, Cần Thơ",VN
586,ChIJf_bjfKBioDERYrcuQulBsqE,New Sai Gon Hair Salon,Hiệu làm tóc,0777 629 117,"New Sai Gon Hair Salon, 17 Hẻm 22 Đ. Mạc Đĩnh Chi, Tân An, Ninh Kiều, Cần Thơ","Tân An, Ninh Kiều",17 Hẻm 22 Đ. Mạc Đĩnh Chi,Cần Thơ,,"Ninh Kiều, Cần Thơ",VN
593,ChIJv4mW1vBjoDERWskxTloUeZU,Hair Salon Tấn Đức,Hiệu làm tóc,0384 299 177,"Hair Salon Tấn Đức, 120/20A, 120 Trần Quang Khải, Cái Khế, Ninh Kiều, Cần Thơ 94000","Cái Khế, Ninh Kiều","120/20A, 120 Trần Quang Khải",Cần Thơ,94000.0,"Ninh Kiều, Cần Thơ",VN
595,ChIJ4RxufKdioDERvtk1soJ24A0,Tiệm Uốn Tóc Hạnh,Hiệu làm tóc,0292 3813 597,"Tiệm Uốn Tóc Hạnh, 103 Đ. Xô Viết Nghệ Tĩnh, An Hội, Ninh Kiều, Cần Thơ","An Hội, Ninh Kiều",103 Đ. Xô Viết Nghệ Tĩnh,Cần Thơ,,"Ninh Kiều, Cần Thơ",VN
618,ChIJq6qqqq5ioDERVmd6tnjjz6E,Beauty Salon Phú,Hiệu làm tóc,0945 227 072,"Beauty Salon Phú, 80A2, Trung Tâm Thương Mại Cái Khế, Phường Cái Khế, Quận Ninh Kiều, Thành Phố Cần Thơ","Cái Khế, Ninh Kiều","80A2, Trung Tâm Thương Mại Cái Khế, Phường Cái Khế, Quận Ninh Kiều, Thành Phố Cần Thơ",Cần Thơ,,"Ninh Kiều, Cần Thơ",VN
628,ChIJLZqSNKhioDERq483KToVK4Q,Salon Vàng Hair Makeup Khánh Ngọc,Hiệu làm tóc,0934 362 939,"Salon Vàng Hair Makeup Khánh Ngọc, 5, Hồ Tùng Mậu, Phường Cái Khế, Quận Ninh Kiều, Thành Phố Cần Thơ, Cái Khế, Ninh Kiều, Cần Thơ","Cái Khế, Ninh Kiều","5, Hồ Tùng Mậu, Phường Cái Khế, Quận Ninh Kiều, Thành Phố Cần Thơ",Cần Thơ,,"Ninh Kiều, Cần Thơ",VN
639,ChIJcZQGZQSIoDERlzI1JD0vmz4,Salon Nối Mi Kim Lành,Hiệu làm tóc,0971 673 429,"2QWG+R39 Salon Nối Mi Kim Lành, Hẻm 62, Thới Bình, Ninh Kiều, Cần Thơ","Thới Bình, Ninh Kiều","2QWG+R39, Hẻm 62",Cần Thơ,,"Ninh Kiều, Cần Thơ",VN
643,ChIJGxiOgxuIoDERXxSnG_NwVGg,Hair Salon Nguyễn Ngọc,Hiệu làm tóc,0912 447 778,"Hair Salon Nguyễn Ngọc, 52 Đ. Lê Anh Xuân, An Cư, Ninh Kiều, Cần Thơ","An Cư, Ninh Kiều",52 Đ. Lê Anh Xuân,Cần Thơ,,"Ninh Kiều, Cần Thơ",VN
653,ChIJ6xufPahioDERR-dJRBXlTdo,Salon Tóc Vinh Phú,Hiệu làm tóc,0945 227 072,"Salon Tóc Vinh Phú, 84B1 Đ. Ung Văn Khiêm, An Hội, Ninh Kiều, Cần Thơ","An Hội, Ninh Kiều",84B1 Đ. Ung Văn Khiêm,Cần Thơ,,"Ninh Kiều, Cần Thơ",VN
662,ChIJMcKx1RqJoDER8dsv3Owoqx8,salon tóc Hiếu,Tiệm cắt tóc,0902 302 702,"salon tóc Hiếu, 15 Trần Phú, Thới Bình, Ninh Kiều, Cần Thơ 94107","Thới Bình, Ninh Kiều",15 Trần Phú,Cần Thơ,94107.0,"Ninh Kiều, Cần Thơ",VN
672,ChIJb-NciBuIoDERm4M1IPur8Uw,Beauty Salon Ngọc Hà,Thẩm mỹ viện,,"Beauty Salon Ngọc Hà, 45 Đ. Huỳnh Thúc Kháng, An Cư, Ninh Kiều, Cần Thơ","An Cư, Ninh Kiều",45 Đ. Huỳnh Thúc Kháng,Cần Thơ,,"Ninh Kiều, Cần Thơ",VN
675,ChIJ_0aFkxKIoDERzSweOXDbuDE,Hair Salon Hạnh Duyên,Hiệu làm tóc,0799 604 222,"2QV6+85W Hair Salon Hạnh Duyên, Đ. Nguyễn Văn Cừ, Phường An Khánh, Ninh Kiều, Cần Thơ","Phường An Khánh, Ninh Kiều","2QV6+85W, Đ. Nguyễn Văn Cừ",Cần Thơ,,"Ninh Kiều, Cần Thơ",VN
679,ChIJk5hVYEGIoDERQO8jJSz2Fkw,Salon Tóc Vy Phạm,Hiệu làm tóc,0939 779 641,"Salon Tóc Vy Phạm, 7e Đ. Mậu Thân, An Nghiệp, Ninh Kiều, Cần Thơ 94108","An Nghiệp, Ninh Kiều",7e Đ. Mậu Thân,Cần Thơ,94108.0,"Ninh Kiều, Cần Thơ",VN
688,ChIJzzW6-w6IoDER6SLVUDtfCM4,Salon Quyên,Hiệu làm tóc,0933 977 732,"2QW8+WP8 Salon Quyên, Đ. Võ Trường Toản, An Hoà, Ninh Kiều, Cần Thơ","An Hoà, Ninh Kiều","2QW8+WP8, Đ. Võ Trường Toản",Cần Thơ,,"Ninh Kiều, Cần Thơ",VN
689,ChIJ7UVZ62GJoDERhz-iDA8_EbY,Tóc và nail Ngọc Khánh,Hiệu làm tóc,0907 621 865,"Tóc và nail Ngọc Khánh, Mậu thân 5 Hẻm 7, Xuân Khánh, Ninh Kiều, Cần Thơ","Xuân Khánh, Ninh Kiều",Mậu thân 5 Hẻm 7,Cần Thơ,,"Ninh Kiều, Cần Thơ",VN
699,ChIJzyHb9seJoDER2lsXHnmyEHo,Beauty salon kim tuyến,Hiệu làm tóc,,"Beauty salon kim tuyến, 22 Đường Trần Minh Sơn, Phường An Khánh, Ninh Kiều, Cần Thơ","Phường An Khánh, Ninh Kiều",22 Đường Trần Minh Sơn,Cần Thơ,,"Ninh Kiều, Cần Thơ",VN
706,ChIJueRikkKIoDERufYCHbI0MQ0,Salon Tóc Diễm Chi,Hiệu làm tóc,0949 085 508,"Salon Tóc Diễm Chi, 337 Đ. Nguyễn Văn Linh, Phường An Khánh, Ninh Kiều, Cần Thơ","Phường An Khánh, Ninh Kiều",337 Đ. Nguyễn Văn Linh,Cần Thơ,,"Ninh Kiều, Cần Thơ",VN
716,ChIJ8-nPM1GIoDERqiGAX-HEUUU,Salon Trang Đài,Hiệu làm tóc,0907 293 217,"Salon Trang Đài, 10 Nguyễn Văn Cừ Nối Dài, An Bình, Ninh Kiều, Cần Thơ","An Bình, Ninh Kiều",10 Nguyễn Văn Cừ Nối Dài,Cần Thơ,,"Ninh Kiều, Cần Thơ",VN
717,ChIJuTW9JlGIoDERDSNLfsAUYjU,Hair Salon Việt Mỹ,Hiệu làm tóc,0939 385 252,"Hair Salon Việt Mỹ, 425 Nguyễn Văn Cừ Nối Dài, Phường An Khánh, Ninh Kiều, Cần Thơ","Phường An Khánh, Ninh Kiều",425 Nguyễn Văn Cừ Nối Dài,Cần Thơ,,"Ninh Kiều, Cần Thơ",VN
718,ChIJxXP-80SIoDERJW18j5QesKY,Hair Salon Kim Chi,Hiệu làm tóc,0911 521 917,"2PGX+WMX Hair Salon Kim Chi, Nguyễn Văn Cừ Nối Dài, Phường An Khánh, Ninh Kiều, Cần Thơ","Phường An Khánh, Ninh Kiều","2PGX+WMX, Nguyễn Văn Cừ Nối Dài",Cần Thơ,,"Ninh Kiều, Cần Thơ",VN
719,ChIJuerOY0SIoDER3zg-9n7MJbQ,Hair Salon Ngọc Ánh,Hiệu làm tóc,0904 265 399,"Hair Salon Ngọc Ánh, 284 Đ. Trần Vĩnh Kiết, Hưng Lợi, Ninh Kiều, Cần Thơ","Hưng Lợi, Ninh Kiều",284 Đ. Trần Vĩnh Kiết,Cần Thơ,,"Ninh Kiều, Cần Thơ",VN
720,ChIJF_A2mFqIoDERng3jqdJfAuQ,Đỗ Loan spa tóc nail phun xâm,Hiệu làm tóc,0907 013 769,"Đỗ Loan spa tóc nail phun xâm, Đ. Nguyễn Văn Cừ, An Bình, Ninh Kiều, Cần Thơ","An Bình, Ninh Kiều",Đ. Nguyễn Văn Cừ,Cần Thơ,,"Ninh Kiều, Cần Thơ",VN
725,ChIJM_IE47aJoDERtqgEBQIrLjQ,Hair Salon Seoul,Hiệu làm tóc,0907 303 808,"Hair Salon Seoul, 63/4 Trần Chiên, Lê Bình, Cái Răng, Cần Thơ","Lê Bình, Cái Răng",63/4 Trần Chiên,Cần Thơ,,"Cái Răng, Cần Thơ",VN
730,ChIJc3Ejz1uJoDER-2zdFkA-_Og,Tiệm tóc tâm barbershop,Hiệu làm tóc,,"2Q62+JH8 Tiệm tóc tâm barbershop, An Bình, Ninh Kiều, Cần Thơ","An Bình, Ninh Kiều",2Q62+JH8,Cần Thơ,,"Ninh Kiều, Cần Thơ",VN
769,ChIJq700iaWJoDER4TrooFBNvQE,Hair Salon C & T,Hiệu làm tóc,0932 606 077,"Hair Salon C & T, 175/4, Lộ Vòng Cung, Phường An Bình, Quận Ninh Kiều, Thành Phố Cần Thơ, An Bình, Ninh Kiều, Cần Thơ","An Bình, Ninh Kiều","175/4, Lộ Vòng Cung, Phường An Bình, Quận Ninh Kiều, Thành Phố Cần Thơ",Cần Thơ,,"Ninh Kiều, Cần Thơ",VN
770,ChIJs2chlUiJoDERyHk8_wariT0,Tiền Poly hair salon,Tiệm cắt tóc,0939 695 996,"Tiền Poly hair salon, 08 Đ. Mậu Thân, An Phú, Ninh Kiều, Cần Thơ 900000","An Phú, Ninh Kiều",08 Đ. Mậu Thân,Cần Thơ,900000.0,"Ninh Kiều, Cần Thơ",VN
784,ChIJA-kViaWJoDERhmn3Zp79wp8,Hair Salon Nguyễn Lộc,Hiệu làm tóc,0939 611 782,"Hair Salon Nguyễn Lộc, 1/1A, Lộ Vòng Cung, Phường An Bình, Quận Ninh Kiều, Thành Phố Cần Thơ, An Bình, Ninh Kiều, Cần Thơ","An Bình, Ninh Kiều","1/1A, Lộ Vòng Cung, Phường An Bình, Quận Ninh Kiều, Thành Phố Cần Thơ",Cần Thơ,,"Ninh Kiều, Cần Thơ",VN
797,ChIJe_U8e7KJoDER6dYuQJeoO6g,Hair Salon Thảo,Hiệu làm tóc,,"2P5X+J59 Hair Salon Thảo, Đ. Hoàng Quốc Việt, An Bình, Ninh Kiều, Cần Thơ","An Bình, Ninh Kiều","2P5X+J59, Đ. Hoàng Quốc Việt",Cần Thơ,,"Ninh Kiều, Cần Thơ",VN
799,ChIJZbhcabKJoDERm3Dkp1m0lEc,Salon Tóc Kiếu Diễm,Hiệu làm tóc,,"Salon Tóc Kiếu Diễm, An Bình, Ninh Kiều, Cần Thơ","An Bình, Ninh Kiều",,Cần Thơ,,"Ninh Kiều, Cần Thơ",VN
800,ChIJ52t9NrKJoDERKHpt3yLKYUk,Hair Salon Hồng Phát,Hiệu làm tóc,0948 140 139,"2P5X+8PG Hair Salon Hồng Phát, Lộ Vòng Cung, An Bình, Ninh Kiều, Cần Thơ","An Bình, Ninh Kiều","2P5X+8PG, Lộ Vòng Cung",Cần Thơ,,"Ninh Kiều, Cần Thơ",VN
801,ChIJRSJwULCJoDERtgxJDxHWgR0,Hair Salon Kim,Hiệu làm tóc,,"Hair Salon Kim, Lê Bình, Cái Răng, Cần Thơ","Lê Bình, Cái Răng",,Cần Thơ,,"Cái Răng, Cần Thơ",VN
802,ChIJ2eDVILGJoDERBixmKPFFe6c,Salon Thùy Nail,Hiệu làm tóc,0907 026 999,"Salon Thùy Nail, 5 Lê Thái Tổ, Lê Bình, Cái Răng, Cần Thơ","Lê Bình, Cái Răng",5 Lê Thái Tổ,Cần Thơ,,"Cái Răng, Cần Thơ",VN
806,ChIJ66yiXbCJoDERKWnzebWkytE,Salon Bích Thu,Hiệu làm tóc,0907 243 997,"Salon Bích Thu, 134/6 Nhật Tảo, Khu Vực Yên Bình, Cái Răng, Cần Thơ","Khu Vực Yên Bình, Cái Răng",134/6 Nhật Tảo,Cần Thơ,,"Cái Răng, Cần Thơ",VN
809,ChIJc3y24reJoDERVzg17tnK5Hs,Hair Salon Nguyễn Oanh,Hiệu làm tóc,,"2Q25+QCJ Hair Salon Nguyễn Oanh, Đường Số 5, Lê Bình, Cái Răng, Cần Thơ","Lê Bình, Cái Răng","2Q25+QCJ, Đường Số 5",Cần Thơ,,"Cái Răng, Cần Thơ",VN
820,ChIJrZRGRrOJoDERZleEgZc6PH0,Salon Beauty Bé Lan,Hiệu làm tóc,0987 990 449,"Salon Beauty Bé Lan, 115/3C Đ. Trần Vĩnh Kiết, An Bình, Ninh Kiều, Cần Thơ","An Bình, Ninh Kiều",115/3C Đ. Trần Vĩnh Kiết,Cần Thơ,,"Ninh Kiều, Cần Thơ",VN
822,ChIJZ2E9uEyIoDERf-JgujkBSu8,Salon Hồng Lan,Hiệu làm tóc,,"Salon Hồng Lan, 60 Đ. Trần Vĩnh Kiết, An Bình, Ninh Kiều, Cần Thơ","An Bình, Ninh Kiều",60 Đ. Trần Vĩnh Kiết,Cần Thơ,,"Ninh Kiều, Cần Thơ",VN
825,ChIJwRQq2fyJoDER5E2VAoNjioQ,Hair salon Hoàng phong,Hiệu làm tóc,,"Hair salon Hoàng phong, 132/20h, 132/20 Đ. 3 Tháng 2, Hưng Lợi, Ninh Kiều, Cần Thơ","Hưng Lợi, Ninh Kiều","132/20h, 132/20 Đ. 3 Tháng 2",Cần Thơ,,"Ninh Kiều, Cần Thơ",VN
826,ChIJJSiBlzeIoDERd3JYVnI6xuw,Salon Liên,Hiệu làm tóc,0796 969 331,"Salon Liên, 39, KDC Metro, Ngô Sĩ Liên, Hưng Lợi, Ninh Kiều, Cần Thơ","Hưng Lợi, Ninh Kiều","39, KDC Metro, Ngô Sĩ Liên",Cần Thơ,,"Ninh Kiều, Cần Thơ",VN
827,ChIJ5zRyXzaIoDERmnHgnocPIaQ,Salon Ngọc Hà,Hiệu làm tóc,,"Salon Ngọc Hà, Hưng Lợi, Ninh Kiều, Cần Thơ","Hưng Lợi, Ninh Kiều",,Cần Thơ,,"Ninh Kiều, Cần Thơ",VN
829,ChIJtYv6WTeIoDERQqSflFnlXs0,Salon Tóc Nam A. Bình,Hiệu làm tóc,,"Salon Tóc Nam A. Bình, Hưng Lợi, Ninh Kiều, Cần Thơ","Hưng Lợi, Ninh Kiều",,Cần Thơ,,"Ninh Kiều, Cần Thơ",VN
830,ChIJLb2sHbuJoDERae4gKyLgM44,Salon Như Ý,Hiệu làm tóc,,"Salon Như Ý, 180/5 Hẻm 558 -30/4, Hưng Lợi, Ninh Kiều, Cần Thơ","Hưng Lợi, Ninh Kiều",180/5 Hẻm 558 -30/4,Cần Thơ,,"Ninh Kiều, Cần Thơ",VN
831,ChIJqTI0HTWIoDERmNQbGlwIRK8,Hair Salon Ngọc Xinh,Hiệu làm tóc,0292 6286 233,"Hair Salon Ngọc Xinh, 110, Đường 30/4, Quận Ninh Kiều, TP Cần Thơ, Hưng Lợi, Ninh Kiều, Cần Thơ","Hưng Lợi, Ninh Kiều","110, Đường 30/4, Quận Ninh Kiều, TP Cần Thơ",Cần Thơ,,"Ninh Kiều, Cần Thơ",VN
832,ChIJA-MuKD-IoDERzqUnN-Tx8fA,Nguyễn Cần Hair Salon,Hiệu làm tóc,,"2QH6+FHW Nguyễn Cần Hair Salon, Đ. Số 7, Phường An Khánh, Ninh Kiều, Cần Thơ","Phường An Khánh, Ninh Kiều","2QH6+FHW, Đ. Số 7",Cần Thơ,,"Ninh Kiều, Cần Thơ",VN
834,ChIJV_3BnDmIoDERNPR2LQQC7Zs,Salon Hoàng Thịnh,Hiệu làm tóc,,"Salon Hoàng Thịnh, Hưng Lợi, Ninh Kiều, Cần Thơ","Hưng Lợi, Ninh Kiều",,Cần Thơ,,"Ninh Kiều, Cần Thơ",VN
836,ChIJ_ysUhEGIoDERyS2NOSrwsp8,Salon Ny Trương,Hiệu làm tóc,0948 041 096,"Salon Ny Trương, 369V, Đ. Nguyễn Văn Cừ, Phường An Khánh, Ninh Kiều, Cần Thơ","Phường An Khánh, Ninh Kiều","369V, Đ. Nguyễn Văn Cừ",Cần Thơ,,"Ninh Kiều, Cần Thơ",VN
837,ChIJidMprDuIoDERROCjF8TM2WU,Salon Tóc Linh,Hiệu làm tóc,,"Salon Tóc Linh, Xuân Khánh, Ninh Kiều, Cần Thơ","Xuân Khánh, Ninh Kiều",,Cần Thơ,,"Ninh Kiều, Cần Thơ",VN
839,ChIJN_4iZjGIoDERAtzlvTp_j7I,Hair Salon Hoàng Kha,Hiệu làm tóc,0792 558 879,"Hair Salon Hoàng Kha, 204 Đ. 30 Tháng 4, Hưng Lợi, Ninh Kiều, Cần Thơ","Hưng Lợi, Ninh Kiều",204 Đ. 30 Tháng 4,Cần Thơ,,"Ninh Kiều, Cần Thơ",VN
845,ChIJrZzpdzSIoDERa_E_9R7CY8E,Beauty Salon Tiến Kim Nhanh,Hiệu làm tóc,0919 306 685,"Beauty Salon Tiến Kim Nhanh, 347 Hẻm 553, Hưng Lợi, Ninh Kiều, Cần Thơ","Hưng Lợi, Ninh Kiều",347 Hẻm 553,Cần Thơ,,"Ninh Kiều, Cần Thơ",VN
849,ChIJO6OhVZGJoDEREBQlAXJ7uGY,Hair SaLon Chí Đỉnh,Hiệu làm tóc,0342 745 845,"Hair SaLon Chí Đỉnh, 151 Đường Trần Hoàng Na, Hưng Lợi, Ninh Kiều, Cần Thơ","Hưng Lợi, Ninh Kiều",151 Đường Trần Hoàng Na,Cần Thơ,,"Ninh Kiều, Cần Thơ",VN
856,ChIJDV995TCIoDERkCZW3ssty48,Hair Salon Phong,Hiệu làm tóc,0292 2222 997,"Hair Salon Phong, 118 Đ. Nguyễn Văn Linh, Hưng Lợi, Ninh Kiều, Cần Thơ","Hưng Lợi, Ninh Kiều",118 Đ. Nguyễn Văn Linh,Cần Thơ,,"Ninh Kiều, Cần Thơ",VN
866,ChIJxSMCgzaIoDERX2m-Ziv7Alc,Salon Beauty Thanh Ngọc,Hiệu làm tóc,0964 025 877,"Salon Beauty Thanh Ngọc, 117/16B Hẻm 132 Đ. 3 Tháng 2, Hưng Lợi, Ninh Kiều, Cần Thơ","Hưng Lợi, Ninh Kiều",117/16B Hẻm 132 Đ. 3 Tháng 2,Cần Thơ,,"Ninh Kiều, Cần Thơ",VN
889,ChIJQ6Ov8J5ioDERzF0vY9_9qzY,Salon Tóc Kim Ngân,Hiệu làm tóc,0949 656 965,"Salon Tóc Kim Ngân, 31 Đ. Cao Bá Quát, Tân An, Ninh Kiều, Cần Thơ","Tân An, Ninh Kiều",31 Đ. Cao Bá Quát,Cần Thơ,,"Ninh Kiều, Cần Thơ",VN
892,ChIJJyGYMRqIoDER6hIAXDbmGbo,Phuong Thao Hair Design,Hiệu làm tóc,0292 3892 367,"Phuong Thao Hair Design, 114, Huynh Thuc Khang Street, Ninh Kieu District, Can Tho City, An Nghiệp, Ninh Kiều, Cần Thơ","An Nghiệp, Ninh Kiều","114, Huynh Thuc Khang Street, Ninh Kieu District, Can Tho City",Cần Thơ,,"Ninh Kiều, Cần Thơ",VN
