,place_id,name,main_category,phone,address,address_ward,address_street,address_city,address_postal_code,address_state,address_country_code
0,ChIJb4UrIalioDERf-x1-5PA6vU,Khách sạn Đông Hà – Fortuneland,Khách sạn,+84 292 3656 656,"Khách sạn Đông Hà – Fortuneland, 141 Trần Văn Khéo, Cái Khế, Ninh Kiều, Cần Thơ, Việt Nam","Cái Khế, Ninh Kiều",141 Trần Văn Khéo,Cần Thơ,,"Ninh Kiều, Cần Thơ",VN
2,ChIJQ5jLT-WJoDERiRKYnNUrNck,Trường Xuân Cung - Massage cổ truyền - Gội đầu dưỡng sinh,Spa sức khỏe,+84 939 787 901,"Trường Xuân Cung - Massage cổ truyền - Gội đầu dưỡng sinh, 85-87 Đ. Trương Định, Tân An, Ninh Kiều, Cần Thơ 94110, Việt Nam","Tân An, Ninh Kiều",85-87 Đ. Trương Định,Cần Thơ,94110.0,"Ninh Kiều, Cần Thơ",VN
6,ChIJO3xWEqhioDERweMNgwdgQIY,Thẩm Mỹ Viện Seoul Center,Thẩm mỹ viện,+84 1800 3333,"Thẩm Mỹ Viện Seoul Center, 329 Đ. Nguyễn Văn Cừ, An Hoà, Ninh Kiều, Cần Thơ, Việt Nam","An Hoà, Ninh Kiều",329 Đ. Nguyễn Văn Cừ,Cần Thơ,,"Ninh Kiều, Cần Thơ",VN
7,ChIJHRmqFqhioDERFEUepRkC6ZI,Spa Cát Tiên Cần Thơ,Cơ sở chăm sóc da,+84 939 365 565,"Spa Cát Tiên Cần Thơ, 105 Trần Văn Khéo, Cái Khế, Ninh Kiều, Cần Thơ, Việt Nam","Cái Khế, Ninh Kiều",105 Trần Văn Khéo,Cần Thơ,,"Ninh Kiều, Cần Thơ",VN
22,ChIJRUDnE6FioDERzhyxqsrTVN8,Life Spa - Massage Gia Đình,Câu lạc bộ spa và sức khỏe,+84 292 3760 221,"Life Spa - Massage Gia Đình, 95A Đ. Xô Viết Nghệ Tĩnh, Tân An, Ninh Kiều, Cần Thơ 94000, Việt Nam","Tân An, Ninh Kiều",95A Đ. Xô Viết Nghệ Tĩnh,Cần Thơ,94000.0,"Ninh Kiều, Cần Thơ",VN
37,ChIJYStI68KJoDERhyBWWOHX-n4,"MAY RELAX & SPA CN1 - Gội đầu dưỡng sinh, Massage body Cần Thơ",,+84 356 237 455,"MAY RELAX & SPA CN1 - Gội đầu dưỡng sinh, Massage body Cần Thơ, 13B Đ. Trần Bình Trọng, An Phú, Ninh Kiều, Cần Thơ, Việt Nam","An Phú, Ninh Kiều",13B Đ. Trần Bình Trọng,Cần Thơ,,"Ninh Kiều, Cần Thơ",VN
52,ChIJ8zUMe3iJoDERxB2eqfkbn-c,"MAY XƯA SPA CẦN THƠ - Massage body, Gội đầu dưỡng sinh, Tắm tẩy tế bào chết, xông hơi, Foot",Spa,+84 393 599 120,"MAY XƯA SPA CẦN THƠ - Massage body, Gội đầu dưỡng sinh, Tắm tẩy tế bào chết, xông hơi, Foot, 1e Trần Quang Khải, An Hội, Ninh Kiều, Cần Thơ 90000, Việt Nam","An Hội, Ninh Kiều",1e Trần Quang Khải,Cần Thơ,90000.0,"Ninh Kiều, Cần Thơ",VN
61,ChIJPftv3MyJoDERVsrxeyImFDY,"MAY Relax & Spa CN2 - Gội đầu Dưỡng Sinh Thảo Dược, Massage body Cần Thơ",Spa sức khỏe,+84 292 2249 398,"MAY Relax & Spa CN2 - Gội đầu Dưỡng Sinh Thảo Dược, Massage body Cần Thơ, 390 Đ. Trần Nam Phú, Phường An Khánh, Ninh Kiều, Cần Thơ, Việt Nam","Phường An Khánh, Ninh Kiều",390 Đ. Trần Nam Phú,Cần Thơ,,"Ninh Kiều, Cần Thơ",VN
76,ChIJyX6D9PdjoDERfTRKpKYoHqY,"Gội Đầu Dưỡng Sinh Cần Thơ, Massage Body - Relax Spa Lali",Spa sức khỏe,+84 779 123 789,"Gội Đầu Dưỡng Sinh Cần Thơ, Massage Body - Relax Spa Lali, 58 Trần Văn Khéo, Cái Khế, Ninh Kiều, Cần Thơ 94107, Việt Nam","Cái Khế, Ninh Kiều",58 Trần Văn Khéo,Cần Thơ,94107.0,"Ninh Kiều, Cần Thơ",VN
84,ChIJZ1tK6ehjoDER_yj938qWo6o,"Gội Đầu Dưỡng Sinh Cần Thơ, Massage Body - Hannah Spa 2",Spa,+84 379 080 909,"Gội Đầu Dưỡng Sinh Cần Thơ, Massage Body - Hannah Spa 2, 25 Võ Thị Sáu, Tân An, Ninh Kiều, Cần Thơ 94110, Việt Nam","Tân An, Ninh Kiều",25 Võ Thị Sáu,Cần Thơ,94110.0,"Ninh Kiều, Cần Thơ",VN
97,ChIJK1V-A6FjoDER8Tl2JQOqKhM,NGOC MINNIE SPA - CẦN THƠ,Spa,+84 794 993 997,"NGOC MINNIE SPA - CẦN THƠ, 128 Đường B5, Hưng Phú, Cái Răng, Cần Thơ 900000, Việt Nam","Hưng Phú, Cái Răng",128 Đường B5,Cần Thơ,900000.0,"Cái Răng, Cần Thơ",VN
106,ChIJDaYg6wmJoDERZ1h9EslTshE,HB Spa - Cần Thơ (Dưỡng Sinh & Thủ Đạo Thang),Spa,+84 292 2210 266,"HB Spa - Cần Thơ (Dưỡng Sinh & Thủ Đạo Thang), 176B Đ. Trần Hưng Đạo, An Phú, Ninh Kiều, Cần Thơ 900000, Việt Nam","An Phú, Ninh Kiều",176B Đ. Trần Hưng Đạo,Cần Thơ,900000.0,"Ninh Kiều, Cần Thơ",VN
121,ChIJ045IfLyJoDERWyNCUPPYLq4,Cánh Đồng Xanh Care,Spa y tế,+84 907 512 878,"Cánh Đồng Xanh Care, 110 Đ. Lê Lai, An Phú, Ninh Kiều, Cần Thơ 920000, Việt Nam","An Phú, Ninh Kiều",110 Đ. Lê Lai,Cần Thơ,920000.0,"Ninh Kiều, Cần Thơ",VN
122,ChIJLTihkDKJoDERfRlWzYcunr4,Pattaya Thai - Spa Dưỡng Sinh,Spa,+84 866 830 323,"Pattaya Thai - Spa Dưỡng Sinh, 197-199 Đ. Nguyễn Hiền, Khu dân cư 91B, Ninh Kiều, Cần Thơ, Việt Nam","Khu dân cư 91B, Ninh Kiều",197-199 Đ. Nguyễn Hiền,Cần Thơ,,"Ninh Kiều, Cần Thơ",VN
137,ChIJNxfyUlqJoDERLPRzWEBKI9o,MANNAM Spa for men,Spa,+84 364 899 495,"MANNAM Spa for men, 113 đường 19 Khu dân cư Hồng Loan, lô 5C, Cái Răng, Cần Thơ, Việt Nam","lô 5C, Cái Răng",113 đường 19 Khu dân cư Hồng Loan,Cần Thơ,,"Cái Răng, Cần Thơ",VN
152,ChIJR8plLe-JoDERt69DPM0mEw4,Gà Spa Cần Thơ,Spa,+84 379 773 517,"Gà Spa Cần Thơ, 26 Hùng Vương, Thới Bình, Ninh Kiều, Cần Thơ 900000, Việt Nam","Thới Bình, Ninh Kiều",26 Hùng Vương,Cần Thơ,900000.0,"Ninh Kiều, Cần Thơ",VN
161,ChIJsVZn5B6JoDERMWSWp6fJfMw,SPA - SAUNA CLUB 65 CẦN THƠ (For men),Phòng xông hơi đồng tính nam,+84 987 102 956,"SPA - SAUNA CLUB 65 CẦN THƠ (For men), C26 Đ. Cách Mạng Tháng 8, Cái Khế, Bình Thủy, Cần Thơ, Việt Nam","Cái Khế, Bình Thủy",C26 Đ. Cách Mạng Tháng 8,Cần Thơ,,"Bình Thủy, Cần Thơ",VN
169,ChIJvdzNWyWJoDERsNyZ5cxNj2k,"Lynn Spa - Gội đầu dưỡng sinh, Massage Body, Spa, Chăm sóc da Cần Thơ",Spa,+84 916 951 484,"Lynn Spa - Gội đầu dưỡng sinh, Massage Body, Spa, Chăm sóc da Cần Thơ, Đường Bờ Hồ Bún Xáng, P, Ninh Kiều, Cần Thơ 900000, Việt Nam","P, Ninh Kiều",Đường Bờ Hồ Bún Xáng,Cần Thơ,900000.0,"Ninh Kiều, Cần Thơ",VN
184,ChIJnbxbdruJoDERXKFKdSYvXhA,Queen Spa Ngọc Hiền,Spa sức khỏe,+84 945 705 605,"Queen Spa Ngọc Hiền, 172 Đ. Phạm Hùng, Lê Bình, Cái Răng, Cần Thơ, Việt Nam","Lê Bình, Cái Răng",172 Đ. Phạm Hùng,Cần Thơ,,"Cái Răng, Cần Thơ",VN
190,ChIJt_s7v-mJoDERnbDXAbzEJ3g,Honey Nail & Spa,Tiệm chăm sóc móng,+84 903 858 593,"Honey Nail & Spa, 54 Đ. Lý Tự Trọng, An Cư, Ninh Kiều, Cần Thơ 94110, Việt Nam","An Cư, Ninh Kiều",54 Đ. Lý Tự Trọng,Cần Thơ,94110.0,"Ninh Kiều, Cần Thơ",VN
191,ChIJt6WdCwqJoDERIYpn99jipVM,Genus Spa Mạc Thiên Tích,Spa sức khỏe,+84 842 790 390,"Genus Spa Mạc Thiên Tích, 45 Đ. Mạc Thiên Tích, Xuân Khánh, Ninh Kiều, Cần Thơ 900000, Việt Nam","Xuân Khánh, Ninh Kiều",45 Đ. Mạc Thiên Tích,Cần Thơ,900000.0,"Ninh Kiều, Cần Thơ",VN
201,ChIJOdiOimKJoDERt7qPTmaR6G8,DƯỠNG SINH CÔ BA - CẦN THƠ,Spa sức khỏe,+84 769 323 839,"DƯỠNG SINH CÔ BA - CẦN THƠ, 38 Đ. Trần Hoàng Na, Phường An Khánh, Ninh Kiều, Cần Thơ 00009, Việt Nam","Phường An Khánh, Ninh Kiều",38 Đ. Trần Hoàng Na,Cần Thơ,9.0,"Ninh Kiều, Cần Thơ",VN
207,ChIJV5JyzryJoDERc5alwyDnxGE,HEDO BEAUTY SKINCARE & SPA,Spa sức khỏe,+84 939 944 907,"HEDO BEAUTY SKINCARE & SPA, 440 Đ. Nguyễn Văn Cừ, An Hoà, Ninh Kiều, Cần Thơ, Việt Nam","An Hoà, Ninh Kiều",440 Đ. Nguyễn Văn Cừ,Cần Thơ,,"Ninh Kiều, Cần Thơ",VN
208,ChIJESwCUmGJoDERH-Dfzt7dhPQ,SIREN BEAUTY & SPA | TIÊM MESO CẦN THƠ | TIÊM FILLER CẦN THƠ | TIÊM BOTOX CẦN THƠ,Spa,+84 939 039 620,"SIREN BEAUTY & SPA | TIÊM MESO CẦN THƠ | TIÊM FILLER CẦN THƠ | TIÊM BOTOX CẦN THƠ, 79 Đ. Nguyễn Hiền, Khu dân cư 91B, Ninh Kiều, Cần Thơ, Việt Nam","Khu dân cư 91B, Ninh Kiều",79 Đ. Nguyễn Hiền,Cần Thơ,,"Ninh Kiều, Cần Thơ",VN
237,ChIJdz0RqHtjoDER78AfUJ1T2zs,LAVIO SPA AND CLINIC,Spa,+84 899 978 968,"LAVIO SPA AND CLINIC, 255 Đ. 30 Tháng 4, Xuân Khánh, Ninh Kiều, Cần Thơ, Việt Nam","Xuân Khánh, Ninh Kiều",255 Đ. 30 Tháng 4,Cần Thơ,,"Ninh Kiều, Cần Thơ",VN
252,ChIJ89U9syuJoDERUU0SJF5Yp0Y,SPA GẤU NHUNG CẦN THƠ,Spa sức khỏe,+84 932 867 786,"SPA GẤU NHUNG CẦN THƠ, 380 Đ. Trần Nam Phú, Phường An Khánh, Ninh Kiều, Cần Thơ 94117, Việt Nam","Phường An Khánh, Ninh Kiều",380 Đ. Trần Nam Phú,Cần Thơ,94117.0,"Ninh Kiều, Cần Thơ",VN
267,ChIJwZzrbt-JoDERLFEK0gsiO6M,LAVIU SPA CẦN THƠ,Spa mặt,+84 898 844 886,"LAVIU SPA CẦN THƠ, 58B Đ. Số 5A, Phường An Khánh, Ninh Kiều, Cần Thơ 90000, Việt Nam","Phường An Khánh, Ninh Kiều",58B Đ. Số 5A,Cần Thơ,90000.0,"Ninh Kiều, Cần Thơ",VN
268,ChIJj7Y9S_-JoDERaydXlh8nAGg,Hanavy Beauty & Spa,Chuyên gia làm đẹp,+84 786 866 960,"Hanavy Beauty & Spa, Hẻm 4 Đ. Mậu Thân, Xuân Khánh, Ninh Kiều, Cần Thơ, Việt Nam","Xuân Khánh, Ninh Kiều",Hẻm 4 Đ. Mậu Thân,Cần Thơ,,"Ninh Kiều, Cần Thơ",VN
269,ChIJBfbdiEmJoDERBiH_Bm-qR3Y,Hy Beauty Spa - Spa Cần Thơ - Chăm sóc da bằng Y học tái sinh,Spa,+84 848 464 868,"Hy Beauty Spa - Spa Cần Thơ - Chăm sóc da bằng Y học tái sinh, A40 Đ. số 1, KHU DÂN CƯ ĐÔ THỊ MỚI HƯNG PHÚ, Cái Răng, Cần Thơ 900000, Việt Nam","KHU DÂN CƯ ĐÔ THỊ MỚI HƯNG PHÚ, Cái Răng",A40 Đ. số 1,Cần Thơ,900000.0,"Cái Răng, Cần Thơ",VN
270,ChIJHc2qQk6JoDERk3FH4cBwPkY,Lona Home Spa,Spa,+84 932 927 723,"Lona Home Spa, 36/3 đường bờ kè Hồ Bún Xáng, Phường An Khánh, Ninh Kiều, Cần Thơ, Việt Nam","Phường An Khánh, Ninh Kiều",36/3 đường bờ kè Hồ Bún Xáng,Cần Thơ,,"Ninh Kiều, Cần Thơ",VN
271,ChIJ8duiwRmJoDERNLaJgKbcMK4,BB Wellness Cần Thơ - Spa cho bé chuẩn Singapore,Spa sức khỏe,+84 909 747 575,"BB Wellness Cần Thơ - Spa cho bé chuẩn Singapore, VINCOM, PG2-10, 209 Đ. 30 Tháng 4, Xuân Khánh, Ninh Kiều, Cần Thơ, Việt Nam","Xuân Khánh, Ninh Kiều","VINCOM, PG2-10, 209 Đ. 30 Tháng 4",Cần Thơ,,"Ninh Kiều, Cần Thơ",VN
336,ChIJcd9asSCJoDER5ywoVGbklhI,Shynh Beauty Spa Cần THơ,Spa,+84 986 670 024,"Shynh Beauty Spa Cần THơ, 108 Đ. Lý Tự Trọng, An Cư, Ninh Kiều, Cần Thơ, Việt Nam","An Cư, Ninh Kiều",108 Đ. Lý Tự Trọng,Cần Thơ,,"Ninh Kiều, Cần Thơ",VN
341,ChIJF2UF27CJoDERprhJDCjLXQg,Spa Ngọc Anh,Spa mặt,+84 939 902 286,"Spa Ngọc Anh, C33 Đ. Số 4, Lê Bình, Cái Răng, Cần Thơ, Việt Nam","Lê Bình, Cái Răng",C33 Đ. Số 4,Cần Thơ,,"Cái Răng, Cần Thơ",VN
349,ChIJqaVlMeVjoDERhImtFLTIbMs,TGI SPA CẦN THƠ,Spa,+84 901 280 288,"TGI SPA CẦN THƠ, 97A1 Đ. Hồ Tùng Mậu, Cái Khế, Ninh Kiều, Cần Thơ 901000, Việt Nam","Cái Khế, Ninh Kiều",97A1 Đ. Hồ Tùng Mậu,Cần Thơ,901000.0,"Ninh Kiều, Cần Thơ",VN
350,ChIJkwEa76qJoDERuMl5Q77DpuM,Lona Home Spa,Spa,+84 777 679 902,"Lona Home Spa, T2 Đinh Công Tráng, Xuân Khánh, Ninh Kiều, Cần Thơ, Việt Nam","Xuân Khánh, Ninh Kiều",T2 Đinh Công Tráng,Cần Thơ,,"Ninh Kiều, Cần Thơ",VN
351,ChIJDZrQ682JoDERsY90r8ZzO9Y,Spa Nhà Cô Tấm,Spa,+84 939 489 038,"Spa Nhà Cô Tấm, 162C/2, 162c Đ. Trần Ngọc Quế, Xuân Khánh, Ninh Kiều, Cần Thơ 94000, Việt Nam","Xuân Khánh, Ninh Kiều","162C/2, 162c Đ. Trần Ngọc Quế",Cần Thơ,94000.0,"Ninh Kiều, Cần Thơ",VN
352,ChIJdfxWzKyJoDERLe7XaHXYSxE,Massage - Spa Sống Khoẻ Cần Thơ,Spa sức khỏe,+84 868 339 362,"Massage - Spa Sống Khoẻ Cần Thơ, 105a Đ. Nguyễn Văn Cừ, An Hoà, Ninh Kiều, Cần Thơ, Việt Nam","An Hoà, Ninh Kiều",105a Đ. Nguyễn Văn Cừ,Cần Thơ,,"Ninh Kiều, Cần Thơ",VN
355,ChIJJWOmxA5joDERcD6omYp5Mv8,Spa Ngọc Tiên,Spa mặt,+84 946 744 448,"Spa Ngọc Tiên, h8 40 đường 15 kdc 586, Cái Răng, Cần Thơ 90000, Việt Nam","Phú Thứ, Cái Răng",h8 40 đường 15 kdc 586,Cần Thơ,90000.0,"Cái Răng, Cần Thơ",VN
378,ChIJ0csX1kOJoDERGd6guxdSUsE,Cát Spa,Spa,,"Cát Spa, 72 Đường B25, Phường An Khánh, Ninh Kiều, Cần Thơ, Việt Nam","Phường An Khánh, Ninh Kiều",72 Đường B25,Cần Thơ,,"Ninh Kiều, Cần Thơ",VN
408,ChIJPVLVmOiJoDERlODJklwOQhs,HYTA SPA,Spa,+84 774 190 190,"HYTA SPA, TP, 106 Đ. Lê Lai, P, Ninh Kiều, Cần Thơ, Việt Nam","P, Ninh Kiều","TP, 106 Đ. Lê Lai",Cần Thơ,,"Ninh Kiều, Cần Thơ",VN
409,ChIJmYUCgYGJoDERxqL3j1Kiro8,Spa DC Dermatology Clinic,Spa,+84 917 250 190,"Spa DC Dermatology Clinic, 10 Trần Bạch Đằng, Phường An Khánh, Ninh Kiều, Cần Thơ, Việt Nam","Phường An Khánh, Ninh Kiều",10 Trần Bạch Đằng,Cần Thơ,,"Ninh Kiều, Cần Thơ",VN
410,ChIJX3KTdn9joDERoQXVLlrmwRo,HUM SPA,Cửa hàng chăm sóc sức khỏe và làm đẹp,+84 931 860 638,"HUM SPA, Số B21 Đ.26, KHU DÂN CƯ ĐÔ THỊ MỚI HƯNG PHÚ, Cái Răng, Cần Thơ 94900, Việt Nam","KHU DÂN CƯ ĐÔ THỊ MỚI HƯNG PHÚ, Cái Răng",Số B21 Đ.26,Cần Thơ,94900.0,"Cái Răng, Cần Thơ",VN
416,ChIJUzazANVjoDERMEDYD6jL6Po,MASSAGE GIA ĐÌNH TÂY NAM,,+84 967 606 464,"MASSAGE GIA ĐÌNH TÂY NAM, 02 Nguyễn Trãi, P, Ninh Kiều, Cần Thơ, Việt Nam","P, Ninh Kiều",02 Nguyễn Trãi,Cần Thơ,,"Ninh Kiều, Cần Thơ",VN
418,ChIJs0mTOlFjoDERrDzPBb4JZJs,Massage King Room Cần Thơ,Câu lạc bộ spa và sức khỏe,+84 904 401 411,"Massage King Room Cần Thơ, 34 Đ. Phạm Ngọc Thạch, Cái Khế, Ninh Kiều, Cần Thơ, Việt Nam","Cái Khế, Ninh Kiều",34 Đ. Phạm Ngọc Thạch,Cần Thơ,,"Ninh Kiều, Cần Thơ",VN
453,ChIJi1mfhu-JoDER7OrH-6nCGgU,"Gội Đầu Dưỡng Sinh Cần Thơ, Massage Body - Helen Spa",Spa,+84 899 886 696,"Gội Đầu Dưỡng Sinh Cần Thơ, Massage Body - Helen Spa, 29 Đ. Trần Bình Trọng, An Phú, TP, Cần Thơ 94000, Việt Nam","An Phú, TP",29 Đ. Trần Bình Trọng,Cần Thơ,94000.0,"TP, Cần Thơ",VN
454,ChIJez0DNA-HoDERxOtJTMukQ-w,Mỹ Quỳnh beauty & wellness spa,Spa,+84 947 024 819,"Mỹ Quỳnh beauty & wellness spa, 398 Đ. Bùi Hữu Nghĩa, KV7, P, Bình Thủy, Cần Thơ, Việt Nam","KV7, P, Bình Thủy",398 Đ. Bùi Hữu Nghĩa,Cần Thơ,,"Bình Thủy, Cần Thơ",VN
455,ChIJY_4UHx-IoDERq6jcdOfBWuU,Na's Mật Spa (Spa của hương trầm Tây Tạng),Spa,+84 961 526 586,"Na's Mật Spa (Spa của hương trầm Tây Tạng), 12/6 Đ. Trần Bình Trọng, An Phú, Ninh Kiều, Cần Thơ, Việt Nam","An Phú, Ninh Kiều",12/6 Đ. Trần Bình Trọng,Cần Thơ,,"Ninh Kiều, Cần Thơ",VN
470,ChIJlTyxoCSJoDERVM0GfPEpJbk,The Face Spa,Spa,+84 933 698 648,"The Face Spa, 151/22/4 Đ. Trần Hoàng Na, Hưng Lợi, Ninh Kiều, Cần Thơ 900000, Việt Nam","Hưng Lợi, Ninh Kiều",151/22/4 Đ. Trần Hoàng Na,Cần Thơ,900000.0,"Ninh Kiều, Cần Thơ",VN
471,ChIJ-SmvSbS1aKwRw5HA6mZ52wE,YBELLA SPA - CẦN THƠ,Spa,+84 918 600 217,"YBELLA SPA - CẦN THƠ, 46 Đường B13, Khu dân cư 91B, Ninh Kiều, Cần Thơ, Việt Nam","Khu dân cư 91B, Ninh Kiều",46 Đường B13,Cần Thơ,,"Ninh Kiều, Cần Thơ",VN
478,ChIJTRc3OHCLoDERvwv0G0YC1n8,SPA ĐÔNG TÂY Y HOÀNG NGA,Spa,+84 974 996 018,"XP6P+G44 SPA ĐÔNG TÂY Y HOÀNG NGA, Tân Phú Thạnh, Châu Thành A, Hậu Giang, Việt Nam","Tân Phú Thạnh, Châu Thành A",XP6P+G44,Hậu Giang,,"Châu Thành A, Hậu Giang",VN
501,ChIJbTGfp52JoDERM5rIIHqk9NA,Tiệm Gội Đầu Dưỡng Sinh Rừng,,+84 702 000 159,"Tiệm Gội Đầu Dưỡng Sinh Rừng, 9/14 Đ.Xô Viết Nghệ Tĩnh, An Cư, Ninh Kiều, Cần Thơ, Việt Nam","An Cư, Ninh Kiều",9/14 Đ.Xô Viết Nghệ Tĩnh,Cần Thơ,,"Ninh Kiều, Cần Thơ",VN
502,ChIJFbms-IpjoDERQa2pdoPbpo0,Foot Body Massage - Lotus Spa Cần Thơ,,+84 908 790 869,"Foot Body Massage - Lotus Spa Cần Thơ, 8 Đ. Trần Đại Nghĩa, Cái Khế, Ninh Kiều, Cần Thơ 94107, Việt Nam","Cái Khế, Ninh Kiều",8 Đ. Trần Đại Nghĩa,Cần Thơ,94107.0,"Ninh Kiều, Cần Thơ",VN
503,ChIJtxHajyiJoDERo-V5rO0q53Q,The Herb Spa,Spa sức khỏe,+84 896 699 918,"The Herb Spa, 116B Đ. 3 Tháng 2, Tân An, Ninh Kiều, Cần Thơ 94000, Việt Nam","Tân An, Ninh Kiều",116B Đ. 3 Tháng 2,Cần Thơ,94000.0,"Ninh Kiều, Cần Thơ",VN
523,ChIJi66u0XaJoDERCxyQWjzLXZw,LEAF Spa,Spa,+84 787 979 097,"LEAF Spa, 22/23/25 Đ. Mạc Đĩnh Chi, Tân An, Ninh Kiều, Cần Thơ, Việt Nam","Tân An, Ninh Kiều",22/23/25 Đ. Mạc Đĩnh Chi,Cần Thơ,,"Ninh Kiều, Cần Thơ",VN
524,ChIJqVnllgKJoDER3Cdp_y4gvjA,Yanna Spa & Clinic,Spa,+84 766 661 788,"Yanna Spa & Clinic, Hẻm 51 51/49D Đ. 3 Tháng 2, Xuân Khánh, Ninh Kiều, Cần Thơ 900000, Việt Nam","Xuân Khánh, Ninh Kiều",Hẻm 51 51/49D Đ. 3 Tháng 2,Cần Thơ,900000.0,"Ninh Kiều, Cần Thơ",VN
525,ChIJwwLliGWJoDERzRY2fVI2XFU,Bà Tư Danh Viện - An Khánh Spa,Spa sức khỏe,+84 907 975 683,"Bà Tư Danh Viện - An Khánh Spa, 17 Trần Bạch Đằng, Phường An Khánh, Ninh Kiều, Cần Thơ, Việt Nam","Phường An Khánh, Ninh Kiều",17 Trần Bạch Đằng,Cần Thơ,,"Ninh Kiều, Cần Thơ",VN
527,ChIJ72TJ9PyJoDERlAUINmO2SJE,Uốn/Nối mi Cần Thơ - Hoài Mỹ Spa & Beauty,Spa,+84 762 923 623,"Uốn/Nối mi Cần Thơ - Hoài Mỹ Spa & Beauty, 13 Đ. Mạc Thiên Tích, Xuân Khánh, Ninh Kiều, Cần Thơ 902070, Việt Nam","Xuân Khánh, Ninh Kiều",13 Đ. Mạc Thiên Tích,Cần Thơ,902070.0,"Ninh Kiều, Cần Thơ",VN
541,ChIJDdh2lWyJoDERa_4thO4vjMU,RAON SPA,Spa,+84 336 006 688,"RAON SPA, KDC Hồng Phát, 73 Đ.Xuân Thủy, An Bình, Ninh Kiều, Cần Thơ, Việt Nam","An Bình, Ninh Kiều","KDC Hồng Phát, 73 Đ.Xuân Thủy",Cần Thơ,,"Ninh Kiều, Cần Thơ",VN
544,ChIJc5a-vsyJoDERCckUnnOBNlU,Linh Nhi Spa,Spa,+84 703 033 869,"Linh Nhi Spa, 151/55A Đ. Trần Hoàng Na, Hưng Lợi, Ninh Kiều, Cần Thơ, Việt Nam","Hưng Lợi, Ninh Kiều",151/55A Đ. Trần Hoàng Na,Cần Thơ,,"Ninh Kiều, Cần Thơ",VN
559,ChIJVeiuYSmJoDERsBVq0a8SAi8,Spa Mai Bena,Spa mặt,+84 943 948 887,"Spa Mai Bena, 132 Hẻm 132/24, Hưng Lợi, Ninh Kiều, Cần Thơ 70010, Việt Nam","Hưng Lợi, Ninh Kiều",132 Hẻm 132/24,Cần Thơ,70010.0,"Ninh Kiều, Cần Thơ",VN
570,ChIJ2Yl5zWiJoDERzDVrBbbjcSw,ALINA Beauty & Spa Cần Thơ,Chuyên gia làm đẹp,+84 907 022 883,"ALINA Beauty & Spa Cần Thơ, Hẻm 111/2A Đ. Cách Mạng Tháng 8, An Hoà, Ninh Kiều, Cần Thơ 90000, Việt Nam","An Hoà, Ninh Kiều",Hẻm 111/2A Đ. Cách Mạng Tháng 8,Cần Thơ,90000.0,"Ninh Kiều, Cần Thơ",VN
571,ChIJOz2KPUidvA0Rpf_hL_1cXhc,Vân Beauty & Spa - Gội Đầu Dưỡng Sinh,Spa,+84 931 046 717,,,,,,,
572,ChIJMeF6TZ-JoDERDD2R38dvfYs,Thương Spa,Spa,+84 939 496 707,"Thương Spa, 67/19a Hùng Vương, An Hội, Ninh Kiều, Cần Thơ, Việt Nam","An Hội, Ninh Kiều",67/19a Hùng Vương,Cần Thơ,,"Ninh Kiều, Cần Thơ",VN
573,ChIJB1gY6s6JoDERs7nVu7XU1nE,SUN Spa,Spa sức khỏe,,"SUN Spa, 77b/26 Đ. Phạm Ngũ Lão, Thới Bình, Ninh Kiều, Cần Thơ, Việt Nam","Thới Bình, Ninh Kiều",77b/26 Đ. Phạm Ngũ Lão,Cần Thơ,,"Ninh Kiều, Cần Thơ",VN
575,ChIJb63VyRqJoDERupFE_0dx00o,OLIVA beauty spa,Spa,+84 388 387 692,"OLIVA beauty spa, 22/23/37 Đ. Mạc Đĩnh Chi, An Cư, Ninh Kiều, Cần Thơ, Việt Nam","An Cư, Ninh Kiều",22/23/37 Đ. Mạc Đĩnh Chi,Cần Thơ,,"Ninh Kiều, Cần Thơ",VN
577,ChIJNfCQVR9joDERKeNqsyL8UnA,Sala Spa,Spa,+84 974 883 555,"Sala Spa, 83-14 Hoàng Văn Thụ, An Cư, Ninh Kiều, Cần Thơ, Việt Nam","An Cư, Ninh Kiều",83-14 Hoàng Văn Thụ,Cần Thơ,,"Ninh Kiều, Cần Thơ",VN
580,ChIJk1VYLVdjoDERFcjwZUtYoj8,ADI SPA,Spa,+84 333 597 599,"ADI SPA, 19 Đ. Ung Văn Khiêm, Thới Bình, Ninh Kiều, Cần Thơ, Việt Nam","Thới Bình, Ninh Kiều",19 Đ. Ung Văn Khiêm,Cần Thơ,,"Ninh Kiều, Cần Thơ",VN
598,ChIJawMz3nGJoDERPapmop178bk,Spa Nam Yến Nguyễn,Spa,+84 939 991 288,"Spa Nam Yến Nguyễn, Đầu, 331 Đ. Nguyễn Đệ, Cần Thơ, Việt Nam","An Hoà, Cần Thơ","Đầu, 331 Đ. Nguyễn Đệ",Cần Thơ,,Cần Thơ,VN
601,ChIJ93N0bHeJoDER6iMnKinS3LU,Linh Beauty & Spa,Spa,+84 907 906 188,"Linh Beauty & Spa, Số 5 đường 30, Phường An Khánh, Ninh Kiều, Cần Thơ, Việt Nam","Phường An Khánh, Ninh Kiều",Số 5 đường 30,Cần Thơ,,"Ninh Kiều, Cần Thơ",VN
603,ChIJYZOqLfuJoDERcU4cxc_AHYE,ABO - SPA KIM THÙY Beauty Academy,Spa mặt,+84 939 425 002,"ABO - SPA KIM THÙY Beauty Academy, 171C Đ. Nguyễn Minh Quang, Phường An Khánh, Ninh Kiều, Cần Thơ, Việt Nam","Phường An Khánh, Ninh Kiều",171C Đ. Nguyễn Minh Quang,Cần Thơ,,"Ninh Kiều, Cần Thơ",VN
604,ChIJ77MLEBeJoDERTAYmQrOEi08,SPA Dưỡng Sinh Đường Cần Thơ,Spa sức khỏe,+84 834 302 999,"SPA Dưỡng Sinh Đường Cần Thơ, 75/4 Đ. Hoàng Quốc Việt, An Bình, Ninh Kiều, Cần Thơ 92000, Việt Nam","An Bình, Ninh Kiều",75/4 Đ. Hoàng Quốc Việt,Cần Thơ,92000.0,"Ninh Kiều, Cần Thơ",VN
608,ChIJ7a-JV5qJoDERYVOmOMEzxBY,Sức Khoẻ & Sắc Đẹp_Như Hạnh Spa Đông Y,Spa sức khỏe,+84 706 898 899,"Sức Khoẻ & Sắc Đẹp_Như Hạnh Spa Đông Y, 53 Đ. Hoàng Quốc Việt, P, Ninh Kiều, Cần Thơ 900000, Việt Nam","P, Ninh Kiều",53 Đ. Hoàng Quốc Việt,Cần Thơ,900000.0,"Ninh Kiều, Cần Thơ",VN
609,ChIJA1AjbHCJoDER_9FX097C5W8,ANH SPA,Spa,+84 797 979 144,"ANH SPA, 40 Đ. Trần Hoàng Na, Phường An Khánh, Ninh Kiều, Cần Thơ 90000, Việt Nam","Phường An Khánh, Ninh Kiều",40 Đ. Trần Hoàng Na,Cần Thơ,90000.0,"Ninh Kiều, Cần Thơ",VN
610,ChIJq6qqqkmIoDERKoZPLuTVdhg,LALA SPA,Thẩm mỹ viện,+84 947 051 008,"LALA SPA, 40 Đ. Trần Hoàng Na, Hưng Lợi, Ninh Kiều, Cần Thơ, Việt Nam","Hưng Lợi, Ninh Kiều",40 Đ. Trần Hoàng Na,Cần Thơ,,"Ninh Kiều, Cần Thơ",VN
612,ChIJa2zzuAxwhkoRBYie-xvWbno,Spa Minh Châu,Spa,+84 819 102 279,"Spa Minh Châu, 182/14f Đ. Trần Hưng Đạo, An Phú, Ninh Kiều, Cần Thơ, Việt Nam","An Phú, Ninh Kiều",182/14f Đ. Trần Hưng Đạo,Cần Thơ,,"Ninh Kiều, Cần Thơ",VN
617,ChIJyRVYoyGJoDER96iJ3G2aCK0,"GINKGO SPA - Gội Đầu Dưỡng Sinh Thảo Mộc, Massage Body, Chăm Sóc, Điều Trị Da",Spa,+84 907 448 830,"GINKGO SPA - Gội Đầu Dưỡng Sinh Thảo Mộc, Massage Body, Chăm Sóc, Điều Trị Da, 49D Nguyễn Văn Trỗi, An Nghiệp, Ninh Kiều, Cần Thơ 900000, Việt Nam","An Nghiệp, Ninh Kiều",49D Nguyễn Văn Trỗi,Cần Thơ,900000.0,"Ninh Kiều, Cần Thơ",VN
632,ChIJs-vTCnBjoDERtWbBREPEfMM,"MAM Spa - Body, Foot Massage Thái Trị Liệu - Gội đầu dưỡng sinh",Thẩm mỹ viện,+84 903 932 578,"MAM Spa - Body, Foot Massage Thái Trị Liệu - Gội đầu dưỡng sinh, 73 Đ. Trần Đại Nghĩa, Cái Khế, Ninh Kiều, Cần Thơ 94000, Việt Nam","Cái Khế, Ninh Kiều",73 Đ. Trần Đại Nghĩa,Cần Thơ,94000.0,"Ninh Kiều, Cần Thơ",VN
633,ChIJQZDBCU-JoDERqJRxX96VKQI,Diamond HHK Company (Diamond Spa),Spa y tế,+84 971 275 927,"Diamond HHK Company (Diamond Spa), 540 Trần Hưng Đạo, Lê Bình, Cái Răng, Cần Thơ 900000, Việt Nam","Lê Bình, Cái Răng",540 Trần Hưng Đạo,Cần Thơ,900000.0,"Cái Răng, Cần Thơ",VN
639,ChIJewxiWCOIoDERnIup4zRUias,Natural Spa,Thẩm mỹ viện,+84 292 3730 994,"Natural Spa, Số 09, Đường 3/2, Phường Xuân Khánh, Quận Ninh Kiều, Xuân Khánh, Ninh Kiều, Cần Thơ, Việt Nam","Xuân Khánh, Ninh Kiều","Số 09, Đường 3/2, Phường Xuân Khánh, Quận Ninh Kiều",Cần Thơ,,"Ninh Kiều, Cần Thơ",VN
653,ChIJTQhPW7qJoDER0mjCC3gquRU,Thảo Mộc Spa Cần Thơ - By Enest,Spa sức khỏe,+84 793 834 677,"Thảo Mộc Spa Cần Thơ - By Enest, 9 Đ. Trần Nam Phú, Phường An Khánh, Ninh Kiều, Cần Thơ, Việt Nam","Phường An Khánh, Ninh Kiều",9 Đ. Trần Nam Phú,Cần Thơ,,"Ninh Kiều, Cần Thơ",VN
668,ChIJAeq73RGJoDEReFwyXdqcD-o,"SPA AMY "" Thiên đường sắc đẹp _ Phục Vụ Tận Tâm """,Spa mặt,,"SPA AMY "" Thiên đường sắc đẹp _ Phục Vụ Tận Tâm "", 40 Đ. Nguyễn Văn Linh, Hưng Lợi, Ninh Kiều, Cần Thơ, Việt Nam","Hưng Lợi, Ninh Kiều",40 Đ. Nguyễn Văn Linh,Cần Thơ,,"Ninh Kiều, Cần Thơ",VN
683,ChIJPz1RzN6JoDERVr-S-YsJeFU,COCO SPA & ACADEMY,Spa,+84 907 914 291,"COCO SPA & ACADEMY, 388Z/38A, Đ. Nguyễn Văn Cừ, KV.2, P, Ninh Kiều, Cần Thơ 100000, Việt Nam","KV.2, P, Ninh Kiều","388Z/38A, Đ. Nguyễn Văn Cừ",Cần Thơ,100000.0,"Ninh Kiều, Cần Thơ",VN
698,ChIJyRDr91mJoDERy9EwNmy9B5Q,Trương Gia Spa,Spa,+84 857 331 199,"Trương Gia Spa, 201 Đ. Phan Huy Chú, Phường An Khánh, Ninh Kiều, Cần Thơ, Việt Nam","Phường An Khánh, Ninh Kiều",201 Đ. Phan Huy Chú,Cần Thơ,,"Ninh Kiều, Cần Thơ",VN
699,ChIJfXco4t1joDERs9FB27c87ZA,Gardens Lotus Spa,,+84 938 692 016,"Gardens Lotus Spa, 72 Đ. Trần Văn Trà, Hưng Phú, Cái Răng, Cần Thơ, Việt Nam","Hưng Phú, Cái Răng",72 Đ. Trần Văn Trà,Cần Thơ,,"Cái Răng, Cần Thơ",VN
701,ChIJe4TJS7ZjoDER3a0G_uaTSo0,Vania Beauty House,Spa sức khỏe,+84 343 500 168,"Vania Beauty House, 168b Phan Đình Phùng, Tân An, Ninh Kiều, Cần Thơ 94000, Việt Nam","Tân An, Ninh Kiều",168b Phan Đình Phùng,Cần Thơ,94000.0,"Ninh Kiều, Cần Thơ",VN
713,ChIJVz9YzUqIoDERQt8Xcj9AXK0,Giang Beauty and Spa,Spa,+84 919 078 879,"Giang Beauty and Spa, 669 Đ. 30 Tháng 4, Hưng Lợi, Ninh Kiều, Cần Thơ 270000, Việt Nam","Hưng Lợi, Ninh Kiều",669 Đ. 30 Tháng 4,Cần Thơ,270000.0,"Ninh Kiều, Cần Thơ",VN
715,ChIJyyUtWxmJoDERllN4WarnB28,MiniSpa Cần Thơ (Kim Mai),Spa sức khỏe,+84 946 147 020,"MiniSpa Cần Thơ (Kim Mai), Phường An Khánh, Ninh Kiều, Cần Thơ, Việt Nam","Phường An Khánh, Ninh Kiều",,Cần Thơ,,"Ninh Kiều, Cần Thơ",VN
736,ChIJzabI1BeJoDERkewberF1TPw,ROSE SPA CẦN THƠ,Thẩm mỹ viện,+84 706 534 249,"ROSE SPA CẦN THƠ, 17 Đ. Trần Hoàng Na, Hưng Lợi, Ninh Kiều, Cần Thơ 92000, Việt Nam","Hưng Lợi, Ninh Kiều",17 Đ. Trần Hoàng Na,Cần Thơ,92000.0,"Ninh Kiều, Cần Thơ",VN
737,ChIJnQdePuuJoDERxaFuDfi51Cc,OLA SPA ACADEMY,Spa mặt,+84 833 538 508,"OLA SPA ACADEMY, 15 Đ. Số 7, Khu giảng viên, Ninh Kiều, Cần Thơ 94000, Việt Nam","Khu giảng viên, Ninh Kiều",15 Đ. Số 7,Cần Thơ,94000.0,"Ninh Kiều, Cần Thơ",VN
752,ChIJURHkn2yJoDERNlVxKpyDr5w,Spa An Nhiên cần Thơ,Spa mặt,+84 921 206 232,"Spa An Nhiên cần Thơ, Phường An Khánh, Ninh Kiều, Cần Thơ, Việt Nam","Phường An Khánh, Ninh Kiều",,Cần Thơ,,"Ninh Kiều, Cần Thơ",VN
753,ChIJHU9im7qNkUoRz9yTs8Z1c1I,Hum Spa CanTho,Spa,+84 931 860 638,,,,,,,
754,ChIJPU2VKz6IoDERi-Lpj3pcxwI,Hương Spa,Spa,+84 934 143 210,"Hương Spa, 385 Đ. Trần Nam Phú, Phường An Khánh, Ninh Kiều, Cần Thơ, Việt Nam","Phường An Khánh, Ninh Kiều",385 Đ. Trần Nam Phú,Cần Thơ,,"Ninh Kiều, Cần Thơ",VN
768,ChIJ2YjPumyIoDER84yLYVcyjQg,Beautiful Life spa & skincare,Spa,+84 977 594 459,"Beautiful Life spa & skincare, 34 Đ. Nguyễn Tri Phương, Phường An Khánh, Ninh Kiều, Cần Thơ, Việt Nam","Phường An Khánh, Ninh Kiều",34 Đ. Nguyễn Tri Phương,Cần Thơ,,"Ninh Kiều, Cần Thơ",VN
783,ChIJnTiPBLeJoDERKoh0JOTfEJY,Spa Ngân Tâm,Spa,+84 339 008 399,"Spa Ngân Tâm, số 16 Trần Chiên, Lê Bình, Cái Răng, Cần Thơ, Việt Nam","Lê Bình, Cái Răng",số 16 Trần Chiên,Cần Thơ,,"Cái Răng, Cần Thơ",VN
805,ChIJObbSQouJoDERd1gWupbvNl4,Lanh spa,Spa,+84 909 301 699,"Lanh spa, 5 Đ. Phan Huy Chú, Phường An Khánh, Ninh Kiều, Cần Thơ, Việt Nam","Phường An Khánh, Ninh Kiều",5 Đ. Phan Huy Chú,Cần Thơ,,"Ninh Kiều, Cần Thơ",VN
806,ChIJGSzBlSCJoDERDYdY0j-lUqg,Lá Nhỏ Spa,Spa,+84 945 052 505,"Lá Nhỏ Spa, 30/39c Đ. Nguyễn Văn Linh, Hưng Lợi, Ninh Kiều, Cần Thơ, Việt Nam","Hưng Lợi, Ninh Kiều",30/39c Đ. Nguyễn Văn Linh,Cần Thơ,,"Ninh Kiều, Cần Thơ",VN
818,ChIJyUa_ZJCJoDERFJt2SVk4D1U,Blue sky spa,Spa mặt,+84 949 693 579,"Blue sky spa, 53 Đường Số 3, khu tái định cư 923, Ninh Kiều, Cần Thơ, Việt Nam","khu tái định cư 923, Ninh Kiều",53 Đường Số 3,Cần Thơ,,"Ninh Kiều, Cần Thơ",VN
820,ChIJm9jZeZGJoDERn4eKP1bB-sM,COBI spa,Spa,+84 932 180 645,"COBI spa, 377k Lê Bình, Cái Răng, Cần Thơ, Việt Nam","Lê Bình, Cái Răng",377k Lê Bình,Cần Thơ,,"Cái Răng, Cần Thơ",VN
842,ChIJdUUnwhiIoDER-DSjt-9vDpM,Friend’s House Spa,Spa,+84 907 545 989,"Friend’s House Spa, 102/40 Đ. Lê Anh Xuân, An Cư, Ninh Kiều, Cần Thơ 900000, Việt Nam","An Cư, Ninh Kiều",102/40 Đ. Lê Anh Xuân,Cần Thơ,900000.0,"Ninh Kiều, Cần Thơ",VN
843,ChIJjeezWTuJoDERjRinkkIa2UU,Spa Beauty KP,Cửa hàng chăm sóc sức khỏe và làm đẹp,+84 333 255 355,"Spa Beauty KP, 268 Đ. Đồng Văn Cống, An Thới, Bình Thủy, Cần Thơ, Việt Nam","An Thới, Bình Thủy",268 Đ. Đồng Văn Cống,Cần Thơ,,"Bình Thủy, Cần Thơ",VN
844,ChIJdcq0_uiJoDERNWjfnTKrwfk,"Nhà Min Spa & Nails - Gội đầu dưỡng sinh, Massage body, Nails, Chăm sóc da",Spa,+84 879 716 789,"Nhà Min Spa & Nails - Gội đầu dưỡng sinh, Massage body, Nails, Chăm sóc da, 56 Đ. Trần Hoàng Na, Khu dân cư 91B, Ninh Kiều, Cần Thơ 900000, Việt Nam","Khu dân cư 91B, Ninh Kiều",56 Đ. Trần Hoàng Na,Cần Thơ,900000.0,"Ninh Kiều, Cần Thơ",VN
845,ChIJR4WQFnqJoDER1zHl2SEXIoU,Noran Spa,Spa,+84 767 903 880,"Noran Spa, xây dựng, 20A Đường Số 6, Khu dân cư, Ninh Kiều, Cần Thơ 90000, Việt Nam","Khu dân cư, Ninh Kiều","xây dựng, 20A Đường Số 6",Cần Thơ,90000.0,"Ninh Kiều, Cần Thơ",VN
846,ChIJpa2mT-aJoDERpWoFHNYknTM,SPA YẾN GOLD,Spa y tế,+84 919 811 177,"SPA YẾN GOLD, 172 Đ. Đồng Văn Cống, An Thới, Bình Thủy, Cần Thơ, Việt Nam","An Thới, Bình Thủy",172 Đ. Đồng Văn Cống,Cần Thơ,,"Bình Thủy, Cần Thơ",VN
848,ChIJkf3mK6hjoDERQQmhU4Ye2A0,Ti Spa,,+84 768 079 585,"2QHM+QCV Ti Spa, Nguyễn Thị Minh Khai, Tân An, Ninh Kiều, Cần Thơ, Việt Nam","Tân An, Ninh Kiều","2QHM+QCV, Nguyễn Thị Minh Khai",Cần Thơ,,"Ninh Kiều, Cần Thơ",VN
866,ChIJaXXV1WiIoDER3_0ghgBQ8dU,Kamala Spa & Clinic,Spa,+84 979 977 481,"Kamala Spa & Clinic, 50 Đường Số 3, Phường An Khánh, Ninh Kiều, Cần Thơ, Việt Nam","Phường An Khánh, Ninh Kiều",50 Đường Số 3,Cần Thơ,,"Ninh Kiều, Cần Thơ",VN
878,ChIJmbgsE7aJoDERW_FQi5vBaQY,Xinh Spa,Spa,+84 968 424 042,"Xinh Spa, 69/10 Đ. 30 Tháng 4, Hưng Lợi, Ninh Kiều, Cần Thơ 94000, Việt Nam","Hưng Lợi, Ninh Kiều",69/10 Đ. 30 Tháng 4,Cần Thơ,94000.0,"Ninh Kiều, Cần Thơ",VN
882,ChIJtxjFDJqJoDERDOCwVcc0ZyU,Spa - salon NGỌC HÂN,Chuyên gia làm đẹp,+84 934 278 388,"Spa - salon NGỌC HÂN, 49/7 Đ. Trần Hoàng Na, Hưng Lợi, Ninh Kiều, Cần Thơ, Việt Nam","Hưng Lợi, Ninh Kiều",49/7 Đ. Trần Hoàng Na,Cần Thơ,,"Ninh Kiều, Cần Thơ",VN
884,ChIJf21UeHCJoDERFYX98-bxvvU,Chăm Sóc Da & Gội Đầu Nhi,Spa mặt,,"Chăm Sóc Da & Gội Đầu Nhi, 51 QL1A, KV1 P, Cái Răng, Cần Thơ 94000, Việt Nam","KV1 P, Cái Răng",51 QL1A,Cần Thơ,94000.0,"Cái Răng, Cần Thơ",VN
922,ChIJL9addDiIoDERZ-_R8TgXdr0,Ngọc Quí beauty spa,Spa,+84 399 939 794,"2QF5+MF9 Ngọc Quí beauty spa, Hẻm Liên Tổ 4-5, Hưng Lợi, Ninh Kiều, Cần Thơ, Việt Nam","Hưng Lợi, Ninh Kiều","2QF5+MF9, Hẻm Liên Tổ 4-5",Cần Thơ,,"Ninh Kiều, Cần Thơ",VN
923,ChIJBxs67GJjoDERxwUb-BMCXj0,Spa Tuyet Anh Pham,Spa,+84 939 513 813,"Spa Tuyet Anh Pham, 160 Đ. Lý Thái Tổ, Hưng Phú, Cái Răng, Cần Thơ, Việt Nam","Hưng Phú, Cái Răng",160 Đ. Lý Thái Tổ,Cần Thơ,,"Cái Răng, Cần Thơ",VN
924,ChIJTwIi_wWhoDERiAmS69ZNIrc,Linh Spa,Spa sức khỏe,+84 907 906 188,"Linh Spa, 48, A3, Đường Đ. Trần Văn Trà, KDC, Cái Răng, Cần Thơ 94912, Việt Nam","KDC, Cái Răng","48, A3, Đường Đ. Trần Văn Trà",Cần Thơ,94912.0,"Cái Răng, Cần Thơ",VN
925,ChIJK-Cr-R-JoDER-ocrxNffmw8,Như Tuyết Spa,Spa mặt,+84 393 968 338,"Như Tuyết Spa, 345 Đ. Tú Xương, kdc, Ninh Kiều, Cần Thơ, Việt Nam","kdc, Ninh Kiều",345 Đ. Tú Xương,Cần Thơ,,"Ninh Kiều, Cần Thơ",VN
926,ChIJSQmgy-eJoDERSgwUc8kLtIk,GẤU NHUNG SPA 3-SPA ĐÔNG Y DƯỠNG SINH,Spa sức khỏe,+84 937 365 471,"GẤU NHUNG SPA 3-SPA ĐÔNG Y DƯỠNG SINH, 78 Đ. Trần Nam Phú, Phường An Khánh, Ninh Kiều, Cần Thơ 94000, Việt Nam","Phường An Khánh, Ninh Kiều",78 Đ. Trần Nam Phú,Cần Thơ,94000.0,"Ninh Kiều, Cần Thơ",VN
927,ChIJqfcjEniJoDERT-ag4wK4GH4,Thu Beauty & Academy Spa Cần Thơ,Spa,+84 704 955 711,"Thu Beauty & Academy Spa Cần Thơ, 66 Đường B24, Phường An Khánh, Ninh Kiều, Cần Thơ, Việt Nam","Phường An Khánh, Ninh Kiều",66 Đường B24,Cần Thơ,,"Ninh Kiều, Cần Thơ",VN
928,ChIJtdV1QL6JoDERXiJeGGTCbTs,Thanh Vân Spa Chi Nhánh Cần Thơ,Spa,+84 907 995 633,"Thanh Vân Spa Chi Nhánh Cần Thơ, C31 Kdc Hàng Bàng, Đ. Nguyễn Văn Linh, Phường An Khánh, Ninh Kiều, Cần Thơ, Việt Nam","Phường An Khánh, Ninh Kiều","C31 Kdc Hàng Bàng, Đ. Nguyễn Văn Linh",Cần Thơ,,"Ninh Kiều, Cần Thơ",VN
929,ChIJBYsiZ2yIoDERQhhsxXQ-d8k,Spa Hồng Nhung,Spa,+84 939 780 838,"Spa Hồng Nhung, 131 Đ. Phan Huy Chú, Phường An Khánh, Ninh Kiều, Cần Thơ, Việt Nam","Phường An Khánh, Ninh Kiều",131 Đ. Phan Huy Chú,Cần Thơ,,"Ninh Kiều, Cần Thơ",VN
930,ChIJn08pmSGIoDERIXSkV7monCg,Spa Mộng Thu,Spa,+84 292 3815 373,"Spa Mộng Thu, 108 Đ. Nguyễn Việt Hồng, An Lạc, Ninh Kiều, Cần Thơ, Việt Nam","An Lạc, Ninh Kiều",108 Đ. Nguyễn Việt Hồng,Cần Thơ,,"Ninh Kiều, Cần Thơ",VN
931,ChIJrYHI4BCJoDERaCjc-pTF5eM,Royal Spa,Spa,,"Royal Spa, 176 Nguyễn Thị Minh Khai, Xuân Khánh, Ninh Kiều, Cần Thơ 900000, Việt Nam","Xuân Khánh, Ninh Kiều",176 Nguyễn Thị Minh Khai,Cần Thơ,900000.0,"Ninh Kiều, Cần Thơ",VN
934,ChIJz1Y11fWJoDER83OURophld0,Kim Ngân Spa,Spa,+84 943 443 839,"Kim Ngân Spa, 15 Quang Trung, Xuân Khánh, Ninh Kiều, Cần Thơ, Việt Nam","Xuân Khánh, Ninh Kiều",15 Quang Trung,Cần Thơ,,"Ninh Kiều, Cần Thơ",VN
936,ChIJc2JuIOZjoDERzctwpGxMdkA,LLy Spa,Spa mặt,+84 968 624 627,"LLy Spa, 148 Đ. Bùi Quang Trinh, Phú Thứ, Cái Răng, Cần Thơ, Việt Nam","Phú Thứ, Cái Răng",148 Đ. Bùi Quang Trinh,Cần Thơ,,"Cái Răng, Cần Thơ",VN
940,ChIJ0ZRmw6djoDERa-nGdrvSITw,Quý Cô Spa,Spa,,"Quý Cô Spa, A008 Cadif, Đ. Lý Thái Tổ, P, Cái Răng, Cần Thơ, Việt Nam","P, Cái Răng","A008 Cadif, Đ. Lý Thái Tổ",Cần Thơ,,"Cái Răng, Cần Thơ",VN
983,ChIJCaWun4GJoDERNjNB6Em_p-s,Shiny spa & skincare,Spa,+84 899 673 639,"Shiny spa & skincare, 8 Đ. Trần Vĩnh Kiết, An Bình, Ninh Kiều, Cần Thơ, Việt Nam","An Bình, Ninh Kiều",8 Đ. Trần Vĩnh Kiết,Cần Thơ,,"Ninh Kiều, Cần Thơ",VN
990,ChIJY-MiqZGJoDERf7byAyFsfvs,Thu Hieu Beauty Spa,Spa,+84 907 718 117,"Thu Hieu Beauty Spa, 58 Tầm Vu, Hưng Lợi, Ninh Kiều, Cần Thơ, Việt Nam","Hưng Lợi, Ninh Kiều",58 Tầm Vu,Cần Thơ,,"Ninh Kiều, Cần Thơ",VN
991,ChIJWxu9NaGJoDERjuvhGIIvc-E,"Spa The Men,massage bấm huyệt, Cần Thơ",,+84 337 163 536,"Spa The Men,massage bấm huyệt, Cần Thơ, 131 Đ. Nguyễn Hiền, Khu dân cư 91B, Ninh Kiều, Cần Thơ 90000, Việt Nam","Khu dân cư 91B, Ninh Kiều",131 Đ. Nguyễn Hiền,Cần Thơ,90000.0,"Ninh Kiều, Cần Thơ",VN
997,ChIJddr_T3WJoDER962a2sBKof8,NATA FAMILY SPA,Spa ban ngày,+84 339 008 399,"NATA FAMILY SPA, 126 đường 14, khu Đô Thị Hồng Loan 5C, Cái Răng, Cần Thơ, Việt Nam","khu Đô Thị Hồng Loan 5C, Cái Răng",126 đường 14,Cần Thơ,,"Cái Răng, Cần Thơ",VN
1042,ChIJL9hdu0SJoDERg8KwKzX_NHE,Cỏ - Gội đầu dưỡng sinh,Spa sức khỏe,+84 818 488 198,"Cỏ - Gội đầu dưỡng sinh, 36AB Bờ Hồ Búng Xáng, Phường An Khánh, Ninh Kiều, Cần Thơ 94000, Việt Nam","Phường An Khánh, Ninh Kiều",36AB Bờ Hồ Búng Xáng,Cần Thơ,94000.0,"Ninh Kiều, Cần Thơ",VN
1058,ChIJ_Xqqa6GJoDERf-x_N0YlIxY,KQ Spa,Spa,+84 901 016 965,"KQ Spa, 33 Đ. Trần Bình Trọng, An Phú, Ninh Kiều, Cần Thơ 90000, Việt Nam","An Phú, Ninh Kiều",33 Đ. Trần Bình Trọng,Cần Thơ,90000.0,"Ninh Kiều, Cần Thơ",VN
1059,ChIJPXoV6SiJoDERzsiW4VX0GpY,Spa Mộc Đan,Spa sức khỏe,+84 931 097 969,"Spa Mộc Đan, Đ. Mạc Thiên Tích, Xuân Khánh, Ninh Kiều, Cần Thơ, Việt Nam","Xuân Khánh, Ninh Kiều",Đ. Mạc Thiên Tích,Cần Thơ,,"Ninh Kiều, Cần Thơ",VN
1060,ChIJ-axyfFyJoDERUE8Z0qiqSEQ,CÁT TƯỜNG Beauty & Spa,Spa,+84 945 939 595,"2QM5+PHJ CÁT TƯỜNG Beauty & Spa, Phường An Khánh, Ninh Kiều, Cần Thơ, Việt Nam","Phường An Khánh, Ninh Kiều",2QM5+PHJ,Cần Thơ,,"Ninh Kiều, Cần Thơ",VN
1061,ChIJX0knOlNjoDERpCVNtgvZtW4,Beauty - Lam Spa,Spa,+84 832 217 555,"Beauty - Lam Spa, 48 Đ. Lý Thái Tổ, Hưng Phú, Cái Răng, Cần Thơ 92000, Việt Nam","Hưng Phú, Cái Răng",48 Đ. Lý Thái Tổ,Cần Thơ,92000.0,"Cái Răng, Cần Thơ",VN
1062,ChIJ38-96hGIoDERh8x9ztv6iVk,Lala Spa,Spa,+84 986 385 627,"Lala Spa, 98 Đ. Mậu Thân, An Hoà, Ninh Kiều, Cần Thơ, Việt Nam","An Hoà, Ninh Kiều",98 Đ. Mậu Thân,Cần Thơ,,"Ninh Kiều, Cần Thơ",VN
1066,ChIJ0_U4JJ9ioDEREGs3ht5kVVE,Hợp Phố Spa,Spa,+84 292 3810 123,"Hợp Phố Spa, 4 Đ. Nguyễn Du, Tân An, Ninh Kiều, Cần Thơ, Việt Nam","Tân An, Ninh Kiều",4 Đ. Nguyễn Du,Cần Thơ,,"Ninh Kiều, Cần Thơ",VN
1067,ChIJjwiADyZjoDERbnzDOq6rHDc,Như Tiên Spa - Nail Gội Đầu Dưỡng Sinh,Spa,+84 962 776 448,"Như Tiên Spa - Nail Gội Đầu Dưỡng Sinh, 15/28a, 15/28 Hoàng Văn Thụ, An Hội, Ninh Kiều, Cần Thơ, Việt Nam","An Hội, Ninh Kiều","15/28a, 15/28 Hoàng Văn Thụ",Cần Thơ,,"Ninh Kiều, Cần Thơ",VN
1068,ChIJ87USHmxjoDERqvBwgoA3h-Y,Da Đẹp Spa,Spa sức khỏe,+84 978 869 914,"Da Đẹp Spa, chung cư lô A, Đ. Lý Thái Tổ, KDC Hưng Phú 1, Cái Răng, Cần Thơ, Việt Nam","KDC Hưng Phú 1, Cái Răng","chung cư lô A, Đ. Lý Thái Tổ",Cần Thơ,,"Cái Răng, Cần Thơ",VN
1069,ChIJXUrGhZ9ioDERg4ie7huRk5w,Spa P'house,Spa,+84 888 298 898,"Spa P'house, 52 Đ. Nam Kỳ Khởi Nghĩa, Tân An, Ninh Kiều, Cần Thơ, Việt Nam","Tân An, Ninh Kiều",52 Đ. Nam Kỳ Khởi Nghĩa,Cần Thơ,,"Ninh Kiều, Cần Thơ",VN
1070,ChIJ9bHgR59ioDEROI9ZlutTBWg,Spa - Salon Sen Việt,Spa,+84 907 958 038,"Spa - Salon Sen Việt, 38, Đường Đường Nguyễn An Ninh, Tân An, Ninh Kiều, Cần Thơ, Việt Nam","Tân An, Ninh Kiều","38, Đường Đường Nguyễn An Ninh",Cần Thơ,,"Ninh Kiều, Cần Thơ",VN
1080,ChIJZwnyZVGJoDERrRg4LmymKJc,ANNI ‘s spa,,,"ANNI ‘s spa, 132/45 Hẻm 54 Đ. Hùng Vương, An Hội, Ninh Kiều, Cần Thơ, Việt Nam","An Hội, Ninh Kiều",132/45 Hẻm 54 Đ. Hùng Vương,Cần Thơ,,"Ninh Kiều, Cần Thơ",VN
1082,ChIJdbQGPhqIoDERSrdPrqp1Oas,Tu Spa,Spa,+84 946 937 008,"Tu Spa, 164 Đ. Lê Anh Xuân, An Nghiệp, Ninh Kiều, Cần Thơ, Việt Nam","An Nghiệp, Ninh Kiều",164 Đ. Lê Anh Xuân,Cần Thơ,,"Ninh Kiều, Cần Thơ",VN
1088,ChIJw5LS2beJoDERK1f9F57LWlg,YÊN SPA,Thẩm mỹ viện,,"YÊN SPA, 161/13 tổ 13 Nguyễn Văn Cừ Nối Dài, Phường An Khánh, Ninh Kiều, Cần Thơ, Việt Nam","Phường An Khánh, Ninh Kiều",161/13 tổ 13 Nguyễn Văn Cừ Nối Dài,Cần Thơ,,"Ninh Kiều, Cần Thơ",VN
1091,ChIJ7emNe0eJoDERIYIm1fxtvbg,LOGI ACADEMY,Câu lạc bộ spa và sức khỏe,+84 292 3943 334,"LOGI ACADEMY, 168A1 Đ. Nguyễn Tri Phương, Phường An Khánh, Ninh Kiều, Cần Thơ 700000, Việt Nam","Phường An Khánh, Ninh Kiều",168A1 Đ. Nguyễn Tri Phương,Cần Thơ,700000.0,"Ninh Kiều, Cần Thơ",VN
1092,ChIJPx-llSmJoDERi3Upt1-zQSk,Hee Young Spa,Spa,+84 292 3841 027,"Hee Young Spa, 122A1 Đ. Nguyễn Hiền, Khu dân cư 91B, Ninh Kiều, Cần Thơ, Việt Nam","Khu dân cư 91B, Ninh Kiều",122A1 Đ. Nguyễn Hiền,Cần Thơ,,"Ninh Kiều, Cần Thơ",VN
1094,ChIJO5WseTeJoDERPWm9fsCgy34,MIA Beauty - Spa & Academy,Spa,+84 789 247 676,"MIA Beauty - Spa & Academy, 38 Hẻm 132 Đ. 3 Tháng 2, Hưng Lợi, Ninh Kiều, Cần Thơ 90000, Việt Nam","Hưng Lợi, Ninh Kiều",38 Hẻm 132 Đ. 3 Tháng 2,Cần Thơ,90000.0,"Ninh Kiều, Cần Thơ",VN
1097,ChIJHR9htPqJoDERFILNagx8E-g,KIWI Spa - Đẹp hơn từng ngày,Spa,+84 839 393 901,"KIWI Spa - Đẹp hơn từng ngày, 134A/3, ĐT923, An Bình, Ninh Kiều, Cần Thơ, Việt Nam","An Bình, Ninh Kiều","134A/3, ĐT923",Cần Thơ,,"Ninh Kiều, Cần Thơ",VN
1099,ChIJCeQga0SJoDERaGOF-smTo_I,HELEN Spa,Spa sức khỏe,+84 989 898 927,"HELEN Spa, 443 Đ. 30 Tháng 4, Hưng Lợi, Ninh Kiều, Cần Thơ, Việt Nam","Hưng Lợi, Ninh Kiều",443 Đ. 30 Tháng 4,Cần Thơ,,"Ninh Kiều, Cần Thơ",VN
1100,ChIJTbBZrFGJoDERCmRqYz-hM2A,Spa Mai Thư,Spa sức khỏe,+84 777 847 739,"2Q78+GWH Spa Mai Thư, Hẻm 216 Tầm Vu, Hưng Lợi, Ninh Kiều, Cần Thơ, Việt Nam","Hưng Lợi, Ninh Kiều","2Q78+GWH, Hẻm 216 Tầm Vu",Cần Thơ,,"Ninh Kiều, Cần Thơ",VN
1101,ChIJPaZrFRSJoDERl5Kk5MCeGxk,Spa Thùy Trang,Spa,+84 908 887 984,"XPW8+JFR Spa Thùy Trang, Mỹ Khánh, Phong Điền, Cần Thơ, Việt Nam","Mỹ Khánh, Phong Điền",XPW8+JFR,Cần Thơ,,"Phong Điền, Cần Thơ",VN
1119,ChIJwwwg9zSJoDER7W1tMMaxlX8,LaVie Spa - Gội Đầu Dưỡng Sinh,Spa,+84 915 113 664,"LaVie Spa - Gội Đầu Dưỡng Sinh, 25 Đ. Quản Trọng Hoàng, Xuân Khánh, Ninh Kiều, Cần Thơ, Việt Nam","Xuân Khánh, Ninh Kiều",25 Đ. Quản Trọng Hoàng,Cần Thơ,,"Ninh Kiều, Cần Thơ",VN
1121,ChIJq_tNjQuJoDERuwLGvUS8jYM,HaKa Chi Spa,Thẩm mỹ viện,+84 913 722 882,"HaKa Chi Spa, 20 Đường B11, Hưng Lợi, Ninh Kiều, Cần Thơ, Việt Nam","Hưng Lợi, Ninh Kiều",20 Đường B11,Cần Thơ,,"Ninh Kiều, Cần Thơ",VN
1123,ChIJJWKeiEiIoDERCJOE2aclBJ0,Spa Phúc Ngân,Spa,+84 945 279 367,"Spa Phúc Ngân, 164 Đ. Nguyễn Hiền, Khu dân cư 91B, Ninh Kiều, Cần Thơ, Việt Nam","Khu dân cư 91B, Ninh Kiều",164 Đ. Nguyễn Hiền,Cần Thơ,,"Ninh Kiều, Cần Thơ",VN
1124,ChIJ2xo0ubOJoDERfLFKXjAaT5k,Spa & Yoga Hana,Spa sức khỏe,+84 347 501 183,"Spa & Yoga Hana, 77 Đ. Lê Chân, Hưng Lợi, Ninh Kiều, Cần Thơ, Việt Nam","Hưng Lợi, Ninh Kiều",77 Đ. Lê Chân,Cần Thơ,,"Ninh Kiều, Cần Thơ",VN
1136,ChIJiYuqxXSJoDERmprT8i1ZSsg,Sala's Beauty Spa,Spa mặt,+84 909 092 678,"Sala's Beauty Spa, 124 Đ. Mạc Thiên Tích, Xuân Khánh, Ninh Kiều, Cần Thơ, Việt Nam","Xuân Khánh, Ninh Kiều",124 Đ. Mạc Thiên Tích,Cần Thơ,,"Ninh Kiều, Cần Thơ",VN
1138,ChIJEUpAuzuIoDER4ETHsDAIb94,Spa Kim Thủy,Spa,,"Spa Kim Thủy, Xuân Khánh, Ninh Kiều, Cần Thơ, Việt Nam","Xuân Khánh, Ninh Kiều",,Cần Thơ,,"Ninh Kiều, Cần Thơ",VN
1141,ChIJM7MV6LCJoDERdiu2UiAY4c8,KIM CHÂU SPA,Spa,+84 919 334 244,"KIM CHÂU SPA, 18A Hẻm 2 - Mậu Thân, Xuân Khánh, Ninh Kiều, Cần Thơ 94000, Việt Nam","Xuân Khánh, Ninh Kiều",18A Hẻm 2 - Mậu Thân,Cần Thơ,94000.0,"Ninh Kiều, Cần Thơ",VN
1150,ChIJHc9AvxCHoDERtfVHtAZ4lSg,VÂN ANH SPA,Spa sức khỏe,+84 907 626 797,"VÂN ANH SPA, 581m Trần Quang Diệu, An Thới, Bình Thủy, Cần Thơ, Việt Nam","An Thới, Bình Thủy",581m Trần Quang Diệu,Cần Thơ,,"Bình Thủy, Cần Thơ",VN
1151,ChIJgzAMKJCHoDERrrJsod-dRbk,Spa & Sauna Club 65 CT,Spa sức khỏe,+84 886 550 621,"Spa & Sauna Club 65 CT, C26 Đ. Cách Mạng Tháng 8, Cái Khế, Bình Thủy, Cần Thơ, Việt Nam","Cái Khế, Bình Thủy",C26 Đ. Cách Mạng Tháng 8,Cần Thơ,,"Bình Thủy, Cần Thơ",VN
1152,ChIJNyD3h2eJoDERPo2V4YshsYw,Spa Tím Hùng Vương,Spa,+84 903 332 933,"Spa Tím Hùng Vương, 54 Hùng Vương, An Hội, Ninh Kiều, Cần Thơ 900000, Việt Nam","An Hội, Ninh Kiều",54 Hùng Vương,Cần Thơ,900000.0,"Ninh Kiều, Cần Thơ",VN
1153,ChIJc6eLVaXqqCYR6QbB0mTjDH4,Tuyết Anh Phạm Spa,Spa,+84 777 799 679,,,,,,,
1154,ChIJKQlV4MdjoDERHH-o-QPLPTA,Spa Ngọc Phượng,Spa,+84 984 489 682,"Spa Ngọc Phượng, 100 Đường Hai Bà Trưng, Chợ Tân An, Ninh Kiều, Cần Thơ, Việt Nam","Chợ Tân An, Ninh Kiều",100 Đường Hai Bà Trưng,Cần Thơ,,"Ninh Kiều, Cần Thơ",VN
1156,ChIJhcqK8-pjoDERrWdfyzan-vE,Spa Cần Thơ - Hà Lan,Spa,,"Spa Cần Thơ - Hà Lan, 34 Lý Hồng Thanh, Cái Khế, Ninh Kiều, Cần Thơ, Việt Nam","Cái Khế, Ninh Kiều",34 Lý Hồng Thanh,Cần Thơ,,"Ninh Kiều, Cần Thơ",VN
1159,ChIJSdPUxQKIoDERWW6QH9i3vH0,Spa Gimi Luxury,Spa,+84 938 880 009,"Spa Gimi Luxury, 7 Đ. Phan Đăng Lưu, An Hội, Ninh Kiều, Cần Thơ, Việt Nam","An Hội, Ninh Kiều",7 Đ. Phan Đăng Lưu,Cần Thơ,,"Ninh Kiều, Cần Thơ",VN
1160,ChIJncCl1saJoDERPlmdy3X-B-s,MỘC SPA,Spa sức khỏe,,"MỘC SPA, 188 Đ. Nguyễn Văn Cừ, An Hoà, Ninh Kiều, Cần Thơ, Việt Nam","An Hoà, Ninh Kiều",188 Đ. Nguyễn Văn Cừ,Cần Thơ,,"Ninh Kiều, Cần Thơ",VN
1161,ChIJf9H89DGJoDERVWDXkOSkIMY,Spa Dưỡng Sinh Tường Cần Thơ,Spa sức khỏe,+84 396 739 560,"Spa Dưỡng Sinh Tường Cần Thơ, 311/10/6A, 311 Đ. Nguyễn Văn Cừ, An Hoà, Ninh Kiều, Cần Thơ, Việt Nam","An Hoà, Ninh Kiều","311/10/6A, 311 Đ. Nguyễn Văn Cừ",Cần Thơ,,"Ninh Kiều, Cần Thơ",VN
1162,ChIJgTZr7jmJoDERITi2WoJ50WU,NGỌC TRÂN BEAUTY SPA,Spa mặt,+84 388 284 249,"NGỌC TRÂN BEAUTY SPA, 78 Đường số 3, KDC Đại Ngân, Ninh Kiều, Cần Thơ, Việt Nam","KDC Đại Ngân, Ninh Kiều",78 Đường số 3,Cần Thơ,,"Ninh Kiều, Cần Thơ",VN
1164,ChIJ-bTVG22IoDERwuR9JcecrtU,Homie Spa,Spa,,"Homie Spa, An Khánh, Ninh Kiều, Cần Thơ, Việt Nam","An Khánh, Ninh Kiều",,Cần Thơ,,"Ninh Kiều, Cần Thơ",VN
1166,ChIJRd5uYFOJoDERkpXK7ILWUZM,SPA THIEN NGA,Spa,+84 946 666 772,"SPA THIEN NGA, 59 Đường Số 3, Phường An Khánh, Ninh Kiều, Cần Thơ, Việt Nam","Phường An Khánh, Ninh Kiều",59 Đường Số 3,Cần Thơ,,"Ninh Kiều, Cần Thơ",VN
1167,ChIJ3_mTRzyJoDERds7r7WRiIwc,NAIL 68 - SPA HẠNH,Spa,+84 934 404 014,"NAIL 68 - SPA HẠNH, Nguyễn Văn Cừ Nối Dài, tổ 3-khu vực, 2-388H46A, Cần Thơ, Việt Nam","tổ 3-khu vực, 2-388H46A",Nguyễn Văn Cừ Nối Dài,Cần Thơ,,"2-388H46A, Cần Thơ",VN
1168,ChIJw_Iy2mGJoDERvJ023gndbjA,Spa Diễm Thị,Spa mặt,+84 911 665 354,"Spa Diễm Thị, 38/11c Hẻm 38 Đ. 3 Tháng 2, Hưng Lợi, Ninh Kiều, Cần Thơ 90000, Việt Nam","Hưng Lợi, Ninh Kiều",38/11c Hẻm 38 Đ. 3 Tháng 2,Cần Thơ,90000.0,"Ninh Kiều, Cần Thơ",VN
1169,ChIJE8yZpwuJoDERS0vC5yvQHNY,Spa Thuỵ Trúc,Spa,+84 939 226 855,"Spa Thuỵ Trúc, 115/3 Đ. Trần Vĩnh Kiết, An Bình, Ninh Kiều, Cần Thơ 64000, Việt Nam","An Bình, Ninh Kiều",115/3 Đ. Trần Vĩnh Kiết,Cần Thơ,64000.0,"Ninh Kiều, Cần Thơ",VN
1170,ChIJtUUh5pCJoDERS2IJmlNW-xE,Spa Mẹ và Bé Tây Đô,Spa sức khỏe,+84 879 263 656,"Spa Mẹ và Bé Tây Đô, Nguyễn Văn Cừ Nối Dài, An Bình, Ninh Kiều, Cần Thơ, Việt Nam","An Bình, Ninh Kiều",Nguyễn Văn Cừ Nối Dài,Cần Thơ,,"Ninh Kiều, Cần Thơ",VN
1172,ChIJySZXGKGJoDER8_S73Q1113E,Ngọc Lê Spa,Spa,,"Ngọc Lê Spa, An Bình, Ninh Kiều, Cần Thơ, Việt Nam","An Bình, Ninh Kiều",,Cần Thơ,,"Ninh Kiều, Cần Thơ",VN
1174,ChIJVWm84_GJoDERR1YOKQPWf_s,Spa Ngọc Hân,Spa,+84 982 233 077,"Spa Ngọc Hân, 9 Trần Chiên, Lê Bình, Cái Răng, Cần Thơ, Việt Nam","Lê Bình, Cái Răng",9 Trần Chiên,Cần Thơ,,"Cái Răng, Cần Thơ",VN
1176,ChIJHUjNop2JoDERxzVdtF2rr7E,Thanh thúy spa,Spa mặt,+84 336 040 376,"Thanh thúy spa, 2 Võ Tánh, Lê Bình, Cái Răng, Cần Thơ 900000, Việt Nam","Lê Bình, Cái Răng",2 Võ Tánh,Cần Thơ,900000.0,"Cái Răng, Cần Thơ",VN
1177,ChIJ62I5HhqJoDEREsKp_Y26s2g,Spa-nail Ngân’s Beauty,Spa mặt,+84 933 797 292,"XQP6+C29 Spa-nail Ngân’s Beauty, Thường Thạnh, Cái Răng, Cần Thơ, Việt Nam","Thường Thạnh, Cái Răng",XQP6+C29,Cần Thơ,,"Cái Răng, Cần Thơ",VN
1181,ChIJSaXqX36JoDERVSb8O6CpEgc,HOÀNG THUỲ SPA,Spa,+84 988 550 178,"HOÀNG THUỲ SPA, 25h Hẻm 132 Đ. 3 Tháng 2, Hưng Lợi, Ninh Kiều, Cần Thơ, Việt Nam","Hưng Lợi, Ninh Kiều",25h Hẻm 132 Đ. 3 Tháng 2,Cần Thơ,,"Ninh Kiều, Cần Thơ",VN
1183,ChIJB-4CVveJoDERIWiCG01nz3k,Spa La Belle,Spa,+84 931 049 277,"Spa La Belle, 12/11d Hẻm 132 Đ. 3 Tháng 2, Hưng Lợi, Ninh Kiều, Cần Thơ, Việt Nam","Hưng Lợi, Ninh Kiều",12/11d Hẻm 132 Đ. 3 Tháng 2,Cần Thơ,,"Ninh Kiều, Cần Thơ",VN
1184,ChIJ9fIDcRWJoDERBZdXh4NIPlU,Nguyễn Trang Spa & Clinic,Spa,+84 772 197 998,"Nguyễn Trang Spa & Clinic, 58A Đ. Nguyễn Hiền, Khu dân cư 91B, Ninh Kiều, Cần Thơ 890000, Việt Nam","Khu dân cư 91B, Ninh Kiều",58A Đ. Nguyễn Hiền,Cần Thơ,890000.0,"Ninh Kiều, Cần Thơ",VN
1185,ChIJ36_DKUiIoDERgFpMnV9ioMk,Spa Phượng,Spa,,"Spa Phượng, Hưng Lợi, Ninh Kiều, Cần Thơ, Việt Nam","Hưng Lợi, Ninh Kiều",,Cần Thơ,,"Ninh Kiều, Cần Thơ",VN
1186,ChIJezPtwzeIoDERCMqISP0SgrA,Spa Nguyễn Loan,Spa,+84 704 941 706,"Spa Nguyễn Loan, 19 Đường 3, Hưng Lợi, Ninh Kiều, Cần Thơ, Việt Nam","Hưng Lợi, Ninh Kiều",19 Đường 3,Cần Thơ,,"Ninh Kiều, Cần Thơ",VN
1187,ChIJmSdwf0iIoDERjMkpwXI6mIg,Khỏe Spa,Spa,,"Khỏe Spa, 122 Đ. Nguyễn Hiền, Hưng Lợi, Ninh Kiều, Cần Thơ, Việt Nam","Hưng Lợi, Ninh Kiều",122 Đ. Nguyễn Hiền,Cần Thơ,,"Ninh Kiều, Cần Thơ",VN
1189,ChIJV6S76JKJoDER43HPghepI4M,NGỌC Home SPA,Spa,+84 949 407 291,"NGỌC Home SPA, Hẻm 117 Đ. 3 Tháng 2, Hưng Lợi, Ninh Kiều, Cần Thơ, Việt Nam","Hưng Lợi, Ninh Kiều",Hẻm 117 Đ. 3 Tháng 2,Cần Thơ,,"Ninh Kiều, Cần Thơ",VN
1191,ChIJoXF8xfuJoDERJzaG517X1Rc,Happy home spa,Spa,,"Happy home spa, 534 Đ. 30 Tháng 4, Hưng Lợi, Ninh Kiều, Cần Thơ, Việt Nam","Hưng Lợi, Ninh Kiều",534 Đ. 30 Tháng 4,Cần Thơ,,"Ninh Kiều, Cần Thơ",VN
1192,ChIJtYOtFPWJoDERGrEjZp0itc0,Loan mini spa,Spa sức khỏe,+84 392 230 669,"Loan mini spa, 198 Tầm Vu, Hưng Lợi, Ninh Kiều, Cần Thơ, Việt Nam","Hưng Lợi, Ninh Kiều",198 Tầm Vu,Cần Thơ,,"Ninh Kiều, Cần Thơ",VN
1196,ChIJ7cpTV2uJoDERqDpPyySocAA,Khanh An Spa & Relax,Spa,+84 907 081 638,"Khanh An Spa & Relax, 41C Đ. Mạc Thiên Tích, Xuân Khánh, Ninh Kiều, Cần Thơ, Việt Nam","Xuân Khánh, Ninh Kiều",41C Đ. Mạc Thiên Tích,Cần Thơ,,"Ninh Kiều, Cần Thơ",VN
1197,ChIJJ5CiknyJoDERq8NM90lV9G4,Phuong’s Spa Relax - Gội Đầu Dưỡng Sinh,Thẩm mỹ viện,+84 939 500 134,"Phuong’s Spa Relax - Gội Đầu Dưỡng Sinh, 93 Đ. Trương Định, Tân An, Ninh Kiều, Cần Thơ, Việt Nam","Tân An, Ninh Kiều",93 Đ. Trương Định,Cần Thơ,,"Ninh Kiều, Cần Thơ",VN
1198,ChIJq6dujA2JoDERzzKT95FkNLc,GOAL SPA,Spa,+84 836 682 421,"GOAL SPA, Siêu thị vinmart, số42 Đ. 30/4, An Lạc, Ninh Kiều, Cần Thơ, Việt Nam","An Lạc, Ninh Kiều","Siêu thị vinmart, số42 Đ. 30/4",Cần Thơ,,"Ninh Kiều, Cần Thơ",VN
