,place_id,name,main_category,phone,address,address_ward,address_street,address_city,address_postal_code,address_state,address_country_code
0,ChIJGTlpDn1zCjER0Piagxdbi4o,Viện Thẩm Mỹ Diva - Cần Thơ,Thẩm mỹ viện,1900 2222,"Viện Thẩm Mỹ Diva - Cần Thơ, 111 Đ. Trần Hưng Đạo, An Phú, Ninh Kiều, Cần Thơ 94114","An Phú, Ninh Kiều",111 Đ. Trần Hưng Đạo,Cần Thơ,94114.0,"Ninh Kiều, Cần Thơ",VN
4,ChIJpdv9GNwpdTERpYUQo8r3RfA,Thẩm Mỹ Viện Mailisa,Thẩm mỹ viện,0932 699 299,"Thẩm Mỹ Viện Mailisa, 86-88-90-92 Huỳnh Văn Bánh, Phường 15, Phú Nhuận, Thành phố Hồ Chí Minh","Phường 15, Phú Nhuận",86-88-90-92 Huỳnh Văn Bánh,Thành phố Hồ Chí Minh,,"Phú Nhuận, Thành phố Hồ Chí Minh",VN
14,ChIJ6do8IT0vdTERXCEtpaeSgRI,Bệnh viện JW Hàn Quốc,Bệnh viện chuyên khoa,0968 681 111,"Bệnh viện JW Hàn Quốc, 44 - 46 - 48 - 50 Đ. Tôn Thất Tùng, Phường Phạm Ngũ Lão, Quận 1, Thành phố Hồ Chí Minh 700000","Phường Phạm Ngũ Lão, Quận 1",44 - 46 - 48 - 50 Đ. Tôn Thất Tùng,Thành phố Hồ Chí Minh,700000.0,"Quận 1, Thành phố Hồ Chí Minh",VN
15,ChIJH3_rBt9joDER30XrEntk9Qk,Thẩm Mỹ Viện Mailisa,Thẩm mỹ viện,0932 699 299,"Thẩm Mỹ Viện Mailisa, 67 Phan Đình Phùng, Tân An, Ninh Kiều, Cần Thơ 94112","Tân An, Ninh Kiều",67 Phan Đình Phùng,Cần Thơ,94112.0,"Ninh Kiều, Cần Thơ",VN
21,ChIJyXn27acvdTERH62MZeP0nUg,Thẩm Mỹ Viện Seoul Center,Thẩm mỹ viện,1800 3333,"Thẩm Mỹ Viện Seoul Center, 61A Đ. Kinh Dương Vương, Phường 12, Quận 6, Thành phố Hồ Chí Minh 700000","Phường 12, Quận 6",61A Đ. Kinh Dương Vương,Thành phố Hồ Chí Minh,700000.0,"Quận 6, Thành phố Hồ Chí Minh",VN
22,ChIJO3xWEqhioDERweMNgwdgQIY,Thẩm Mỹ Viện Seoul Center,Thẩm mỹ viện,1800 3333,"Thẩm Mỹ Viện Seoul Center, 329 Đ. Nguyễn Văn Cừ, An Hoà, Ninh Kiều, Cần Thơ","An Hoà, Ninh Kiều",329 Đ. Nguyễn Văn Cừ,Cần Thơ,,"Ninh Kiều, Cần Thơ",VN
32,ChIJ8UKL6vMpdTERG8nh3bhA3vI,Cty CP Bệnh Viện Thẩm Mỹ Quốc Tế Seoul Center - Quận 10,Thẩm mỹ viện,1800 3333,"Cty CP Bệnh Viện Thẩm Mỹ Quốc Tế Seoul Center - Quận 10, 375 Đ. Nguyễn Thượng Hiền, Phường 11, Quận 10, Thành phố Hồ Chí Minh 700000","Phường 11, Quận 10",375 Đ. Nguyễn Thượng Hiền,Thành phố Hồ Chí Minh,700000.0,"Quận 10, Thành phố Hồ Chí Minh",VN
38,ChIJKW1BruKJoDER_os9Fp00ZyQ,Thẩm mỹ Viện Ngọc Dung,Thẩm mỹ viện,1800 6377,"Thẩm mỹ Viện Ngọc Dung, 234B Đ. Trần Hưng Đạo, An Phú, Ninh Kiều, Cần Thơ","An Phú, Ninh Kiều",234B Đ. Trần Hưng Đạo,Cần Thơ,,"Ninh Kiều, Cần Thơ",VN
48,ChIJoQ98rh6IoDERFDa-90Uz7AY,Thẩm Mỹ Viện Ngọc Hường - Cần Thơ,Thẩm mỹ viện,1900 7067,"Thẩm Mỹ Viện Ngọc Hường - Cần Thơ, 196 Đ. Lý Tự Trọng, P, Ninh Kiều, Cần Thơ 94000","P, Ninh Kiều",196 Đ. Lý Tự Trọng,Cần Thơ,94000.0,"Ninh Kiều, Cần Thơ",VN
54,ChIJb0yw7iYvdTER3hKAPq6jzMI,Thẩm mỹ Thu Cúc Sài Gòn - Cơ sở 1,Thẩm mỹ viện,0964 080 999,"Thẩm mỹ Thu Cúc Sài Gòn - Cơ sở 1, 218 Điện Biên Phủ, Quận 3, TP Hồ Chí Minh, Hồ Chí Minh, Thành phố Hồ Chí Minh","Võ Thị Sáu, Hồ Chí Minh","218 Điện Biên Phủ, Quận 3, TP Hồ Chí Minh",Thành phố Hồ Chí Minh,,"Hồ Chí Minh, Thành phố Hồ Chí Minh",VN
56,ChIJQUl0WTwvdTEReY58J_zZmqI,Thẩm Mỹ Viện Thủy Tiên,Thẩm mỹ viện,1900 6878,"Thẩm Mỹ Viện Thủy Tiên, 82-84 Đ. Lê Thị Riêng, Phường Phạm Ngũ Lão, Quận 1, Thành phố Hồ Chí Minh 700000","Phường Phạm Ngũ Lão, Quận 1",82-84 Đ. Lê Thị Riêng,Thành phố Hồ Chí Minh,700000.0,"Quận 1, Thành phố Hồ Chí Minh",VN
58,ChIJt601IxovdTER_yTLJ4nCSHo,Bệnh viện Thẩm Mỹ Việt Mỹ,Thẩm mỹ viện,028 3838 9595,"Bệnh viện Thẩm Mỹ Việt Mỹ, 331 Đ. Nguyễn Trãi, Phường Nguyễn Cư Trinh, Quận 1, Thành phố Hồ Chí Minh","Phường Nguyễn Cư Trinh, Quận 1",331 Đ. Nguyễn Trãi,Thành phố Hồ Chí Minh,,"Quận 1, Thành phố Hồ Chí Minh",VN
67,ChIJedquCn0pdTERBHJDP_0CuSU,Viện thẩm mỹ Korea,Thẩm mỹ viện,0828 536 666,"Viện thẩm mỹ Korea, 149B Trương Định, P.9, Quận 3, Thành phố Hồ Chí Minh 71008","P.9, Quận 3",149B Trương Định,Thành phố Hồ Chí Minh,71008.0,"Quận 3, Thành phố Hồ Chí Minh",VN
68,ChIJhce23TaIoDERE1xa5WYpmqw,Thẩm Mỹ Viện Quốc Tế Aura,Thẩm mỹ viện,0833 082 222,"Thẩm Mỹ Viện Quốc Tế Aura, 207 Đ. 30 Tháng 4, Xuân Khánh, Ninh Kiều, Cần Thơ 900000","Xuân Khánh, Ninh Kiều",207 Đ. 30 Tháng 4,Cần Thơ,900000.0,"Ninh Kiều, Cần Thơ",VN
73,ChIJsxcs8oUvdTERTFKYDv0dxiY,Bệnh Viện Thẩm Mỹ Sao Hàn,Bệnh viện,1900 0045,"Bệnh Viện Thẩm Mỹ Sao Hàn, 781 C9 Đ. Lê Hồng Phong, Phường 12, Quận 10, Thành phố Hồ Chí Minh 70000","Phường 12, Quận 10",781 C9 Đ. Lê Hồng Phong,Thành phố Hồ Chí Minh,70000.0,"Quận 10, Thành phố Hồ Chí Minh",VN
74,ChIJgT_k7h-IoDERvxssFX1Hsdo,Viện Thẩm mỹ Kangnam Cần Thơ,Thẩm mỹ viện,0962 778 866,"Viện Thẩm mỹ Kangnam Cần Thơ, 28 Đ. Lý Tự Trọng, An Cư, Ninh Kiều, Cần Thơ 900000","An Cư, Ninh Kiều",28 Đ. Lý Tự Trọng,Cần Thơ,900000.0,"Ninh Kiều, Cần Thơ",VN
81,ChIJ-8uzlG0vdTERWH4ursveZPk,Thẩm Mỹ Viện Tấm,Thẩm mỹ viện,0966 605 600,"Thẩm Mỹ Viện Tấm, 98 Hoàng Trọng Mậu, Tân Hưng, Quận 7, Thành phố Hồ Chí Minh 700000","Tân Hưng, Quận 7",98 Hoàng Trọng Mậu,Thành phố Hồ Chí Minh,700000.0,"Quận 7, Thành phố Hồ Chí Minh",VN
88,ChIJDQY7dHYZVRARo_aP-kX9Bos,Thẩm Mỹ Viện Thu Minh,Thẩm mỹ viện,0292 3653 939,"Thẩm Mỹ Viện Thu Minh, 122 Đ. 30 Tháng 4, An Phú, Ninh Kiều, Cần Thơ","An Phú, Ninh Kiều",122 Đ. 30 Tháng 4,Cần Thơ,,"Ninh Kiều, Cần Thơ",VN
92,ChIJ3WO40T-JoDERVoQXGel_cbY,Huỳnh Như - Phun Xăm Thẩm Mỹ & Nối Mi,Thẩm mỹ viện,0945 167 986,"Huỳnh Như - Phun Xăm Thẩm Mỹ & Nối Mi, 8 Đ. Tô Hiến Thành, Phường An Khánh, Ninh Kiều, Cần Thơ","Phường An Khánh, Ninh Kiều",8 Đ. Tô Hiến Thành,Cần Thơ,,"Ninh Kiều, Cần Thơ",VN
95,ChIJ9bGDXdiJoDERS1FnOOGsGBY,Thẩm Mỹ Viện Quốc Tế Bắc Mỹ - TP Cần Thơ,Thẩm mỹ viện,0867 385 229,"Thẩm Mỹ Viện Quốc Tế Bắc Mỹ - TP Cần Thơ, 86B Hùng Vương, An Cư, Ninh Kiều, Cần Thơ 94000","An Cư, Ninh Kiều",86B Hùng Vương,Cần Thơ,94000.0,"Ninh Kiều, Cần Thơ",VN
102,ChIJh21_pXOJoDERanDvw8L41PU,Phòng khám Chuyên Khoa Thẩm Mỹ Việt Đức,Thẩm mỹ viện,0907 909 093,"Phòng khám Chuyên Khoa Thẩm Mỹ Việt Đức, 287A Nguyễn Văn Cừ Nối Dài, An Bình, Ninh Kiều, Cần Thơ","An Bình, Ninh Kiều",287A Nguyễn Văn Cừ Nối Dài,Cần Thơ,,"Ninh Kiều, Cần Thơ",VN
108,ChIJX8ZQ3gKIoDERQIF_hwumnGQ,Thẩm Mỹ Thái - Hàn Cần Thơ,Thẩm mỹ viện,0907 515 568,"Thẩm Mỹ Thái - Hàn Cần Thơ, Hẻm 54 Hùng Vương, Thới Bình, Ninh Kiều, Cần Thơ 94000","Thới Bình, Ninh Kiều",Hẻm 54 Hùng Vương,Cần Thơ,94000.0,"Ninh Kiều, Cần Thơ",VN
117,ChIJtRptgXWJoDERoLrZU_WEpiU,Phòng Khám Phẫu Thuật Thẩm Mỹ - Ths.Bs Nguyễn Trung Hiếu,Bác sĩ phẫu thuật thẩm mỹ,0939 331 357,"Phòng Khám Phẫu Thuật Thẩm Mỹ - Ths.Bs Nguyễn Trung Hiếu, 146 Đ. Trần Hưng Đạo, An Phú, Ninh Kiều, Cần Thơ 94000","An Phú, Ninh Kiều",146 Đ. Trần Hưng Đạo,Cần Thơ,94000.0,"Ninh Kiều, Cần Thơ",VN
128,ChIJ0cDQGo0vdTERwdSySyyQiLY,Bác Sĩ Nguyễn Tiến Huy - Thẩm mỹ Saigon Venus,Bác sĩ phẫu thuật thẩm mỹ,0846 302 233,"Bác Sĩ Nguyễn Tiến Huy - Thẩm mỹ Saigon Venus, 702/2 Đ. Sư Vạn Hạnh, Phường 12, Quận 10, Thành phố Hồ Chí Minh 72410","Phường 12, Quận 10",702/2 Đ. Sư Vạn Hạnh,Thành phố Hồ Chí Minh,72410.0,"Quận 10, Thành phố Hồ Chí Minh",VN
129,ChIJyftpk3CJoDERd_K7bjzneG4,Viện Thẩm Mỹ JANGMI - Cần Thơ,Thẩm mỹ viện,0793 998 966,"Viện Thẩm Mỹ JANGMI - Cần Thơ, 3a Đ. Trần Văn Hoài, Xuân Khánh, Ninh Kiều, Cần Thơ","Xuân Khánh, Ninh Kiều",3a Đ. Trần Văn Hoài,Cần Thơ,,"Ninh Kiều, Cần Thơ",VN
136,ChIJq-BWHT8vdTERH6v6kauA5K0,Thẩm mỹ Dr.Nose,Thẩm mỹ viện,0903 667 375,"Thẩm mỹ Dr.Nose, 147 Đ. Nhật Tảo, Phường 8, Quận 10, Thành phố Hồ Chí Minh 11183","Phường 8, Quận 10",147 Đ. Nhật Tảo,Thành phố Hồ Chí Minh,11183.0,"Quận 10, Thành phố Hồ Chí Minh",VN
137,ChIJ-9B8yjWIoDERl9k7VC6dWfE,"THIẾT BỊ, DỤNG CỤ, VẬT TƯ Y KHOA - NHA KHOA - THẨM MỸ TÍN",Nhóm y khoa,0939 940 366,"THIẾT BỊ, DỤNG CỤ, VẬT TƯ Y KHOA - NHA KHOA - THẨM MỸ TÍN, 110A Đ. 3 Tháng 2, Hưng Lợi, Ninh Kiều, Cần Thơ","Hưng Lợi, Ninh Kiều",110A Đ. 3 Tháng 2,Cần Thơ,,"Ninh Kiều, Cần Thơ",VN
140,ChIJGVFdH1mJoDERb7bGFuLLl28,Viện Thẩm Mỹ Mayo Clinic - Cần Thơ,Thẩm mỹ viện,0328 115 724,"Viện Thẩm Mỹ Mayo Clinic - Cần Thơ, 727 Đ. Nguyễn Văn Cừ, Phường An Khánh, Ninh Kiều, Cần Thơ","Phường An Khánh, Ninh Kiều",727 Đ. Nguyễn Văn Cừ,Cần Thơ,,"Ninh Kiều, Cần Thơ",VN
144,ChIJ9QPfoDaIoDERzOqCnSwo-eY,Viện Thẩm Mỹ Quốc Tế Dencos Luxury Cần Thơ,Thẩm mỹ viện,0907 888 836,"Viện Thẩm Mỹ Quốc Tế Dencos Luxury Cần Thơ, 357 Hẻm 558 -30/4, Hưng Lợi, Ninh Kiều, Cần Thơ","Hưng Lợi, Ninh Kiều",357 Hẻm 558 -30/4,Cần Thơ,,"Ninh Kiều, Cần Thơ",VN
147,ChIJYQPRZKeJoDERq9vxXH57Jpw,Phun Xăm Thẩm Mỹ Ngọc Duyên,Thẩm mỹ viện,0947 218 335,"2QWF+QJ2 Phun Xăm Thẩm Mỹ Ngọc Duyên, 54/22B Đ. Trần Việt Châu, Thới Bình, Ninh Kiều, Cần Thơ","Thới Bình, Ninh Kiều","2QWF+QJ2, 54/22B Đ. Trần Việt Châu",Cần Thơ,,"Ninh Kiều, Cần Thơ",VN
148,ChIJT1h0N2OJoDERi1Xu0YPjZCQ,Viện thẩm mỹ Quốc tế Hoàn Mỹ,Thẩm mỹ viện,0939 607 766,"Viện thẩm mỹ Quốc tế Hoàn Mỹ, 15B Đ. Mậu Thân, Xuân Khánh, Ninh Kiều, Cần Thơ 90000","Xuân Khánh, Ninh Kiều",15B Đ. Mậu Thân,Cần Thơ,90000.0,"Ninh Kiều, Cần Thơ",VN
149,ChIJGU2e5waJoDERfvJgIVqBIPo,Thẩm Mỹ Ngọc Duyên,Thẩm mỹ viện,0947 218 335,"Thẩm Mỹ Ngọc Duyên, Hẻm 107, 62/9 Hoàng Văn Thụ, An Cư, Ninh Kiều, Cần Thơ 94000","An Cư, Ninh Kiều","Hẻm 107, 62/9 Hoàng Văn Thụ",Cần Thơ,94000.0,"Ninh Kiều, Cần Thơ",VN
151,ChIJi8brO0GJoDEROf_hbUxUTF4,Thẩm Mỹ Haneul Cần Thơ,Thẩm mỹ viện,0832 516 555,"Thẩm Mỹ Haneul Cần Thơ, Số 207 Đường 30/4, An Phú, Ninh Kiều, Cần Thơ 900000","An Phú, Ninh Kiều",Số 207 Đường 30/4,Cần Thơ,900000.0,"Ninh Kiều, Cần Thơ",VN
152,ChIJe5rQ6TmJoDERZEkOiea7iys,Thẩm Mỹ Viện Quốc Tế Bắc Mỹ - TP Cần Thơ,Spa,0985 702 086,"Thẩm Mỹ Viện Quốc Tế Bắc Mỹ - TP Cần Thơ, 86B Hùng Vương, An Cư, Ninh Kiều, Cần Thơ","An Cư, Ninh Kiều",86B Hùng Vương,Cần Thơ,,"Ninh Kiều, Cần Thơ",VN
170,ChIJ4fp_MO-JoDERmzqKXAV0Zy8,Thẩm mỹ Mộc Thanh Clinic & Spa,Thẩm mỹ viện,0292 3886 686,"Thẩm mỹ Mộc Thanh Clinic & Spa, Số 40 Đường B24, Khu dân cư 91B, Ninh Kiều, Cần Thơ","Khu dân cư 91B, Ninh Kiều",Số 40 Đường B24,Cần Thơ,,"Ninh Kiều, Cần Thơ",VN
173,ChIJeZthgqGJoDER1ZPMwEuSJAU,SPa Phan Thắm - Phun Xâm Thẩm Mĩ,Thẩm mỹ viện,0947 598 878,"SPa Phan Thắm - Phun Xâm Thẩm Mĩ, 88 Ngô Sĩ Liên, Hưng Lợi, Ninh Kiều, Cần Thơ","Hưng Lợi, Ninh Kiều",88 Ngô Sĩ Liên,Cần Thơ,,"Ninh Kiều, Cần Thơ",VN
174,ChIJ9w7taiuJoDERmciPwChKVEA,Viện Thẩm Mỹ MARU,Thẩm mỹ viện,0767 931 234,"Viện Thẩm Mỹ MARU, 146E Đ. Trần Văn Hoài, Xuân Khánh, Ninh Kiều, Cần Thơ","Xuân Khánh, Ninh Kiều",146E Đ. Trần Văn Hoài,Cần Thơ,,"Ninh Kiều, Cần Thơ",VN
192,ChIJC4Tyq3djoDER-OyyB5B-Tvo,Thẩm mỹ viện Bích Phượng,Thẩm mỹ viện,0906 601 605,"Thẩm mỹ viện Bích Phượng, 26-24-22 Trần Văn Khéo, An Hội, Ninh Kiều, Cần Thơ","An Hội, Ninh Kiều",26-24-22 Trần Văn Khéo,Cần Thơ,,"Ninh Kiều, Cần Thơ",VN
194,ChIJ9UReBNWJoDERvRhL7vcmbjI,VIỆN THẨM MỸ HD,Thẩm mỹ viện,0981 620 602,"VIỆN THẨM MỸ HD, Số 74 Đ. 3 Tháng 2, Xuân Khánh, Ninh Kiều, Cần Thơ","Xuân Khánh, Ninh Kiều",Số 74 Đ. 3 Tháng 2,Cần Thơ,,"Ninh Kiều, Cần Thơ",VN
195,ChIJ39w-C86JoDERgnYPeputeDI,Viện Thẩm Mỹ HD Luxury Beauty Center,Thẩm mỹ viện,0978 067 133,"Viện Thẩm Mỹ HD Luxury Beauty Center, 180C Đ. Mạc Thiên Tích, Xuân Khánh, Ninh Kiều, Cần Thơ","Xuân Khánh, Ninh Kiều",180C Đ. Mạc Thiên Tích,Cần Thơ,,"Ninh Kiều, Cần Thơ",VN
205,ChIJST_kcI6JoDERp4KNQPLyCMY,PHÒNG KHÁM PHẪU THUẬT THẨM MỸ UY TÍN HÀNG ĐẦU TẠI CẦN THƠ - PHẪU THUẬT THẨM MỸ PHÚ LÂM,Thẩm mỹ viện,0913 759 959,"PHÒNG KHÁM PHẪU THUẬT THẨM MỸ UY TÍN HÀNG ĐẦU TẠI CẦN THƠ - PHẪU THUẬT THẨM MỸ PHÚ LÂM, 47 Đ. Lý Chính Thắng, Hưng Lợi, Ninh Kiều, Cần Thơ 900000","Hưng Lợi, Ninh Kiều",47 Đ. Lý Chính Thắng,Cần Thơ,900000.0,"Ninh Kiều, Cần Thơ",VN
207,ChIJCX3ThIaJoDERDSnx99dPtNI,Viện Thẩm Mỹ CÁT TIÊN By Trâm Nguyễn,Thẩm mỹ viện,0888 186 681,"Viện Thẩm Mỹ CÁT TIÊN By Trâm Nguyễn, 22b Đ. Trần Hoàng Na, Khu dân cư hàng bàng, Ninh Kiều, Cần Thơ","Khu dân cư hàng bàng, Ninh Kiều",22b Đ. Trần Hoàng Na,Cần Thơ,,"Ninh Kiều, Cần Thơ",VN
209,ChIJq8xxz0mIoDERGDLBjWJho7o,Công Ty Cổ Phần Thẩm Mỹ Viện Aura,Thẩm mỹ viện,,"Công Ty Cổ Phần Thẩm Mỹ Viện Aura, 172A Hẻm 132 Đ. 3 Tháng 2, Hưng Lợi, Ninh Kiều, Cần Thơ 900000","Hưng Lợi, Ninh Kiều",172A Hẻm 132 Đ. 3 Tháng 2,Cần Thơ,900000.0,"Ninh Kiều, Cần Thơ",VN
217,ChIJw8Dk3V2JoDERi_MzZxdprNI,Trung Tâm Thẩm Mỹ Y Khoa Meraki,Thẩm mỹ viện,0367 003 005,"Trung Tâm Thẩm Mỹ Y Khoa Meraki, 444 446 Đ. 30 Tháng 4, Hưng Lợi, Ninh Kiều, Cần Thơ 94116","Hưng Lợi, Ninh Kiều",444 446 Đ. 30 Tháng 4,Cần Thơ,94116.0,"Ninh Kiều, Cần Thơ",VN
223,ChIJtV2J_HaJoDERlYeOl11aH_o,THẨM MỸ GANG NAM SG,Thẩm mỹ viện,0522 333 345,"THẨM MỸ GANG NAM SG, 52 Khu dân cư Hồng Loan, Hưng Thành, Cái Răng, Cần Thơ 90000","Hưng Thành, Cái Răng",52 Khu dân cư Hồng Loan,Cần Thơ,90000.0,"Cái Răng, Cần Thơ",VN
231,ChIJb-YCoCUvdTER9mFaGws2gME,Bác sĩ Chiêm Quốc Thái,Thẩm mỹ viện,0942 757 888,"Bác sĩ Chiêm Quốc Thái, 331 Đ. Nguyễn Trãi, Phường Nguyễn Cư Trinh, Quận 1, Thành phố Hồ Chí Minh 700000","Phường Nguyễn Cư Trinh, Quận 1",331 Đ. Nguyễn Trãi,Thành phố Hồ Chí Minh,700000.0,"Quận 1, Thành phố Hồ Chí Minh",VN
238,ChIJncDGzKNioDERBPc_tAGbPgU,Thẩm Mỹ Viện IIC,Thẩm mỹ viện,0909 098 669,"Thẩm Mỹ Viện IIC, 03 Ngô Gia Tự, Tân An, Ninh Kiều, Cần Thơ","Tân An, Ninh Kiều",03 Ngô Gia Tự,Cần Thơ,,"Ninh Kiều, Cần Thơ",VN
243,ChIJ301JH_CvCjERXGq5-tAU_5U,Thẩm Mỹ Thanh My,Thẩm mỹ viện,0273 6250 245,"Thẩm Mỹ Thanh My, 402 Trần Hưng Đạo, Phường 5, Thành phố Mỹ Tho, Tiền Giang","Phường 5, Thành phố Mỹ Tho",402 Trần Hưng Đạo,Tiền Giang,,"Thành phố Mỹ Tho, Tiền Giang",VN
249,ChIJjVQhMEaJoDERHp_g6L6phgI,THẨM MỸ VIỆN QUỐC TẾ YENA CẦN THƠ,Thẩm mỹ viện,0932 811 885,"THẨM MỸ VIỆN QUỐC TẾ YENA CẦN THƠ, 69 Đ. Mậu Thân, An Nghiệp, Ninh Kiều, Cần Thơ","An Nghiệp, Ninh Kiều",69 Đ. Mậu Thân,Cần Thơ,,"Ninh Kiều, Cần Thơ",VN
256,ChIJp5FeNx-IoDERQDfGfg69FgU,Thẩm Mỹ Hồng Đào Allegra,Thẩm mỹ viện,0979 088 882,"Thẩm Mỹ Hồng Đào Allegra, 110A Hùng Vương, An Cư, Ninh Kiều, Cần Thơ 900000","An Cư, Ninh Kiều",110A Hùng Vương,Cần Thơ,900000.0,"Ninh Kiều, Cần Thơ",VN
265,ChIJtw63LIiJoDERl0Ih29lF6ZU,Viện Thẩm Mỹ Cát Tiên By Trâm Nguyễn,Thẩm mỹ viện,0888 186 681,"Viện Thẩm Mỹ Cát Tiên By Trâm Nguyễn, 209 Đ. 30 Tháng 4, Xuân Khánh, Ninh Kiều, Cần Thơ","Xuân Khánh, Ninh Kiều",209 Đ. 30 Tháng 4,Cần Thơ,,"Ninh Kiều, Cần Thơ",VN
269,ChIJIekcq4CJoDERNmU9b-FztC4,Viện Thẩm Mỹ YOUNG BEAUTY,Thẩm mỹ viện,0901 011 516,"Viện Thẩm Mỹ YOUNG BEAUTY, 40d Đ. Trần Hoàng Na, Hưng Lợi, Ninh Kiều, Cần Thơ","Hưng Lợi, Ninh Kiều",40d Đ. Trần Hoàng Na,Cần Thơ,,"Ninh Kiều, Cần Thơ",VN
272,ChIJ5YBd_bCJoDERlq7M9wUBpHo,Thẩm Mỹ Ngọc Khởi,Thẩm mỹ viện,0939 013 907,"Thẩm Mỹ Ngọc Khởi, 161 Đ. Phạm Hùng, Lê Bình, Cái Răng, Cần Thơ","Lê Bình, Cái Răng",161 Đ. Phạm Hùng,Cần Thơ,,"Cái Răng, Cần Thơ",VN
277,ChIJgdM1XueJoDERWmtD6VHdPuo,VIỆN THẨM MỸ JINHI,Thẩm mỹ viện,0916 867 169,"VIỆN THẨM MỸ JINHI, 89 Đ. Mạc Thiên Tích, Xuân Khánh, Ninh Kiều, Cần Thơ","Xuân Khánh, Ninh Kiều",89 Đ. Mạc Thiên Tích,Cần Thơ,,"Ninh Kiều, Cần Thơ",VN
280,ChIJp0cR7V6JoDERZmSydF20dr4,Thẩm mỹ viện Thu Anh,Thẩm mỹ viện,0968 321 992,"Thẩm mỹ viện Thu Anh, 110 Đ. Trần Hoàng Na, Khu dân cư 91B, Ninh Kiều, Cần Thơ 94000","Khu dân cư 91B, Ninh Kiều",110 Đ. Trần Hoàng Na,Cần Thơ,94000.0,"Ninh Kiều, Cần Thơ",VN
285,ChIJbxzAKP5joDERGTOolBlOYZQ,Thẩm Mỹ Khánh Mee Beauty,Thẩm mỹ viện,0966 512 277,"Thẩm Mỹ Khánh Mee Beauty, 138a Đường Nguyễn An Ninh, Tân An, Ninh Kiều, Cần Thơ","Tân An, Ninh Kiều",138a Đường Nguyễn An Ninh,Cần Thơ,,"Ninh Kiều, Cần Thơ",VN
287,ChIJ4ej3UcKJoDERMJ-H_ulPmmg,thẩm mỹ viện nguyên chu,Thẩm mỹ viện,0345 382 825,"thẩm mỹ viện nguyên chu, 511a Trần Hưng Đạo, Lê Bình, Cái Răng, Cần Thơ","Lê Bình, Cái Răng",511a Trần Hưng Đạo,Cần Thơ,,"Cái Răng, Cần Thơ",VN
288,ChIJWS3NDCWIoDER_k4T4kt_fd8,Thẩm Mỹ Viện,Thẩm mỹ viện,0292 3783 387,"Thẩm Mỹ Viện, 310 Đ. 30 Tháng 4, Xuân Khánh, Ninh Kiều, Cần Thơ","Xuân Khánh, Ninh Kiều",310 Đ. 30 Tháng 4,Cần Thơ,,"Ninh Kiều, Cần Thơ",VN
294,ChIJM5pLaoaJoDERwpKRqd4qWTU,Thẩm mỹ viện VICY,Thẩm mỹ viện,0966 660 046,"2QC9+3V5 Thẩm mỹ viện VICY, Hưng Lợi, Ninh Kiều, Cần Thơ","Hưng Lợi, Ninh Kiều",2QC9+3V5,Cần Thơ,,"Ninh Kiều, Cần Thơ",VN
299,ChIJb7iGnPhjoDER0Wg0Q8iN3pY,Angel Beauty,Thẩm mỹ viện,0938 669 004,"Angel Beauty, 131 Trần Văn Khéo, Cái Khế, Ninh Kiều, Cần Thơ 700000","Cái Khế, Ninh Kiều",131 Trần Văn Khéo,Cần Thơ,700000.0,"Ninh Kiều, Cần Thơ",VN
302,ChIJLa7NF-KJoDERASGUa8cXF-E,Thẩm Mỹ HeaVen,Thẩm mỹ viện,0987 170 868,"Thẩm Mỹ HeaVen, 32 Đ. Trần Hoàng Na, Phường An Khánh, Ninh Kiều, Cần Thơ","Phường An Khánh, Ninh Kiều",32 Đ. Trần Hoàng Na,Cần Thơ,,"Ninh Kiều, Cần Thơ",VN
303,ChIJV7_FlEeIoDER9h-H_AEyDcY,Viện Thẩm Mỹ Việt Đức,Thẩm mỹ viện,0907 009 093,"2PHX+4QW Viện Thẩm Mỹ Việt Đức, Đ. Nguyễn Hiền, Khu dân cư 91B, Ninh Kiều, Cần Thơ","Khu dân cư 91B, Ninh Kiều","2PHX+4QW, Đ. Nguyễn Hiền",Cần Thơ,,"Ninh Kiều, Cần Thơ",VN
313,ChIJ4UZAKBmIoDERN7zfzXVz8U4,Thẩm Mỹ Viện Kim Linh,Thẩm mỹ viện,0292 6292 144,"Thẩm Mỹ Viện Kim Linh, 11 Đường A1, Cái Khế, Ninh Kiều, Cần Thơ","Cái Khế, Ninh Kiều",11 Đường A1,Cần Thơ,,"Ninh Kiều, Cần Thơ",VN
314,ChIJ_XJYZQ-IoDERJYeaavf9Dig,Thẩm Mỹ Kim Thanh,Thẩm mỹ viện,0939 992 646,"Thẩm Mỹ Kim Thanh, 233 Đ. Nguyễn Văn Cừ, An Hoà, Ninh Kiều, Cần Thơ","An Hoà, Ninh Kiều",233 Đ. Nguyễn Văn Cừ,Cần Thơ,,"Ninh Kiều, Cần Thơ",VN
315,ChIJPZ9lJR2IoDERAgnR7yqJKxQ,Thẩm Mỹ Thủy,Thẩm mỹ viện,0292 3826 437,"Thẩm Mỹ Thủy, 1 Hẻm 8 Đinh Tiên Hoàng, An Hội, Ninh Kiều, Cần Thơ","An Hội, Ninh Kiều",1 Hẻm 8 Đinh Tiên Hoàng,Cần Thơ,,"Ninh Kiều, Cần Thơ",VN
318,ChIJJf0Zzp1ioDERgbFx3Klpm28,Thẩm Mỹ Phương Anh,Thẩm mỹ viện,7105460584,"Thẩm Mỹ Phương Anh, 38 Nguyễn Thị Minh Khai, Tân An, Ninh Kiều, Cần Thơ","Tân An, Ninh Kiều",38 Nguyễn Thị Minh Khai,Cần Thơ,,"Ninh Kiều, Cần Thơ",VN
329,ChIJGWxDRQCJoDERKiXU2rWgCNw,Viện Thẩm Mỹ Lavio,Thẩm mỹ viện,0899 978 968,"Viện Thẩm Mỹ Lavio, Số 11 đường D4, Khu Dân Cư Đại Ngân, p, Ninh Kiều, Cần Thơ","Khu Dân Cư Đại Ngân, p, Ninh Kiều",Số 11 đường D4,Cần Thơ,,"Ninh Kiều, Cần Thơ",VN
331,ChIJq4iX1Q6IoDER8e0AHH7ExaY,Thẩm Mỹ NA Beauty & Clinic,Thẩm mỹ viện,0779 141 000,"Thẩm Mỹ NA Beauty & Clinic, Hẻm 188 Đ. Nguyễn Văn Cừ, An Hoà, Ninh Kiều, Cần Thơ","An Hoà, Ninh Kiều",Hẻm 188 Đ. Nguyễn Văn Cừ,Cần Thơ,,"Ninh Kiều, Cần Thơ",VN
338,ChIJ36iMHjCIoDERtfzae9cG_EE,Viện Thẩm Mỹ Công Nghệ Cao Cosmo,Thẩm mỹ viện,1900 636425,"Viện Thẩm Mỹ Công Nghệ Cao Cosmo, 357 Đ. 30 Tháng 4, Xuân Khánh, Ninh Kiều, Cần Thơ 902241","Xuân Khánh, Ninh Kiều",357 Đ. 30 Tháng 4,Cần Thơ,902241.0,"Ninh Kiều, Cần Thơ",VN
342,ChIJbUVV8riJoDERyk9A8GPvX7E,Beauty Salon TRINH,Thẩm mỹ viện,,"Beauty Salon TRINH, 374 Lê Bình, Cái Răng, Cần Thơ","Lê Bình, Cái Răng",374 Lê Bình,Cần Thơ,,"Cái Răng, Cần Thơ",VN
343,ChIJezXPVjOIoDERqRgou33mfcc,Cửa Hàng Thẩm Mỹ Viện Mỹ Trinh,Thẩm mỹ viện,0907 706 779,"Cửa Hàng Thẩm Mỹ Viện Mỹ Trinh, 151/26A, Đường Trần Hoàng Na, Quận Ninh Kiều, Tp Cần Thơ, Hưng Lợi, Ninh Kiều, Cần Thơ","Hưng Lợi, Ninh Kiều","151/26A, Đường Trần Hoàng Na, Quận Ninh Kiều, Tp Cần Thơ",Cần Thơ,,"Ninh Kiều, Cần Thơ",VN
345,ChIJT_NlTUuIoDEREa0qlKA9lmY,Phuong Beauty Salon,Tiệm chăm sóc móng,0292 3847 440,"Phuong Beauty Salon, 110/3, Highway 1A, An Binh Ward, Ninh Kieu District, Can Tho City, Hưng Lợi, Ninh Kiều, Cần Thơ","Hưng Lợi, Ninh Kiều","110/3, Highway 1A, An Binh Ward, Ninh Kieu District, Can Tho City",Cần Thơ,,"Ninh Kiều, Cần Thơ",VN
350,ChIJ9boLEqmJoDERz4-0m81cp2o,Thẩm Mỹ Viện Việt Á,Thẩm mỹ viện,,"Thẩm Mỹ Viện Việt Á, 201 Đ. 3 Tháng 2, Hưng Lợi, Ninh Kiều, Cần Thơ","Hưng Lợi, Ninh Kiều",201 Đ. 3 Tháng 2,Cần Thơ,,"Ninh Kiều, Cần Thơ",VN
353,ChIJsSjW5T2JoDERhQ9yOCFz_FA,Thẩm Mỹ Viện Quốc Tế Hayon,Thẩm mỹ viện,0704 830 999,"Thẩm Mỹ Viện Quốc Tế Hayon, 150 Đ. Trần Văn Hoài, Xuân Khánh, Ninh Kiều, Cần Thơ","Xuân Khánh, Ninh Kiều",150 Đ. Trần Văn Hoài,Cần Thơ,,"Ninh Kiều, Cần Thơ",VN
363,ChIJI-na7ByIoDERhHVIsT--AIQ,Thẩm Mỹ Viện Kiều Trang,Thẩm mỹ viện,0939 709 199,"Thẩm Mỹ Viện Kiều Trang, 132C Hùng Vương, An Cư, Ninh Kiều, Cần Thơ","An Cư, Ninh Kiều",132C Hùng Vương,Cần Thơ,,"Ninh Kiều, Cần Thơ",VN
364,ChIJf7tJ8geIoDERY-d5zMof-Vw,Thẩm Mỹ Jenny Hải Yến,Thẩm mỹ viện,,"Thẩm Mỹ Jenny Hải Yến, Ninh Kiều, Cần Thơ",Ninh Kiều,,Cần Thơ,,"Ninh Kiều, Cần Thơ",VN
365,ChIJgWja-nqJoDERD9VXT6oAYkE,Trung Tâm Thẩm Mỹ KIM KHUYÊN,Thẩm mỹ viện,0867 891 800,"Trung Tâm Thẩm Mỹ KIM KHUYÊN, Số 228J, Đ. Trần Hưng Đạo, An Cư, Ninh Kiều, Cần Thơ 900000","An Cư, Ninh Kiều","Số 228J, Đ. Trần Hưng Đạo",Cần Thơ,900000.0,"Ninh Kiều, Cần Thơ",VN
366,ChIJ658k4PuHoDERm_Z1-YXxi14,"Phun Thêu, Điêu Khắc, Thẩm Mỹ Phương Linh",Thẩm mỹ viện,,"3Q6G+GF2 Phun Thêu, Điêu Khắc, Thẩm Mỹ Phương Linh, Đường Số 12A, Cái Khế, Ninh Kiều, Cần Thơ","Cái Khế, Ninh Kiều","3Q6G+GF2, Đường Số 12A",Cần Thơ,,"Ninh Kiều, Cần Thơ",VN
367,ChIJ8WREWcxjoDER2cSGdF4loN0,Thẩm Mỹ Viện Song Ngọc - Cần Thơ,Thẩm mỹ viện,0292 3659 678,"Thẩm Mỹ Viện Song Ngọc - Cần Thơ, 73 Đ. Trần Đại Nghĩa, Cái Khế, Ninh Kiều, Cần Thơ","Cái Khế, Ninh Kiều",73 Đ. Trần Đại Nghĩa,Cần Thơ,,"Ninh Kiều, Cần Thơ",VN
368,ChIJTfBqxqljoDERwf5K6CFd75Q,PHUN XĂM THẨM MỸ TRANG KIM,Thẩm mỹ viện,,"PHUN XĂM THẨM MỸ TRANG KIM, 1/46 Cầu Ninh Kiều, Tân An, Ninh Kiều, Cần Thơ","Tân An, Ninh Kiều",1/46 Cầu Ninh Kiều,Cần Thơ,,"Ninh Kiều, Cần Thơ",VN
369,ChIJtwqC-aZioDERJ6Cb6a7hf3c,Tiệm Thẩm Mỹ Viện Thành,Thẩm mỹ viện,0918 785 012,"Tiệm Thẩm Mỹ Viện Thành, 22, Đường Nguyễn Trãi, Tân An, Ninh Kiều, Cần Thơ","Tân An, Ninh Kiều","22, Đường Nguyễn Trãi",Cần Thơ,,"Ninh Kiều, Cần Thơ",VN
370,ChIJx5xhggKIoDERNj51uJ_PCPw,Thẫm Mỹ Viện Cẩm Vinh,Thẩm mỹ viện,0906 715 678,"Thẫm Mỹ Viện Cẩm Vinh, 85B1, Ung Văn Khiêm, Quận Ninh Kiều, Tp Cần Thơ, An Hội, Ninh Kiều, Cần Thơ","An Hội, Ninh Kiều","85B1, Ung Văn Khiêm, Quận Ninh Kiều, Tp Cần Thơ",Cần Thơ,,"Ninh Kiều, Cần Thơ",VN
371,ChIJv3aSfN-JoDERTuLaQk8woNE,Viện Phẫu Thuật Thẩm Mỹ Nguyễn Du Cần Thơ - BS Huỳnh Mai,Thẩm mỹ viện,0909 656 518,"Viện Phẫu Thuật Thẩm Mỹ Nguyễn Du Cần Thơ - BS Huỳnh Mai, 48 Đ. Phan Văn Trị, An Phú, Ninh Kiều, Cần Thơ 900000","An Phú, Ninh Kiều",48 Đ. Phan Văn Trị,Cần Thơ,900000.0,"Ninh Kiều, Cần Thơ",VN
372,ChIJg82-yx-IoDERi7Pm10riod0,Viện Thẩm Mỹ Cali,Thẩm mỹ viện,0944 844 300,"Viện Thẩm Mỹ Cali, 58 Đ. Lý Tự Trọng, An Cư, Ninh Kiều, Cần Thơ","An Cư, Ninh Kiều",58 Đ. Lý Tự Trọng,Cần Thơ,,"Ninh Kiều, Cần Thơ",VN
374,ChIJPRYbSxyIoDERWpeiP75-Zb0,Minh Trang Hair Beauty Salon - Massage,Thẩm mỹ viện,0292 3735 665,"Minh Trang Hair Beauty Salon - Massage, 137 Hoàng Văn Thụ, An Cư, Ninh Kiều, Cần Thơ","An Cư, Ninh Kiều",137 Hoàng Văn Thụ,Cần Thơ,,"Ninh Kiều, Cần Thơ",VN
375,ChIJoXiwKhyIoDERebf-gGKbzZY,Tiệm Thẩm Mỹ Ake2,Tiệm chăm sóc móng,0939 000 930,"Tiệm Thẩm Mỹ Ake2, 32/40, Đường Huỳnh Cương, Quận Ninh Kiều, An Cư, Ninh Kiều, Cần Thơ","An Cư, Ninh Kiều","32/40, Đường Huỳnh Cương, Quận Ninh Kiều",Cần Thơ,,"Ninh Kiều, Cần Thơ",VN
377,ChIJ74aIHAOIoDERGcB6YDzt7zs,Thẩm Mỹ Viện Hồng Nhung,Thẩm mỹ viện,0939 494 641,"Thẩm Mỹ Viện Hồng Nhung, 34/28A Đ. Bà Huyện Thanh Quan, Thới Bình, Ninh Kiều, Cần Thơ","Thới Bình, Ninh Kiều",34/28A Đ. Bà Huyện Thanh Quan,Cần Thơ,,"Ninh Kiều, Cần Thơ",VN
378,ChIJVzww7qdioDER3kFZXEyOwIs,Hoai Anh Beauty Care Center,Thẩm mỹ viện,0909 663 338,"Hoai Anh Beauty Care Center, 2A Nguyễn Trãi, An Hội, Ninh Kiều, Cần Thơ","An Hội, Ninh Kiều",2A Nguyễn Trãi,Cần Thơ,,"Ninh Kiều, Cần Thơ",VN
381,ChIJMxy2qQOIoDERowxsVRF6a1o,New Life Spa Beauty Salon,Thẩm mỹ viện,0292 3893 654,"New Life Spa Beauty Salon, 9, Cach Mang Thang 8 Street, Thoi Binh District, Can Tho City, Thới Bình, Ninh Kiều, Cần Thơ","Thới Bình, Ninh Kiều","9, Cach Mang Thang 8 Street, Thoi Binh District, Can Tho City",Cần Thơ,,"Ninh Kiều, Cần Thơ",VN
382,ChIJsUoGf9-JoDERNEhAJOEyoa4,PHUN XĂM THẨM MỸ TRANG KIM,Thẩm mỹ viện,0901 219 718,"PHUN XĂM THẨM MỸ TRANG KIM, 13, Đ. Đinh Tiên Hoàng/8B Nguyễn Trãi, An Hội, Ninh Kiều, Cần Thơ","An Hội, Ninh Kiều","13, Đ. Đinh Tiên Hoàng/8B Nguyễn Trãi",Cần Thơ,,"Ninh Kiều, Cần Thơ",VN
401,ChIJcyAUqh6IoDERg10n_IB4CRU,Thẩm Mỹ Viện Thanh Hằng,Thẩm mỹ viện,,"Thẩm Mỹ Viện Thanh Hằng, 67 Đ. Trần Hưng Đạo, An Cư, Ninh Kiều, Cần Thơ 900000","An Cư, Ninh Kiều",67 Đ. Trần Hưng Đạo,Cần Thơ,900000.0,"Ninh Kiều, Cần Thơ",VN
409,ChIJKRwuFR2IoDERi4MhxrtzjaU,Tiệm Trang Điểm Mỹ Xuyên,Thẩm mỹ viện,0292 3826 894,"Tiệm Trang Điểm Mỹ Xuyên, 2B, Đinh Tiên Hoàng, Quận Ninh Kiều, Tp Cần Thơ","An Hội, Ninh Kiều","2B, Đinh Tiên Hoàng, Quận Ninh Kiều, Tp Cần Thơ",Cần Thơ,,"Ninh Kiều, Cần Thơ",VN
414,ChIJ_3b7uQ-IoDERD9I_7B9lBLg,Thẩm Mỹ Thảo Vy,Thẩm mỹ viện,,"Thẩm Mỹ Thảo Vy, An Hòa, Ninh Kiều, Cần Thơ","An Hòa, Ninh Kiều",,Cần Thơ,,"Ninh Kiều, Cần Thơ",VN
415,ChIJg216txGIoDERMLF4yGR6kpI,Tiệm Thẩm Mỹ Viện Diệu Linh,Thẩm mỹ viện,0292 3731 319,"Tiệm Thẩm Mỹ Viện Diệu Linh, 25A, Mậu Thân, Quận Ninh Kiều, TP Cần Thơ, An Hoà, Ninh Kiều, Cần Thơ","An Hoà, Ninh Kiều","25A, Mậu Thân, Quận Ninh Kiều, TP Cần Thơ",Cần Thơ,,"Ninh Kiều, Cần Thơ",VN
416,ChIJtUuUS96HoDERek_-LV4_Qdg,Tiệm Phun Xăm Thẩm Mỹ Lê An,Thẩm mỹ viện,0834 509 068,"Tiệm Phun Xăm Thẩm Mỹ Lê An, 463 Trần Quang Diệu, An Thới, Bình Thủy, Cần Thơ","An Thới, Bình Thủy",463 Trần Quang Diệu,Cần Thơ,,"Bình Thủy, Cần Thơ",VN
418,ChIJ0T5gkCSJoDERFvn44FKeQWg,Viện thẩm mỹ và đào tạo Logi,Thẩm mỹ viện,0292 3943 334,"Viện thẩm mỹ và đào tạo Logi, 168A Đ. Nguyễn Tri Phương, Phường An Khánh, Ninh Kiều, Cần Thơ 94000","Phường An Khánh, Ninh Kiều",168A Đ. Nguyễn Tri Phương,Cần Thơ,94000.0,"Ninh Kiều, Cần Thơ",VN
420,ChIJ-9sh8drliygRnMiSuWbZrks,"Thẩm Mỹ Viện Chuyên Nâng Mũi, Cắt Mắt",Thẩm mỹ viện,0925 397 303,,,,,,,
421,ChIJqxBVz-2JoDERH2VDHQgZP1E,Phun Xăm Cần Thơ Thẩm Mỹ Quyên - Viện Giảng Dạy,Thẩm mỹ viện,0788 771 689,"Phun Xăm Cần Thơ Thẩm Mỹ Quyên - Viện Giảng Dạy, 72 Đường số 23, khu dân cư Thới Nhựt 1, Ninh Kiều, Cần Thơ","khu dân cư Thới Nhựt 1, Ninh Kiều",72 Đường số 23,Cần Thơ,,"Ninh Kiều, Cần Thơ",VN
423,ChIJPdp9HA2IoDERcPYSDhGK4j0,Thẩm Mỹ Hoa Hồng,Thẩm mỹ viện,1666 186334,"Thẩm Mỹ Hoa Hồng, 218 Võ Văn Kiệt, An Hoà, Ninh Kiều, Cần Thơ","An Hoà, Ninh Kiều",218 Võ Văn Kiệt,Cần Thơ,,"Ninh Kiều, Cần Thơ",VN
428,ChIJP55hw66JoDERH0KiMG6MoYc,Phẫu thuật thẩm mỹ DR.CHANGE,Thẩm mỹ viện,0907 479 706,"Phẫu thuật thẩm mỹ DR.CHANGE, 136 Trần Bạch Đằng, Phường An Khánh, Ninh Kiều, Cần Thơ","Phường An Khánh, Ninh Kiều",136 Trần Bạch Đằng,Cần Thơ,,"Ninh Kiều, Cần Thơ",VN
431,ChIJI0yGyUOIoDERzGSG45cqeyY,Thẩm Mỹ Thanh Xuân- Cần Thơ,Thẩm mỹ viện,0939 462 465,"Thẩm Mỹ Thanh Xuân- Cần Thơ, 9B, Khu Dân Cư Hồng Phát, Đường số 8, Phường An Khánh, Ninh Kiều, Cần Thơ","Phường An Khánh, Ninh Kiều","9B, Khu Dân Cư Hồng Phát, Đường số 8",Cần Thơ,,"Ninh Kiều, Cần Thơ",VN
434,ChIJlcTVjBGJoDER5NwaZYXDPtA,NGÂN BEAUTY SPA - Phun Xăm Thẩm Mỹ,Thẩm mỹ viện,,"NGÂN BEAUTY SPA - Phun Xăm Thẩm Mỹ, 70 Đường số 22, Phường An Khánh, Ninh Kiều, Cần Thơ","Phường An Khánh, Ninh Kiều",70 Đường số 22,Cần Thơ,,"Ninh Kiều, Cần Thơ",VN
435,ChIJmYlmJXCJoDERymB-xp9c6lg,Thẩm Mỹ Viện Việt Á,Thẩm mỹ viện,0961 580 808,"Thẩm Mỹ Viện Việt Á, 201 Hẻm 132 Đ. 3 Tháng 2, Hưng Lợi, Ninh Kiều, Cần Thơ","Hưng Lợi, Ninh Kiều",201 Hẻm 132 Đ. 3 Tháng 2,Cần Thơ,,"Ninh Kiều, Cần Thơ",VN
436,ChIJQUSt0EeIoDERx39IQ46I7H4,Tiệm Thẩm Mỹ Anh Ngả,Thẩm mỹ viện,0817 395 136,"Tiệm Thẩm Mỹ Anh Ngả, 104 Đ. Nguyễn Hiền, Khu dân cư 91B, Ninh Kiều, Cần Thơ","Khu dân cư 91B, Ninh Kiều",104 Đ. Nguyễn Hiền,Cần Thơ,,"Ninh Kiều, Cần Thơ",VN
438,ChIJK5Y5eoiJoDERpnTc9U1MVcs,Thẩm mỹ viện Hoàn Mỹ,Thẩm mỹ viện,,"Thẩm mỹ viện Hoàn Mỹ, 295 Hẻm 553, Hưng Lợi, Ninh Kiều, Cần Thơ","Hưng Lợi, Ninh Kiều",295 Hẻm 553,Cần Thơ,,"Ninh Kiều, Cần Thơ",VN
439,ChIJrYmhycqJoDERkqmzlFcD5tQ,Công Ty TNHH Thương Mại Dịch Vụ Thẩm Mỹ Dr.Thoàng,Thẩm mỹ viện,0932 801 108,"Công Ty TNHH Thương Mại Dịch Vụ Thẩm Mỹ Dr.Thoàng, 290/31 Hẻm 553, Hưng Lợi, Ninh Kiều, Cần Thơ","Hưng Lợi, Ninh Kiều",290/31 Hẻm 553,Cần Thơ,,"Ninh Kiều, Cần Thơ",VN
440,ChIJLWDSWkSIoDER4DpfjsdkR1A,Thẩm Mỹ Nét Đẹp,Thẩm mỹ viện,,"Thẩm Mỹ Nét Đẹp, 282 Đ. Trần Vĩnh Kiết, Phường An Khánh, Ninh Kiều, Cần Thơ","Phường An Khánh, Ninh Kiều",282 Đ. Trần Vĩnh Kiết,Cần Thơ,,"Ninh Kiều, Cần Thơ",VN
441,ChIJ93UNfdiJoDERpS6g3xNns8M,Phun xăm thẩm mỹ VEEVEE - Phun xăm Cần Thơ,Thẩm mỹ viện,,"Phun xăm thẩm mỹ VEEVEE - Phun xăm Cần Thơ, 27 Đường B3, Khu dân cư 91B, Ninh Kiều, Cần Thơ","Khu dân cư 91B, Ninh Kiều",27 Đường B3,Cần Thơ,,"Ninh Kiều, Cần Thơ",VN
442,ChIJecLRuT6JoDER1oBiQQHaj0o,Thẩm Mỹ Hồng Nhung,Thẩm mỹ viện,0939 005 873,"Thẩm Mỹ Hồng Nhung, 228, Lộ Vòng Cung, Ấp Mỹ Phước, Xã Mỹ Khánh, Huyện Phong Điền, Thành Phố Cần Thơ, Mỹ Khánh, Phong Điền, Cần Thơ","Mỹ Khánh, Phong Điền","228, Lộ Vòng Cung, Ấp Mỹ Phước, Xã Mỹ Khánh, Huyện Phong Điền, Thành Phố Cần Thơ",Cần Thơ,,"Phong Điền, Cần Thơ",VN
443,ChIJk2YcY7CJoDER7LXhEipCxXA,Thẩm Mỹ Thế Phương,Thẩm mỹ viện,,"2P2X+XRV Thẩm Mỹ Thế Phương, Nguyễn Trãi, Lê Bình, Cái Răng, Cần Thơ","Lê Bình, Cái Răng","2P2X+XRV, Nguyễn Trãi",Cần Thơ,,"Cái Răng, Cần Thơ",VN
445,ChIJDQE7srqJoDERa42Us5sQZU8,Nguyễn Hằng Phun Thêu Thẩm Mỹ Chăm Sóc Da,Thẩm mỹ viện,,"2P2W+6MP Nguyễn Hằng Phun Thêu Thẩm Mỹ Chăm Sóc Da, Nguyễn Trãi, Lê Bình, Cái Răng, Cần Thơ","Lê Bình, Cái Răng","2P2W+6MP, Nguyễn Trãi",Cần Thơ,,"Cái Răng, Cần Thơ",VN
446,ChIJNfUO8r6JoDERGzmxdhpzmmY,Phun Thêu Thẩm Mỹ Ngọc Khởi,Thẩm mỹ viện,0939 013 907,"Phun Thêu Thẩm Mỹ Ngọc Khởi, Quốc Lộ 1A, Phường Lê Bình, Quận Cái Răng, Thành Phố Cần Thơ, Thường Thạnh, Cái Răng, Cần Thơ","Thường Thạnh, Cái Răng","Quốc Lộ 1A, Phường Lê Bình, Quận Cái Răng, Thành Phố Cần Thơ",Cần Thơ,,"Cái Răng, Cần Thơ",VN
447,ChIJn6jwzFmJoDERe75_8Q4g6OI,Viện Thẩm Mỹ Quốc Tế Hoàn Mỹ,Cửa hàng chăm sóc sức khỏe và làm đẹp,0939 607 766,"Viện Thẩm Mỹ Quốc Tế Hoàn Mỹ, 53 Trần Hoàn Na (nối dài, P, Ninh Kiều, Cần Thơ 94000","P, Ninh Kiều",53 Trần Hoàn Na (nối dài,Cần Thơ,94000.0,"Ninh Kiều, Cần Thơ",VN
448,ChIJS4_EUkuIoDERKoEvIHItzQs,Cơ Sở Thẩm Mỹ Thế Phương,Thẩm mỹ viện,0292 6555 137,"Cơ Sở Thẩm Mỹ Thế Phương, 153/4, Quốc Lộ 1A, P. Lê Bình, Quận Cái Răng, Hưng Lợi, Ninh Kiều, Cần Thơ","Hưng Lợi, Ninh Kiều","153/4, Quốc Lộ 1A, P. Lê Bình, Quận Cái Răng",Cần Thơ,,"Ninh Kiều, Cần Thơ",VN
456,ChIJH8GUsLSJoDERgKXh2bGPaSM,Thẩm Mỹ Viện Lý Tiên,Tiệm chăm sóc móng,0292 3913 428,"Thẩm Mỹ Viện Lý Tiên, 161/4, Quốc Lộ 1A, P. Lê Bình, Quận Cái Răng, Hưng Lợi, Ninh Kiều, Cần Thơ","Hưng Lợi, Ninh Kiều","161/4, Quốc Lộ 1A, P. Lê Bình, Quận Cái Răng",Cần Thơ,,"Ninh Kiều, Cần Thơ",VN
461,ChIJDT0ZKkiIoDERi7G6sF0bi-o,Dịch Vụ Thẩm Mỹ Phượng,Thẩm mỹ viện,0939 765 898,"Dịch Vụ Thẩm Mỹ Phượng, 132/26 Đ. 3 Tháng 2, Hưng Lợi, Ninh Kiều, Cần Thơ","Hưng Lợi, Ninh Kiều",132/26 Đ. 3 Tháng 2,Cần Thơ,,"Ninh Kiều, Cần Thơ",VN
463,ChIJfx4-QjiIoDERjwGQ4cuypno,Tiệm Thẩm Mỹ Hoàng Yến,Thẩm mỹ viện,0292 3730 841,"Tiệm Thẩm Mỹ Hoàng Yến, 30/38 Quốc Lộ 91B, Quận Ninh Kiều, Tp Cần Thơ","Hưng Lợi, Ninh Kiều","30/38 Quốc Lộ 91B, Quận Ninh Kiều, Tp Cần Thơ",Cần Thơ,,"Ninh Kiều, Cần Thơ",VN
467,ChIJDyVrusyJoDERcyZgpJasT9w,Dịch Vụ Phun Xăm Thẩm Mỹ K.perfect,Thẩm mỹ viện,0789 326 926,"Dịch Vụ Phun Xăm Thẩm Mỹ K.perfect, 53 Đ. Trần Hoàng Na, Hưng Lợi, Ninh Kiều, Cần Thơ","Hưng Lợi, Ninh Kiều",53 Đ. Trần Hoàng Na,Cần Thơ,,"Ninh Kiều, Cần Thơ",VN
469,ChIJRVY8yK-JoDERLMWr2jmAsh4,Thẩm Mỹ Hồng Hạnh,Thẩm mỹ viện,0907 442 378,"Thẩm Mỹ Hồng Hạnh, 180/16 Hẻm 558 -30/4, Hưng Lợi, Ninh Kiều, Cần Thơ","Hưng Lợi, Ninh Kiều",180/16 Hẻm 558 -30/4,Cần Thơ,,"Ninh Kiều, Cần Thơ",VN
474,ChIJZWM3DTCIoDER3utbfGglrog,Thẫm Mỹ Viện Kim Chi,Thẩm mỹ viện,0918 319 044,"Thẫm Mỹ Viện Kim Chi, 290/5 Đ. Lê Bình, Hưng Lợi, Ninh Kiều, Cần Thơ","Hưng Lợi, Ninh Kiều",290/5 Đ. Lê Bình,Cần Thơ,,"Ninh Kiều, Cần Thơ",VN
478,ChIJA9EU4xOJoDER0L82XsGQC5o,Công Ty TNHH TMDV Thẩm Mỹ Dr.Thoàng,Thẩm mỹ viện,0945 055 355,"Công Ty TNHH TMDV Thẩm Mỹ Dr.Thoàng, 290 Đ. Nguyễn Văn Linh, Hưng Lợi, Ninh Kiều, Cần Thơ","Hưng Lợi, Ninh Kiều",290 Đ. Nguyễn Văn Linh,Cần Thơ,,"Ninh Kiều, Cần Thơ",VN
480,ChIJ-6OIXiKIoDERtY1P_NWQMCk,Giải Phẩu Thẩm Mỹ Phú Lâm,Thẩm mỹ viện,,"Giải Phẩu Thẩm Mỹ Phú Lâm, 47 Đ. 3 Tháng 2, An Phú, Ninh Kiều, Cần Thơ","An Phú, Ninh Kiều",47 Đ. 3 Tháng 2,Cần Thơ,,"Ninh Kiều, Cần Thơ",VN
481,ChIJ39KGT2aJoDERNISgr3pGTjw,Viện Thẩm Mỹ JIINHI,Thẩm mỹ viện,,"2QHF+64F Viện Thẩm Mỹ JIINHI, Đ. Mạc Thiên Tích, Xuân Khánh, Ninh Kiều, Cần Thơ","Xuân Khánh, Ninh Kiều","2QHF+64F, Đ. Mạc Thiên Tích",Cần Thơ,,"Ninh Kiều, Cần Thơ",VN
484,ChIJoVUCbxfC-m4R09h2eh5yqWg,Viện Thẩm Mỹ MARU,Thẩm mỹ viện,0767 931 234,,,,,,,
492,ChIJFSR6MHyJoDERbslnwxti-kg,Thẩm Mỹ Viện Dr. Thoàng Cơ Sở 3,Thẩm mỹ viện,0935 869 599,"Thẩm Mỹ Viện Dr. Thoàng Cơ Sở 3, 96/1A Đ. Nguyễn Thần Hiến, An Cư, Ninh Kiều, Cần Thơ","An Cư, Ninh Kiều",96/1A Đ. Nguyễn Thần Hiến,Cần Thơ,,"Ninh Kiều, Cần Thơ",VN
