,place_id,name,main_category,phone,address,address_ward,address_street,address_city,address_postal_code,address_state,address_country_code
0,ChIJFRZEDSKIoDERVhDmucVmMvY,Thời trang trẻ TG,Cửa hàng quần áo,0932 942 030,"Thời trang trẻ TG, 58 Đường số 3, KDC Metro, Ninh Kiều, Cần Thơ 900000","KDC Metro, Ninh Kiều",58 Đường số 3,Cần Thơ,900000.0,"Ninh Kiều, Cần Thơ",VN
15,ChIJc4I6s_WJoDERN69H6Kg18po,Shop Thời Trang Nam Owen,Cửa hàng quần áo nam,0292 2468 822,"Shop Thời Trang Nam Owen, 118 Đ. 30 Tháng 4, An Lạc, Ninh Kiều, Cần Thơ","An Lạc, Ninh Kiều",118 Đ. 30 Tháng 4,Cần Thơ,,"Ninh Kiều, Cần Thơ",VN
17,ChIJmXQEXiGIoDERfGy4XYqdvqc,Thời Trang Trẻ Em Subeo,Cửa hàng quần áo,0907 443 370,"Thời Trang Trẻ Em Subeo, 74A, Đ. Mậu Thân/142 Đ. Nguyễn Việt Hồng, An Nghiệp, Ninh Kiều, Cần Thơ","An Nghiệp, Ninh Kiều","74A, Đ. Mậu Thân/142 Đ. Nguyễn Việt Hồng",Cần Thơ,,"Ninh Kiều, Cần Thơ",VN
18,ChIJ-Zi2XyGIoDERwEjFXM5z-jg,Thời Trang Công Sở Anh Đức,Cửa hàng quần áo,0918 414 037,"Thời Trang Công Sở Anh Đức, 27 Đ. Mậu Thân, Xuân Khánh, Ninh Kiều, Cần Thơ 94000","Xuân Khánh, Ninh Kiều",27 Đ. Mậu Thân,Cần Thơ,94000.0,"Ninh Kiều, Cần Thơ",VN
30,ChIJqzp2YiGIoDERR-F-LBhWmQI,Shop AT ( Thời Trang Nam),Cửa hàng quần áo,0934 261 612,"Shop AT ( Thời Trang Nam), 49 Đ. Mậu Thân, Xuân Khánh, Ninh Kiều, Cần Thơ","Xuân Khánh, Ninh Kiều",49 Đ. Mậu Thân,Cần Thơ,,"Ninh Kiều, Cần Thơ",VN
37,ChIJj_MmTdyJoDERqXzJzx7xtos,Thời trang nam nử giá sỉ khánh vân shop,Cửa hàng quần áo,0939 288 510,"Thời trang nam nử giá sỉ khánh vân shop, Đường 26, nền 09, Ninh Kiều, Cần Thơ","nền 09, Ninh Kiều",Đường 26,Cần Thơ,,"Ninh Kiều, Cần Thơ",VN
47,ChIJQ1HnIjCIoDERqeeoYH9xKGY,DUONGSTORE.COM - Shop thời trang hàng hiệu siêu cấp Like au CS Cần Thơ,Cửa hàng,0981 261 989,"DUONGSTORE.COM - Shop thời trang hàng hiệu siêu cấp Like au CS Cần Thơ, 3 Hẻm 70, An Cư, Ninh Kiều, Cần Thơ","An Cư, Ninh Kiều",3 Hẻm 70,Cần Thơ,,"Ninh Kiều, Cần Thơ",VN
48,ChIJNxtmn4eJoDERrLPAcVXy5x4,Shop quần áo Thư Các,Cửa hàng quần áo,0907 677 605,"Shop quần áo Thư Các, 10 Đ. Lý Chính Thắng, Hưng Lợi, Ninh Kiều, Cần Thơ","Hưng Lợi, Ninh Kiều",10 Đ. Lý Chính Thắng,Cần Thơ,,"Ninh Kiều, Cần Thơ",VN
49,ChIJEehJpeaJoDERec7rnawSVq8,Anh Đức Fashion Thời Trang Nam Nữ,Cửa hàng quần áo,0915 610 828,"Anh Đức Fashion Thời Trang Nam Nữ, 79 Đ. Mậu Thân, Xuân Khánh, Ninh Kiều, Cần Thơ","Xuân Khánh, Ninh Kiều",79 Đ. Mậu Thân,Cần Thơ,,"Ninh Kiều, Cần Thơ",VN
51,ChIJNS0LQxWJoDERYMUiS26GV6w,Thỏ Baby Shop - Thời trang trẻ em,Cửa hàng quần áo,0886 939 409,"Thỏ Baby Shop - Thời trang trẻ em, 38b Đ. Phạm Thế Hiển, Phường An Khánh, Ninh Kiều, Cần Thơ 900000","Phường An Khánh, Ninh Kiều",38b Đ. Phạm Thế Hiển,Cần Thơ,900000.0,"Ninh Kiều, Cần Thơ",VN
52,ChIJS1_44SCIoDERaoYg9OTsruc,Thời Trang Sifa,Cửa hàng quần áo,0292 8404 431,"Thời Trang Sifa, 116 Đ. 30 Tháng 4, An Lạc, Ninh Kiều, Cần Thơ","An Lạc, Ninh Kiều",116 Đ. 30 Tháng 4,Cần Thơ,,"Ninh Kiều, Cần Thơ",VN
55,ChIJjZ0WKjqJoDERL4Oq4IPl4aA,DUYÊN DÁNG THỜI TRANG | ĐỒ BỘ TRUNG NIÊN QUẬN NINH KIỀU,Cửa hàng quần áo,0796 838 279,"DUYÊN DÁNG THỜI TRANG | ĐỒ BỘ TRUNG NIÊN QUẬN NINH KIỀU, 77/37 Đ. Phạm Ngũ Lão, Thới Bình, Ninh Kiều, Cần Thơ 94000","Thới Bình, Ninh Kiều",77/37 Đ. Phạm Ngũ Lão,Cần Thơ,94000.0,"Ninh Kiều, Cần Thơ",VN
58,ChIJXbOQCnaJoDERpLqkDRptHtY,Lullaby - Cho thuê đầm thiết kế Cần Thơ,Cửa hàng quần áo,0783 742 752,"Lullaby - Cho thuê đầm thiết kế Cần Thơ, 288 Hẻm 139 30 Tháng 4, Xuân Khánh, Ninh Kiều, Cần Thơ","Xuân Khánh, Ninh Kiều",288 Hẻm 139 30 Tháng 4,Cần Thơ,,"Ninh Kiều, Cần Thơ",VN
65,ChIJHaT0sSaIoDERQo5JSFuuRWA,Shop Minh Trang Thời Trang Nữ,Cửa hàng quần áo,0944 361 696,"Shop Minh Trang Thời Trang Nữ, Ba Mươi Tháng Tư, Lô 47-48 Lầu Chợ Xuân Khánh đường, Cần Thơ 900000","Xuân Khánh, Ninh Kiều","Ba Mươi Tháng Tư, Lô 47-48 Lầu Chợ Xuân Khánh đường",Cần Thơ,900000.0,"Ninh Kiều, Cần Thơ",VN
67,ChIJ5dBAPaBioDERaPw149NwQNE,Shop Thời Trang Jenny,Cửa hàng quần áo,0918 319 303,"Shop Thời Trang Jenny, 10 Đ. Đề Thám, Tân An, Ninh Kiều, Cần Thơ","Tân An, Ninh Kiều",10 Đ. Đề Thám,Cần Thơ,,"Ninh Kiều, Cần Thơ",VN
69,ChIJDQkQ5viJoDERSUbwfOQrsQs,Shop thời trang Lê Thuy,Cửa hàng quần áo,0326 277 989,"Shop thời trang Lê Thuy, C94A Đ. Trần Khánh Dư, Xuân Khánh, Ninh Kiều, Cần Thơ","Xuân Khánh, Ninh Kiều",C94A Đ. Trần Khánh Dư,Cần Thơ,,"Ninh Kiều, Cần Thơ",VN
70,ChIJx5Mw0nJjoDERwyte_Q54WX0,Shop Thời Trang Nam Owen,Cửa hàng quần áo nam,0292 3819 486,"Shop Thời Trang Nam Owen, 23 Nguyễn Trãi, An Hội, Ninh Kiều, Cần Thơ","An Hội, Ninh Kiều",23 Nguyễn Trãi,Cần Thơ,,"Ninh Kiều, Cần Thơ",VN
73,ChIJNfxeK3-JoDERI2j-mW21LhM,Thời Trang Shi Like To Shop,Cửa hàng quần áo,,"Thời Trang Shi Like To Shop, 148 Đ. Nguyễn Việt Hồng, Xuân Khánh, Ninh Kiều, Cần Thơ","Xuân Khánh, Ninh Kiều",148 Đ. Nguyễn Việt Hồng,Cần Thơ,,"Ninh Kiều, Cần Thơ",VN
75,ChIJO0qAFdKJoDERoZeH2UNMU-8,Đỏ Luxury - Thời trang hàng nhập cao cấp,Cửa hàng quần áo nữ,0909 039 789,"Đỏ Luxury - Thời trang hàng nhập cao cấp, 203 Nguyễn Trãi, An Hội, Ninh Kiều, Cần Thơ","An Hội, Ninh Kiều",203 Nguyễn Trãi,Cần Thơ,,"Ninh Kiều, Cần Thơ",VN
79,ChIJl2ICkgeJoDER6KlniZji7rM,Trang Trang Shop,Cửa hàng quần áo,0762 896 019,"Trang Trang Shop, khu cán bộ giảng viên, 179 Đường số 3, Hưng Lợi, Ninh Kiều, Cần Thơ","Hưng Lợi, Ninh Kiều","khu cán bộ giảng viên, 179 Đường số 3",Cần Thơ,,"Ninh Kiều, Cần Thơ",VN
80,ChIJ9Q6iH0WJoDERajn4a89kiHI,379 store,Cửa hàng quần áo,0707 379 379,"379 store, 119 Đ. Mậu Thân, Xuân Khánh, Ninh Kiều, Cần Thơ","Xuân Khánh, Ninh Kiều",119 Đ. Mậu Thân,Cần Thơ,,"Ninh Kiều, Cần Thơ",VN
81,ChIJUXd3Oj9DoDERyKM5qi2iyXQ,Shop quần áo Thiệu Trang,Cửa hàng quần áo,0397 941 038,"RX2J+7FP Shop quần áo Thiệu Trang, Thới An Hội, Kế Sách, Sóc Trăng","Thới An Hội, Kế Sách",RX2J+7FP,Sóc Trăng,,"Kế Sách, Sóc Trăng",VN
88,ChIJZUvmIIGJoDERRBIbzOyS3SI,Thời trang Moredoan.com (Biti's - Lendo Nguyễn Tri Phương),Cửa hàng giày dép,0907 544 787,"Thời trang Moredoan.com (Biti's - Lendo Nguyễn Tri Phương), 171 Đ. Nguyễn Tri Phương, Phường An Khánh, Ninh Kiều, Cần Thơ","Phường An Khánh, Ninh Kiều",171 Đ. Nguyễn Tri Phương,Cần Thơ,,"Ninh Kiều, Cần Thơ",VN
100,ChIJB2VO90yIoDER1i6Vsk1IYoY,Thời trang trẻ em SUKA,Trung tâm mua sắm,0937 160 616,"Thời trang trẻ em SUKA, Đ. Trần Vĩnh Kiết, An Bình, Ninh Kiều, Cần Thơ","An Bình, Ninh Kiều",Đ. Trần Vĩnh Kiết,Cần Thơ,,"Ninh Kiều, Cần Thơ",VN
106,ChIJAec0vS7vrWkR6oNHufMm4JQ,Thời Trang GenZ,Cửa hàng quần áo,0334 620 757,,,,,,,
107,ChIJ4wdwMuyJoDERmvBO_WwIMW4,Thời trang IVY moda,Cửa hàng quần áo,0292 3831 818,"Thời trang IVY moda, 54C1 Đ. 3 Tháng 2, Hưng Lợi, Ninh Kiều, Cần Thơ","Hưng Lợi, Ninh Kiều",54C1 Đ. 3 Tháng 2,Cần Thơ,,"Ninh Kiều, Cần Thơ",VN
117,ChIJy8cPel2JoDERJXtOnpzbJNc,Thời Trang Trẻ Em Ba-Ni Kids,Cửa hàng quần áo trẻ em,0903 684 662,"Thời Trang Trẻ Em Ba-Ni Kids, 27 Đ. Trần Bình Trọng, An Phú, Ninh Kiều, Cần Thơ","An Phú, Ninh Kiều",27 Đ. Trần Bình Trọng,Cần Thơ,,"Ninh Kiều, Cần Thơ",VN
121,ChIJlSGHajaIoDER2UFDlrDWd6M,Thời trang T&B,Cửa hàng quần áo,0947 717 997,"Thời trang T&B, 58 Đường số 3, KDC Metro, Ninh Kiều, Cần Thơ","KDC Metro, Ninh Kiều",58 Đường số 3,Cần Thơ,,"Ninh Kiều, Cần Thơ",VN
123,ChIJyVHOoiGIoDER8RtzQ1tc4OQ,T-Lee Fashion,Cửa hàng quần áo,0939 702 015,"T-Lee Fashion, 93 Đ. Nguyễn Việt Hồng, An Lạc, Ninh Kiều, Cần Thơ","An Lạc, Ninh Kiều",93 Đ. Nguyễn Việt Hồng,Cần Thơ,,"Ninh Kiều, Cần Thơ",VN
137,ChIJ3fxWuyGIoDERFWjNwYKZp_A,Shop Thời Trang Bí Đỏ,Cửa hàng quần áo,0944 949 894,"Shop Thời Trang Bí Đỏ, 108 Đ. Nguyễn Việt Hồng, An Lạc, Ninh Kiều, Cần Thơ","An Lạc, Ninh Kiều",108 Đ. Nguyễn Việt Hồng,Cần Thơ,,"Ninh Kiều, Cần Thơ",VN
150,ChIJPRiClhKIoDER3NUvWvyJ4Lk,Yugo Fashion,Cửa hàng,,"2QV6+C42 Yugo Fashion, Phường An Khánh, Ninh Kiều, Cần Thơ","Phường An Khánh, Ninh Kiều",2QV6+C42,Cần Thơ,,"Ninh Kiều, Cần Thơ",VN
151,ChIJjVMhY82JoDERpK9E-Q6wwkk,Shop thời trang 1992,Cửa hàng quần áo,,"Shop thời trang 1992, 108 Đ. Mậu Thân, Xuân Khánh, Ninh Kiều, Cần Thơ","Xuân Khánh, Ninh Kiều",108 Đ. Mậu Thân,Cần Thơ,,"Ninh Kiều, Cần Thơ",VN
165,ChIJkcdCtcSJoDERsIhtA-jmf_Q,Thời Trang Quảng Châu,Cửa hàng quần áo,,"Thời Trang Quảng Châu, 59 Đ. Trần Bình Trọng, An Phú, Ninh Kiều, Cần Thơ","An Phú, Ninh Kiều",59 Đ. Trần Bình Trọng,Cần Thơ,,"Ninh Kiều, Cần Thơ",VN
166,ChIJi7jMvCGIoDERfvtfpDBTCYg,Shop Thời Trang Nemo,Cửa hàng quần áo,,"Shop Thời Trang Nemo, 95 Đ. Nguyễn Việt Hồng, An Lạc, Ninh Kiều, Cần Thơ","An Lạc, Ninh Kiều",95 Đ. Nguyễn Việt Hồng,Cần Thơ,,"Ninh Kiều, Cần Thơ",VN
170,ChIJFxk7q8yJoDERdv1Q5SH9jlM,Đồng Hồ Thời Trang Cần Thơ,Cửa hàng đồng hồ,0974 833 858,"2Q67+MV7 Đồng Hồ Thời Trang Cần Thơ, Đ. Trần Hoàng Na, Hưng Lợi, Ninh Kiều, Cần Thơ","Hưng Lợi, Ninh Kiều","2Q67+MV7, Đ. Trần Hoàng Na",Cần Thơ,,"Ninh Kiều, Cần Thơ",VN
171,ChIJVzDGWRiIoDER7UP3ZMeV4mk,Shop Thời Trang Y Vân,Cửa hàng quần áo,0988 667 997,"Shop Thời Trang Y Vân, c2 Đ. Mậu Thân, An Phú, Ninh Kiều, Cần Thơ","An Phú, Ninh Kiều",c2 Đ. Mậu Thân,Cần Thơ,,"Ninh Kiều, Cần Thơ",VN
181,ChIJKayHXiCIoDERCB6fYIXIi_g,Cửa Hàng Thời Trang Việt Tiến,Cửa hàng quần áo,0292 3712 639,"Cửa Hàng Thời Trang Việt Tiến, 66, 30/4, Quận Ninh Kiều, Tp Cần Thơ, An Lạc, Ninh Kiều, Cần Thơ","An Lạc, Ninh Kiều","66, 30/4, Quận Ninh Kiều, Tp Cần Thơ",Cần Thơ,,"Ninh Kiều, Cần Thơ",VN
182,ChIJ_8pM4hCIoDERkRcc1MSacng,Shop Thơi Trang Nam Vương,Cửa hàng quần áo,0963 375 292,"Shop Thơi Trang Nam Vương, 31 Đ. Mậu Thân, An Nghiệp, Ninh Kiều, Cần Thơ","An Nghiệp, Ninh Kiều",31 Đ. Mậu Thân,Cần Thơ,,"Ninh Kiều, Cần Thơ",VN
183,ChIJC1x00R-IoDERDrZSNkw_q-8,Shop quần áo thời trang VNXK tại Cần Thơ - Liloshop.net,Cửa hàng quần áo,0766 958 928,"Shop quần áo thời trang VNXK tại Cần Thơ - Liloshop.net, 53 Nguyễn Thị Minh Khai, An Lạc, Ninh Kiều, Cần Thơ","An Lạc, Ninh Kiều",53 Nguyễn Thị Minh Khai,Cần Thơ,,"Ninh Kiều, Cần Thơ",VN
186,ChIJsVeuPD2JoDERzseO5HcGn6Y,Shop thời trang nữ Lê Trân,Cửa hàng quần áo nữ,0903 178 219,"Shop thời trang nữ Lê Trân, 145/4 Đ. Trần Vĩnh Kiết, An Bình, Ninh Kiều, Cần Thơ","An Bình, Ninh Kiều",145/4 Đ. Trần Vĩnh Kiết,Cần Thơ,,"Ninh Kiều, Cần Thơ",VN
209,ChIJP7DWsYeJoDER8Olf-2W2E60,THỜI TRANG SIÊU RẺ ( HỒNG UYÊN SHOP),Cửa hàng quần áo,0907 638 525,"THỜI TRANG SIÊU RẺ ( HỒNG UYÊN SHOP), Cạnh bên bệnh viện trung ương , tại bãi xe 39, p, Ninh Kiều, Cần Thơ","p, Ninh Kiều","Cạnh bên bệnh viện trung ương , tại bãi xe 39",Cần Thơ,,"Ninh Kiều, Cần Thơ",VN
213,ChIJcYqkYzqIoDERt5wqXWMgzdU,Song Nhac Fashion Shop,Cửa hàng quần áo nữ,,"Song Nhac Fashion Shop, 163/4, Area No 1, 3/2 Street, Cai Rang District, Can Tho City, Hưng Lợi, Ninh Kiều, Cần Thơ","Hưng Lợi, Ninh Kiều","163/4, Area No 1, 3/2 Street, Cai Rang District, Can Tho City",Cần Thơ,,"Ninh Kiều, Cần Thơ",VN
222,ChIJYYIw-beJoDER0XZEMYYUDiw,Thời trang nữ - Julie Shop House,Cửa hàng quần áo,,"2QGH+R4Q Thời trang nữ - Julie Shop House, Xuân Khánh, Ninh Kiều, Cần Thơ","Xuân Khánh, Ninh Kiều",2QGH+R4Q,Cần Thơ,,"Ninh Kiều, Cần Thơ",VN
223,ChIJBS0XYCGIoDERpAjV8yqjgYY,Thời Trang Vietinmex,Cửa hàng quần áo,0985 919 376,"Thời Trang Vietinmex, 35 Đ. Mậu Thân, Xuân Khánh, Ninh Kiều, Cần Thơ","Xuân Khánh, Ninh Kiều",35 Đ. Mậu Thân,Cần Thơ,,"Ninh Kiều, Cần Thơ",VN
224,ChIJ5w1LWSGIoDERmxmkpVtXyqk,Cửa Hàng Thời Trang Vitino,Cửa hàng phụ kiện thời trang,0985 919 376,"Cửa Hàng Thời Trang Vitino, 58A Đ. Mậu Thân, Xuân Khánh, Ninh Kiều, Cần Thơ","Xuân Khánh, Ninh Kiều",58A Đ. Mậu Thân,Cần Thơ,,"Ninh Kiều, Cần Thơ",VN
237,ChIJq5TrW0-JoDEReTOpiIK6ecY,Beauty Clothing,Cửa hàng phụ kiện thời trang,0949 264 027,"Beauty Clothing, 157/7 hẻm 2, Đ. Nguyễn Việt Hồng, P, Ninh Kiều, Cần Thơ 74000","P, Ninh Kiều","157/7 hẻm 2, Đ. Nguyễn Việt Hồng",Cần Thơ,74000.0,"Ninh Kiều, Cần Thơ",VN
238,ChIJ71AkyeWJoDERrQHVXiAz40w,Letis store - Phụ Kiện Thời Trang,Cửa hàng phụ kiện thời trang,0965 785 251,"Letis store - Phụ Kiện Thời Trang, 388i47, Nguyễn Văn Cừ Nối Dài, Phường An Khánh, Ninh Kiều, Cần Thơ","Phường An Khánh, Ninh Kiều","388i47, Nguyễn Văn Cừ Nối Dài",Cần Thơ,,"Ninh Kiều, Cần Thơ",VN
242,ChIJ82pgaTqIoDERyufnCBtAIuM,Shop Thời Trang Hàng Hiệu,Cửa hàng phụ kiện thời trang,0907 110 880,"Shop Thời Trang Hàng Hiệu, 54A, Đường 3/2, Phường Xuân Khánh, Quận Ninh Kiều, Hưng Lợi, Ninh Kiều, Cần Thơ","Hưng Lợi, Ninh Kiều","54A, Đường 3/2, Phường Xuân Khánh, Quận Ninh Kiều",Cần Thơ,,"Ninh Kiều, Cần Thơ",VN
255,ChIJeakIUEyIoDER_kQHqRIuFEI,Cửa Hàng Thời Trang Quần Áo Thể Thao Gi,Cửa hàng phụ kiện thời trang,,"Cửa Hàng Thời Trang Quần Áo Thể Thao Gi, 172D Đ. Trần Vĩnh Kiết, An Bình, Ninh Kiều, Cần Thơ","An Bình, Ninh Kiều",172D Đ. Trần Vĩnh Kiết,Cần Thơ,,"Ninh Kiều, Cần Thơ",VN
265,ChIJMcsDglKJoDERwVJAiVIj1a4,Shop Thời Trang Phượng Nguyên,Cửa hàng quần áo nữ,,"Shop Thời Trang Phượng Nguyên, 117 Đ. Mậu Thân, An Phú, Ninh Kiều, Cần Thơ","An Phú, Ninh Kiều",117 Đ. Mậu Thân,Cần Thơ,,"Ninh Kiều, Cần Thơ",VN
267,ChIJ1XQ4rSaIoDERkm4sj-pIwNU,Shop Thời Trang Thi Thuận ( chuyên quần áo big size),Cửa hàng quần áo,0292 3832 829,"Shop Thời Trang Thi Thuận ( chuyên quần áo big size), 2 Đ. Mậu Thân, Xuân Khánh, Ninh Kiều, Cần Thơ","Xuân Khánh, Ninh Kiều",2 Đ. Mậu Thân,Cần Thơ,,"Ninh Kiều, Cần Thơ",VN
270,ChIJ2e9VfSGIoDER3HfQqBIDSwQ,Shop Thời Trang For Men 2,Cửa hàng quần áo,0782 908 908,"Shop Thời Trang For Men 2, 102 Đ. Mậu Thân, Xuân Khánh, Ninh Kiều, Cần Thơ","Xuân Khánh, Ninh Kiều",102 Đ. Mậu Thân,Cần Thơ,,"Ninh Kiều, Cần Thơ",VN
271,ChIJtdvCIiSIoDERjNfAzJXkUeI,Trung Tâm Thời Trang Việt Tiến,Cửa hàng quần áo,0292 3751 570,"Trung Tâm Thời Trang Việt Tiến, 1 Đ. 30 Tháng 4, Xuân Khánh, Ninh Kiều, Cần Thơ","Xuân Khánh, Ninh Kiều",1 Đ. 30 Tháng 4,Cần Thơ,,"Ninh Kiều, Cần Thơ",VN
273,ChIJzU8uKZ9ioDERBQbQcgyq7Qk,Cửa Hàng Thời Trang Trẻ Em Cỏ Ba Lá,Cửa hàng quần áo,0989 223 432,"Cửa Hàng Thời Trang Trẻ Em Cỏ Ba Lá, 12, Đường Ngô Đức Kế, Tân An, Ninh Kiều, Cần Thơ","Tân An, Ninh Kiều","12, Đường Ngô Đức Kế",Cần Thơ,,"Ninh Kiều, Cần Thơ",VN
278,ChIJbRjVmyGIoDERhFosl-CNdQY,Tran Thi Thuy Anh Fashion Shop,Cửa hàng quần áo nữ,0858 568 274,"Tran Thi Thuy Anh Fashion Shop, 108/95/10B, Nguyen Viet Hong Street, An Phu Ward, Ninh Kieu District, An Lạc, Ninh Kiều, Cần Thơ","An Lạc, Ninh Kiều","108/95/10B, Nguyen Viet Hong Street, An Phu Ward, Ninh Kieu District",Cần Thơ,,"Ninh Kiều, Cần Thơ",VN
279,ChIJB4fAC4VjoDERR5LiVYKPgzA,Cửa hàng thời trang FREELANCER,Cửa hàng quần áo,0292 3864 009,"Cửa hàng thời trang FREELANCER, 16 Nguyễn Trãi, Tân An, Ninh Kiều, Cần Thơ","Tân An, Ninh Kiều",16 Nguyễn Trãi,Cần Thơ,,"Ninh Kiều, Cần Thơ",VN
280,ChIJVbHMtiGIoDERVvg_vlWm0qc,Shop Thời Trang Tee's,Cửa hàng quần áo,,"Shop Thời Trang Tee's, 69 Đ. Nguyễn Việt Hồng, An Lạc, Ninh Kiều, Cần Thơ","An Lạc, Ninh Kiều",69 Đ. Nguyễn Việt Hồng,Cần Thơ,,"Ninh Kiều, Cần Thơ",VN
281,ChIJS4fVIjCIoDERKXg1seoB9Vs,Shop Thời Trang Dễ Thương,Cửa hàng quần áo,0292 2486 339,"Shop Thời Trang Dễ Thương, 290 Đ. 30 Tháng 4, Hưng Lợi, Ninh Kiều, Cần Thơ","Hưng Lợi, Ninh Kiều",290 Đ. 30 Tháng 4,Cần Thơ,,"Ninh Kiều, Cần Thơ",VN
282,ChIJpzErbjqIoDERLTVLnYkR26U,Shop Thời Trang Jean's 2,Cửa hàng quần áo,,"Shop Thời Trang Jean's 2, 180 Đ. 3 Tháng 2, Hưng Lợi, Ninh Kiều, Cần Thơ","Hưng Lợi, Ninh Kiều",180 Đ. 3 Tháng 2,Cần Thơ,,"Ninh Kiều, Cần Thơ",VN
283,ChIJlZ9vdGyIoDER8gaY17C-0u8,Luxury Fashion And Spa,Cửa hàng quần áo,,"Luxury Fashion And Spa, 74 Đ. Tô Hiến Thành, Phường An Khánh, Ninh Kiều, Cần Thơ","Phường An Khánh, Ninh Kiều",74 Đ. Tô Hiến Thành,Cần Thơ,,"Ninh Kiều, Cần Thơ",VN
284,ChIJ31EnL6BioDERdKSFkMrsfYI,Cửa Hàng Thời Trang Thoa,Cửa hàng quần áo,0292 2470 592,"Cửa Hàng Thời Trang Thoa, 76 Nguyễn Thái Học, Tân An, Ninh Kiều, Cần Thơ","Tân An, Ninh Kiều",76 Nguyễn Thái Học,Cần Thơ,,"Ninh Kiều, Cần Thơ",VN
285,ChIJX4DEMqBioDERj3CpaSy4A_Q,Shop Thời Trang Thảo Ngân,Cửa hàng quần áo,0919 234 499,"Shop Thời Trang Thảo Ngân, 17 Đ. Đồng Khởi, Tân An, Ninh Kiều, Cần Thơ","Tân An, Ninh Kiều",17 Đ. Đồng Khởi,Cần Thơ,,"Ninh Kiều, Cần Thơ",VN
286,ChIJbWrrUaFioDERQI8n3sTqMVE,Shop Thời Trang Tuxedo,Cửa hàng quần áo,,"Shop Thời Trang Tuxedo, 8 Đ. Nguyễn Đình Chiểu, Tân An, Ninh Kiều, Cần Thơ","Tân An, Ninh Kiều",8 Đ. Nguyễn Đình Chiểu,Cần Thơ,,"Ninh Kiều, Cần Thơ",VN
308,ChIJD18dtSGIoDER5EQYOIT1YAo,ĐĂNG STORE - Thương hiệu thời trang nam VNXK đẹp rẻ chất lượng,Cửa hàng phụ kiện thời trang,0967 132 132,"ĐĂNG STORE - Thương hiệu thời trang nam VNXK đẹp rẻ chất lượng, 86 Đ. Nguyễn Việt Hồng, An Lạc, Ninh Kiều, Cần Thơ","An Lạc, Ninh Kiều",86 Đ. Nguyễn Việt Hồng,Cần Thơ,,"Ninh Kiều, Cần Thơ",VN
315,ChIJaVzUZFyJoDERlYR_mxS_mLA,1993 Shop,Cửa hàng quần áo nữ,0962 782 655,"1993 Shop, Đ. Mậu Thân, An Hoà, Ninh Kiều, Cần Thơ","An Hoà, Ninh Kiều",Đ. Mậu Thân,Cần Thơ,,"Ninh Kiều, Cần Thơ",VN
316,ChIJBSBJMxKIoDERrqGSYiesnrI,Shop Tipu Fashion,Cửa hàng quần áo,0982 040 040,"Shop Tipu Fashion, 134 Đ. Nguyễn Văn Cừ, Phường An Khánh, Ninh Kiều, Cần Thơ","Phường An Khánh, Ninh Kiều",134 Đ. Nguyễn Văn Cừ,Cần Thơ,,"Ninh Kiều, Cần Thơ",VN
317,ChIJ-XkfbmaJoDERmnN40At0UWQ,Larva_2hand Đồ si,Cửa hàng quần áo,0383 653 836,"Larva_2hand Đồ si, 9 Đ. 30 Tháng 4, Xuân Khánh, Ninh Kiều, Cần Thơ","Xuân Khánh, Ninh Kiều",9 Đ. 30 Tháng 4,Cần Thơ,,"Ninh Kiều, Cần Thơ",VN
319,ChIJwxOX2x-IoDERw2yFguS9-rs,Pham Thuy Linh Fashion Shop,Cửa hàng quần áo nữ,0941 068 410,"Pham Thuy Linh Fashion Shop, 88 Đ. Đề Thám, Tân An, Ninh Kiều, Cần Thơ","Tân An, Ninh Kiều",88 Đ. Đề Thám,Cần Thơ,,"Ninh Kiều, Cần Thơ",VN
326,ChIJ_6Wh_B2JoDERzVYx1RcgL5U,Shop Thời Trang Thanh Lê,Cửa hàng quần áo,0907 617 948,"Shop Thời Trang Thanh Lê, 259 Đ. Đồng Văn Cống, An Thới, Bình Thủy, Cần Thơ","An Thới, Bình Thủy",259 Đ. Đồng Văn Cống,Cần Thơ,,"Bình Thủy, Cần Thơ",VN
347,ChIJ_3HseyWJoDERULrN56KaE7E,SHOP THỜI TRANG BÉ YÊU TK,Cửa hàng quần áo,,"2P8W+2G8 SHOP THỜI TRANG BÉ YÊU TK, An Bình, Ninh Kiều, Cần Thơ","An Bình, Ninh Kiều",2P8W+2G8,Cần Thơ,,"Ninh Kiều, Cần Thơ",VN
354,ChIJlUxZS1iJoDERaYUBJPve5eA,Thời trang Genz Shop,Nhà thiết kế thời trang,0901 021 502,"Thời trang Genz Shop, Chu Văn An Street Quận Ninh Kiều Can Tho City, 94000","Phường An Khánh, Ninh Kiều",Chu Văn An Street Quận Ninh Kiều Can Tho City,Cần Thơ,94000.0,"Ninh Kiều, Cần Thơ",VN
389,ChIJSXAegjaIoDERpxbLAVn0A1A,Cửa Hàng Thời Trang Trẻ Em Bánh Bao Kids,Cửa hàng quần áo trẻ em,0907 657 153,"2Q86+XQR Cửa Hàng Thời Trang Trẻ Em Bánh Bao Kids, Hẻm 132 Đ. 3 Tháng 2, Hưng Lợi, Ninh Kiều, Cần Thơ","Hưng Lợi, Ninh Kiều","2Q86+XQR, Hẻm 132 Đ. 3 Tháng 2",Cần Thơ,,"Ninh Kiều, Cần Thơ",VN
390,ChIJl7Q9QDqJoDERA-PFMfcconY,Shop Bụi. Cửa Hàng Thời Trang Nam,Cửa hàng quần áo,0976 626 665,"Shop Bụi. Cửa Hàng Thời Trang Nam, 176 Đ. 3 Tháng 2, Hưng Lợi, Ninh Kiều, Cần Thơ","Hưng Lợi, Ninh Kiều",176 Đ. 3 Tháng 2,Cần Thơ,,"Ninh Kiều, Cần Thơ",VN
391,ChIJgY9CikqIoDERhBqf2vyjTb0,Mai Thao Fashion Shop,Cửa hàng quần áo nữ,0837 977 377,"Mai Thao Fashion Shop, 4/1, Highway 1A, Ninh Kieu District, Can Tho City, Hưng Lợi, Ninh Kiều, Cần Thơ","Hưng Lợi, Ninh Kiều","4/1, Highway 1A, Ninh Kieu District, Can Tho City",Cần Thơ,,"Ninh Kiều, Cần Thơ",VN
392,ChIJI69LAWeJoDERdBeelGGrdB0,Thế Giới Thời Trang Đỗ Gia,Cửa hàng quần áo,,"Thế Giới Thời Trang Đỗ Gia, 108B Đ. 3 Tháng 2, Hưng Lợi, Ninh Kiều, Cần Thơ","Hưng Lợi, Ninh Kiều",108B Đ. 3 Tháng 2,Cần Thơ,,"Ninh Kiều, Cần Thơ",VN
396,ChIJNb8gaDqIoDERE-2TnDGffWo,Cửa Hàng Thời Trang A Máo 5,Cửa hàng quần áo,0783 889 008,"Cửa Hàng Thời Trang A Máo 5, 174A, Đường 3/2, Quận Ninh Kiều, Tp Cần Thơ, Hưng Lợi, Ninh Kiều, Cần Thơ","Hưng Lợi, Ninh Kiều","174A, Đường 3/2, Quận Ninh Kiều, Tp Cần Thơ",Cần Thơ,,"Ninh Kiều, Cần Thơ",VN
400,ChIJC7n6WzeIoDERbYLLEJt2WvA,Shop Thời Trang Tuyết Lệ,Cửa hàng quần áo,,"Shop Thời Trang Tuyết Lệ, 7 Đ. Nguyễn Văn Linh, Hưng Lợi, Ninh Kiều, Cần Thơ","Hưng Lợi, Ninh Kiều",7 Đ. Nguyễn Văn Linh,Cần Thơ,,"Ninh Kiều, Cần Thơ",VN
403,ChIJAWviNSCIoDERxfuAmNS2UEk,Shop Thời Trang Lê Thanh,Cửa hàng,,"Shop Thời Trang Lê Thanh, 59 Đ. Nguyễn Việt Hồng, An Lạc, Ninh Kiều, Cần Thơ","An Lạc, Ninh Kiều",59 Đ. Nguyễn Việt Hồng,Cần Thơ,,"Ninh Kiều, Cần Thơ",VN
408,ChIJi2g1PzCIoDERbGVvYRsi8Zw,Shop Thời Trang Blook,Cửa hàng quần áo,0292 3752 757,"Shop Thời Trang Blook, 137 Bis, Đường 30/4, Hưng Lợi, Ninh Kiều, Cần Thơ","Hưng Lợi, Ninh Kiều","137 Bis, Đường 30/4",Cần Thơ,,"Ninh Kiều, Cần Thơ",VN
423,ChIJdWvPYSGIoDERZzLXwGAjnfU,Shop Thời Trang Hoàng Oanh,Cửa hàng quần áo,0916 037 945,"Shop Thời Trang Hoàng Oanh, 39 Đ. Mậu Thân, Xuân Khánh, Ninh Kiều, Cần Thơ","Xuân Khánh, Ninh Kiều",39 Đ. Mậu Thân,Cần Thơ,,"Ninh Kiều, Cần Thơ",VN
425,ChIJW4ZHKyKIoDERmR4gzX9d-3U,Shop Thời Trang Hoàng Yến,Cửa hàng quần áo,0989 224 190,"Shop Thời Trang Hoàng Yến, 110 Đ. Mậu Thân, Xuân Khánh, Ninh Kiều, Cần Thơ","Xuân Khánh, Ninh Kiều",110 Đ. Mậu Thân,Cần Thơ,,"Ninh Kiều, Cần Thơ",VN
435,ChIJ9cxOS6BioDERDuYwhRlNQZc,Shop Thời Trang Như Ngọc,Cửa hàng quần áo,0378 222 022,"Shop Thời Trang Như Ngọc, 1 Đ. Đồng Khởi, Tân An, Ninh Kiều, Cần Thơ","Tân An, Ninh Kiều",1 Đ. Đồng Khởi,Cần Thơ,,"Ninh Kiều, Cần Thơ",VN
440,ChIJfYPZE6BioDERAm8EVeuG0ro,Shop Thời Trang Kiwi,Cửa hàng quần áo,,"Shop Thời Trang Kiwi, 28 Đ. Đề Thám, Tân An, Ninh Kiều, Cần Thơ","Tân An, Ninh Kiều",28 Đ. Đề Thám,Cần Thơ,,"Ninh Kiều, Cần Thơ",VN
443,ChIJ-cWIr59ioDERxJzPAGExd4w,Cửa Hàng Thời Trang LeLe's Box,Cửa hàng quần áo,0939 823 853,"Cửa Hàng Thời Trang LeLe's Box, 38 Đ. Đồng Khởi, Tân An, Ninh Kiều, Cần Thơ","Tân An, Ninh Kiều",38 Đ. Đồng Khởi,Cần Thơ,,"Ninh Kiều, Cần Thơ",VN
449,ChIJgQYQGCCIoDERgKa9vVMFyjc,Shop Thời Trang Xinh,Cửa hàng quần áo,0907 720 303,"Shop Thời Trang Xinh, 5 Đ. Nguyễn Việt Hồng, An Lạc, Ninh Kiều, Cần Thơ 90000","An Lạc, Ninh Kiều",5 Đ. Nguyễn Việt Hồng,Cần Thơ,90000.0,"Ninh Kiều, Cần Thơ",VN
450,ChIJ7cECAKFioDERTIoNRQBoJS0,Shop Thời Trang Nhã Trúc,Cửa hàng,,"Shop Thời Trang Nhã Trúc, 55 Đ. Ngô Quyền, Tân An, Ninh Kiều, Cần Thơ","Tân An, Ninh Kiều",55 Đ. Ngô Quyền,Cần Thơ,,"Ninh Kiều, Cần Thơ",VN
451,ChIJD7A0gp9ioDER1Gn7JhurWts,Shop Thời Trang Nam Rikimaru,Cửa hàng quần áo,,"Shop Thời Trang Nam Rikimaru, 49 Đ. Nam Kỳ Khởi Nghĩa, Tân An, Ninh Kiều, Cần Thơ","Tân An, Ninh Kiều",49 Đ. Nam Kỳ Khởi Nghĩa,Cần Thơ,,"Ninh Kiều, Cần Thơ",VN
455,ChIJRZ63hwOIoDERnc0Exmj_0Ew,Thời Trang Bụi,Cửa hàng quần áo,0916 922 939,"Thời Trang Bụi, 24 Đ. Trần Việt Châu, Thới Bình, Ninh Kiều, Cần Thơ","Thới Bình, Ninh Kiều",24 Đ. Trần Việt Châu,Cần Thơ,,"Ninh Kiều, Cần Thơ",VN
456,ChIJa7vbcqGJoDERtH5fQaCnY-Y,Thời Trang Công Sở Thành Nam,Cửa hàng quần áo,0966 231 424,"Thời Trang Công Sở Thành Nam, 15A Đ. Mậu Thân, Xuân Khánh, Ninh Kiều, Cần Thơ","Xuân Khánh, Ninh Kiều",15A Đ. Mậu Thân,Cần Thơ,,"Ninh Kiều, Cần Thơ",VN
457,ChIJ2UCCiZ9ioDERV1dk-l0_1sI,Cửa Hàng Áo Quần Thời Trang 3TS,Cửa hàng quần áo,0292 3508 111,"Cửa Hàng Áo Quần Thời Trang 3TS, 60C Đ. Nam Kỳ Khởi Nghĩa, Tân An, Ninh Kiều, Cần Thơ","Tân An, Ninh Kiều",60C Đ. Nam Kỳ Khởi Nghĩa,Cần Thơ,,"Ninh Kiều, Cần Thơ",VN
458,ChIJi17hYSGIoDER39ntWfIGLWw,Quần Áo Thời Trang Nam Nữ Guu 1991,Cửa hàng quần áo,,"Quần Áo Thời Trang Nam Nữ Guu 1991, 19C Đ. Mậu Thân, Xuân Khánh, Ninh Kiều, Cần Thơ","Xuân Khánh, Ninh Kiều",19C Đ. Mậu Thân,Cần Thơ,,"Ninh Kiều, Cần Thơ",VN
459,ChIJAbjeOJ9ioDERBCzyIoHmVGY,Shop Thời Trang Roses,Cửa hàng quần áo,0907 457 912,"Shop Thời Trang Roses, 38 Đường Nguyễn An Ninh, Tân An, Ninh Kiều, Cần Thơ","Tân An, Ninh Kiều",38 Đường Nguyễn An Ninh,Cần Thơ,,"Ninh Kiều, Cần Thơ",VN
460,ChIJvypGAAeIoDERE7m05d3K5no,Shop Thời Trang Fly,Cửa hàng quần áo,,"Shop Thời Trang Fly, 18 Đ. Cách Mạng Tháng 8, Cái Khế, Ninh Kiều, Cần Thơ","Cái Khế, Ninh Kiều",18 Đ. Cách Mạng Tháng 8,Cần Thơ,,"Ninh Kiều, Cần Thơ",VN
461,ChIJh7HzEyKIoDERO2h8oPmoMlE,Shop Thời Trang Vip 368,Cửa hàng quần áo,,"Shop Thời Trang Vip 368, 148 Đ. Mậu Thân, An Phú, Ninh Kiều, Cần Thơ","An Phú, Ninh Kiều",148 Đ. Mậu Thân,Cần Thơ,,"Ninh Kiều, Cần Thơ",VN
462,ChIJldAvUraJoDERsXRdTf2Xagw,Shop thời trang Hà LD,Cửa hàng quần áo,,"Shop thời trang Hà LD, 5 Đ. Mậu Thân, Xuân Khánh, Ninh Kiều, Cần Thơ","Xuân Khánh, Ninh Kiều",5 Đ. Mậu Thân,Cần Thơ,,"Ninh Kiều, Cần Thơ",VN
463,ChIJEzxeAiGIoDER3XzUKr9F4yQ,Cửa Hàng Quần Áo De INH,Cửa hàng phụ kiện thời trang,0939 841 007,"Cửa Hàng Quần Áo De INH, 5 Đ. 30 Tháng 4, An Phú, Ninh Kiều, Cần Thơ","An Phú, Ninh Kiều",5 Đ. 30 Tháng 4,Cần Thơ,,"Ninh Kiều, Cần Thơ",VN
464,ChIJ4eV5PJ9ioDER131uGOfJSVo,Cửa Hàng Quần Áo Phạm Thị Hương,Cửa hàng phụ kiện thời trang,0935 687 894,"Cửa Hàng Quần Áo Phạm Thị Hương, Đường Đ. Nguyễn Du, Tân An, Ninh Kiều, Cần Thơ","Tân An, Ninh Kiều",Đường Đ. Nguyễn Du,Cần Thơ,,"Ninh Kiều, Cần Thơ",VN
465,ChIJ_9onlUSIoDERzi3VUQ610fY,Shop Trang,Cửa hàng phụ kiện thời trang,0944 702 666,"Shop Trang, 117, Nguyễn Văn Cừ Nối Dài, Phường An Khánh, Quận Ninh Kiều, Thành Phố Cần Thơ, An Bình, Ninh Kiều, Cần Thơ","An Bình, Ninh Kiều","117, Nguyễn Văn Cừ Nối Dài, Phường An Khánh, Quận Ninh Kiều, Thành Phố Cần Thơ",Cần Thơ,,"Ninh Kiều, Cần Thơ",VN
466,ChIJV_cmD2WJoDERj7xcWJXuI8k,Trang Mun Shop,Cửa hàng quần áo nữ,0912 567 819,"Trang Mun Shop, 76 Đ. Nguyễn Việt Hồng, An Lạc, Ninh Kiều, Cần Thơ","An Lạc, Ninh Kiều",76 Đ. Nguyễn Việt Hồng,Cần Thơ,,"Ninh Kiều, Cần Thơ",VN
467,ChIJi3STYSGIoDEROuMeh0SVPMQ,Shop Tp Jeans,Cửa hàng phụ kiện thời trang,0913 923 459,"Shop Tp Jeans, 94 Đ. Mậu Thân, Xuân Khánh, Ninh Kiều, Cần Thơ","Xuân Khánh, Ninh Kiều",94 Đ. Mậu Thân,Cần Thơ,,"Ninh Kiều, Cần Thơ",VN
468,ChIJVVVVVUCIoDER6r7PZEWsSgU,Shop T & J,Cửa hàng phụ kiện thời trang,0939 657 014,"2QJ4+F76 Shop T & J, Đ. Trần Nam Phú, Phường An Khánh, Ninh Kiều, Cần Thơ","Phường An Khánh, Ninh Kiều","2QJ4+F76, Đ. Trần Nam Phú",Cần Thơ,,"Ninh Kiều, Cần Thơ",VN
469,ChIJx9Hg0B-IoDER7X8IzVl5fTY,Shop Lê Khương 90A,Cửa hàng phụ kiện thời trang,0949 347 476,"Shop Lê Khương 90A, 90A Đ. Đề Thám, Tân An, Ninh Kiều, Cần Thơ","Tân An, Ninh Kiều",90A Đ. Đề Thám,Cần Thơ,,"Ninh Kiều, Cần Thơ",VN
470,ChIJ38GmWrCJoDERrHU2nOVIPuk,thor2hand shop,Cửa hàng phụ kiện thời trang,0907 898 993,"thor2hand shop, 13 Đ. Trần Hưng Đạo, An Phú, Ninh Kiều, Cần Thơ","An Phú, Ninh Kiều",13 Đ. Trần Hưng Đạo,Cần Thơ,,"Ninh Kiều, Cần Thơ",VN
471,ChIJFy2umZ9ioDERhiFNbMFYqiI,Shop 122,Cửa hàng phụ kiện thời trang,7103825276,"Shop 122, 122 Đường Nguyễn An Ninh, Tân An, Ninh Kiều, Cần Thơ","Tân An, Ninh Kiều",122 Đường Nguyễn An Ninh,Cần Thơ,,"Ninh Kiều, Cần Thơ",VN
472,ChIJySWo4gqJoDER0RZ7pDuaqeU,thời trang nam,Chợ bán buôn quần áo,0988 683 069,"thời trang nam, 99 Đ. Mậu Thân, An Phú, Ninh Kiều, Cần Thơ","An Phú, Ninh Kiều",99 Đ. Mậu Thân,Cần Thơ,,"Ninh Kiều, Cần Thơ",VN
473,ChIJf-lSCLeJoDERlyZdvrmtlEk,Shop đồ lót Phạm Trang,Cửa hàng quần áo nữ,0931 080 491,"Shop đồ lót Phạm Trang, 39/11 Đường Yết Kiêu, An Cư, Ninh Kiều, Cần Thơ","An Cư, Ninh Kiều",39/11 Đường Yết Kiêu,Cần Thơ,,"Ninh Kiều, Cần Thơ",VN
474,ChIJ2_ASmSGIoDERcT8PPPr4VoU,Shop 150 Boutique,Cửa hàng phụ kiện thời trang,0939 575 777,"Shop 150 Boutique, 150 Đ. Nguyễn Việt Hồng, Xuân Khánh, Ninh Kiều, Cần Thơ","Xuân Khánh, Ninh Kiều",150 Đ. Nguyễn Việt Hồng,Cần Thơ,,"Ninh Kiều, Cần Thơ",VN
475,ChIJFb-3DahioDER9f5-BECIRIM,Shop Thời Trang 47,Cửa hàng quần áo,0933 222 426,"Shop Thời Trang 47, 47 Trần Văn Khéo, An Hội, Ninh Kiều, Cần Thơ","An Hội, Ninh Kiều",47 Trần Văn Khéo,Cần Thơ,,"Ninh Kiều, Cần Thơ",VN
476,ChIJmYwiqqdioDERBp4gB2G5oCU,Shop Thời Trang Poupon,Cửa hàng quần áo,,"Shop Thời Trang Poupon, 72 Nguyễn Trãi, An Hội, Ninh Kiều, Cần Thơ 90000","An Hội, Ninh Kiều",72 Nguyễn Trãi,Cần Thơ,90000.0,"Ninh Kiều, Cần Thơ",VN
477,ChIJbRQ_dsmJoDERxZKh84nUacc,Shop Thời trang DH,Cửa hàng quần áo nữ,,"Shop Thời trang DH, 5 Đ. Nguyễn Việt Hồng, An Phú, Ninh Kiều, Cần Thơ 900000","An Phú, Ninh Kiều",5 Đ. Nguyễn Việt Hồng,Cần Thơ,900000.0,"Ninh Kiều, Cần Thơ",VN
478,ChIJdXL1nJ9ioDERdpOa2_-pRdg,Shop Thời Trang Nguyễn,Cửa hàng quần áo,,"Shop Thời Trang Nguyễn, 33 Đ. Đồng Khởi, Tân An, Ninh Kiều, Cần Thơ","Tân An, Ninh Kiều",33 Đ. Đồng Khởi,Cần Thơ,,"Ninh Kiều, Cần Thơ",VN
479,ChIJc7NmmSGIoDERoXHJre55dZE,Shop Thời Trang A Lum,Cửa hàng quần áo,,"Shop Thời Trang A Lum, 110 Đ. Nguyễn Việt Hồng, Xuân Khánh, Ninh Kiều, Cần Thơ","Xuân Khánh, Ninh Kiều",110 Đ. Nguyễn Việt Hồng,Cần Thơ,,"Ninh Kiều, Cần Thơ",VN
480,ChIJyXUlXiKIoDERxfgcmtxERQs,Shop Thời Trang Nữ 135,Cửa hàng quần áo,0939 809 612,"Shop Thời Trang Nữ 135, 37 Đ. 3 Tháng 2, An Phú, Ninh Kiều, Cần Thơ","An Phú, Ninh Kiều",37 Đ. 3 Tháng 2,Cần Thơ,,"Ninh Kiều, Cần Thơ",VN
481,ChIJdx-u1KFioDERWuxxl9ugYh0,Shop Thời Trang Ly's,Cửa hàng quần áo,,"Shop Thời Trang Ly's, 74 Nguyễn Thái Học, Tân An, Ninh Kiều, Cần Thơ","Tân An, Ninh Kiều",74 Nguyễn Thái Học,Cần Thơ,,"Ninh Kiều, Cần Thơ",VN
482,ChIJ7Z7_UiGIoDERQUA9ZD_z_XU,Shop Thời Trang Chi,Cửa hàng quần áo,0919 306 960,"Shop Thời Trang Chi, 20 Đ. Mậu Thân, Xuân Khánh, Ninh Kiều, Cần Thơ","Xuân Khánh, Ninh Kiều",20 Đ. Mậu Thân,Cần Thơ,,"Ninh Kiều, Cần Thơ",VN
483,ChIJgwgRcTiIoDER5T5mzNjkB7s,Shop Thời Trang Trẻ Nguyễn Đại,Cửa hàng quần áo,,"2QF5+WJ8 Shop Thời Trang Trẻ Nguyễn Đại, Hẻm Liên Tổ 4-5, Hưng Lợi, Ninh Kiều, Cần Thơ","Hưng Lợi, Ninh Kiều","2QF5+WJ8, Hẻm Liên Tổ 4-5",Cần Thơ,,"Ninh Kiều, Cần Thơ",VN
484,ChIJtZxgeHRjoDERWDUyjfn1nO0,Shop Thời trang Homewear Styles,Cửa hàng quần áo,,"Shop Thời trang Homewear Styles, 29 Đ. Cao Bá Quát, P, Ninh Kiều, Cần Thơ","P, Ninh Kiều",29 Đ. Cao Bá Quát,Cần Thơ,,"Ninh Kiều, Cần Thơ",VN
485,ChIJM3qFnp5ioDERXqtHIraA1Ac,Shop Thời Trang 200,Cửa hàng quần áo,,"Shop Thời Trang 200, 200 Phan Đình Phùng, Tân An, Ninh Kiều, Cần Thơ","Tân An, Ninh Kiều",200 Phan Đình Phùng,Cần Thơ,,"Ninh Kiều, Cần Thơ",VN
486,ChIJpT2DXiGIoDERWojIGV15buc,Shop Thời Trang Jean's T & H,Cửa hàng quần áo,,"Shop Thời Trang Jean's T & H, 64 Đ. Mậu Thân, Xuân Khánh, Ninh Kiều, Cần Thơ","Xuân Khánh, Ninh Kiều",64 Đ. Mậu Thân,Cần Thơ,,"Ninh Kiều, Cần Thơ",VN
487,ChIJ1zOEuiGIoDERuZfmfoKZ2rI,Cửa Hàng Quần Áo Giang,Cửa hàng phụ kiện thời trang,0916 467 970,"Cửa Hàng Quần Áo Giang, 112 Đ. Nguyễn Việt Hồng, An Phú, Ninh Kiều, Cần Thơ","An Phú, Ninh Kiều",112 Đ. Nguyễn Việt Hồng,Cần Thơ,,"Ninh Kiều, Cần Thơ",VN
488,ChIJ_Sug9SCIoDER47uH-RORTtg,Shop Thời Trang Sh,Cửa hàng phụ kiện thời trang,0909 359 319,"Shop Thời Trang Sh, 43 Đ. 30 Tháng 4, An Lạc, Ninh Kiều, Cần Thơ","An Lạc, Ninh Kiều",43 Đ. 30 Tháng 4,Cần Thơ,,"Ninh Kiều, Cần Thơ",VN
489,ChIJ6UGcpyaIoDERYqSPODuy3RU,Shop Thời Trang Sheeps,Cửa hàng quần áo,0932 841 109,"Shop Thời Trang Sheeps, 222 Đ. 30 Tháng 4, Xuân Khánh, Ninh Kiều, Cần Thơ","Xuân Khánh, Ninh Kiều",222 Đ. 30 Tháng 4,Cần Thơ,,"Ninh Kiều, Cần Thơ",VN
490,ChIJh2q_aKuLoDERI6YB3-2G6JQ,Thời trang store,Cửa hàng quần áo,0961 216 216,"XQ84+5XM Thời trang store, Thường Thạnh, Cái Răng, Cần Thơ","Thường Thạnh, Cái Răng",XQ84+5XM,Cần Thơ,,"Cái Răng, Cần Thơ",VN
491,ChIJQ1dzI-hjoDERnN5cTbrydGQ,Thời trang nam nữ Anh Đức,Cửa hàng quần áo công sở,,"Thời trang nam nữ Anh Đức, 107a Nguyễn Trãi, An Hội, Ninh Kiều, Cần Thơ","An Hội, Ninh Kiều",107a Nguyễn Trãi,Cần Thơ,,"Ninh Kiều, Cần Thơ",VN
492,ChIJJUAs_KZioDERV2tvdsV-n7A,Shop Thời Trang Mattana,Cửa hàng phụ kiện thời trang,,"Shop Thời Trang Mattana, 67 Nguyễn Trãi, Tân An, Ninh Kiều, Cần Thơ","Tân An, Ninh Kiều",67 Nguyễn Trãi,Cần Thơ,,"Ninh Kiều, Cần Thơ",VN
494,ChIJ3fsnhp9ioDERZ8McmWPx4E0,Cửa Hàng Thời Trang Việt Anh,Cửa hàng quần áo,0292 3751 303,"Cửa Hàng Thời Trang Việt Anh, 308B, Đường 30/04, Quận Ninh Kiều, Tp Cần Thơ, Tân An, Ninh Kiều, Cần Thơ","Tân An, Ninh Kiều","308B, Đường 30/04, Quận Ninh Kiều, Tp Cần Thơ",Cần Thơ,,"Ninh Kiều, Cần Thơ",VN
499,ChIJn8yBQiGIoDERBMxiGUOzaAs,Cửa Hàng Thời Trang Việt Thảo,Cửa hàng quần áo nam,0903 783 383,"Cửa Hàng Thời Trang Việt Thảo, 35 Đ. Mậu Thân, An Nghiệp, Ninh Kiều, Cần Thơ","An Nghiệp, Ninh Kiều",35 Đ. Mậu Thân,Cần Thơ,,"Ninh Kiều, Cần Thơ",VN
514,ChIJD7B9uaZioDERAZMDCYskVho,Shop Thời Trang Hi Girls,Cửa hàng quần áo,,"Shop Thời Trang Hi Girls, 21 Nguyễn Trãi, Tân An, Ninh Kiều, Cần Thơ 920000","Tân An, Ninh Kiều",21 Nguyễn Trãi,Cần Thơ,920000.0,"Ninh Kiều, Cần Thơ",VN
517,ChIJIyqJKKJioDER8MUyX55cZrk,Shop Thời Trang Trẻ Em Thanh My,Cửa hàng quần áo,0292 3663 333,"Shop Thời Trang Trẻ Em Thanh My, 26 Đ. Thủ Khoa Huân, Tân An, Ninh Kiều, Cần Thơ","Tân An, Ninh Kiều",26 Đ. Thủ Khoa Huân,Cần Thơ,,"Ninh Kiều, Cần Thơ",VN
520,ChIJv6_b3qFioDERyXRdRcvYtqo,Shop Thời Trang Phương Vy,Cửa hàng quần áo,0292 2241 470,"Shop Thời Trang Phương Vy, 40 Nguyễn Thái Học, Tân An, Ninh Kiều, Cần Thơ","Tân An, Ninh Kiều",40 Nguyễn Thái Học,Cần Thơ,,"Ninh Kiều, Cần Thơ",VN
533,ChIJMww81KNioDERr-fLi_24MMo,Tuyền Fashion,Cửa hàng quần áo,,"Tuyền Fashion, 21 Ngô Gia Tự, Tân An, Ninh Kiều, Cần Thơ","Tân An, Ninh Kiều",21 Ngô Gia Tự,Cần Thơ,,"Ninh Kiều, Cần Thơ",VN
535,ChIJq6qqqq5ioDEROjg8QGCHqs8,Cửa Hàng Giày Dép Thời Trang Thu Thủy,Cửa hàng giày dép,0972 758 384,"Cửa Hàng Giày Dép Thời Trang Thu Thủy, Lô 16, Trung Tâm Thương Mại Cái Khế, Phường Cái Khế, Quận Ninh Kiều, Thành Phố Cần Thơ, Cái Khế, Ninh Kiều, Cần Thơ","Cái Khế, Ninh Kiều","Lô 16, Trung Tâm Thương Mại Cái Khế, Phường Cái Khế, Quận Ninh Kiều, Thành Phố Cần Thơ",Cần Thơ,,"Ninh Kiều, Cần Thơ",VN
536,ChIJS2XiuwKIoDERvoJlYbbCPJ4,Shop Thời Trang Hoàng Nam,Cửa hàng quần áo,0768 085 353,"Shop Thời Trang Hoàng Nam, 5 Nguyễn Trãi, An Hội, Ninh Kiều, Cần Thơ","An Hội, Ninh Kiều",5 Nguyễn Trãi,Cần Thơ,,"Ninh Kiều, Cần Thơ",VN
559,ChIJvdyb76dioDER8KrnaNJtW0o,SHOP THOI TRANG XUAN THANH,Cửa hàng quần áo,0907 080 630,"SHOP THOI TRANG XUAN THANH, 32 Trần Văn Khéo, An Hội, Ninh Kiều, Cần Thơ","An Hội, Ninh Kiều",32 Trần Văn Khéo,Cần Thơ,,"Ninh Kiều, Cần Thơ",VN
560,ChIJh9yNNKhioDER8eM8XPZm9MA,Shop Thời Trang Paltal,Cửa hàng quần áo,,"Shop Thời Trang Paltal, 45 Đ. Hồ Tùng Mậu, Cái Khế, Ninh Kiều, Cần Thơ","Cái Khế, Ninh Kiều",45 Đ. Hồ Tùng Mậu,Cần Thơ,,"Ninh Kiều, Cần Thơ",VN
565,ChIJqULD76dioDERgp0aH6wQBwE,Shop Thời Trang Chuồn Chuồn Ớt,Cửa hàng,0983 333 997,"Shop Thời Trang Chuồn Chuồn Ớt, 145 Nguyễn Trãi, An Hội, Ninh Kiều, Cần Thơ","An Hội, Ninh Kiều",145 Nguyễn Trãi,Cần Thơ,,"Ninh Kiều, Cần Thơ",VN
584,ChIJ0wsCehyIoDER0n3Q5DNb11w,Shop Thời Trang Phượng,Cửa hàng quần áo,0292 3832 180,"Shop Thời Trang Phượng, 27 Đ. Huỳnh Thúc Kháng, An Cư, Ninh Kiều, Cần Thơ","An Cư, Ninh Kiều",27 Đ. Huỳnh Thúc Kháng,Cần Thơ,,"Ninh Kiều, Cần Thơ",VN
615,ChIJoYhrDw2JoDERUwYhu2a7LR0,Shop Nguyễn Trâm,Cửa hàng quần áo nữ,0777 797 968,"Shop Nguyễn Trâm, 388F22 Hẻm Liên Tổ 3-4, Đ. Nguyễn Văn Cừ, Phường An Khánh, Ninh Kiều, Cần Thơ 900000","Phường An Khánh, Ninh Kiều","388F22 Hẻm Liên Tổ 3-4, Đ. Nguyễn Văn Cừ",Cần Thơ,900000.0,"Ninh Kiều, Cần Thơ",VN
621,ChIJp8lnJhqJoDERVqct2Uq7N_g,Shop quần áo giáng kiều,Cửa hàng quần áo nữ,0909 559 242,"Shop quần áo giáng kiều, 209 Đ. 30 Tháng 4, An Lạc, Ninh Kiều, Cần Thơ","An Lạc, Ninh Kiều",209 Đ. 30 Tháng 4,Cần Thơ,,"Ninh Kiều, Cần Thơ",VN
624,ChIJNXdN9BiIoDER3XMns4z6Tkk,Fashion Thúy Nga,Cửa hàng quần áo,0919 365 214,"Fashion Thúy Nga, 30 Đ. Mậu Thân, An Phú, Ninh Kiều, Cần Thơ","An Phú, Ninh Kiều",30 Đ. Mậu Thân,Cần Thơ,,"Ninh Kiều, Cần Thơ",VN
626,ChIJLwhgiEyJoDERDXtxAnNhY8I,Vân Shop,Cửa hàng quần áo nữ,,"Vân Shop, Hẻm 51 Đ. 3 Tháng 2, Xuân Khánh, Ninh Kiều, Cần Thơ 94000","Xuân Khánh, Ninh Kiều",Hẻm 51 Đ. 3 Tháng 2,Cần Thơ,94000.0,"Ninh Kiều, Cần Thơ",VN
627,ChIJkR7fUiGIoDER3z_2FNiBL88,Shop Jean's 135,Cửa hàng quần áo,,"Shop Jean's 135, 2 Đ. Mậu Thân, Xuân Khánh, Ninh Kiều, Cần Thơ","Xuân Khánh, Ninh Kiều",2 Đ. Mậu Thân,Cần Thơ,,"Ninh Kiều, Cần Thơ",VN
630,ChIJZznUsTaJoDERF1XJqvX7Vjk,Shop quần áo CHING,Cửa hàng quần áo nữ,0933 333 298,"Shop quần áo CHING, 317 Đ. Nguyễn Văn Linh, Phường An Khánh, Ninh Kiều, Cần Thơ","Phường An Khánh, Ninh Kiều",317 Đ. Nguyễn Văn Linh,Cần Thơ,,"Ninh Kiều, Cần Thơ",VN
631,ChIJE9DgOiKIoDERyB_O_ONJQLU,Fashion 999,Cửa hàng quần áo,,"Fashion 999, 83 Đ. Mậu Thân, Xuân Khánh, Ninh Kiều, Cần Thơ","Xuân Khánh, Ninh Kiều",83 Đ. Mậu Thân,Cần Thơ,,"Ninh Kiều, Cần Thơ",VN
632,ChIJ-XPvB6hioDERt-XDDvOsk0Q,Shop Quấn Áo Pl,Cửa hàng,0292 3763 666,"Shop Quấn Áo Pl, 8 Trần Văn Khéo, An Hội, Ninh Kiều, Cần Thơ","An Hội, Ninh Kiều",8 Trần Văn Khéo,Cần Thơ,,"Ninh Kiều, Cần Thơ",VN
633,ChIJ8Ub-_XyJoDERMcM7BvRMxFY,MinChu shop,Cửa hàng quần áo,,"MinChu shop, C1A/3T2, Xuân Khánh, Ninh Kiều, Cần Thơ","Xuân Khánh, Ninh Kiều",C1A/3T2,Cần Thơ,,"Ninh Kiều, Cần Thơ",VN
634,ChIJT6dT7XYrdTERXJtrJ3ljxTQ,Cỏ Fashion,Cửa hàng phụ kiện thời trang,0937 654 448,"Cỏ Fashion, 19 Đ. Tân Thới Nhất 1, Tân Thới Nhất, Quận 12, Thành phố Hồ Chí Minh 43000","Tân Thới Nhất, Quận 12",19 Đ. Tân Thới Nhất 1,Thành phố Hồ Chí Minh,43000.0,"Quận 12, Thành phố Hồ Chí Minh",VN
635,ChIJ03ogwhOsNTERpmIc1236sUo,Thời Trang,Cửa hàng quần áo,,"Thời Trang, Mai Động, Hoàng Mai, Hà Nội","Mai Động, Hoàng Mai",,Hà Nội,,"Hoàng Mai, Hà Nội",VN
637,ChIJuVwFFyJioDERZhnEoyyurMU,Tuyền's Fashion Shop,Cửa hàng quần áo,,"XRF4+2MC Tuyền's Fashion Shop, Đ. Nguyễn Văn Quy, Tân Phú, Cái Răng, Cần Thơ","Tân Phú, Cái Răng","XRF4+2MC, Đ. Nguyễn Văn Quy",Cần Thơ,,"Cái Răng, Cần Thơ",VN
638,ChIJkbutEiKIoDERmAolTewWbUU,Shop Quần áo 379,Trung tâm mua sắm,,"Shop Quần áo 379, 123 Đ. Mậu Thân, Xuân Khánh, Ninh Kiều, Cần Thơ","Xuân Khánh, Ninh Kiều",123 Đ. Mậu Thân,Cần Thơ,,"Ninh Kiều, Cần Thơ",VN
646,ChIJv2YTLbWJoDER_1TFSmo3aBc,DH Clothing - Thời trang công sở,Cửa hàng quần áo công sở,0944 515 951,"DH Clothing - Thời trang công sở, 5 Đ. Nguyễn Việt Hồng, An Lạc, Ninh Kiều, Cần Thơ 90000","An Lạc, Ninh Kiều",5 Đ. Nguyễn Việt Hồng,Cần Thơ,90000.0,"Ninh Kiều, Cần Thơ",VN
647,ChIJp_9UMhmIoDERp964Vhpl_oE,Shop Thời Trang May 10,Cửa hàng quần áo,0292 3735 180,"Shop Thời Trang May 10, 166 Đ. Trần Hưng Đạo, An Phú, Ninh Kiều, Cần Thơ","An Phú, Ninh Kiều",166 Đ. Trần Hưng Đạo,Cần Thơ,,"Ninh Kiều, Cần Thơ",VN
648,ChIJq6qqBw-IoDERp9nIAXU_R3M,Cửa Hàng Thời Trang Việt Tiến,Cửa hàng quần áo,0903 810 045,"Cửa Hàng Thời Trang Việt Tiến, 58, 30/4, Quận Ninh Kiều, Tp Cần Thơ, An Hoà, Ninh Kiều, Cần Thơ","An Hoà, Ninh Kiều","58, 30/4, Quận Ninh Kiều, Tp Cần Thơ",Cần Thơ,,"Ninh Kiều, Cần Thơ",VN
666,ChIJs7ni8x6IoDERdBvBOiVN63g,Thời Trang Tích Tắc,Cửa hàng quần áo,,"Thời Trang Tích Tắc, 5A Đ. Nguyễn Thần Hiến, An Cư, Ninh Kiều, Cần Thơ","An Cư, Ninh Kiều",5A Đ. Nguyễn Thần Hiến,Cần Thơ,,"Ninh Kiều, Cần Thơ",VN
680,ChIJHS5ptqFioDEREuLUM8jzOgg,Shop Yuu Fashion Style,Cửa hàng quần áo,,"Shop Yuu Fashion Style, 39A Đ. Ngô Văn Sở, Tân An, Ninh Kiều, Cần Thơ","Tân An, Ninh Kiều",39A Đ. Ngô Văn Sở,Cần Thơ,,"Ninh Kiều, Cần Thơ",VN
684,ChIJ8x2wyg-IoDERzFbBC_A7Fuo,Cửa Hàng Quần Áo Loan,Cửa hàng phụ kiện thời trang,0292 3893 330,"Cửa Hàng Quần Áo Loan, 331 Đ. Nguyễn Văn Cừ, An Hoà, Ninh Kiều, Cần Thơ","An Hoà, Ninh Kiều",331 Đ. Nguyễn Văn Cừ,Cần Thơ,,"Ninh Kiều, Cần Thơ",VN
687,ChIJdUs8Cw-IoDERbRKZ9hOMcIU,Shop Thời Trang Liễu,Cửa hàng quần áo,0979 198 778,"Shop Thời Trang Liễu, 224 Đ. Nguyễn Văn Cừ, An Hoà, Ninh Kiều, Cần Thơ","An Hoà, Ninh Kiều",224 Đ. Nguyễn Văn Cừ,Cần Thơ,,"Ninh Kiều, Cần Thơ",VN
690,ChIJZ2cqb2yIoDERaWrR9PN4ogg,Shop M & N Clothers,Cửa hàng phụ kiện thời trang,0939 121 619,"Shop M & N Clothers, 6 Đ. Tô Hiến Thành, Phường An Khánh, Ninh Kiều, Cần Thơ","Phường An Khánh, Ninh Kiều",6 Đ. Tô Hiến Thành,Cần Thơ,,"Ninh Kiều, Cần Thơ",VN
695,ChIJx4tAvp5ioDER2lY_EWQxBG4,Mami Fashion Shop,Cửa hàng quần áo,0292 3752 038,"Mami Fashion Shop, 167 Phan Đình Phùng, Tân An, Ninh Kiều, Cần Thơ","Tân An, Ninh Kiều",167 Phan Đình Phùng,Cần Thơ,,"Ninh Kiều, Cần Thơ",VN
707,ChIJ9TXKwOKHoDERVawkBXtwCy8,Trung Tâm Thời Trang,Cửa hàng quần áo,,"Trung Tâm Thời Trang, 184 Đ. Cách Mạng Tháng 8, Cái Khế, Bình Thủy, Cần Thơ","Cái Khế, Bình Thủy",184 Đ. Cách Mạng Tháng 8,Cần Thơ,,"Bình Thủy, Cần Thơ",VN
720,ChIJBc42WQaIoDERi5V-UMZVmK0,Công Ty Cổ Phần May Thời Trang Xanh,Cửa hàng quần áo,,"Công Ty Cổ Phần May Thời Trang Xanh, 37 Đ. Nguyễn Văn Cừ, An Hoà, Ninh Kiều, Cần Thơ","An Hoà, Ninh Kiều",37 Đ. Nguyễn Văn Cừ,Cần Thơ,,"Ninh Kiều, Cần Thơ",VN
726,ChIJwYgaYmuIoDERey5hUsNLav0,Thời Trang Trẻ Em Ti Ti,Cửa hàng quần áo,,"Thời Trang Trẻ Em Ti Ti, An Khánh, Ninh Kiều, Cần Thơ","An Khánh, Ninh Kiều",,Cần Thơ,,"Ninh Kiều, Cần Thơ",VN
736,ChIJ21yAusyJoDERghL-rjGxPxE,Shop Thời Trang Ngọc Tánh,Cửa hàng quần áo,0907 586 088,"2Q68+F55 Shop Thời Trang Ngọc Tánh, Đ. Trần Hoàng Na, Hưng Lợi, Ninh Kiều, Cần Thơ","Hưng Lợi, Ninh Kiều","2Q68+F55, Đ. Trần Hoàng Na",Cần Thơ,,"Ninh Kiều, Cần Thơ",VN
746,ChIJc5MXFSSIoDERG9cxJ4NQQ94,Tiệm May Thời Trang Nam Nữ,Thợ may,0902 982 007,"Tiệm May Thời Trang Nam Nữ, C101B, Đường Trần Khánh Dư, Quận Ninh Kiều, Xuân Khánh, Ninh Kiều, Cần Thơ","Xuân Khánh, Ninh Kiều","C101B, Đường Trần Khánh Dư, Quận Ninh Kiều",Cần Thơ,,"Ninh Kiều, Cần Thơ",VN
768,ChIJUUfMJTiJoDERoy2nCs6uwF4,Shop quần áo Én Boutique,Cửa hàng quần áo,0932 989 105,"Shop quần áo Én Boutique, 5 Đ. 3 Tháng 2, An Phú, Ninh Kiều, Cần Thơ 94000","An Phú, Ninh Kiều",5 Đ. 3 Tháng 2,Cần Thơ,94000.0,"Ninh Kiều, Cần Thơ",VN
772,ChIJAXvqOiKIoDERsW8ZAn41go0,Lọlem Clothing Store,Cửa hàng quần áo,,"Lọlem Clothing Store, 83 Đ. Mậu Thân, Xuân Khánh, Ninh Kiều, Cần Thơ","Xuân Khánh, Ninh Kiều",83 Đ. Mậu Thân,Cần Thơ,,"Ninh Kiều, Cần Thơ",VN
778,ChIJsRtN3OCHoDERtnXg0OzZRPc,An Thới,,,"An Thới, Bình Thủy, Cần Thơ","An Thới, Bình Thủy",,Cần Thơ,,"Bình Thủy, Cần Thơ",VN
786,ChIJs8olVymJoDERRNIeND05lGY,Thời Trang công sở- Kim Cương shop,Cửa hàng phụ kiện thời trang,0988 691 836,"Thời Trang công sở- Kim Cương shop, KV Trường Thọ 2, Cần Thơ","Phường An Khánh, Ninh Kiều",KV Trường Thọ 2,Cần Thơ,,"Ninh Kiều, Cần Thơ",VN
799,ChIJ_Vf3p8mJoDERrGss65RMf_Y,Tran Store,Cửa hàng phụ kiện thời trang,0912 910 345,"Tran Store, Khu vực 1, Cái Răng, Cần Thơ","Khu vực 1, Cái Răng",,Cần Thơ,,"Cái Răng, Cần Thơ",VN
858,ChIJP-udjQ77syIRT3tdyBOngms,Thời trang nam nử giá sỉ khánh vân shop,Cửa hàng quần áo,0939 288 510,,,,,,,
859,ChIJBZ_wiGCJoDERP4AOj4h2kb8,Lê Quỳnh - Kho Sỉ Thời Trang,Cửa hàng quần áo,,"Lê Quỳnh - Kho Sỉ Thời Trang, Liên Tổ/14 Cầu Rau Râm, An Bình, Ninh Kiều, Cần Thơ","An Bình, Ninh Kiều",Liên Tổ/14 Cầu Rau Râm,Cần Thơ,,"Ninh Kiều, Cần Thơ",VN
896,ChIJy1Qja7GJoDERg7nGwQlc3I0,Shop Thời Trang Hạnh,Cửa hàng quần áo,0292 3912 711,"Shop Thời Trang Hạnh, 59 Đinh Tiên Hoàng, Lê Bình, Cái Răng, Cần Thơ","Lê Bình, Cái Răng",59 Đinh Tiên Hoàng,Cần Thơ,,"Cái Răng, Cần Thơ",VN
936,ChIJq80_tzeIoDERkyM-PXOe3tg,Thời Trang Nữ Trang Đào,Cửa hàng quần áo,,"Thời Trang Nữ Trang Đào, Hưng Lợi, Ninh Kiều, Cần Thơ","Hưng Lợi, Ninh Kiều",,Cần Thơ,,"Ninh Kiều, Cần Thơ",VN
937,ChIJh8GC4cSJoDER2DqGGeRjJSA,Tổng Kho Buôn Thời Trang Hồ Gia,Cửa hàng phụ kiện thời trang,0907 401 011,"Tổng Kho Buôn Thời Trang Hồ Gia, 22 Đường B24, Khu dân cư 91B, Ninh Kiều, Cần Thơ","Khu dân cư 91B, Ninh Kiều",22 Đường B24,Cần Thơ,,"Ninh Kiều, Cần Thơ",VN
938,ChIJZw4mbkeIoDERvGxkdw7zXgs,Shop Thời Trang Lê Thái,Cửa hàng,0908 669 234,"Shop Thời Trang Lê Thái, 335 QL91B, Hưng Lợi, Ninh Kiều, Cần Thơ","Hưng Lợi, Ninh Kiều",335 QL91B,Cần Thơ,,"Ninh Kiều, Cần Thơ",VN
939,ChIJuc8GXTqIoDERUcESEOaTCs8,Shop Thời Trang Phương Thảo 2,Cửa hàng quần áo,,"2QF8+JP7 Shop Thời Trang Phương Thảo 2, Đ. 3 Tháng 2, Hưng Lợi, Ninh Kiều, Cần Thơ","Hưng Lợi, Ninh Kiều","2QF8+JP7, Đ. 3 Tháng 2",Cần Thơ,,"Ninh Kiều, Cần Thơ",VN
940,ChIJ4cBjr_BjoDERz23RLGU90nw,Shop thời trang Lê Trân,Cửa hàng quần áo nữ,0903 178 219,,,,,,,
941,ChIJgREtGzWIoDERrAVlwRKf3cM,Cửa Hàng Thời Trang Subin,Cửa hàng quần áo,0292 3837 280,"Cửa Hàng Thời Trang Subin, 223, Đường 30/04, Quận Ninh Kiều, Tp Cần Thơ, Hưng Lợi, Ninh Kiều, Cần Thơ","Hưng Lợi, Ninh Kiều","223, Đường 30/04, Quận Ninh Kiều, Tp Cần Thơ",Cần Thơ,,"Ninh Kiều, Cần Thơ",VN
942,ChIJ2RnaXDqIoDER-z6bUhMlSwE,Cửa Hàng Thời Trang Nam Nữ Blue,Cửa hàng quần áo,0292 3723 672,"Cửa Hàng Thời Trang Nam Nữ Blue, 178, Đường 3/2, Quận Ninh Kiều, Tp Cần Thơ, Hưng Lợi, Ninh Kiều, Cần Thơ","Hưng Lợi, Ninh Kiều","178, Đường 3/2, Quận Ninh Kiều, Tp Cần Thơ",Cần Thơ,,"Ninh Kiều, Cần Thơ",VN
943,ChIJFYIKAjWIoDERb2yql_v_8ok,3 Co Gai Fashion Shop,Cửa hàng quần áo,0292 3839 657,"3 Co Gai Fashion Shop, City, 76 30/4 Street, Hưng Lợi, Ninh Kiều, Cần Thơ","Hưng Lợi, Ninh Kiều","City, 76 30/4 Street",Cần Thơ,,"Ninh Kiều, Cần Thơ",VN
944,ChIJj5NA-DOIoDERoS6pZdItT88,boniwa chuyên sỉ thời trang,Cửa hàng quần áo,0907 256 146,"boniwa chuyên sỉ thời trang, 180/4 đường 30/4, Hưng Lợi, Ninh Kiều, Hưng Lợi, Ninh Kiều, Cần Thơ","Hưng Lợi, Ninh Kiều","180/4 đường 30/4, Hưng Lợi, Ninh Kiều",Cần Thơ,,"Ninh Kiều, Cần Thơ",VN
945,ChIJwRzBTkGIoDERFud2B5K-RzM,Shop Thời Trang Đồng Phục Cần Thơ,Cửa hàng quần áo,,"2QH3+HFP Shop Thời Trang Đồng Phục Cần Thơ, Đ. Nguyễn Văn Linh, Phường An Khánh, Ninh Kiều, Cần Thơ","Phường An Khánh, Ninh Kiều","2QH3+HFP, Đ. Nguyễn Văn Linh",Cần Thơ,,"Ninh Kiều, Cần Thơ",VN
949,ChIJ4R9oaTKIoDER4MAkqn9Zf0k,Shop Thời Trang - ANBO,Cửa hàng quần áo,0984 847 920,"Shop Thời Trang - ANBO, 246/18L/7 Tầm Vu, Hưng Lợi, Ninh Kiều, Cần Thơ 900000","Hưng Lợi, Ninh Kiều",246/18L/7 Tầm Vu,Cần Thơ,900000.0,"Ninh Kiều, Cần Thơ",VN
965,ChIJO-PEbUeIoDERCw7wVygw9nQ,Shop Thời Trang Lan Thảo,Cửa hàng quần áo,,"Shop Thời Trang Lan Thảo, 327 Đ. Nguyễn Văn Linh, Hưng Lợi, Ninh Kiều, Cần Thơ","Hưng Lợi, Ninh Kiều",327 Đ. Nguyễn Văn Linh,Cần Thơ,,"Ninh Kiều, Cần Thơ",VN
966,ChIJp5gfWDSIoDERtLvopazEjDs,Cửa Hàng Thời Trang Công Sở A Sỹ Dương,Cửa hàng quần áo,0934 743 659,"Cửa Hàng Thời Trang Công Sở A Sỹ Dương, 124A Đ. 30 Tháng 4, Hưng Lợi, Ninh Kiều, Cần Thơ","Hưng Lợi, Ninh Kiều",124A Đ. 30 Tháng 4,Cần Thơ,,"Ninh Kiều, Cần Thơ",VN
967,ChIJGYdDFDSIoDERxAnMQ574-qY,Cửa Hàng Thời Trang BN Nguyễn,Cửa hàng quần áo,0292 3736 482,"Cửa Hàng Thời Trang BN Nguyễn, 279, Đường 30/04, Quận Ninh Kiều, Tp Cần Thơ, Hưng Lợi, Ninh Kiều, Cần Thơ","Hưng Lợi, Ninh Kiều","279, Đường 30/04, Quận Ninh Kiều, Tp Cần Thơ",Cần Thơ,,"Ninh Kiều, Cần Thơ",VN
968,ChIJl9LpkTeIoDERRPhNESKteVY,Công Ty Tnhh Thời Trang Eros Việt Nam,Cửa hàng quần áo,,"Công Ty Tnhh Thời Trang Eros Việt Nam, 12 Đường số 1, Hưng Lợi, Ninh Kiều, Cần Thơ","Hưng Lợi, Ninh Kiều",12 Đường số 1,Cần Thơ,,"Ninh Kiều, Cần Thơ",VN
974,ChIJU0v_OJ9ioDERnLsVaTfNHIA,Shop Thời Trang Mojo,Cửa hàng quần áo,0939 004 004,"Shop Thời Trang Mojo, 34 Đường Nguyễn An Ninh, Tân An, Ninh Kiều, Cần Thơ","Tân An, Ninh Kiều",34 Đường Nguyễn An Ninh,Cần Thơ,,"Ninh Kiều, Cần Thơ",VN
980,ChIJC-qOHTCIoDERe479bZPmG2M,Shop Thời Trang Trẻ,Cửa hàng,,"Shop Thời Trang Trẻ, 312 Đ. 30 Tháng 4, Xuân Khánh, Ninh Kiều, Cần Thơ","Xuân Khánh, Ninh Kiều",312 Đ. 30 Tháng 4,Cần Thơ,,"Ninh Kiều, Cần Thơ",VN
1004,ChIJEwDdrCSJoDERdsUR0_cztOE,Ré House Clothes - Chuyên Thời Trang Nữ,Cửa hàng quần áo nữ,0907 783 805,"2PWW+3P9 Ré House Clothes - Chuyên Thời Trang Nữ, Phường An Khánh, Ninh Kiều, Cần Thơ","Phường An Khánh, Ninh Kiều",2PWW+3P9,Cần Thơ,,"Ninh Kiều, Cần Thơ",VN
1037,ChIJQ19tsyOJoDER3RstNQzN8kY,Miu Shop (Thời Trang Nam & Nữ),Cửa hàng quần áo,0901 170 196,"Miu Shop (Thời Trang Nam & Nữ), 19a Đ. Mạc Thiên Tích, An Phú, Ninh Kiều, Cần Thơ","An Phú, Ninh Kiều",19a Đ. Mạc Thiên Tích,Cần Thơ,,"Ninh Kiều, Cần Thơ",VN
1041,ChIJm3tOISGIoDERybmUS7GFimU,Thời Trang Cao Cấp Diva,Cửa hàng quần áo,0938 369 307,"2QHH+9G4 Thời Trang Cao Cấp Diva, Đ. 30 Tháng 4, An Lạc, Ninh Kiều, Cần Thơ","An Lạc, Ninh Kiều","2QHH+9G4, Đ. 30 Tháng 4",Cần Thơ,,"Ninh Kiều, Cần Thơ",VN
1046,ChIJ0TNQJSKIoDERtbT9wAmEMOQ,Cửa Hàng Thời Trang Minh Trâm,Cửa hàng phụ kiện thời trang,0913 737 177,"Cửa Hàng Thời Trang Minh Trâm, 75 Đ. Mậu Thân, An Nghiệp, Ninh Kiều, Cần Thơ","An Nghiệp, Ninh Kiều",75 Đ. Mậu Thân,Cần Thơ,,"Ninh Kiều, Cần Thơ",VN
1047,ChIJnXd59x-IoDERl3vp0Pcg7xk,Shop Thời Trang Trung Niên A Nitagreen,Cửa hàng phụ kiện thời trang,0939 767 189,"Shop Thời Trang Trung Niên A Nitagreen, 74 Đ. Trần Bình Trọng, An Phú, Ninh Kiều, Cần Thơ 940000","An Phú, Ninh Kiều",74 Đ. Trần Bình Trọng,Cần Thơ,940000.0,"Ninh Kiều, Cần Thơ",VN
1049,ChIJ7QdGFCKIoDERM3PnCd101rs,Shop Thời Trang Trẻ Em Baby,Cửa hàng quần áo,0292 3770 079,"Shop Thời Trang Trẻ Em Baby, 101 Đ. Mậu Thân, An Phú, Ninh Kiều, Cần Thơ","An Phú, Ninh Kiều",101 Đ. Mậu Thân,Cần Thơ,,"Ninh Kiều, Cần Thơ",VN
1064,ChIJBQjpB8mJoDERObsuZXEJ9A8,Thời trang công sở vinhtien,Cửa hàng quần áo công sở,,"Thời trang công sở vinhtien, 13 Đ. Mậu Thân, Xuân Khánh, Ninh Kiều, Cần Thơ","Xuân Khánh, Ninh Kiều",13 Đ. Mậu Thân,Cần Thơ,,"Ninh Kiều, Cần Thơ",VN
1067,ChIJBZcZyxiIoDERV0_0_AYcph0,Shop Thời Trang Bella,Cửa hàng quần áo,0939 482 699,"Shop Thời Trang Bella, 227 Đ. Trần Bình Trọng, An Phú, Ninh Kiều, Cần Thơ","An Phú, Ninh Kiều",227 Đ. Trần Bình Trọng,Cần Thơ,,"Ninh Kiều, Cần Thơ",VN
1070,ChIJAQOmPCKIoDERAAHO3InBU_s,Shop Thời Trang Anh Thư,Cửa hàng quần áo,0782 845 635,"Shop Thời Trang Anh Thư, 142 Đ. Mậu Thân, An Phú, Ninh Kiều, Cần Thơ","An Phú, Ninh Kiều",142 Đ. Mậu Thân,Cần Thơ,,"Ninh Kiều, Cần Thơ",VN
1071,ChIJmaA8TSGIoDER5xbUqGXnKjA,Shop Thời Trang Trẻ Em Thảo Anh,Cửa hàng quần áo,0292 3828 914,"Shop Thời Trang Trẻ Em Thảo Anh, 16 Đ. Mậu Thân, An Phú, Ninh Kiều, Cần Thơ","An Phú, Ninh Kiều",16 Đ. Mậu Thân,Cần Thơ,,"Ninh Kiều, Cần Thơ",VN
1076,ChIJz40CyiOIoDERpRXv_tQxsNc,Công Ty Tnhh Thời Trang Eros Việt Nam,Cửa hàng quần áo,,"Công Ty Tnhh Thời Trang Eros Việt Nam, 9 Đ. Mạc Thiên Tích, Xuân Khánh, Ninh Kiều, Cần Thơ 900000","Xuân Khánh, Ninh Kiều",9 Đ. Mạc Thiên Tích,Cần Thơ,900000.0,"Ninh Kiều, Cần Thơ",VN
1078,ChIJGzuGbyKIoDERPfKIa1YokcU,Shop Thời Trang Trẻ,Cửa hàng,,"Shop Thời Trang Trẻ, 7 Đ. 3 Tháng 2, An Phú, Ninh Kiều, Cần Thơ","An Phú, Ninh Kiều",7 Đ. 3 Tháng 2,Cần Thơ,,"Ninh Kiều, Cần Thơ",VN
1085,ChIJB5VjSaBioDERbxjTUAKmq8Q,Cửa Hàng Thời Trang Anh Thư,Cửa hàng quần áo,0292 3824 431,"Cửa Hàng Thời Trang Anh Thư, 22 Đại lộ Hoà Bình, Tân An, Ninh Kiều, Cần Thơ 94112","Tân An, Ninh Kiều",22 Đại lộ Hoà Bình,Cần Thơ,94112.0,"Ninh Kiều, Cần Thơ",VN
1089,ChIJKx5-c6BioDER2l1za_Cp_p4,Shop Thời Trang Hello Kitty,Cửa hàng,,"Shop Thời Trang Hello Kitty, 62 Đ. Đề Thám, Tân An, Ninh Kiều, Cần Thơ","Tân An, Ninh Kiều",62 Đ. Đề Thám,Cần Thơ,,"Ninh Kiều, Cần Thơ",VN
1090,ChIJJXTWfp9ioDERc_CeDwMfzF4,Cửa Hàng Thời Trang 45 Nam Kỳ Khởi Nghĩa,Cửa hàng,0292 3812 547,"Cửa Hàng Thời Trang 45 Nam Kỳ Khởi Nghĩa, 45 Đ. Nam Kỳ Khởi Nghĩa, Tân An, Ninh Kiều, Cần Thơ","Tân An, Ninh Kiều",45 Đ. Nam Kỳ Khởi Nghĩa,Cần Thơ,,"Ninh Kiều, Cần Thơ",VN
1092,ChIJPeObFiCIoDERLPGt6k4VyZg,Cửa Hàng Thời Trang Trẻ Em Jolly,Cửa hàng quần áo trẻ em,0907 597 587,"Cửa Hàng Thời Trang Trẻ Em Jolly, 28 Đ. Nguyễn Việt Hồng, An Lạc, Ninh Kiều, Cần Thơ","An Lạc, Ninh Kiều",28 Đ. Nguyễn Việt Hồng,Cần Thơ,,"Ninh Kiều, Cần Thơ",VN
1093,ChIJ4W4VM59ioDERhDDLVjfISoI,Shop Thời Trang Nhựt Minh,Cửa hàng quần áo,0292 3827 238,"Shop Thời Trang Nhựt Minh, 8 Đường Hai Bà Trưng, Tân An, Ninh Kiều, Cần Thơ","Tân An, Ninh Kiều",8 Đường Hai Bà Trưng,Cần Thơ,,"Ninh Kiều, Cần Thơ",VN
1098,ChIJbaF1PZ9ioDER2VP3ZNruoow,Shop Thời Trang Tulip,Cửa hàng quần áo,0292 3820 631,"Shop Thời Trang Tulip, 75 Phan Đình Phùng, Tân An, Ninh Kiều, Cần Thơ","Tân An, Ninh Kiều",75 Phan Đình Phùng,Cần Thơ,,"Ninh Kiều, Cần Thơ",VN
1102,ChIJzVy2OSCIoDER8Lz15xZR9vQ,Shop Thời Trang Barbie,Cửa hàng quần áo,,"Shop Thời Trang Barbie, 46 Đ. Nguyễn Việt Hồng, An Lạc, Ninh Kiều, Cần Thơ","An Lạc, Ninh Kiều",46 Đ. Nguyễn Việt Hồng,Cần Thơ,,"Ninh Kiều, Cần Thơ",VN
1108,ChIJI7l84SCIoDERCjLgKCIwu3c,Cửa Hàng Thời Trang Ivy Moda,Cửa hàng phụ kiện thời trang,0292 3860 498,"Cửa Hàng Thời Trang Ivy Moda, 126 Đ. 30 Tháng 4, An Lạc, Ninh Kiều, Cần Thơ","An Lạc, Ninh Kiều",126 Đ. 30 Tháng 4,Cần Thơ,,"Ninh Kiều, Cần Thơ",VN
1111,ChIJX7tHXZ9ioDERrLWJADwHpqY,Cửa Hàng Kính Thời Trang Kỳ Quang,Cửa hàng kính mát,0292 3824 658,"Cửa Hàng Kính Thời Trang Kỳ Quang, 2 Đ. Nam Kỳ Khởi Nghĩa, Tân An, Ninh Kiều, Cần Thơ","Tân An, Ninh Kiều",2 Đ. Nam Kỳ Khởi Nghĩa,Cần Thơ,,"Ninh Kiều, Cần Thơ",VN
1113,ChIJUdh9LKBioDERo1q9ib5sybc,Shop Thời Trang Mojo,Cửa hàng quần áo,0292 3819 304,"Shop Thời Trang Mojo, 78 Nguyễn Thái Học, Tân An, Ninh Kiều, Cần Thơ","Tân An, Ninh Kiều",78 Nguyễn Thái Học,Cần Thơ,,"Ninh Kiều, Cần Thơ",VN
1114,ChIJPUc3EqBioDERL4-oN94KFkk,Shop Thời Trang Yoko Yuri,Cửa hàng,,"Shop Thời Trang Yoko Yuri, 23 Đ. Đề Thám, Tân An, Ninh Kiều, Cần Thơ","Tân An, Ninh Kiều",23 Đ. Đề Thám,Cần Thơ,,"Ninh Kiều, Cần Thơ",VN
1116,ChIJ0U4vQ59ioDERxV5c-AKoRiU,Tu Oanh Fashion Store,Cửa hàng quần áo,0292 3827 203,"Tu Oanh Fashion Store, 56C Đ. Nam Kỳ Khởi Nghĩa, Tân An, Ninh Kiều, Cần Thơ","Tân An, Ninh Kiều",56C Đ. Nam Kỳ Khởi Nghĩa,Cần Thơ,,"Ninh Kiều, Cần Thơ",VN
1118,ChIJNzOveJ9ioDERYr0gw5klQAM,Cửa Hàng Thời Trang Phương Tường,Cửa hàng quần áo,,"Cửa Hàng Thời Trang Phương Tường, 29 Đ. Đồng Khởi, Tân An, Ninh Kiều, Cần Thơ","Tân An, Ninh Kiều",29 Đ. Đồng Khởi,Cần Thơ,,"Ninh Kiều, Cần Thơ",VN
1119,ChIJ1-Buj59ioDERsZ4qgS6Gvjk,Shop Thời Trang Hướng Dương,Cửa hàng quần áo,0292 3750 789,"Shop Thời Trang Hướng Dương, 54 Đ. Nam Kỳ Khởi Nghĩa, Tân An, Ninh Kiều, Cần Thơ","Tân An, Ninh Kiều",54 Đ. Nam Kỳ Khởi Nghĩa,Cần Thơ,,"Ninh Kiều, Cần Thơ",VN
1124,ChIJI7Q9759ioDERCCj5RZsSq5g,Cửa Hàng Nón Thời Trang Tư Cho,Cửa hàng quần áo,0292 3820 839,"Cửa Hàng Nón Thời Trang Tư Cho, 164 Đường Nguyễn An Ninh, An Lạc, Ninh Kiều, Cần Thơ","An Lạc, Ninh Kiều",164 Đường Nguyễn An Ninh,Cần Thơ,,"Ninh Kiều, Cần Thơ",VN
1126,ChIJE3-lt6FioDERuAGd4AICPIw,Cửa Hàng Thời Trang Giày Dép Thanh Trúc,Cửa hàng phụ kiện thời trang,0292 2210 499,"Cửa Hàng Thời Trang Giày Dép Thanh Trúc, 33 Đ. Ngô Văn Sở, Tân An, Ninh Kiều, Cần Thơ","Tân An, Ninh Kiều",33 Đ. Ngô Văn Sở,Cần Thơ,,"Ninh Kiều, Cần Thơ",VN
1128,ChIJh09FPSCIoDERyJU8iEqQvh0,Shop Thời Trang Strawberry,Cửa hàng quần áo,0909 192 190,"Shop Thời Trang Strawberry, 11 Đ. Nguyễn Việt Hồng, An Lạc, Ninh Kiều, Cần Thơ","An Lạc, Ninh Kiều",11 Đ. Nguyễn Việt Hồng,Cần Thơ,,"Ninh Kiều, Cần Thơ",VN
1129,ChIJRa94PCCIoDERUjoutBTM6e8,Shop Thời Trang Cherish,Cửa hàng quần áo,0939 888 809,"Shop Thời Trang Cherish, 21 Đ. Nguyễn Việt Hồng, An Lạc, Ninh Kiều, Cần Thơ","An Lạc, Ninh Kiều",21 Đ. Nguyễn Việt Hồng,Cần Thơ,,"Ninh Kiều, Cần Thơ",VN
1130,ChIJnTDtkKBioDERZjU0aim6vbQ,Shop Thời Trang - Túi Xách Ngọc Ngân,Cửa hàng,,"Shop Thời Trang - Túi Xách Ngọc Ngân, 6 Hẻm 22 Đ. Mạc Đĩnh Chi, Tân An, Ninh Kiều, Cần Thơ","Tân An, Ninh Kiều",6 Hẻm 22 Đ. Mạc Đĩnh Chi,Cần Thơ,,"Ninh Kiều, Cần Thơ",VN
1131,ChIJJ_ADIJ9ioDERspXQZnONny4,Shop Thời Trang Tuấn Hiền,Cửa hàng quần áo,0292 3828 085,"Shop Thời Trang Tuấn Hiền, 108 Phan Đình Phùng, Tân An, Ninh Kiều, Cần Thơ","Tân An, Ninh Kiều",108 Phan Đình Phùng,Cần Thơ,,"Ninh Kiều, Cần Thơ",VN
1136,ChIJt3fDNZ9ioDER6XMPJNzlLMc,Cửa Hàng Thời Trang Viễn Huy,Cửa hàng phụ kiện thời trang,0292 3821 165,"Cửa Hàng Thời Trang Viễn Huy, 4 Đường Châu Văn Liêm, Tân An, Ninh Kiều, Cần Thơ","Tân An, Ninh Kiều",4 Đường Châu Văn Liêm,Cần Thơ,,"Ninh Kiều, Cần Thơ",VN
1139,ChIJC56JNZ9ioDERbA5NxhxjSck,Phuong Nghi Fashion Store,Cửa hàng quần áo,0292 3811 615,"Phuong Nghi Fashion Store, 2 Đường Nguyễn An Ninh, Tân An, Ninh Kiều, Cần Thơ","Tân An, Ninh Kiều",2 Đường Nguyễn An Ninh,Cần Thơ,,"Ninh Kiều, Cần Thơ",VN
