,place_id,name,main_category,phone,address,address_ward,address_street,address_city,address_postal_code,address_state,address_country_code
0,ChIJCfHdwHmJoDERV3YCGfAaMYk,TÀIBARBER ( Hớt tóc nam ),Hiệu làm tóc,+84 899 079 604,"TÀIBARBER ( Hớt tóc nam ), 91B Đ. Phạm Ngũ Lão, Thới Bình, Ninh Kiều, Cần Thơ 94106, Việt Nam","Thới Bình, Ninh Kiều",91B Đ. Phạm Ngũ Lão,Cần Thơ,94106.0,"Ninh Kiều, Cần Thơ",VN
9,ChIJ7YPMJOpjoDERzYmUmkDaobU,Tóc Nam Quán Cần Thơ,Hiệu làm tóc,+84 937 097 263,"Tóc Nam Quán Cần Thơ, 80 Đ.Xô Viết Nghệ Tĩnh, P, Ninh Kiều, Cần Thơ 70000, Việt Nam","P, Ninh Kiều",80 Đ.Xô Viết Nghệ Tĩnh,Cần Thơ,70000.0,"Ninh Kiều, Cần Thơ",VN
24,ChIJI926NxKIoDERfGeXQW7ed4Y,Tiệm Tóc Lê Vững Barber Shop,Tiệm cắt tóc,+84 932 464 388,"Tiệm Tóc Lê Vững Barber Shop, 12/20 Nguyễn Văn Cừ Nối Dài, Phường An Khánh, Ninh Kiều, Cần Thơ, Việt Nam","Phường An Khánh, Ninh Kiều",12/20 Nguyễn Văn Cừ Nối Dài,Cần Thơ,,"Ninh Kiều, Cần Thơ",VN
26,ChIJ87ZfVDqIoDERAdhI_JGIaAk,Cắt Tóc DuyAnh,Tiệm cắt tóc,+84 907 380 951,"Cắt Tóc DuyAnh, 49A Hẻm 51, Xuân Khánh, Ninh Kiều, Cần Thơ 94000, Việt Nam","Xuân Khánh, Ninh Kiều",49A Hẻm 51,Cần Thơ,94000.0,"Ninh Kiều, Cần Thơ",VN
41,ChIJOa5oAjuIoDERmHb1YUOmtTw,Salon VŨ IRAN 3,Hiệu làm tóc,+84 933 466 911,"Salon VŨ IRAN 3, 45 Đ. 3 Tháng 2, Xuân Khánh, Ninh Kiều, Cần Thơ, Việt Nam","Xuân Khánh, Ninh Kiều",45 Đ. 3 Tháng 2,Cần Thơ,,"Ninh Kiều, Cần Thơ",VN
43,ChIJ7U4mqQaJoDER0YNZKC-geIQ,Tóc Nam Đẹp Phong BvB Cần Thơ,Tiệm cắt tóc,+84 812 941 555,"Tóc Nam Đẹp Phong BvB Cần Thơ, 398e Nguyễn Văn Cừ Nối Dài, Phường An Khánh, Ninh Kiều, Cần Thơ, Việt Nam","Phường An Khánh, Ninh Kiều",398e Nguyễn Văn Cừ Nối Dài,Cần Thơ,,"Ninh Kiều, Cần Thơ",VN
44,ChIJR9GCMsKHoDERmkKQOgUj_Sk,Salon biti can thơ,Tiệm cắt tóc,,"Salon biti can thơ, 496A Đ. Cách Mạng Tháng 8, Bùi Hữu Nghĩa, Bình Thủy, Cần Thơ, Việt Nam","Bùi Hữu Nghĩa, Bình Thủy",496A Đ. Cách Mạng Tháng 8,Cần Thơ,,"Bình Thủy, Cần Thơ",VN
45,ChIJ25LHCIaJoDERnkyaI6i6xf4,Cắt Tóc Nam D.A.T Barbers III,Tiệm cắt tóc,+84 907 711 742,"Cắt Tóc Nam D.A.T Barbers III, 91a3 Đường 3-2, An Bình, Ninh Kiều, Cần Thơ, Việt Nam","An Bình, Ninh Kiều",91a3 Đường 3-2,Cần Thơ,,"Ninh Kiều, Cần Thơ",VN
53,ChIJDW8a_C-IoDERhtGhAvM9kjA,Hớt Tóc Son,Hiệu làm tóc,+84 909 995 848,"Hớt Tóc Son, 320/4 Trần Ngọc Quế Xuân Khánh Ninh Kiều Can Tho City, 70010, Việt Nam","Xuân Khánh, Ninh Kiều",320/4 Trần Ngọc Quế Xuân Khánh Ninh Kiều Can Tho City,Cần Thơ,70010.0,"Ninh Kiều, Cần Thơ",VN
65,ChIJO7fCwR6IoDERJVUZ4zVK_9I,Hair Salon Thảo Tây,Hiệu làm tóc,+84 966 666 337,"Hair Salon Thảo Tây, 130 Đ. Lý Tự Trọng, An Cư, Ninh Kiều, Cần Thơ 700000, Việt Nam","An Cư, Ninh Kiều",130 Đ. Lý Tự Trọng,Cần Thơ,700000.0,"Ninh Kiều, Cần Thơ",VN
66,ChIJR9V1CI-JoDER1qudRmTL4Yg,NỐI TÓC TOÀN TÂY,Hiệu làm tóc,+84 987 912 600,"NỐI TÓC TOÀN TÂY, 17 Đ. Cách Mạng Tháng 8, Thới Bình, Ninh Kiều, Cần Thơ, Việt Nam","Thới Bình, Ninh Kiều",17 Đ. Cách Mạng Tháng 8,Cần Thơ,,"Ninh Kiều, Cần Thơ",VN
78,ChIJSf0Vwl-JoDERlYLNxBXBRn8,Hair salon Đào Lê- Tóc Đẹp Cần Thơ,Tiệm cắt tóc,+84 348 181 477,"Hair salon Đào Lê- Tóc Đẹp Cần Thơ, 583 Đ. 30 Tháng 4, Hưng Lợi, Ninh Kiều, Cần Thơ 902220, Việt Nam","Hưng Lợi, Ninh Kiều",583 Đ. 30 Tháng 4,Cần Thơ,902220.0,"Ninh Kiều, Cần Thơ",VN
79,ChIJif5cFzmJoDERJdsWfQgm1Mc,Tóc Giả Sakura Cần Thơ,Cửa hàng tóc giả,+84 981 701 235,"Tóc Giả Sakura Cần Thơ, Hẻm 2 Đ. Nguyễn Việt Hồng, Xuân Khánh, Ninh Kiều, Cần Thơ 94000, Việt Nam","Xuân Khánh, Ninh Kiều",Hẻm 2 Đ. Nguyễn Việt Hồng,Cần Thơ,94000.0,"Ninh Kiều, Cần Thơ",VN
80,ChIJRfpWHsmJoDERxbcUx3R28gQ,Tiệm tóc nam Nghĩa Sumo,Hiệu làm tóc,,"Tiệm tóc nam Nghĩa Sumo, 188 Đ. Nguyễn Văn Cừ, An Hoà, Ninh Kiều, Cần Thơ, Việt Nam","An Hoà, Ninh Kiều",188 Đ. Nguyễn Văn Cừ,Cần Thơ,,"Ninh Kiều, Cần Thơ",VN
89,ChIJFXjiK8iJoDER2qsjIs1wzow,Cắt Tóc Nam D.A.T Barbers II,Hiệu làm tóc,+84 985 550 108,"Cắt Tóc Nam D.A.T Barbers II, 116A Đ. Trần Hưng Đạo, An Phú, Ninh Kiều, Cần Thơ, Việt Nam","An Phú, Ninh Kiều",116A Đ. Trần Hưng Đạo,Cần Thơ,,"Ninh Kiều, Cần Thơ",VN
91,ChIJ-_73J1iJoDERZf4kydHiFTU,Tiệm Cắt Tóc Nam Tửng Barber Shop,Hiệu làm tóc,+84 584 929 106,"XQW6+W7V Tiệm Cắt Tóc Nam Tửng Barber Shop, Trần Chiên, Thường Thạnh, Cái Răng, Cần Thơ, Việt Nam","Thường Thạnh, Cái Răng","XQW6+W7V, Trần Chiên",Cần Thơ,,"Cái Răng, Cần Thơ",VN
95,ChIJg1cYKWtjoDERMZOT-PA1hcA,Tiệm Tóc - Nail Andy Hậu,Tiệm cắt tóc,+84 939 093 983,"Tiệm Tóc - Nail Andy Hậu, 33 Đ. Ngô Văn Sở, Tân An, Ninh Kiều, Cần Thơ 90000, Việt Nam","Tân An, Ninh Kiều",33 Đ. Ngô Văn Sở,Cần Thơ,90000.0,"Ninh Kiều, Cần Thơ",VN
97,ChIJ23WzahtjoDERlzBLINW1VGE,Tiệm tóc Trực Oggy,Tiệm cắt tóc,+84 907 775 845,"Tiệm tóc Trực Oggy, 12F Hẻm 22 Đ. Mạc Đĩnh Chi, Tân An, Ninh Kiều, Cần Thơ, Việt Nam","Tân An, Ninh Kiều",12F Hẻm 22 Đ. Mạc Đĩnh Chi,Cần Thơ,,"Ninh Kiều, Cần Thơ",VN
98,ChIJifqxGfpjoDERYYKt-AL4yv4,Nguyễn Minh Barber Shop - Hớt Tóc Nam,Tiệm cắt tóc,+84 939 990 705,"Nguyễn Minh Barber Shop - Hớt Tóc Nam, 77 Đ. Trần Bình Trọng, An Phú, Ninh Kiều, Cần Thơ 900000, Việt Nam","An Phú, Ninh Kiều",77 Đ. Trần Bình Trọng,Cần Thơ,900000.0,"Ninh Kiều, Cần Thơ",VN
113,ChIJg_aukXWJoDERpTz484MuiXw,Nguyễn Minh Barber Shop 2 - hớt tóc nam,Tiệm cắt tóc,+84 939 990 705,"Nguyễn Minh Barber Shop 2 - hớt tóc nam, 169 Đ. Nguyễn Văn Cừ, An Hoà, Ninh Kiều, Cần Thơ 94000, Việt Nam","An Hoà, Ninh Kiều",169 Đ. Nguyễn Văn Cừ,Cần Thơ,94000.0,"Ninh Kiều, Cần Thơ",VN
128,ChIJaT_wVTOIoDERYKNsonRpml4,Hiếu Barber Shop 4,Hiệu làm tóc,+84 977 108 088,"Hiếu Barber Shop 4, 38B Đ. Trần Hoàng Na, Hưng Lợi, Ninh Kiều, Cần Thơ, Việt Nam","Hưng Lợi, Ninh Kiều",38B Đ. Trần Hoàng Na,Cần Thơ,,"Ninh Kiều, Cần Thơ",VN
129,ChIJRyYx6FWJoDERBe6oKaLmJBo,Hair Salon Giang Sơn Cần Thơ,Hiệu làm tóc,+84 939 362 803,"Hair Salon Giang Sơn Cần Thơ, 239 Đ. Nguyễn Văn Cừ, An Hoà, Ninh Kiều, Cần Thơ, Việt Nam","An Hoà, Ninh Kiều",239 Đ. Nguyễn Văn Cừ,Cần Thơ,,"Ninh Kiều, Cần Thơ",VN
132,ChIJoYjsHiSIoDERzdlAzhmRfvs,Hair Salon Nguyễn Vàng 1,Thợ làm tóc,+84 939 391 313,"Hair Salon Nguyễn Vàng 1, 11 Trần Văn Khéo, An Hội, Ninh Kiều, Cần Thơ, Việt Nam","An Hội, Ninh Kiều",11 Trần Văn Khéo,Cần Thơ,,"Ninh Kiều, Cần Thơ",VN
139,ChIJGQ9QY8uJoDERRctq8atWEg8,Hớt tóc nam Thiện,Tiệm cắt tóc,+84 366 754 003,"Hớt tóc nam Thiện, 10 Đ. Mậu Thân, Xuân Khánh, Ninh Kiều, Cần Thơ, Việt Nam","Xuân Khánh, Ninh Kiều",10 Đ. Mậu Thân,Cần Thơ,,"Ninh Kiều, Cần Thơ",VN
154,ChIJqTs99dCJoDERbj6i3Md93IU,Traky Hair Salon,Hiệu làm tóc,+84 786 239 999,"Traky Hair Salon, 133 Đ. Trần Hưng Đạo, An Phú, Ninh Kiều, Cần Thơ 90000, Việt Nam","An Phú, Ninh Kiều",133 Đ. Trần Hưng Đạo,Cần Thơ,90000.0,"Ninh Kiều, Cần Thơ",VN
161,ChIJaYgP42eIoDER83of9JLw7pg,salon tóc nam Vàng Minh,Tiệm cắt tóc,+84 917 636 545,"salon tóc nam Vàng Minh, Khu Vực 3, Phường An Khánh, Ninh Kiều, Cần Thơ, Việt Nam","Phường An Khánh, Ninh Kiều",Khu Vực 3,Cần Thơ,,"Ninh Kiều, Cần Thơ",VN
162,ChIJaWaFJBCJoDERI93A3QX-zHw,Salon tóc đẹp Đức Anh Cần Thơ,Tiệm cắt tóc,+84 935 022 599,"Salon tóc đẹp Đức Anh Cần Thơ, 42/2 Đ. Trần Việt Châu, p, Ninh Kiều, Cần Thơ 900000, Việt Nam","p, Ninh Kiều",42/2 Đ. Trần Việt Châu,Cần Thơ,900000.0,"Ninh Kiều, Cần Thơ",VN
177,ChIJR2Iy9kaJoDERGj9wvtH8rDY,Hớt Tóc Nam Minh Nhật 91B,Hiệu làm tóc,+84 944 094 409,"Hớt Tóc Nam Minh Nhật 91B, 74 Đ. Lê Chân, Khu dân cư 91B, Ninh Kiều, Cần Thơ 900000, Việt Nam","Khu dân cư 91B, Ninh Kiều",74 Đ. Lê Chân,Cần Thơ,900000.0,"Ninh Kiều, Cần Thơ",VN
189,ChIJsxdwTjeIoDERuAtwXcpzGBk,Tiệm Hớt Tóc Tấn Lợi,Tiệm cắt tóc,+84 793 975 904,"Tiệm Hớt Tóc Tấn Lợi, 1 Đ. Nguyễn Văn Linh, Hưng Lợi, Ninh Kiều, Cần Thơ, Việt Nam","Hưng Lợi, Ninh Kiều",1 Đ. Nguyễn Văn Linh,Cần Thơ,,"Ninh Kiều, Cần Thơ",VN
194,ChIJGyyrizaIoDER5feQ8SV3eLM,Hớt Tóc Nguyễn Tiến,Tiệm cắt tóc,+84 949 984 312,"Hớt Tóc Nguyễn Tiến, 132 2 Đ. 3 Tháng 2, Hưng Lợi, Ninh Kiều, Cần Thơ, Việt Nam","Hưng Lợi, Ninh Kiều",132 2 Đ. 3 Tháng 2,Cần Thơ,,"Ninh Kiều, Cần Thơ",VN
209,ChIJSTwkNIOJoDERTIK_Kfj6dxU,Cắt tóc nam Shi Barber Shop,Tiệm cắt tóc,+84 795 166 995,"Cắt tóc nam Shi Barber Shop, 519 Đ. 30 Tháng 4, Hưng Lợi, Ninh Kiều, Cần Thơ, Việt Nam","Hưng Lợi, Ninh Kiều",519 Đ. 30 Tháng 4,Cần Thơ,,"Ninh Kiều, Cần Thơ",VN
210,ChIJf6ANOzmJoDERaM9hYCaW1G8,THẾ GIỚI TÓC SONG NGUYỄN,Tiệm cắt tóc,+84 963 779 029,"THẾ GIỚI TÓC SONG NGUYỄN, 27 Đ. Nguyễn Văn Linh, Phường An Khánh, Ninh Kiều, Cần Thơ, Việt Nam","Phường An Khánh, Ninh Kiều",27 Đ. Nguyễn Văn Linh,Cần Thơ,,"Ninh Kiều, Cần Thơ",VN
211,ChIJy_KmsrOJoDERwrnIlWX5pLM,Hớt Tóc Minh Luân,Tiệm cắt tóc,,"2P5X+JWQ Hớt Tóc Minh Luân, ĐT923, An Bình, Ninh Kiều, Cần Thơ, Việt Nam","An Bình, Ninh Kiều","2P5X+JWQ, ĐT923",Cần Thơ,,"Ninh Kiều, Cần Thơ",VN
214,ChIJiWB_b0GJoDER-kNJ403bPUI,Cắt tóc nam Phan An,Tiệm cắt tóc,,"Cắt tóc nam Phan An, 76 Đ. Nguyễn Tri Phương, Phường An Khánh, Ninh Kiều, Cần Thơ, Việt Nam","Phường An Khánh, Ninh Kiều",76 Đ. Nguyễn Tri Phương,Cần Thơ,,"Ninh Kiều, Cần Thơ",VN
215,ChIJYRyNcA-JoDEREpmLCjY6nbw,SALON TÓC NAM NỮ MIKIO CẦN THƠ,Tiệm cắt tóc,+84 908 990 996,"SALON TÓC NAM NỮ MIKIO CẦN THƠ, 10 Đ. Trần Hưng Đạo, An Cư, Ninh Kiều, Cần Thơ 90000, Việt Nam","An Cư, Ninh Kiều",10 Đ. Trần Hưng Đạo,Cần Thơ,90000.0,"Ninh Kiều, Cần Thơ",VN
230,ChIJN2_oSiGIoDEREzYh2W3lP48,Viện Tóc Nguyễn Luân Cần Thơ,Tiệm cắt tóc,+84 292 3769 119,"Viện Tóc Nguyễn Luân Cần Thơ, 176a Đ. 30 Tháng 4, Xuân Khánh, Ninh Kiều, Cần Thơ, Việt Nam","Xuân Khánh, Ninh Kiều",176a Đ. 30 Tháng 4,Cần Thơ,,"Ninh Kiều, Cần Thơ",VN
231,ChIJV2xILVqJoDERUfb4NRcBbkk,Salon Tóc Nam Anh Hair Salon,Tiệm cắt tóc,+84 973 623 035,"Salon Tóc Nam Anh Hair Salon, 478 Đ. Nguyễn Văn Cừ, An Hoà, Ninh Kiều, Cần Thơ 94000, Việt Nam","An Hoà, Ninh Kiều",478 Đ. Nguyễn Văn Cừ,Cần Thơ,94000.0,"Ninh Kiều, Cần Thơ",VN
232,ChIJ551U3xuJoDERb5UR0hUBtxM,Salon Tony Thực,Hiệu làm tóc,+84 974 047 929,"Salon Tony Thực, 146K1/19 Hẻm liên tổ 12-20, Nguyễn Văn Cừ Nối Dài, Phường An Khánh, Ninh Kiều, Cần Thơ, Việt Nam","Phường An Khánh, Ninh Kiều","146K1/19 Hẻm liên tổ 12-20, Nguyễn Văn Cừ Nối Dài",Cần Thơ,,"Ninh Kiều, Cần Thơ",VN
237,ChIJ28JTtZuJoDERibLcuXiAVuI,Tiệm tóc Già Rô barbershop,Tiệm cắt tóc,+84 949 868 695,"Tiệm tóc Già Rô barbershop, 389D4AĐường, Đ. Trần Nam Phú, Xuân Khánh, Ninh Kiều, Cần Thơ, Việt Nam","Xuân Khánh, Ninh Kiều","389D4AĐường, Đ. Trần Nam Phú",Cần Thơ,,"Ninh Kiều, Cần Thơ",VN
250,ChIJOebR4Q6JoDERKCQY0ZdVKVw,Hớt tóc nam Minh Duy,Tiệm cắt tóc,,"Hớt tóc nam Minh Duy, 64 B Đ. Mậu Thân, An Nghiệp, Ninh Kiều, Cần Thơ, Việt Nam","An Nghiệp, Ninh Kiều",64 B Đ. Mậu Thân,Cần Thơ,,"Ninh Kiều, Cần Thơ",VN
253,ChIJHxuNrRyJoDERYQE2mvlM6mc,Tóc Nam - Thêm BarBer Shop,Hiệu làm tóc,+84 907 816 112,"2QF2+HM2 Tóc Nam - Thêm BarBer Shop, Đ. Trần Vĩnh Kiết, An Bình, Ninh Kiều, Cần Thơ, Việt Nam","An Bình, Ninh Kiều","2QF2+HM2, Đ. Trần Vĩnh Kiết",Cần Thơ,,"Ninh Kiều, Cần Thơ",VN
260,ChIJW7BS6rCJoDERVjAMHTBwPkU,Tiệm Cắt Tóc Nam Nữ Nguyễn Minh,Hiệu làm tóc,+84 939 231 567,"Tiệm Cắt Tóc Nam Nữ Nguyễn Minh, 456 Nguyễn Trãi, Lê Bình, Cái Răng, Cần Thơ, Việt Nam","Lê Bình, Cái Răng",456 Nguyễn Trãi,Cần Thơ,,"Cái Răng, Cần Thơ",VN
275,ChIJwXxHClyJoDERd4Zb0kAYiJ8,Salon tóc đẹp hồng Nhung,Hiệu làm tóc,+84 765 167 867,"Salon tóc đẹp hồng Nhung, 44 Đ. Võ Trường Toản, An Hoà, Ninh Kiều, Cần Thơ, Việt Nam","An Hoà, Ninh Kiều",44 Đ. Võ Trường Toản,Cần Thơ,,"Ninh Kiều, Cần Thơ",VN
276,ChIJtbBl4J5ioDERBzgjbPeYTmw,Hair Salon Giàu Tóc Nam - Nữ,Hiệu làm tóc,+84 937 116 719,"Hair Salon Giàu Tóc Nam - Nữ, 6a Hẻm 3 Mậu Thân, Xuân Khánh, Ninh Kiều, Cần Thơ, Việt Nam","Xuân Khánh, Ninh Kiều",6a Hẻm 3 Mậu Thân,Cần Thơ,,"Ninh Kiều, Cần Thơ",VN
277,ChIJBW0GxD2JoDERh4bkl_Fk6lA,Tiệm cut tóc TushyCheese,Hiệu làm tóc,+84 858 131 556,"Tiệm cut tóc TushyCheese, 121v3 kv3 hẻm, 694 đường Đ. 3 Tháng 2, An Bình, Ninh Kiều, Cần Thơ, Việt Nam","An Bình, Ninh Kiều","121v3 kv3 hẻm, 694 đường Đ. 3 Tháng 2",Cần Thơ,,"Ninh Kiều, Cần Thơ",VN
313,ChIJC4fUhZ9ioDER2m71zVkZd0U,Hớt Tóc Trọng,Tiệm cắt tóc,+84 978 035 789,"Hớt Tóc Trọng, 48 Đ. Nam Kỳ Khởi Nghĩa, Tân An, Ninh Kiều, Cần Thơ 900000, Việt Nam","Tân An, Ninh Kiều",48 Đ. Nam Kỳ Khởi Nghĩa,Cần Thơ,900000.0,"Ninh Kiều, Cần Thơ",VN
314,ChIJQ2m1Y4mJoDERjcmmoZAMeK0,HOANG PHONG Hair Salon,Hiệu làm tóc,+84 767 003 322,"HOANG PHONG Hair Salon, 127 Đ. Cách Mạng Tháng 8, P, Ninh Kiều, Cần Thơ 94000, Việt Nam","P, Ninh Kiều",127 Đ. Cách Mạng Tháng 8,Cần Thơ,94000.0,"Ninh Kiều, Cần Thơ",VN
316,ChIJB2uDPi5joDERECutrxF19aI,Salon Tóc Hưng Phú 1,Hiệu làm tóc,+84 964 441 008,"Salon Tóc Hưng Phú 1, 306 Đ. A2, KDC Hưng Phú 1, Cái Răng, Cần Thơ, Việt Nam","KDC Hưng Phú 1, Cái Răng",306 Đ. A2,Cần Thơ,,"Cái Răng, Cần Thơ",VN
318,ChIJd_SL8KyJoDERLO_Dz1LAJbs,Salon trong,Hiệu làm tóc,+84 985 599 816,"Salon trong, 2a Trần Quang Khải, An Hội, Ninh Kiều, Cần Thơ, Việt Nam","An Hội, Ninh Kiều",2a Trần Quang Khải,Cần Thơ,,"Ninh Kiều, Cần Thơ",VN
323,ChIJY5TTZWqJoDERztTrWrbBc4s,Update - Hair Salon,Hiệu làm tóc,+84 896 695 242,"Update - Hair Salon, 70b Bế Văn Đàn, An Hoà, Ninh Kiều, Cần Thơ, Việt Nam","An Hoà, Ninh Kiều",70b Bế Văn Đàn,Cần Thơ,,"Ninh Kiều, Cần Thơ",VN
330,ChIJWQ7aebqJoDERegLQ5IoDabE,Tiệm Hớt Tóc Nam Lê Hùng,Tiệm cắt tóc,+84 933 498 409,"Tiệm Hớt Tóc Nam Lê Hùng, 163 Đ. Phạm Hùng, Lê Bình, Cái Răng, Cần Thơ, Việt Nam","Lê Bình, Cái Răng",163 Đ. Phạm Hùng,Cần Thơ,,"Cái Răng, Cần Thơ",VN
340,ChIJ9e3fi6lioDERTw6EbHS1cp4,Tiệm Hớt Tóc Chiến,Hiệu làm tóc,+84 292 3826 847,"Tiệm Hớt Tóc Chiến, 77 Trần Phú, Cái Khế, Ninh Kiều, Cần Thơ, Việt Nam","Cái Khế, Ninh Kiều",77 Trần Phú,Cần Thơ,,"Ninh Kiều, Cần Thơ",VN
341,ChIJMakJV2uIoDERxsMrbordRbI,Salon Tóc Bảo Trân,Hiệu làm tóc,+84 939 259 366,"Salon Tóc Bảo Trân, Số 2B, Trần Khánh Dư, Phường An Khánh, Ninh Kiều, Cần Thơ, Việt Nam","Phường An Khánh, Ninh Kiều","Số 2B, Trần Khánh Dư",Cần Thơ,,"Ninh Kiều, Cần Thơ",VN
342,ChIJWxqCSUaJoDERofeM6V_PeCc,Hớt Tóc Hoàng Tú,Tiệm cắt tóc,,"Hớt Tóc Hoàng Tú, 33 Đ. Trần Hoàng Na, Hưng Lợi, Ninh Kiều, Cần Thơ, Việt Nam","Hưng Lợi, Ninh Kiều",33 Đ. Trần Hoàng Na,Cần Thơ,,"Ninh Kiều, Cần Thơ",VN
344,ChIJlWg50DGIoDEReTULlqxAwEQ,Tiệm Hớt Tóc Thạnh Hội 3,Hiệu làm tóc,,"Tiệm Hớt Tóc Thạnh Hội 3, 235 Đ. Nguyễn Văn Linh, Hưng Lợi, Ninh Kiều, Cần Thơ, Việt Nam","Hưng Lợi, Ninh Kiều",235 Đ. Nguyễn Văn Linh,Cần Thơ,,"Ninh Kiều, Cần Thơ",VN
371,ChIJXcrUoDaIoDERkagZ5QBL8EQ,Tiệm Uốn Tóc Kim Ngọc,Hiệu làm tóc,+84 944 161 612,"Tiệm Uốn Tóc Kim Ngọc, 180 Đ. 30 Tháng 4, Hưng Lợi, Ninh Kiều, Cần Thơ, Việt Nam","Hưng Lợi, Ninh Kiều",180 Đ. 30 Tháng 4,Cần Thơ,,"Ninh Kiều, Cần Thơ",VN
375,ChIJx9B3tqFioDER3P0qSqjX1dk,Trần Điền Hair Salon,Hiệu làm tóc,+84 907 866 840,"Trần Điền Hair Salon, 41 Đ. Ngô Văn Sở, Tân An, Ninh Kiều, Cần Thơ, Việt Nam","Tân An, Ninh Kiều",41 Đ. Ngô Văn Sở,Cần Thơ,,"Ninh Kiều, Cần Thơ",VN
378,ChIJJzOT4xCIoDERnpH4Cz7Gx6c,Tiệm Tóc Tiến Barber,Hiệu làm tóc,+84 907 993 129,"Tiệm Tóc Tiến Barber, 29E Đ. Mậu Thân, An Nghiệp, Ninh Kiều, Cần Thơ, Việt Nam","An Nghiệp, Ninh Kiều",29E Đ. Mậu Thân,Cần Thơ,,"Ninh Kiều, Cần Thơ",VN
379,ChIJy38k2mqIoDERN-VAYBH47Q4,Tiệm Hớt Tóc Đại Thống,Hiệu làm tóc,+84 944 393 193,"Tiệm Hớt Tóc Đại Thống, 388 Đ. Nguyễn Văn Cừ, Phường An Khánh, Ninh Kiều, Cần Thơ, Việt Nam","Phường An Khánh, Ninh Kiều",388 Đ. Nguyễn Văn Cừ,Cần Thơ,,"Ninh Kiều, Cần Thơ",VN
380,ChIJndOolJ5ioDERQxwcsvVq0S4,Tiệm Uốn Tóc Bích Ngọc,Hiệu làm tóc,+84 292 2223 578,"2QGH+XWH Tiệm Uốn Tóc Bích Ngọc, An Lạc, Ninh Kiều, Cần Thơ, Việt Nam","An Lạc, Ninh Kiều",2QGH+XWH,Cần Thơ,,"Ninh Kiều, Cần Thơ",VN
381,ChIJzeXtZN19oDERwLMs7a44Ii8,Tiệm Tóc Nam MIKIO,Hiệu làm tóc,+84 908 990 996,"Tiệm Tóc Nam MIKIO, 230 Đường Nguyễn Văn Thảnh, Cái Vồn, Bình Minh, Vĩnh Long, Việt Nam","Cái Vồn, Bình Minh",230 Đường Nguyễn Văn Thảnh,Vĩnh Long,,"Bình Minh, Vĩnh Long",VN
382,ChIJPaiRvKFioDER8AUj4lu8MSs,Thuy Tien Hair Beauty Salon,Hiệu làm tóc,+84 292 3848 191,"Thuy Tien Hair Beauty Salon, 29/3, Ngo Quyen Street, Cai Rang District, Can Tho City, Tân An, Ninh Kiều, Cần Thơ, Việt Nam","Tân An, Ninh Kiều","29/3, Ngo Quyen Street, Cai Rang District, Can Tho City",Cần Thơ,,"Ninh Kiều, Cần Thơ",VN
407,ChIJ96QHtbOJoDER6Hy6Kf8tCSI,Tiệm Hớt Tóc Danh,Hiệu làm tóc,+84 909 351 016,"Tiệm Hớt Tóc Danh, 38 Đ. 3 Tháng 2, An Bình, Ninh Kiều, Cần Thơ, Việt Nam","An Bình, Ninh Kiều",38 Đ. 3 Tháng 2,Cần Thơ,,"Ninh Kiều, Cần Thơ",VN
409,ChIJvXd0M-6IoDERUHx82f_d4Is,Tiệm Tóc Ngọc My,Hiệu làm tóc,+84 907 517 639,"Tiệm Tóc Ngọc My, Cạnh, 28 Đ. Bùi Hữu Nghĩa, Long Tuyền, Bình Thủy, Cần Thơ, Việt Nam","Long Tuyền, Bình Thủy","Cạnh, 28 Đ. Bùi Hữu Nghĩa",Cần Thơ,,"Bình Thủy, Cần Thơ",VN
410,ChIJEbUOwzSIoDERtj4YQYZywV8,Tiệm Uốn Tóc Hạnh,Hiệu làm tóc,+84 292 6556 310,"Tiệm Uốn Tóc Hạnh, 91/2, Đường 30/4, Quận Ninh Kiều, Tp Cần Thơ, Hưng Lợi, Ninh Kiều, Cần Thơ, Việt Nam","Hưng Lợi, Ninh Kiều","91/2, Đường 30/4, Quận Ninh Kiều, Tp Cần Thơ",Cần Thơ,,"Ninh Kiều, Cần Thơ",VN
411,ChIJr5ii6QSJoDERJj8bZN5kCKs,Uốn Tóc Thúy Loan,Hiệu làm tóc,,"XQX3+PCC Uốn Tóc Thúy Loan, Lê Bình, Cái Răng, Cần Thơ, Việt Nam","Lê Bình, Cái Răng",XQX3+PCC,Cần Thơ,,"Cái Răng, Cần Thơ",VN
414,ChIJt1CPplCIoDER6SdPSgC8qYA,Thao Nhu Hair Beauty Salon,Hiệu làm tóc,+84 292 6259 876,"Thao Nhu Hair Beauty Salon, 221, Cai Son Hang Bang Street, Cai Rang District, Can Tho City, An Bình, Ninh Kiều, Cần Thơ, Việt Nam","An Bình, Ninh Kiều","221, Cai Son Hang Bang Street, Cai Rang District, Can Tho City",Cần Thơ,,"Ninh Kiều, Cần Thơ",VN
451,ChIJDcXuY6BioDERpgTy-wvrle4,C-Town Barber Shop,Tiệm cắt tóc,+84 932 970 198,"2QPM+78C C-Town Barber Shop, Hẻm 97, Tân An, Ninh Kiều, Cần Thơ, Việt Nam","Tân An, Ninh Kiều","2QPM+78C, Hẻm 97",Cần Thơ,,"Ninh Kiều, Cần Thơ",VN
454,ChIJM20ZCbCJoDERVUCVoi7qcqg,Tiệm tóc Ngân Ngân,Hiệu làm tóc,+84 328 679 470,"Tiệm tóc Ngân Ngân, 30 Trần Văn Ơn, An Hoà, Ninh Kiều, Cần Thơ, Việt Nam","An Hoà, Ninh Kiều",30 Trần Văn Ơn,Cần Thơ,,"Ninh Kiều, Cần Thơ",VN
455,ChIJxztcFsiJoDERSHVozWGfNiw,Tiệm tóc Mỹ Quý,Hiệu làm tóc,+84 939 649 522,"Tiệm tóc Mỹ Quý, 333/21 Võ Văn Kiệt, An Thới, Bình Thủy, Cần Thơ, Việt Nam","An Thới, Bình Thủy",333/21 Võ Văn Kiệt,Cần Thơ,,"Bình Thủy, Cần Thơ",VN
456,ChIJcYltEQSIoDER0sAnnS4KIVI,Viện Chăm Sóc Tóc Đức Anh,Hiệu làm tóc,,"Viện Chăm Sóc Tóc Đức Anh, 78 Đ. Trần Việt Châu, Thới Bình, Ninh Kiều, Cần Thơ, Việt Nam","Thới Bình, Ninh Kiều",78 Đ. Trần Việt Châu,Cần Thơ,,"Ninh Kiều, Cần Thơ",VN
457,ChIJDSuAsCGIoDERNcThqL8FWng,Nối Tóc Mr. PHONG,Hiệu làm tóc,+84 939 997 429,"Nối Tóc Mr. PHONG, 87 Đ. 30 Tháng 4, An Phú, Ninh Kiều, Cần Thơ, Việt Nam","An Phú, Ninh Kiều",87 Đ. 30 Tháng 4,Cần Thơ,,"Ninh Kiều, Cần Thơ",VN
458,ChIJkax2-z-JoDERhv8czzOcP5g,Ông Địa Hớt Tóc,Hiệu làm tóc,+84 918 828 947,"Ông Địa Hớt Tóc, 383J1 Đ. Trần Nam Phú, Phường An Khánh, Ninh Kiều, Cần Thơ, Việt Nam","Phường An Khánh, Ninh Kiều",383J1 Đ. Trần Nam Phú,Cần Thơ,,"Ninh Kiều, Cần Thơ",VN
459,ChIJCehqRiSIoDERh76Wl9EBJ2s,Siêu Thị Tóc New Hair Cần Thơ,Hiệu làm tóc,,"Siêu Thị Tóc New Hair Cần Thơ, 1 Đ. Trần Khánh Dư, Xuân Khánh, Ninh Kiều, Cần Thơ, Việt Nam","Xuân Khánh, Ninh Kiều",1 Đ. Trần Khánh Dư,Cần Thơ,,"Ninh Kiều, Cần Thơ",VN
460,ChIJsVzOLyiIoDERJvx6DVli8bY,Tiệm Hớt Tóc Châu,Hiệu làm tóc,+84 939 174 679,"Tiệm Hớt Tóc Châu, 14 Quang Trung, Hưng Phú, Cái Răng, Cần Thơ, Việt Nam","Hưng Phú, Cái Răng",14 Quang Trung,Cần Thơ,,"Cái Răng, Cần Thơ",VN
461,ChIJ-TTVNjWIoDERLWf3lXLuPco,Tiệm Hớt Tóc Hải,Hiệu làm tóc,+84 938 398 029,"Tiệm Hớt Tóc Hải, 533 Đ. 30 Tháng 4, Hưng Lợi, Ninh Kiều, Cần Thơ, Việt Nam","Hưng Lợi, Ninh Kiều",533 Đ. 30 Tháng 4,Cần Thơ,,"Ninh Kiều, Cần Thơ",VN
463,ChIJ420laCeIoDEReZ64xGtWzYk,Tiệm Uốn Tóc Kiều Giang,Hiệu làm tóc,,"Tiệm Uốn Tóc Kiều Giang, 157 Nguyễn Thị Minh Khai, An Lạc, Ninh Kiều, Cần Thơ, Việt Nam","An Lạc, Ninh Kiều",157 Nguyễn Thị Minh Khai,Cần Thơ,,"Ninh Kiều, Cần Thơ",VN
469,ChIJWTIBuYRioDERAmBIV7GUAxQ,Tiệm Uốn Tóc - Massage Tuyền,Hiệu làm tóc,+84 939 215 220,"Tiệm Uốn Tóc - Massage Tuyền, 124 Đường B5, Hưng Phú, Cái Răng, Cần Thơ, Việt Nam","Hưng Phú, Cái Răng",124 Đường B5,Cần Thơ,,"Cái Răng, Cần Thơ",VN
470,ChIJKezBoGdioDERgDOJfDD42y0,Hair Salon An Tóc Việt,Hiệu làm tóc,+84 901 228 250,"Hair Salon An Tóc Việt, 58 Đ. Bùi Quang Trinh, Phú Thứ, Cái Răng, Cần Thơ, Việt Nam","Phú Thứ, Cái Răng",58 Đ. Bùi Quang Trinh,Cần Thơ,,"Cái Răng, Cần Thơ",VN
471,ChIJa5l9Gq9ioDER0d2QUkKbwpQ,Tiệm Uốn Tóc Tiếng,Tiệm cắt tóc,+84 907 442 205,"Tiệm Uốn Tóc Tiếng, 28, Đường Lê Lợi, Quận Thốt Nốt, Quận Thốt Nốt, Việt Nam","Cái Khế, Quận Thốt Nốt","28, Đường Lê Lợi, Quận Thốt Nốt",Cần Thơ,,"Quận Thốt Nốt, Cần Thơ",VN
475,ChIJM26hhxiIoDERn_wI3R3GRFs,Tiệm Hớt Tóc Hoàng Hùng,Tiệm cắt tóc,+84 292 3731 206,"Tiệm Hớt Tóc Hoàng Hùng, 6, Đường Mậu Thân, Quận Ninh Kiều, Tp Cần Thơ, An Phú, Ninh Kiều, Cần Thơ, Việt Nam","An Phú, Ninh Kiều","6, Đường Mậu Thân, Quận Ninh Kiều, Tp Cần Thơ",Cần Thơ,,"Ninh Kiều, Cần Thơ",VN
499,ChIJwwBOseGHoDERTzs_T6-9E4Q,Hớt Tóc Vũ Hd,Tiệm cắt tóc,,"Hớt Tóc Vũ Hd, 325 Đ. Đồng Văn Cống, An Thới, Bình Thủy, Cần Thơ, Việt Nam","An Thới, Bình Thủy",325 Đ. Đồng Văn Cống,Cần Thơ,,"Bình Thủy, Cần Thơ",VN
507,ChIJhSSdkUeIoDERajNJSCzYqp8,Tiệm Uốn Tóc Bạch Long,Hiệu làm tóc,+84 918 348 776,"Tiệm Uốn Tóc Bạch Long, 17 Đ. Nguyễn Hiền, Hưng Lợi, Ninh Kiều, Cần Thơ, Việt Nam","Hưng Lợi, Ninh Kiều",17 Đ. Nguyễn Hiền,Cần Thơ,,"Ninh Kiều, Cần Thơ",VN
518,ChIJm3xSWuSIoDERhpBPE4lgeiw,Uốn Tóc Hiền,Hiệu làm tóc,,"Uốn Tóc Hiền, 36 Nguyễn Văn Trường, Long Tuyền, Bình Thủy, Cần Thơ, Việt Nam","Long Tuyền, Bình Thủy",36 Nguyễn Văn Trường,Cần Thơ,,"Bình Thủy, Cần Thơ",VN
520,ChIJe8yvLC2KoDERVb1Vh8VssLg,Tiệm Uốn Tóc Thanh,Hiệu làm tóc,+84 922 273 739,"XP6P+H2G Tiệm Uốn Tóc Thanh, QL1A, Tân Phú Thạnh, Châu Thành A, Hậu Giang, Việt Nam","Tân Phú Thạnh, Châu Thành A","XP6P+H2G, QL1A",Hậu Giang,,"Châu Thành A, Hậu Giang",VN
522,ChIJGRU1ibyJoDERIbar0_KSEE0,Hớt Tóc Nam Ngân Linh,Tiệm cắt tóc,,"XPWX+4Q9 Hớt Tóc Nam Ngân Linh, Đ. Phạm Hùng, Lê Bình, Cái Răng, Cần Thơ, Việt Nam","Lê Bình, Cái Răng","XPWX+4Q9, Đ. Phạm Hùng",Cần Thơ,,"Cái Răng, Cần Thơ",VN
530,ChIJIxRelUqIoDERu6Z6wqR0U1E,Tiệm Hớt Tóc Thanh Hội,Tiệm cắt tóc,,"Tiệm Hớt Tóc Thanh Hội, 36 Đ. 3 Tháng 2, Hưng Lợi, Ninh Kiều, Cần Thơ, Việt Nam","Hưng Lợi, Ninh Kiều",36 Đ. 3 Tháng 2,Cần Thơ,,"Ninh Kiều, Cần Thơ",VN
533,ChIJK1f0cRGJoDERrYrU0gmUAFQ,Hớt Tóc Thiện,Tiệm cắt tóc,,"2Q95+QRC Hớt Tóc Thiện, Hưng Lợi, Ninh Kiều, Cần Thơ, Việt Nam","Hưng Lợi, Ninh Kiều",2Q95+QRC,Cần Thơ,,"Ninh Kiều, Cần Thơ",VN
562,ChIJbysLxIOJoDERgrrxnVvh_y0,Tiệm Tóc Nguyên Võ,Hiệu làm tóc,,"Tiệm Tóc Nguyên Võ, 55 Đ. Đồng Văn Cống, An Thới, Bình Thủy, Cần Thơ, Việt Nam","An Thới, Bình Thủy",55 Đ. Đồng Văn Cống,Cần Thơ,,"Bình Thủy, Cần Thơ",VN
563,ChIJe_9bPOGHoDER-ERQrJUObHc,Tiệm Tóc Min,Hiệu làm tóc,+84 853 456 072,"Tiệm Tóc Min, 55 Nguyễn Việt Dũng, An Thới, Bình Thủy, Cần Thơ, Việt Nam","An Thới, Bình Thủy",55 Nguyễn Việt Dũng,Cần Thơ,,"Bình Thủy, Cần Thơ",VN
564,ChIJFbg1ByuJoDERzirA9D0FCNM,Cắt Tóc Nam D.A.T Barbers I,Tiệm cắt tóc,+84 985 550 108,"Cắt Tóc Nam D.A.T Barbers I, 160a Đ. Nguyễn Văn Cừ, Cái Khế, Ninh Kiều, Cần Thơ, Việt Nam","Cái Khế, Ninh Kiều",160a Đ. Nguyễn Văn Cừ,Cần Thơ,,"Ninh Kiều, Cần Thơ",VN
565,ChIJhVBnHh6IoDERq2R84uZi04E,Tiệm Uốn Tóc TiNa,Hiệu làm tóc,+84 292 3823 978,"Tiệm Uốn Tóc TiNa, 18 Hẻm 22 Đ. Mạc Đĩnh Chi, Tân An, Ninh Kiều, Cần Thơ, Việt Nam","Tân An, Ninh Kiều",18 Hẻm 22 Đ. Mạc Đĩnh Chi,Cần Thơ,,"Ninh Kiều, Cần Thơ",VN
566,ChIJuYBPnxmIoDERe_LGcq4oy5M,Salon Tóc Phong Cách Mới,Hiệu làm tóc,+84 794 968 668,"Salon Tóc Phong Cách Mới, 52 Nguyễn Cư Trinh, An Phú, Ninh Kiều, Cần Thơ, Việt Nam","An Phú, Ninh Kiều",52 Nguyễn Cư Trinh,Cần Thơ,,"Ninh Kiều, Cần Thơ",VN
567,ChIJ4UtHpRmIoDERPWQOJYLxX18,Tiệm Hớt Tóc Minh Tân,Hiệu làm tóc,+84 292 3835 172,"Tiệm Hớt Tóc Minh Tân, 58 Đ. Mậu Thân, An Phú, Ninh Kiều, Cần Thơ, Việt Nam","An Phú, Ninh Kiều",58 Đ. Mậu Thân,Cần Thơ,,"Ninh Kiều, Cần Thơ",VN
568,ChIJQSVWZCGIoDER_1XM7R13q44,Tiệm Hớt Tóc Xa Ly,Hiệu làm tóc,+84 708 558 686,"Tiệm Hớt Tóc Xa Ly, 64C, Đường Mậu Thân, Quận Ninh Kiều, Tp Cần Thơ, Xuân Khánh, Ninh Kiều, Cần Thơ, Việt Nam","Xuân Khánh, Ninh Kiều","64C, Đường Mậu Thân, Quận Ninh Kiều, Tp Cần Thơ",Cần Thơ,,"Ninh Kiều, Cần Thơ",VN
571,ChIJg9bc9Z1ioDERbArfjaRM6Qs,Tiệm Uốn Tóc Ê Lel,Hiệu làm tóc,+84 292 3834 872,"Tiệm Uốn Tóc Ê Lel, 130, Đường Nguyễn Thị Minh Khai, An Lạc, Ninh Kiều, Cần Thơ, Việt Nam","An Lạc, Ninh Kiều","130, Đường Nguyễn Thị Minh Khai",Cần Thơ,,"Ninh Kiều, Cần Thơ",VN
572,ChIJIY4zdGpjoDERss6hzEIMFrA,Tiệm làm tóc Tư Hậu,Hiệu làm tóc,+84 878 222 221,"Tiệm làm tóc Tư Hậu, 132 Nguyễn Thị Minh Khai, An Lạc, Ninh Kiều, Cần Thơ, Việt Nam","An Lạc, Ninh Kiều",132 Nguyễn Thị Minh Khai,Cần Thơ,,"Ninh Kiều, Cần Thơ",VN
573,ChIJY5wsaS5joDERBqDCOe3iUJs,cắt tóc nam Hoàng Hạt,Tiệm cắt tóc,+84 913 055 518,"cắt tóc nam Hoàng Hạt, 765, kv1, Cái Răng, Cần Thơ, Việt Nam","Hưng Phú, Cái Răng","765, kv1",Cần Thơ,,"Cái Răng, Cần Thơ",VN
574,ChIJ299mthiIoDERIo32tRV7cpg,Bao Ngoc Hair Salon,Hiệu làm tóc,+84 949 667 422,"Bao Ngoc Hair Salon, 54 Đ. Trần Bình Trọng, An Phú, Ninh Kiều, Cần Thơ, Việt Nam","An Phú, Ninh Kiều",54 Đ. Trần Bình Trọng,Cần Thơ,,"Ninh Kiều, Cần Thơ",VN
575,ChIJn9QIyyCIoDERbInoR7ROUGc,Salon Tóc Tiến Thành 79,Hiệu làm tóc,+84 939 412 288,"Salon Tóc Tiến Thành 79, 79 Quang Trung, An Lạc, Ninh Kiều, Cần Thơ, Việt Nam","An Lạc, Ninh Kiều",79 Quang Trung,Cần Thơ,,"Ninh Kiều, Cần Thơ",VN
576,ChIJE5ahWsWJoDER5X4z5OOpeOQ,Hớt tóc LUXUBU cần thơ,Hiệu làm tóc,+84 939 391 393,"2QCJ+HFJ Hớt tóc LUXUBU cần thơ, Cầu 26/3, Hưng Phú, Cái Răng, Cần Thơ, Việt Nam","Hưng Phú, Cái Răng","2QCJ+HFJ, Cầu 26/3",Cần Thơ,,"Cái Răng, Cần Thơ",VN
593,ChIJq6qqBw-IoDERO1pLql-jAcM,Tiệm Hớt Tóc Máy Lạnh Như Ngọc,Tiệm cắt tóc,+84 902 456 660,"Tiệm Hớt Tóc Máy Lạnh Như Ngọc, 633, Đường Nguyễn Văn Cừ, Quận Ninh Kiều, Tp Cần Thơ, An Hoà, Ninh Kiều, Cần Thơ, Việt Nam","An Hoà, Ninh Kiều","633, Đường Nguyễn Văn Cừ, Quận Ninh Kiều, Tp Cần Thơ",Cần Thơ,,"Ninh Kiều, Cần Thơ",VN
596,ChIJq6qqBw-IoDER9PI6Vsgzpjs,Dịch Vụ Uốn Tóc Phương Nhi,Tiệm cắt tóc,+84 909 373 728,"Dịch Vụ Uốn Tóc Phương Nhi, Tp, 4/1 30/04, An Hoà, Ninh Kiều, Cần Thơ, Việt Nam","An Hoà, Ninh Kiều","Tp, 4/1 30/04",Cần Thơ,,"Ninh Kiều, Cần Thơ",VN
597,ChIJz2-QsO2JoDERnN9DG_i7LTM,Uốn tóc Oanh Oanh,Hiệu làm tóc,,"Uốn tóc Oanh Oanh, 95/6 Đ. Mậu Thân, Xuân Khánh, Ninh Kiều, Cần Thơ, Việt Nam","Xuân Khánh, Ninh Kiều",95/6 Đ. Mậu Thân,Cần Thơ,,"Ninh Kiều, Cần Thơ",VN
600,ChIJfU3q7Q-IoDERxiBiTnrTQ1M,Hớt Tóc Minh Tri,Tiệm cắt tóc,,"Hớt Tóc Minh Tri, An Hòa, Ninh Kiều, Cần Thơ, Việt Nam","An Hòa, Ninh Kiều",,Cần Thơ,,"Ninh Kiều, Cần Thơ",VN
601,ChIJKxHn5Q2IoDERhBPXSj_OVUM,Hớt Tóc Nam-Nữ Ngọc Xoàn,Tiệm cắt tóc,,"Hớt Tóc Nam-Nữ Ngọc Xoàn, An Hòa, Ninh Kiều, Cần Thơ, Việt Nam","An Hòa, Ninh Kiều",,Cần Thơ,,"Ninh Kiều, Cần Thơ",VN
604,ChIJr9GdVwyIoDER9CVZBTnaS3U,Hớt Tóc Nam Tiến Phát,Tiệm cắt tóc,,"Hớt Tóc Nam Tiến Phát, An Hòa, Ninh Kiều, Cần Thơ, Việt Nam","An Hòa, Ninh Kiều",,Cần Thơ,,"Ninh Kiều, Cần Thơ",VN
605,ChIJDYLrUHaJoDERpY0fJ-q6u9E,Salon Tóc HIẾU JAPAN,Hiệu làm tóc,+84 903 040 790,"Salon Tóc HIẾU JAPAN, Hẻm 311 Đ. Nguyễn Văn Cừ, An Hoà, Ninh Kiều, Cần Thơ, Việt Nam","An Hoà, Ninh Kiều",Hẻm 311 Đ. Nguyễn Văn Cừ,Cần Thơ,,"Ninh Kiều, Cần Thơ",VN
610,ChIJKVMSWmuIoDERSeb-bGvBIOA,Salon Tóc Thanh Thủy,Hiệu làm tóc,+84 916 511 986,"Salon Tóc Thanh Thủy, 4b Đ. Phạm Thế Hiển, Phường An Khánh, Ninh Kiều, Cần Thơ, Việt Nam","Phường An Khánh, Ninh Kiều",4b Đ. Phạm Thế Hiển,Cần Thơ,,"Ninh Kiều, Cần Thơ",VN
613,ChIJocqj5-CJoDERdQS3fHJm6oE,Salon Tóc Nguyễn Khôi Sài Gòn,Hiệu làm tóc,+84 932 409 688,"Salon Tóc Nguyễn Khôi Sài Gòn, 163 Đ. Nguyễn Văn Cừ, Phường An Khánh, Ninh Kiều, Cần Thơ, Việt Nam","Phường An Khánh, Ninh Kiều",163 Đ. Nguyễn Văn Cừ,Cần Thơ,,"Ninh Kiều, Cần Thơ",VN
614,ChIJn2OpVWaIoDERJ6dKa-ELyf8,Tiệm Hớt Tóc Trường Giang,Hiệu làm tóc,+84 773 238 739,"Tiệm Hớt Tóc Trường Giang, 511/22, Quốc Lộ 91B, Quận Bình Thủy, Tp Cần Thơ, Việt Nam","Phường An Khánh, Ninh Kiều","511/22, Quốc Lộ 91B, Quận Bình Thủy, Tp Cần Thơ",Cần Thơ,,"Ninh Kiều, Cần Thơ",VN
615,ChIJT6dcy3-JoDERpKbnmZ2VV2w,Hair Salon Tóc Anh,Hiệu làm tóc,+84 917 108 038,"Hair Salon Tóc Anh, 410P QL91B, Hưng Lợi, Ninh Kiều, Cần Thơ, Việt Nam","Hưng Lợi, Ninh Kiều",410P QL91B,Cần Thơ,,"Ninh Kiều, Cần Thơ",VN
616,ChIJqzX0MRKJoDERCGBE1lutlPQ,SaLon Tóc Nguyễn Hồng,Hiệu làm tóc,+84 937 909 689,"SaLon Tóc Nguyễn Hồng, 277/8 Đ. Trần Vĩnh Kiết, An Bình, Ninh Kiều, Cần Thơ, Việt Nam","An Bình, Ninh Kiều",277/8 Đ. Trần Vĩnh Kiết,Cần Thơ,,"Ninh Kiều, Cần Thơ",VN
617,ChIJ43YXPcCJoDERZGEuOkPfmkI,Tóc Nam Lý Khang,Hiệu làm tóc,+84 783 779 888,"Tóc Nam Lý Khang, 25/27 Đ. Hoàng Quốc Việt, An Bình, Ninh Kiều, Cần Thơ, Việt Nam","An Bình, Ninh Kiều",25/27 Đ. Hoàng Quốc Việt,Cần Thơ,,"Ninh Kiều, Cần Thơ",VN
619,ChIJac-IxkyIoDERv6YEjMrwjTw,Tiệm Hớt Tóc Tâm,Hiệu làm tóc,+84 944 471 716,"2Q92+P99 Tiệm Hớt Tóc Tâm, Đ. Trần Vĩnh Kiết, An Bình, Ninh Kiều, Cần Thơ, Việt Nam","An Bình, Ninh Kiều","2Q92+P99, Đ. Trần Vĩnh Kiết",Cần Thơ,,"Ninh Kiều, Cần Thơ",VN
620,ChIJ8fwok3OJoDERr3cO_V2HG3w,tóc nam Đạt 90 barber shop,Hiệu làm tóc,,"2Q94+8X4 tóc nam Đạt 90 barber shop, Đ. Trần Hoàng Na, Hưng Lợi, Ninh Kiều, Cần Thơ, Việt Nam","Hưng Lợi, Ninh Kiều","2Q94+8X4, Đ. Trần Hoàng Na",Cần Thơ,,"Ninh Kiều, Cần Thơ",VN
622,ChIJPROfA7CJoDERLzSu1W0d6s4,Hớt tóc nam Thanh Tùng,Hiệu làm tóc,+84 772 884 605,"Hớt tóc nam Thanh Tùng, 102/4d Đ. Trần Hoàng Na, Hưng Lợi, Ninh Kiều, Cần Thơ, Việt Nam","Hưng Lợi, Ninh Kiều",102/4d Đ. Trần Hoàng Na,Cần Thơ,,"Ninh Kiều, Cần Thơ",VN
624,ChIJPa53ZjiIoDERempxxn1GbLE,Salon Tóc Nam Thái Trinh,Hiệu làm tóc,+84 934 102 029,"Salon Tóc Nam Thái Trinh, 31 Đ. Nguyễn Văn Linh, Hưng Lợi, Ninh Kiều, Cần Thơ, Việt Nam","Hưng Lợi, Ninh Kiều",31 Đ. Nguyễn Văn Linh,Cần Thơ,,"Ninh Kiều, Cần Thơ",VN
625,ChIJQxcVGbyJoDERSuMx_F04qAg,Tiệm Uốn Tóc Tuyết Nga,Hiệu làm tóc,+84 768 805 799,"Tiệm Uốn Tóc Tuyết Nga, 72/3 Trần Hưng Đạo, Lê Bình, Cái Răng, Cần Thơ, Việt Nam","Lê Bình, Cái Răng",72/3 Trần Hưng Đạo,Cần Thơ,,"Cái Răng, Cần Thơ",VN
626,ChIJTdUZILCJoDERjNRe3sWELQg,Tiệm Uốn Tóc Nhật Linh,Hiệu làm tóc,+84 292 8347 776,"Tiệm Uốn Tóc Nhật Linh, 48/5, Đường Võ Tánh, Quận Cái Răng, Lê Bình, Cái Răng, Cần Thơ, Việt Nam","Lê Bình, Cái Răng","48/5, Đường Võ Tánh, Quận Cái Răng",Cần Thơ,,"Cái Răng, Cần Thơ",VN
627,ChIJ49XDb8eJoDERz5A6TkstaCI,Uốn Tóc Kim Ngọc,Hiệu làm tóc,,"Uốn Tóc Kim Ngọc, Thường Thạnh, Cái Răng, Cần Thơ, Việt Nam","Thường Thạnh, Cái Răng",,Cần Thơ,,"Cái Răng, Cần Thơ",VN
628,ChIJn5xfKxOJoDERgVJ-yMSuVDo,Hớt tóc Thành Công,Hiệu làm tóc,+84 945 595 550,"Hớt tóc Thành Công, 06 Thạnh Huề, Nguyễn Thị Trâm, Thường Thạnh, Cái Răng, Cần Thơ, Việt Nam","Thường Thạnh, Cái Răng","06 Thạnh Huề, Nguyễn Thị Trâm",Cần Thơ,,"Cái Răng, Cần Thơ",VN
630,ChIJm4YyBSiJoDER2p9Me0naxZo,Cắt tóc nam Hiển BARBERSHOP,Hiệu làm tóc,+84 822 300 324,"Cắt tóc nam Hiển BARBERSHOP, 113 thới an B, tổ 2, Phong Điền, Cần Thơ, Việt Nam","tổ 2, Phong Điền",113 thới an B,Cần Thơ,,"Phong Điền, Cần Thơ",VN
636,ChIJ_c3z62CJoDERJlynCjPCIWg,Tiệm Tóc Diễm Thúy,Hiệu làm tóc,,"Tiệm Tóc Diễm Thúy, Phong Điền, Cần Thơ, Việt Nam",Phong Điền,,Cần Thơ,,"Phong Điền, Cần Thơ",VN
640,ChIJGTrCp-qJoDERUq86haODQis,Salon Tóc Nam Đông Thanh,Hiệu làm tóc,+84 782 036 096,"XQR5+4Q2 Salon Tóc Nam Đông Thanh, Đ. Trương Vĩnh Nguyên, Thường Thạnh, Cái Răng, Cần Thơ, Việt Nam","Thường Thạnh, Cái Răng","XQR5+4Q2, Đ. Trương Vĩnh Nguyên",Cần Thơ,,"Cái Răng, Cần Thơ",VN
643,ChIJ7w8DnUGPoDERxFTPK5vt1Qk,Salon tóc Lam Nhiên,Hiệu làm tóc,+84 939 214 637,"2MGQ+X43 Salon tóc Lam Nhiên, Giai Xuân, Phong Điền, Cần Thơ, Việt Nam","Giai Xuân, Phong Điền",2MGQ+X43,Cần Thơ,,"Phong Điền, Cần Thơ",VN
644,ChIJm44eDZqJoDER0NGgV8jRdo0,Tiệm Hớt Tóc Nam Nữ Trà My,Hiệu làm tóc,+84 292 3411 266,"Tiệm Hớt Tóc Nam Nữ Trà My, 44 QL1A, Ba Láng, Cái Răng, Cần Thơ, Việt Nam","Ba Láng, Cái Răng",44 QL1A,Cần Thơ,,"Cái Răng, Cần Thơ",VN
656,ChIJKbesPY6JoDERbmzIJ-4zdAo,Hớt Tóc Lộc,Tiệm cắt tóc,,"Hớt Tóc Lộc, 35 Trần Chiên, Lê Bình, Cái Răng, Cần Thơ 94000, Việt Nam","Lê Bình, Cái Răng",35 Trần Chiên,Cần Thơ,94000.0,"Cái Răng, Cần Thơ",VN
672,ChIJJ1Ti00uIoDER3YZIupjn2Tc,Cắt Tóc Nam - Nữ Phương Thảo,Tiệm cắt tóc,,"Cắt Tóc Nam - Nữ Phương Thảo, An Khánh, Ninh Kiều, Cần Thơ, Việt Nam","An Khánh, Ninh Kiều",,Cần Thơ,,"Ninh Kiều, Cần Thơ",VN
675,ChIJJeFV_UWJoDERzC9dr_kFThk,Tiệm tóc THA NGUYỄN,Tiệm cắt tóc,+84 763 089 299,"Tiệm tóc THA NGUYỄN, 59 Ngô Sĩ Liên, Hưng Lợi, Ninh Kiều, Cần Thơ, Việt Nam","Hưng Lợi, Ninh Kiều",59 Ngô Sĩ Liên,Cần Thơ,,"Ninh Kiều, Cần Thơ",VN
678,ChIJxZhp4zqIoDERpHhafBfGx0Y,Tiệm Hớt Tóc Duy Khánh,Hiệu làm tóc,+84 939 456 088,"2QF9+W7M Tiệm Hớt Tóc Duy Khánh, Đ. Trần Ngọc Quế, Xuân Khánh, Ninh Kiều, Cần Thơ, Việt Nam","Xuân Khánh, Ninh Kiều","2QF9+W7M, Đ. Trần Ngọc Quế",Cần Thơ,,"Ninh Kiều, Cần Thơ",VN
679,ChIJW8NxOjSJoDERytgQ2fKF9xE,Hớt tóc HUỲNH HẢI,Hiệu làm tóc,,"Hớt tóc HUỲNH HẢI, 646 Đ. 30 Tháng 4, Hưng Lợi, Ninh Kiều, Cần Thơ, Việt Nam","Hưng Lợi, Ninh Kiều",646 Đ. 30 Tháng 4,Cần Thơ,,"Ninh Kiều, Cần Thơ",VN
680,ChIJkUFR3S-IoDERba7UR3NTcH8,Tiệm Cắt Tóc Oscar,Hiệu làm tóc,+84 292 3837 695,"Tiệm Cắt Tóc Oscar, 34, Đường Đ. Trần Ngọc Quế, Xuân Khánh, Ninh Kiều, Cần Thơ, Việt Nam","Xuân Khánh, Ninh Kiều","34, Đường Đ. Trần Ngọc Quế",Cần Thơ,,"Ninh Kiều, Cần Thơ",VN
681,ChIJu3jhFjCIoDER3NHyWBG5Q_M,Salon Tóc Toàn Hk,Hiệu làm tóc,+84 943 519 510,"2QC9+9QM Salon Tóc Toàn Hk, Đ. Lê Bình, Hưng Lợi, Ninh Kiều, Cần Thơ, Việt Nam","Hưng Lợi, Ninh Kiều","2QC9+9QM, Đ. Lê Bình",Cần Thơ,,"Ninh Kiều, Cần Thơ",VN
684,ChIJ9XJtdi2IoDERCI9qNk9fXZU,Tiệm Hớt Tóc Tường Dũng,Hiệu làm tóc,,"2Q7C+JHC Tiệm Hớt Tóc Tường Dũng, Tầm Vu, Hưng Lợi, Ninh Kiều, Cần Thơ, Việt Nam","Hưng Lợi, Ninh Kiều","2Q7C+JHC, Tầm Vu",Cần Thơ,,"Ninh Kiều, Cần Thơ",VN
700,ChIJ5U2UVySIoDERVaWVW4XXOOM,Tiệm Uốn Tóc Phương Diễm,Hiệu làm tóc,+84 939 153 497,"Tiệm Uốn Tóc Phương Diễm, 26 Đ. Trần Khánh Dư, Xuân Khánh, Ninh Kiều, Cần Thơ, Việt Nam","Xuân Khánh, Ninh Kiều",26 Đ. Trần Khánh Dư,Cần Thơ,,"Ninh Kiều, Cần Thơ",VN
710,ChIJob-eD_-HoDERtbCLvFMcsg8,Tiệm Tóc Thanh Thúy,Hiệu làm tóc,+84 964 208 147,"3Q5H+2XQ Tiệm Tóc Thanh Thúy, Đ. Nguyễn Văn Cừ, Cái Khế, Ninh Kiều, Cần Thơ, Việt Nam","Cái Khế, Ninh Kiều","3Q5H+2XQ, Đ. Nguyễn Văn Cừ",Cần Thơ,,"Ninh Kiều, Cần Thơ",VN
711,ChIJlXQsIP6HoDERESthxEW6E7k,Hớt Tóc Phụng,Tiệm cắt tóc,,"Hớt Tóc Phụng, Cái Khế, Ninh Kiều, Cần Thơ, Việt Nam","Cái Khế, Ninh Kiều",,Cần Thơ,,"Ninh Kiều, Cần Thơ",VN
712,ChIJ6XtGH_6HoDERQ4_Nw6QYZfw,Hớt Tóc Nam Ánh Xuân,Tiệm cắt tóc,,"Hớt Tóc Nam Ánh Xuân, Cái Khế, Ninh Kiều, Cần Thơ, Việt Nam","Cái Khế, Ninh Kiều",,Cần Thơ,,"Ninh Kiều, Cần Thơ",VN
713,ChIJl47s_ASIoDERSyYXLYrp_Yc,Uốn Tóc Tươi,Hiệu làm tóc,,"Uốn Tóc Tươi, An Hòa, Ninh Kiều, Cần Thơ, Việt Nam","An Hòa, Ninh Kiều",,Cần Thơ,,"Ninh Kiều, Cần Thơ",VN
714,ChIJlYZ4wmtjoDERKroPU5FPCog,Salon tóc Ngọc Diễm,Hiệu làm tóc,+84 782 989 099,"Salon tóc Ngọc Diễm, 6/122 Trần Phú, KV3, Cồn Khương, P, Ninh Kiều, Cần Thơ, Việt Nam","P, Ninh Kiều","6/122 Trần Phú, KV3, Cồn Khương",Cần Thơ,,"Ninh Kiều, Cần Thơ",VN
715,ChIJQ1IAbkWJoDERSzc7drFH7NA,Tiệm tóc Thảo My,Hiệu làm tóc,+84 946 154 539,"Tiệm tóc Thảo My, 160 Đ. Nguyễn Văn Cừ, Cái Khế, Ninh Kiều, Cần Thơ, Việt Nam","Cái Khế, Ninh Kiều",160 Đ. Nguyễn Văn Cừ,Cần Thơ,,"Ninh Kiều, Cần Thơ",VN
716,ChIJKSHzfwWIoDER0ILYiSqOneY,Tiệm Hớt Tóc Cường - Cắt tóc đẹp Cần Thơ,Hiệu làm tóc,+84 965 095 159,"2QWC+M5F Tiệm Hớt Tóc Cường - Cắt tóc đẹp Cần Thơ, Hẻm 233, An Hoà, Ninh Kiều, Cần Thơ, Việt Nam","An Hoà, Ninh Kiều","2QWC+M5F, Hẻm 233",Cần Thơ,,"Ninh Kiều, Cần Thơ",VN
717,ChIJSyjgoOGHoDER1jj2Flc-hEA,Tiệm Hớt Tóc Ken,Hiệu làm tóc,+84 292 3838 473,"Tiệm Hớt Tóc Ken, 170/13, Đường Trần Quang Diệu, Quận Bình Thủy, Tp Cần Thơ, An Thới, Bình Thủy, Cần Thơ, Việt Nam","An Thới, Bình Thủy","170/13, Đường Trần Quang Diệu, Quận Bình Thủy, Tp Cần Thơ",Cần Thơ,,"Bình Thủy, Cần Thơ",VN
718,ChIJHdEGRAeIoDERqEebvV-88v0,Phương Hớt Tóc,Tiệm cắt tóc,,"Phương Hớt Tóc, Cái Khế, Ninh Kiều, Cần Thơ, Việt Nam","Cái Khế, Ninh Kiều",,Cần Thơ,,"Ninh Kiều, Cần Thơ",VN
719,ChIJGVV10QKIoDERBn--e6KqdUs,Tiệm Hớt Tóc Tý,Hiệu làm tóc,,"2QVH+VJ9 Tiệm Hớt Tóc Tý, Đ. Hồ Xuân Hương, An Hội, Ninh Kiều, Cần Thơ, Việt Nam","An Hội, Ninh Kiều","2QVH+VJ9, Đ. Hồ Xuân Hương",Cần Thơ,,"Ninh Kiều, Cần Thơ",VN
720,ChIJWbvcLgOIoDERtGoilhCkgLM,Tiệm Hớt Tóc Sơn,Hiệu làm tóc,+84 918 990 706,"2QVH+JFP Tiệm Hớt Tóc Sơn, Hùng Vương, An Hội, Ninh Kiều, Cần Thơ, Việt Nam","An Hội, Ninh Kiều","2QVH+JFP, Hùng Vương",Cần Thơ,,"Ninh Kiều, Cần Thơ",VN
721,ChIJg1PRogeIoDERM4_J1opWYPc,Tiệm Hớt Tóc Hoàng Sơn,Tiệm cắt tóc,+84 292 8477 233,"Tiệm Hớt Tóc Hoàng Sơn, 210 Đ. Cách Mạng Tháng 8, Cái Khế, Ninh Kiều, Cần Thơ, Việt Nam","Cái Khế, Ninh Kiều",210 Đ. Cách Mạng Tháng 8,Cần Thơ,,"Ninh Kiều, Cần Thơ",VN
722,ChIJCxM-EKlioDERvoc28rnY_14,Salon Tóc Phúc,Hiệu làm tóc,,"Salon Tóc Phúc, 28 Đ. Nguyễn Bình, Cái Khế, Ninh Kiều, Cần Thơ, Việt Nam","Cái Khế, Ninh Kiều",28 Đ. Nguyễn Bình,Cần Thơ,,"Ninh Kiều, Cần Thơ",VN
723,ChIJ8WhJ7T6HoDER1J3tVd80W5M,Tiệm tóc Triệu Linh,Hiệu làm tóc,+84 904 359 878,"Tiệm tóc Triệu Linh, 172/1 Trần Quang Diệu, P, Bình Thủy, Cần Thơ, Việt Nam","P, Bình Thủy",172/1 Trần Quang Diệu,Cần Thơ,,"Bình Thủy, Cần Thơ",VN
724,ChIJpfBXl69ioDERx1x43RS_u90,Uốn Tóc Thủy,Hiệu làm tóc,,"2QVR+JJ9 Uốn Tóc Thủy, Sông Hậu, Ninh Kiều, Cần Thơ, Việt Nam","Sông Hậu, Ninh Kiều",2QVR+JJ9,Cần Thơ,,"Ninh Kiều, Cần Thơ",VN
725,ChIJfYNRGa9ioDERf-538uyR6UM,Tiệm Uốn Tóc Nhựt,Hiệu làm tóc,+84 935 399 112,"Tiệm Uốn Tóc Nhựt, 25, Đường Lê Lợi, Quận Thốt Nốt, Cái Khế, Ninh Kiều, Cần Thơ, Việt Nam","Cái Khế, Ninh Kiều","25, Đường Lê Lợi, Quận Thốt Nốt",Cần Thơ,,"Ninh Kiều, Cần Thơ",VN
726,ChIJTYaGScpjoDER9kxeE_8Du2k,"Uốn tóc, massage Hồng Điệp",Hiệu làm tóc,,"Uốn tóc, massage Hồng Điệp, 05 Đ. Lý Thường Kiệt, Tân An, Ninh Kiều, Cần Thơ, Việt Nam","Tân An, Ninh Kiều",05 Đ. Lý Thường Kiệt,Cần Thơ,,"Ninh Kiều, Cần Thơ",VN
729,ChIJ4RxufKdioDERvtk1soJ24A0,Tiệm Uốn Tóc Hạnh,Hiệu làm tóc,+84 292 3813 597,"Tiệm Uốn Tóc Hạnh, 103 Đ. Xô Viết Nghệ Tĩnh, An Hội, Ninh Kiều, Cần Thơ, Việt Nam","An Hội, Ninh Kiều",103 Đ. Xô Viết Nghệ Tĩnh,Cần Thơ,,"Ninh Kiều, Cần Thơ",VN
730,ChIJU6WpkKBioDERtmeqMyHj6uA,Tiệm Cắt Tóc Thanh Thảo,Hiệu làm tóc,+84 292 6292 295,"Tiệm Cắt Tóc Thanh Thảo, 9 Hẻm 22 Đ. Mạc Đĩnh Chi, Tân An, Ninh Kiều, Cần Thơ, Việt Nam","Tân An, Ninh Kiều",9 Hẻm 22 Đ. Mạc Đĩnh Chi,Cần Thơ,,"Ninh Kiều, Cần Thơ",VN
731,ChIJ-yrkRp9ioDERgttk8WdMMX0,Tiệm Uốn Tóc Hồng,Hiệu làm tóc,+84 919 494 080,"Tiệm Uốn Tóc Hồng, 135, Đường Phan Đình Phùng, Quận Ninh Kiều, Tp Cần Thơ, Tân An, Ninh Kiều, Cần Thơ, Việt Nam","Tân An, Ninh Kiều","135, Đường Phan Đình Phùng, Quận Ninh Kiều, Tp Cần Thơ",Cần Thơ,,"Ninh Kiều, Cần Thơ",VN
732,ChIJ30UhpR2IoDERzvdAyIiy9IQ,Tiệm Hớt Tóc Nguyễn Lâm,Hiệu làm tóc,+84 292 3766 583,"Tiệm Hớt Tóc Nguyễn Lâm, 101 Hoàng Văn Thụ, An Cư, Ninh Kiều, Cần Thơ, Việt Nam","An Cư, Ninh Kiều",101 Hoàng Văn Thụ,Cần Thơ,,"Ninh Kiều, Cần Thơ",VN
737,ChIJPyVMoAKIoDERlukUyrXp5lc,Tiệm Tóc Mỹ Xuyên,Hiệu làm tóc,,"Tiệm Tóc Mỹ Xuyên, 27 Trần Quang Khải, An Hội, Ninh Kiều, Cần Thơ, Việt Nam","An Hội, Ninh Kiều",27 Trần Quang Khải,Cần Thơ,,"Ninh Kiều, Cần Thơ",VN
742,ChIJbW0ooQKIoDERE1s07xPea88,Hớt Tóc Ngọc,Tiệm cắt tóc,,"2QVJ+QPX Hớt Tóc Ngọc, Trần Quang Khải, An Hội, Ninh Kiều, Cần Thơ, Việt Nam","An Hội, Ninh Kiều","2QVJ+QPX, Trần Quang Khải",Cần Thơ,,"Ninh Kiều, Cần Thơ",VN
745,ChIJX3WfERmIoDERItjsllXxl7M,Uốn Tóc Như Huỳnh,Hiệu làm tóc,,"Uốn Tóc Như Huỳnh, An Nghiệp, Ninh Kiều, Cần Thơ, Việt Nam","An Nghiệp, Ninh Kiều",,Cần Thơ,,"Ninh Kiều, Cần Thơ",VN
746,ChIJCYtx7B2IoDERqmJ1eAPM8ho,Hớt Tóc Tuấn Nguyễn,Tiệm cắt tóc,,"Hớt Tóc Tuấn Nguyễn, An Cư, Ninh Kiều, Cần Thơ, Việt Nam","An Cư, Ninh Kiều",,Cần Thơ,,"Ninh Kiều, Cần Thơ",VN
758,ChIJMcKx1RqJoDER8dsv3Owoqx8,salon tóc Hiếu,Tiệm cắt tóc,+84 902 302 702,"salon tóc Hiếu, 15 Trần Phú, Thới Bình, Ninh Kiều, Cần Thơ 94107, Việt Nam","Thới Bình, Ninh Kiều",15 Trần Phú,Cần Thơ,94107.0,"Ninh Kiều, Cần Thơ",VN
767,ChIJGUrX4zWJoDER4N26zzll1bY,Salon HỒ MY,Hiệu làm tóc,+84 842 023 452,"Salon HỒ MY, 66 Đ. Đinh Tiên Hoàng, An Hội, Ninh Kiều, Cần Thơ 900000, Việt Nam","An Hội, Ninh Kiều",66 Đ. Đinh Tiên Hoàng,Cần Thơ,900000.0,"Ninh Kiều, Cần Thơ",VN
773,ChIJvaS3kAOIoDERv9W6YOnXWrc,Tiệm Hớt Tóc For Men,Hiệu làm tóc,+84 939 342 228,"Tiệm Hớt Tóc For Men, 9 Đ. Phạm Ngũ Lão, Thới Bình, Ninh Kiều, Cần Thơ, Việt Nam","Thới Bình, Ninh Kiều",9 Đ. Phạm Ngũ Lão,Cần Thơ,,"Ninh Kiều, Cần Thơ",VN
774,ChIJJ1RxqQ6IoDERzLQcbXsjvJk,Tiệm Hớt Tóc Lâm Duy,Hiệu làm tóc,+84 977 355 273,"Tiệm Hớt Tóc Lâm Duy, 34 Vành Đai Phi Trường, An Hoà, Bình Thủy, Cần Thơ, Việt Nam","An Hoà, Bình Thủy",34 Vành Đai Phi Trường,Cần Thơ,,"Bình Thủy, Cần Thơ",VN
775,ChIJ76WUuVCJoDERw5aYBvmWp1c,Tiệm cắt tóc nam - LỘC,Tiệm cắt tóc,+84 907 520 636,"Tiệm cắt tóc nam - LỘC, 74 Đ. Nguyễn Đệ, An Hoà, Ninh Kiều, Cần Thơ, Việt Nam","An Hoà, Ninh Kiều",74 Đ. Nguyễn Đệ,Cần Thơ,,"Ninh Kiều, Cần Thơ",VN
776,ChIJrdDwqw6IoDEROmUR1GDTmnc,Hót Tóc Ngọc Yến,Tiệm cắt tóc,,"Hót Tóc Ngọc Yến, 48 Đ. Nguyễn Đệ, An Hoà, Ninh Kiều, Cần Thơ, Việt Nam","An Hoà, Ninh Kiều",48 Đ. Nguyễn Đệ,Cần Thơ,,"Ninh Kiều, Cần Thơ",VN
778,ChIJR2vNkQ2IoDERzNl3mxahaew,Quang Trường Hớt Tóc,Tiệm cắt tóc,,"Quang Trường Hớt Tóc, An Hòa, Ninh Kiều, Cần Thơ, Việt Nam","An Hòa, Ninh Kiều",,Cần Thơ,,"Ninh Kiều, Cần Thơ",VN
779,ChIJq6qqBw-IoDER_Pyf4--HFyQ,Tiệm Hớt Tóc Thuyền Tuyền,Hiệu làm tóc,+84 982 453 539,"Tiệm Hớt Tóc Thuyền Tuyền, 310, Đường Nguyễn Văn Cừ, Quận Ninh Kiều, Tp Cần Thơ, An Hoà, Ninh Kiều, Cần Thơ, Việt Nam","An Hoà, Ninh Kiều","310, Đường Nguyễn Văn Cừ, Quận Ninh Kiều, Tp Cần Thơ",Cần Thơ,,"Ninh Kiều, Cần Thơ",VN
781,ChIJVV0aRRKIoDERiVJl7c2cxJ4,Tiệm Uốn Tóc Oanh,Hiệu làm tóc,+84 938 673 013,"2QV6+2W8 Tiệm Uốn Tóc Oanh, Nguyễn Văn Cừ Nối Dài, Phường An Khánh, Ninh Kiều, Cần Thơ, Việt Nam","Phường An Khánh, Ninh Kiều","2QV6+2W8, Nguyễn Văn Cừ Nối Dài",Cần Thơ,,"Ninh Kiều, Cần Thơ",VN
782,ChIJV7Eo7nKIoDER0J8EZnricIE,Uốn Tóc Thu Huỳnh,Hiệu làm tóc,,"Uốn Tóc Thu Huỳnh, An Thới, Ninh Kiều, Cần Thơ, Việt Nam","An Thới, Ninh Kiều",,Cần Thơ,,"Ninh Kiều, Cần Thơ",VN
783,ChIJ45oFcK3JlU4RbrlpC7ny1jE,Phố Tóc,Tiệm cắt tóc,+84 395 874 754,,,,,,,
784,ChIJq6qqBw-IoDERBYj07_9mfmY,Trung Tâm Chăm Sóc Tóc 101,Hiệu làm tóc,+84 292 3819 123,"Trung Tâm Chăm Sóc Tóc 101, 160, 30/4, Quận Ninh Kiều, Tp Cần Thơ, An Hoà, Ninh Kiều, Cần Thơ, Việt Nam","An Hoà, Ninh Kiều","160, 30/4, Quận Ninh Kiều, Tp Cần Thơ",Cần Thơ,,"Ninh Kiều, Cần Thơ",VN
785,ChIJ4xIAheCJoDEROD2MoFa3rfk,Phố Tóc,Tiệm cắt tóc,,"Phố Tóc, 176 Võ Văn Kiệt, An Hoà, Ninh Kiều, Cần Thơ 900000, Việt Nam","An Hoà, Ninh Kiều",176 Võ Văn Kiệt,Cần Thơ,900000.0,"Ninh Kiều, Cần Thơ",VN
789,ChIJXVMMUWyIoDERWDlenhE_kdA,Hớt Tóc Nam Cherry,Tiệm cắt tóc,,"Hớt Tóc Nam Cherry, An Khánh, Ninh Kiều, Cần Thơ, Việt Nam","An Khánh, Ninh Kiều",,Cần Thơ,,"Ninh Kiều, Cần Thơ",VN
790,ChIJPQ9_sBOIoDERr8Jlb2IMlxk,Hớt Tóc Nam Thi Thi,Tiệm cắt tóc,,"Hớt Tóc Nam Thi Thi, An Khánh, Ninh Kiều, Cần Thơ, Việt Nam","An Khánh, Ninh Kiều",,Cần Thơ,,"Ninh Kiều, Cần Thơ",VN
791,ChIJHdSnC2yIoDER_1w0bKuFbEI,Uốn Tóc Diệu,Hiệu làm tóc,,"Uốn Tóc Diệu, An Khánh, Ninh Kiều, Cần Thơ, Việt Nam","An Khánh, Ninh Kiều",,Cần Thơ,,"Ninh Kiều, Cần Thơ",VN
792,ChIJea3qqBSIoDER_0iUGrbNTUw,Tiệm Tóc Hồng Đào,Hiệu làm tóc,+84 939 030 936,"Tiệm Tóc Hồng Đào, 171A Đ. Nguyễn Tri Phương, Phường An Khánh, Ninh Kiều, Cần Thơ, Việt Nam","Phường An Khánh, Ninh Kiều",171A Đ. Nguyễn Tri Phương,Cần Thơ,,"Ninh Kiều, Cần Thơ",VN
795,ChIJG3rI1AyIoDER_H2RBDRRZ8M,Hớt Tóc Nam Hoàng,Tiệm cắt tóc,,"Hớt Tóc Nam Hoàng, An Thới, Ninh Kiều, Cần Thơ, Việt Nam","An Thới, Ninh Kiều",,Cần Thơ,,"Ninh Kiều, Cần Thơ",VN
796,ChIJ_f_o8hWIoDERuZExoqpsj7w,Uốn Tóc Thuy Anh,Hiệu làm tóc,,"Uốn Tóc Thuy Anh, An Khánh, Ninh Kiều, Cần Thơ, Việt Nam","An Khánh, Ninh Kiều",,Cần Thơ,,"Ninh Kiều, Cần Thơ",VN
798,ChIJI1ATUEKIoDERmMGPEsVjZug,Uốn Tóc Ngọc Huyền,Hiệu làm tóc,,"Uốn Tóc Ngọc Huyền, An Khánh, Ninh Kiều, Cần Thơ, Việt Nam","An Khánh, Ninh Kiều",,Cần Thơ,,"Ninh Kiều, Cần Thơ",VN
799,ChIJt9ZzwhGIoDER339dfJUlmn4,Tiệm Hớt Tóc Tân Trang,Hiệu làm tóc,+84 292 3892 714,"Tiệm Hớt Tóc Tân Trang, 3A, Mậu Thân, Quận Ninh Kiều, TP Cần Thơ, An Hoà, Ninh Kiều, Cần Thơ, Việt Nam","An Hoà, Ninh Kiều","3A, Mậu Thân, Quận Ninh Kiều, TP Cần Thơ",Cần Thơ,,"Ninh Kiều, Cần Thơ",VN
800,ChIJO_k0QVGIoDERKFIGdxWWvYI,Tiệm Tóc Phương Nguyễn,Hiệu làm tóc,+84 907 206 193,"Tiệm Tóc Phương Nguyễn, 285 Đ. Hoàng Quốc Việt, An Bình, Ninh Kiều, Cần Thơ, Việt Nam","An Bình, Ninh Kiều",285 Đ. Hoàng Quốc Việt,Cần Thơ,,"Ninh Kiều, Cần Thơ",VN
801,ChIJ9240VFCIoDERM4GVcQci1qE,Tiệm Tóc Nguyễn Trân,Hiệu làm tóc,+84 927 083 627,"Tiệm Tóc Nguyễn Trân, 297 Đ.Xuân Thủy, An Bình, Ninh Kiều, Cần Thơ, Việt Nam","An Bình, Ninh Kiều",297 Đ.Xuân Thủy,Cần Thơ,,"Ninh Kiều, Cần Thơ",VN
802,ChIJWUOP8laIoDERBqV3O9ST54I,Hớt Tóc Quốc Trạng,Hiệu làm tóc,,"Hớt Tóc Quốc Trạng, Long Tuyền, Ninh Kiều, Cần Thơ, Việt Nam","Long Tuyền, Ninh Kiều",,Cần Thơ,,"Ninh Kiều, Cần Thơ",VN
803,ChIJT4ol7bKJoDERLFmo2Hi5pd4,Uốn Tóc Trang,Hiệu làm tóc,,"Uốn Tóc Trang, An Bình, Ninh Kiều, Cần Thơ, Việt Nam","An Bình, Ninh Kiều",,Cần Thơ,,"Ninh Kiều, Cần Thơ",VN
804,ChIJJ8HWLkyIoDERqbKLiLvoIEk,Uốn Tóc Anh Đào,Hiệu làm tóc,,"2Q92+244 Uốn Tóc Anh Đào, Đ. Trần Vĩnh Kiết, Hưng Lợi, Ninh Kiều, Cần Thơ, Việt Nam","Hưng Lợi, Ninh Kiều","2Q92+244, Đ. Trần Vĩnh Kiết",Cần Thơ,,"Ninh Kiều, Cần Thơ",VN
805,ChIJy55RIEaIoDEROyX2VrFwkOc,Tiệm Tóc Ngọc Quyên,Hiệu làm tóc,,"Tiệm Tóc Ngọc Quyên, Khu dân cư 91B, An Khánh, Ninh Kiều, Cần Thơ, Việt Nam","Khu dân cư 91B, An Khánh, Ninh Kiều",,Cần Thơ,,"Ninh Kiều, Cần Thơ",VN
807,ChIJFx4jUEKIoDERvaYhZv9cM_g,Uốn Tóc Tuyết,Hiệu làm tóc,,"Uốn Tóc Tuyết, An Khánh, Ninh Kiều, Cần Thơ, Việt Nam","An Khánh, Ninh Kiều",,Cần Thơ,,"Ninh Kiều, Cần Thơ",VN
808,ChIJZbhcabKJoDERm3Dkp1m0lEc,Salon Tóc Kiếu Diễm,Hiệu làm tóc,,"Salon Tóc Kiếu Diễm, An Bình, Ninh Kiều, Cần Thơ, Việt Nam","An Bình, Ninh Kiều",,Cần Thơ,,"Ninh Kiều, Cần Thơ",VN
809,ChIJcxjg-kOIoDERtGa_RHAVdK0,Tiệm Uốn Tóc Lê Nguyên,Hiệu làm tóc,+84 987 911 138,"Tiệm Uốn Tóc Lê Nguyên, 305A/9, Đường Quốc Lộ 91B, Quận Ninh Kiều, TP.Cần Thơ, Việt Nam","Phường An Khánh, Ninh Kiều","305A/9, Đường Quốc Lộ 91B, Quận Ninh Kiều, TP.Cần Thơ",Cần Thơ,,"Ninh Kiều, Cần Thơ",VN
810,ChIJY8RiGE-IoDERUKydOCZNSmA,Tiệm Tóc Hiếu Nguyễn,Hiệu làm tóc,+84 899 795 093,"Tiệm Tóc Hiếu Nguyễn, 259 Đ. Trần Vĩnh Kiết, Phường An Khánh, Ninh Kiều, Cần Thơ, Việt Nam","Phường An Khánh, Ninh Kiều",259 Đ. Trần Vĩnh Kiết,Cần Thơ,,"Ninh Kiều, Cần Thơ",VN
811,ChIJUw9TxUOIoDER5R7pzuXK-jA,Tiệm Cắt Tóc Ngọc Tiên,Hiệu làm tóc,,"Tiệm Cắt Tóc Ngọc Tiên, 295 1 Nguyễn Văn Cừ Nối Dài, Phường An Khánh, Ninh Kiều, Cần Thơ, Việt Nam","Phường An Khánh, Ninh Kiều",295 1 Nguyễn Văn Cừ Nối Dài,Cần Thơ,,"Ninh Kiều, Cần Thơ",VN
812,ChIJYXK3P0aIoDERVS5TaiVFF80,Uốn Tóc Tú Anh,Hiệu làm tóc,,"Uốn Tóc Tú Anh, Khu dân cư 91B, An Khánh, Ninh Kiều, Cần Thơ, Việt Nam","Khu dân cư 91B, An Khánh, Ninh Kiều",,Cần Thơ,,"Ninh Kiều, Cần Thơ",VN
813,ChIJjywAPBSJoDER1bLnig7HDjU,Tiệm Tóc Mỹ Hương,Hiệu làm tóc,,"Tiệm Tóc Mỹ Hương, Mỹ Khánh, Phong Điền, Cần Thơ, Việt Nam","Mỹ Khánh, Phong Điền",,Cần Thơ,,"Phong Điền, Cần Thơ",VN
814,ChIJgRNO4hSJoDERj9Cbp91E2vk,Tiệm Tóc Ngọc Hương,Hiệu làm tóc,,"Tiệm Tóc Ngọc Hương, Mỹ Khánh, Phong Điền, Cần Thơ, Việt Nam","Mỹ Khánh, Phong Điền",,Cần Thơ,,"Phong Điền, Cần Thơ",VN
815,ChIJJXmE1xOJoDERf8sYaeMI7EE,Tiệm Hớt Tóc Nguyễn Duy,Hiệu làm tóc,+84 292 3847 917,"Tiệm Hớt Tóc Nguyễn Duy, 175 Ấp Mỹ Phước, Huyện Phong Điền, Mỹ Khánh, Phong Điền, Cần Thơ, Việt Nam","Mỹ Khánh, Phong Điền","175 Ấp Mỹ Phước, Huyện Phong Điền",Cần Thơ,,"Phong Điền, Cần Thơ",VN
816,ChIJM5sIKn2JoDERlgRp0FmKQqs,Hớt Tóc Của,Hiệu làm tóc,,"Hớt Tóc Của, 174 Nguyễn Văn Trường, An Bình, Ninh Kiều, Cần Thơ, Việt Nam","An Bình, Ninh Kiều",174 Nguyễn Văn Trường,Cần Thơ,,"Ninh Kiều, Cần Thơ",VN
819,ChIJ_71PKYSJoDERkqtGqwPA8uY,Tiệm tóc Linh,Hiệu làm tóc,+84 939 427 459,"2PHH+WM5 Tiệm tóc Linh, Long Tuyền, Bình Thủy, Cần Thơ, Việt Nam","Long Tuyền, Bình Thủy",2PHH+WM5,Cần Thơ,,"Bình Thủy, Cần Thơ",VN
822,ChIJmyklTPuJoDERHJR4nIXZOoY,Salon Tóc Trường Giang,Tiệm cắt tóc,+84 916 086 661,"Salon Tóc Trường Giang, 165 Tô Vĩnh Diện, Long Tuyền, Bình Thủy, Cần Thơ, Việt Nam","Long Tuyền, Bình Thủy",165 Tô Vĩnh Diện,Cần Thơ,,"Bình Thủy, Cần Thơ",VN
823,ChIJY676dNmIoDERN8g7ZL6TrGY,Uốn Tóc Kim Loan,Hiệu làm tóc,,"Uốn Tóc Kim Loan, Bình Thủy, Cần Thơ, Việt Nam",Bình Thủy,,Cần Thơ,,"Bình Thủy, Cần Thơ",VN
828,ChIJPaeEQqGJoDER7Nx2fQ1aMq8,Tiệm Hớt Tóc Nam Nữ Như Ý,Hiệu làm tóc,+84 335 357 373,"Tiệm Hớt Tóc Nam Nữ Như Ý, Đường Lộ Vòng Cung, An Bình, Ninh Kiều, Cần Thơ, Việt Nam","An Bình, Ninh Kiều",Đường Lộ Vòng Cung,Cần Thơ,,"Ninh Kiều, Cần Thơ",VN
829,ChIJTc_zGKGJoDERdB27QZ59yj0,Tiệm Hớt Tóc Rồi,Hiệu làm tóc,+84 945 904 416,"Tiệm Hớt Tóc Rồi, 6/B4, Đường Lộ Vòng Cung, Quận Ninh Kiều, An Bình, Ninh Kiều, Cần Thơ, Việt Nam","An Bình, Ninh Kiều","6/B4, Đường Lộ Vòng Cung, Quận Ninh Kiều",Cần Thơ,,"Ninh Kiều, Cần Thơ",VN
831,ChIJowmXUbCJoDERPOknP6a3hUI,Uốn Tóc Thúy Linh,Hiệu làm tóc,,"Uốn Tóc Thúy Linh, Lê Bình, Cái Răng, Cần Thơ, Việt Nam","Lê Bình, Cái Răng",,Cần Thơ,,"Cái Răng, Cần Thơ",VN
832,ChIJIRgJFl2JoDERFYwbaWkZv8o,Uốn tóc Quỳnh Quyên,Hiệu làm tóc,+84 858 313 949,"Uốn tóc Quỳnh Quyên, 68/1c Trần Hưng Đạo, Lê Bình, Cái Răng, Cần Thơ, Việt Nam","Lê Bình, Cái Răng",68/1c Trần Hưng Đạo,Cần Thơ,,"Cái Răng, Cần Thơ",VN
833,ChIJ_4ZoArGJoDERPMsCBoruXGw,Tiệm Hớt Tóc Nam Phát Đạt,Hiệu làm tóc,+84 976 054 149,"Tiệm Hớt Tóc Nam Phát Đạt, 144/4, Khu Vực Yên Bình, Cái Răng, Cần Thơ, Việt Nam","Lê Bình, Cái Răng","144/4, Khu Vực Yên Bình",Cần Thơ,,"Cái Răng, Cần Thơ",VN
835,ChIJ5xYXHruJoDERP30J_btSo0Y,Tiệm Cắt Tóc Thuỳ Linh,Hiệu làm tóc,+84 907 888 949,"Tiệm Cắt Tóc Thuỳ Linh, 136/5, Nhật Tảo, Phường Lê Bình, Quận Cái Răng, Thành Phố Cần Thơ, Lê Bình, Cái Răng, Cần Thơ, Việt Nam","Lê Bình, Cái Răng","136/5, Nhật Tảo, Phường Lê Bình, Quận Cái Răng, Thành Phố Cần Thơ",Cần Thơ,,"Cái Răng, Cần Thơ",VN
836,ChIJedI2N7KJoDERTT4D6vt-VFs,Tiệm Hớt Tóc Đạt Anh,Hiệu làm tóc,+84 919 661 172,"Tiệm Hớt Tóc Đạt Anh, 148 Lộ Vòng Cung, An Bình, Ninh Kiều, Cần Thơ, Việt Nam","An Bình, Ninh Kiều",148 Lộ Vòng Cung,Cần Thơ,,"Ninh Kiều, Cần Thơ",VN
837,ChIJe_U8e7KJoDERIVIkspcZAHk,Tiệm Hớt Tóc Thanh Giang,Hiệu làm tóc,+84 939 933 836,"2P5W+QX9 Tiệm Hớt Tóc Thanh Giang, Đ. Hoàng Quốc Việt, An Bình, Ninh Kiều, Cần Thơ, Việt Nam","An Bình, Ninh Kiều","2P5W+QX9, Đ. Hoàng Quốc Việt",Cần Thơ,,"Ninh Kiều, Cần Thơ",VN
838,ChIJn6hQCa-JoDERjHXnjf1xiAI,Uốn Tóc - Massage Nhanh,Hiệu làm tóc,,"Uốn Tóc - Massage Nhanh, An Bình, Ninh Kiều, Cần Thơ, Việt Nam","An Bình, Ninh Kiều",,Cần Thơ,,"Ninh Kiều, Cần Thơ",VN
839,ChIJJeZpB6-JoDER67LkRAKGeaA,Hớt Tóc Hoàng Phủ,Tiệm cắt tóc,,"Hớt Tóc Hoàng Phủ, An Bình, Ninh Kiều, Cần Thơ, Việt Nam","An Bình, Ninh Kiều",,Cần Thơ,,"Ninh Kiều, Cần Thơ",VN
844,ChIJc3Ejz1uJoDER-2zdFkA-_Og,Tiệm tóc tâm barbershop,Hiệu làm tóc,,"2Q62+JH8 Tiệm tóc tâm barbershop, An Bình, Ninh Kiều, Cần Thơ, Việt Nam","An Bình, Ninh Kiều",2Q62+JH8,Cần Thơ,,"Ninh Kiều, Cần Thơ",VN
847,ChIJM83Sp7SJoDERIIwOzUspw-Y,Tiệm Tóc Nam Thanh Bình,Tiệm cắt tóc,,"Tiệm Tóc Nam Thanh Bình, An Bình, Ninh Kiều, Cần Thơ, Việt Nam","An Bình, Ninh Kiều",,Cần Thơ,,"Ninh Kiều, Cần Thơ",VN
851,ChIJi5cRAEuIoDERmc0khUe8wcc,Tiệm Tóc Ngọc Giàu,Hiệu làm tóc,,"2Q74+W6W Tiệm Tóc Ngọc Giàu, Hẻm 38 Đ. 3 Tháng 2, Hưng Lợi, Ninh Kiều, Cần Thơ, Việt Nam","Hưng Lợi, Ninh Kiều","2Q74+W6W, Hẻm 38 Đ. 3 Tháng 2",Cần Thơ,,"Ninh Kiều, Cần Thơ",VN
852,ChIJy3t5L0uIoDERZhiU0IqzdqE,Tiệm Hớt Tóc Hoàng Tuấn,Hiệu làm tóc,+84 766 990 303,"Tiệm Hớt Tóc Hoàng Tuấn, 681 Hẻm 553, Hưng Lợi, Ninh Kiều, Cần Thơ, Việt Nam","Hưng Lợi, Ninh Kiều",681 Hẻm 553,Cần Thơ,,"Ninh Kiều, Cần Thơ",VN
853,ChIJXZVcArGJoDERBsfdREZoXD4,Tiệm Hớt Tóc Thức,Hiệu làm tóc,+84 977 778 824,"Tiệm Hớt Tóc Thức, 143/5, Khu Vực Yên Bình, Cái Răng, Cần Thơ, Việt Nam","Lê Bình, Cái Răng","143/5, Khu Vực Yên Bình",Cần Thơ,,"Cái Răng, Cần Thơ",VN
855,ChIJn-C3jUiIoDER3muQeisdQHY,Tiệm Tóc Jevi,Hiệu làm tóc,+84 702 525 283,"Tiệm Tóc Jevi, 169 Đ. Nguyễn Hiền, Khu dân cư 91B, Ninh Kiều, Cần Thơ, Việt Nam","Khu dân cư 91B, Ninh Kiều",169 Đ. Nguyễn Hiền,Cần Thơ,,"Ninh Kiều, Cần Thơ",VN
856,ChIJMYqqeDeIoDER94d4lgznIhw,Uốn Tóc Ngọc Nhi,Hiệu làm tóc,,"Uốn Tóc Ngọc Nhi, Hưng Lợi, Ninh Kiều, Cần Thơ, Việt Nam","Hưng Lợi, Ninh Kiều",,Cần Thơ,,"Ninh Kiều, Cần Thơ",VN
858,ChIJtYv6WTeIoDERQqSflFnlXs0,Salon Tóc Nam A. Bình,Hiệu làm tóc,,"Salon Tóc Nam A. Bình, Hưng Lợi, Ninh Kiều, Cần Thơ, Việt Nam","Hưng Lợi, Ninh Kiều",,Cần Thơ,,"Ninh Kiều, Cần Thơ",VN
859,ChIJoQf3fAWJoDERYYpRIt54xWE,Tóc Nam Minh Nhật 4,Hiệu làm tóc,+84 345 939 345,"Tóc Nam Minh Nhật 4, 33 Đ. Nguyễn Văn Linh, Hưng Lợi, Ninh Kiều, Cần Thơ, Việt Nam","Hưng Lợi, Ninh Kiều",33 Đ. Nguyễn Văn Linh,Cần Thơ,,"Ninh Kiều, Cần Thơ",VN
860,ChIJ4yoLYziIoDERZZjz8QYlUEw,Hớt Tóc Nam Thái Phong,Tiệm cắt tóc,,"Hớt Tóc Nam Thái Phong, Hưng Lợi, Ninh Kiều, Cần Thơ, Việt Nam","Hưng Lợi, Ninh Kiều",,Cần Thơ,,"Ninh Kiều, Cần Thơ",VN
861,ChIJQTYTgzaIoDER2dJ8SOA_KFA,Tiệm Tóc Giả Nữ Dương,Hiệu làm tóc,+84 772 147 091,"Tiệm Tóc Giả Nữ Dương, 3A Hẻm 132 Đ. 3 Tháng 2, Hưng Lợi, Ninh Kiều, Cần Thơ, Việt Nam","Hưng Lợi, Ninh Kiều",3A Hẻm 132 Đ. 3 Tháng 2,Cần Thơ,,"Ninh Kiều, Cần Thơ",VN
863,ChIJqXSXhzaIoDERmiv4VICVc1c,Tiệm Hớt Tóc Minh Nhật,Hiệu làm tóc,+84 868 990 844,"Tiệm Hớt Tóc Minh Nhật, 112A Đ. 3 Tháng 2, Hưng Lợi, Ninh Kiều, Cần Thơ, Việt Nam","Hưng Lợi, Ninh Kiều",112A Đ. 3 Tháng 2,Cần Thơ,,"Ninh Kiều, Cần Thơ",VN
867,ChIJQbWC-jSIoDERhDIHHEOsdjw,Tiệm Hớt Tóc Nhật Toàn,Hiệu làm tóc,+84 918 828 808,"Tiệm Hớt Tóc Nhật Toàn, 147 Đ. 30 Tháng 4, Hưng Lợi, Ninh Kiều, Cần Thơ, Việt Nam","Hưng Lợi, Ninh Kiều",147 Đ. 30 Tháng 4,Cần Thơ,,"Ninh Kiều, Cần Thơ",VN
869,ChIJs_ENGDWIoDERkE9u4_l7r-c,Tiệm Hớt Tóc Oanh,Hiệu làm tóc,+84 292 3832 818,"Tiệm Hớt Tóc Oanh, 82 Đ. 30 Tháng 4, Hưng Lợi, Ninh Kiều, Cần Thơ, Việt Nam","Hưng Lợi, Ninh Kiều",82 Đ. 30 Tháng 4,Cần Thơ,,"Ninh Kiều, Cần Thơ",VN
870,ChIJ82r1-TOIoDERUTvYSrzdM3M,Viện Tóc Nguyễn Luân Cần Thơ,Hiệu làm tóc,,"Viện Tóc Nguyễn Luân Cần Thơ, 558 Đ. 30 Tháng 4, Hưng Lợi, Ninh Kiều, Cần Thơ, Việt Nam","Hưng Lợi, Ninh Kiều",558 Đ. 30 Tháng 4,Cần Thơ,,"Ninh Kiều, Cần Thơ",VN
872,ChIJU2HKQ8uJoDER1D2hvLRANuE,Tiêm Tóc Nữ Hằng,Hiệu làm tóc,,"2Q67+785 Tiêm Tóc Nữ Hằng, Hẻm 49, Hưng Lợi, Ninh Kiều, Cần Thơ, Việt Nam","Hưng Lợi, Ninh Kiều","2Q67+785, Hẻm 49",Cần Thơ,,"Ninh Kiều, Cần Thơ",VN
873,ChIJ7yEWqzGIoDER4L9MvkdRsh8,Tiệm Hớt Tóc Lê Duyên 2,Hiệu làm tóc,+84 292 3824 411,"Tiệm Hớt Tóc Lê Duyên 2, 235/2B, Đường Nguyễn Văn Linh, Quận Ninh Kiều, Tp Cần Thơ, Hưng Lợi, Ninh Kiều, Cần Thơ, Việt Nam","Hưng Lợi, Ninh Kiều","235/2B, Đường Nguyễn Văn Linh, Quận Ninh Kiều, Tp Cần Thơ",Cần Thơ,,"Ninh Kiều, Cần Thơ",VN
874,ChIJ_2teqcqJoDERTfdJYUs2N7g,Salon Tóc Nam Quý,Hiệu làm tóc,+84 939 722 948,"Salon Tóc Nam Quý, 748 Đ. 30 Tháng 4, Hưng Lợi, Ninh Kiều, Cần Thơ, Việt Nam","Hưng Lợi, Ninh Kiều",748 Đ. 30 Tháng 4,Cần Thơ,,"Ninh Kiều, Cần Thơ",VN
875,ChIJ31SQtMqJoDERHbXirNGKgg0,Tiệm Uốn Tóc Ngọc Ngân,Hiệu làm tóc,,"Tiệm Uốn Tóc Ngọc Ngân, 565 Đ. 30 Tháng 4, Hưng Lợi, Ninh Kiều, Cần Thơ, Việt Nam","Hưng Lợi, Ninh Kiều",565 Đ. 30 Tháng 4,Cần Thơ,,"Ninh Kiều, Cần Thơ",VN
878,ChIJqRNUNiGJoDERns1EX_B7TJA,Hớt tóc bình dân Cần Thơ,Tiệm cắt tóc,+84 908 155 689,"Hớt tóc bình dân Cần Thơ, 49, 1 Nguyễn Văn Trỗi, An Nghiệp, Ninh Kiều, Cần Thơ, Việt Nam","An Nghiệp, Ninh Kiều","49, 1 Nguyễn Văn Trỗi",Cần Thơ,,"Ninh Kiều, Cần Thơ",VN
879,ChIJmbRzvxmIoDERp3j8I3IboMM,Tiệm Hớt Tóc Phương Bình,Hiệu làm tóc,+84 908 171 939,"Tiệm Hớt Tóc Phương Bình, 102 Đ. Mậu Thân, An Nghiệp, Ninh Kiều, Cần Thơ, Việt Nam","An Nghiệp, Ninh Kiều",102 Đ. Mậu Thân,Cần Thơ,,"Ninh Kiều, Cần Thơ",VN
880,ChIJ7UVZ62GJoDERhz-iDA8_EbY,Tóc và nail Ngọc Khánh,Hiệu làm tóc,+84 907 621 865,"Tóc và nail Ngọc Khánh, Mậu thân 5 Hẻm 7, Xuân Khánh, Ninh Kiều, Cần Thơ, Việt Nam","Xuân Khánh, Ninh Kiều",Mậu thân 5 Hẻm 7,Cần Thơ,,"Ninh Kiều, Cần Thơ",VN
881,ChIJb0hmyhiIoDERz9p0-LwfUwE,Tuyết Ngọc Uốn Tóc,Hiệu làm tóc,,"Tuyết Ngọc Uốn Tóc, An Phú, Ninh Kiều, Cần Thơ, Việt Nam","An Phú, Ninh Kiều",,Cần Thơ,,"Ninh Kiều, Cần Thơ",VN
883,ChIJ38Gs_BmIoDERHoRMC32HMDI,Tiệm Cắt Tóc Hoàng Kha,Tiệm cắt tóc,+84 792 558 879,"Tiệm Cắt Tóc Hoàng Kha, Tp, 95/1 Đ. Mậu Thân, An Nghiệp, Ninh Kiều, Cần Thơ, Việt Nam","An Nghiệp, Ninh Kiều","Tp, 95/1 Đ. Mậu Thân",Cần Thơ,,"Ninh Kiều, Cần Thơ",VN
884,ChIJCX4bFCKIoDER_0Ep5y5dy9A,Tiệm Hớt Tóc Nguyễn Tiến,Hiệu làm tóc,,"Tiệm Hớt Tóc Nguyễn Tiến, 146 Đ. Mậu Thân, An Phú, Ninh Kiều, Cần Thơ, Việt Nam","An Phú, Ninh Kiều",146 Đ. Mậu Thân,Cần Thơ,,"Ninh Kiều, Cần Thơ",VN
886,ChIJZcmWvaBioDERfJMuErdrug8,Tiệm Uốn Tóc Thanh Thủy,Hiệu làm tóc,+84 292 3831 240,"Tiệm Uốn Tóc Thanh Thủy, 126, Đường Trương Định, Phường An Cư, Quận Ninh Kiều, Tp Cần Thơ, Tân An, Ninh Kiều, Cần Thơ, Việt Nam","Tân An, Ninh Kiều","126, Đường Trương Định, Phường An Cư, Quận Ninh Kiều, Tp Cần Thơ",Cần Thơ,,"Ninh Kiều, Cần Thơ",VN
887,ChIJcazozB-IoDERndZVSadC7Hc,Tu Linh Hair Salon,Hiệu làm tóc,+84 939 590 759,"Tu Linh Hair Salon, 88/1 Đ. Đề Thám, Tân An, Ninh Kiều, Cần Thơ, Việt Nam","Tân An, Ninh Kiều",88/1 Đ. Đề Thám,Cần Thơ,,"Ninh Kiều, Cần Thơ",VN
888,ChIJVXwUDaBioDERQhKZusytY98,Tiệm Uốn Tóc Thu,Hiệu làm tóc,+84 292 3811 246,"Tiệm Uốn Tóc Thu, 46 Đ. Đề Thám, Tân An, Ninh Kiều, Cần Thơ, Việt Nam","Tân An, Ninh Kiều",46 Đ. Đề Thám,Cần Thơ,,"Ninh Kiều, Cần Thơ",VN
889,ChIJf_bjfKBioDERYrcuQulBsqE,New Sai Gon Hair Salon,Hiệu làm tóc,+84 777 629 117,"New Sai Gon Hair Salon, 17 Hẻm 22 Đ. Mạc Đĩnh Chi, Tân An, Ninh Kiều, Cần Thơ, Việt Nam","Tân An, Ninh Kiều",17 Hẻm 22 Đ. Mạc Đĩnh Chi,Cần Thơ,,"Ninh Kiều, Cần Thơ",VN
890,ChIJ__yLKsmJoDERioSuO_bmNlU,Tiệm Tóc THÁI MẠNH SINGAPORE,Tiệm cắt tóc,+84 939 677 730,"Tiệm Tóc THÁI MẠNH SINGAPORE, 239 Huỳnh Cương, An Cư, Ninh Kiều, Cần Thơ, Việt Nam","An Cư, Ninh Kiều",239 Huỳnh Cương,Cần Thơ,,"Ninh Kiều, Cần Thơ",VN
891,ChIJTxv2WdVjoDERZot11PNetRw,Tóc nam Kiên,Tiệm cắt tóc,+84 907 006 711,"Tóc nam Kiên, 78 Đ.Xô Viết Nghệ Tĩnh, Tân An, Ninh Kiều, Cần Thơ 900000, Việt Nam","Tân An, Ninh Kiều",78 Đ.Xô Viết Nghệ Tĩnh,Cần Thơ,900000.0,"Ninh Kiều, Cần Thơ",VN
892,ChIJB4WyNDGJoDERv3kLMoBs9rY,Hớt tóc Lê Lai,Hiệu làm tóc,,"Hớt tóc Lê Lai, 4 Đ. Lê Lai, An Lạc, Ninh Kiều, Cần Thơ, Việt Nam","An Lạc, Ninh Kiều",4 Đ. Lê Lai,Cần Thơ,,"Ninh Kiều, Cần Thơ",VN
893,ChIJwfuQkYtjoDERp-ryYZ73U-I,Tiệm tóc Tú An,Tiệm cắt tóc,,"2QMM+W3C Tiệm tóc Tú An, Hẻm 97, Tân An, Ninh Kiều, Cần Thơ, Việt Nam","Tân An, Ninh Kiều","2QMM+W3C, Hẻm 97",Cần Thơ,,"Ninh Kiều, Cần Thơ",VN
896,ChIJB4YzVXVjoDERiHeonbKkw2A,Tiệm tóc Ngọc phú,Tiệm cắt tóc,+84 939 195 646,"Tiệm tóc Ngọc phú, 38 a Quang Trung, Tân An, Ninh Kiều, Cần Thơ, Việt Nam","Tân An, Ninh Kiều",38 a Quang Trung,Cần Thơ,,"Ninh Kiều, Cần Thơ",VN
