,place_id,name,main_category,phone,address,address_ward,address_street,address_city,address_postal_code,address_state,address_country_code
0,ChIJF-6D7qFioDERsfNSFHaupFs,Tạp Hóa Cô 6 Cô 7,Cửa hàng tạp phẩm,,"Tạp Hóa Cô 6 Cô 7, 27 Phan Đình Phùng, Tân An, Ninh Kiều, Cần Thơ","Tân An, Ninh Kiều",27 Phan Đình Phùng,Cần Thơ,,"Ninh Kiều, Cần Thơ",VN
5,ChIJlQ-g0gKJoDERQub5KEYgOrY,Tạp Hoá Cô Út Cần Thơ,Cửa hàng tạp hóa,0989 816 562,"Tạp Hoá Cô Út Cần Thơ, 158/72 Hẻm 2, Đ. Nguyễn Việt Hồng, An Phú, Ninh Kiều, Cần Thơ","An Phú, Ninh Kiều","158/72 Hẻm 2, Đ. Nguyễn Việt Hồng",Cần Thơ,,"Ninh Kiều, Cần Thơ",VN
7,ChIJC8DxMUaIoDERgrwBS_NPg30,Tạp Hóa Thiên Tân,Cửa hàng tạp hóa,0907 577 287,"Tạp Hóa Thiên Tân, 88 Đường B22, Khu dân cư 91B, Ninh Kiều, Cần Thơ","Khu dân cư 91B, Ninh Kiều",88 Đường B22,Cần Thơ,,"Ninh Kiều, Cần Thơ",VN
9,ChIJeSEgM9c7vKsR-w1yR2fjXOo,Tiệm Tạp Hóa Vinh Tuyền,Cửa hàng tạp hóa,0902 703 300,"Tiệm Tạp Hóa Vinh Tuyền, 42/31 Đ. Trần Việt Châu, Thới Bình, Ninh Kiều, Cần Thơ","Thới Bình, Ninh Kiều",42/31 Đ. Trần Việt Châu,Cần Thơ,,"Ninh Kiều, Cần Thơ",VN
10,ChIJWyPuY72JoDERl0K-4_ePPGI,Tạp hóa tuổi thơ Covy,Tiệm bánh kẹo,0792 432 169,"Tạp hóa tuổi thơ Covy, 147/43A Đ. Nguyễn Văn Cừ, P, Ninh Kiều, Cần Thơ","P, Ninh Kiều",147/43A Đ. Nguyễn Văn Cừ,Cần Thơ,,"Ninh Kiều, Cần Thơ",VN
11,ChIJPY9lpUtjoDERD995gZ-Hbcc,Tạp Hóa Chú Lùn,Cửa hàng đồ gia dụng,0949 500 090,,,,,,,
22,ChIJyQrnFIKJoDERf8sSrHYgwfw,Tiệm tạp hoá 9March,Cửa hàng tổng hợp,0932 903 393,"Tiệm tạp hoá 9March, 174 Đ. 3 Tháng 2, Hưng Lợi, Ninh Kiều, Cần Thơ","Hưng Lợi, Ninh Kiều",174 Đ. 3 Tháng 2,Cần Thơ,,"Ninh Kiều, Cần Thơ",VN
23,ChIJjbapS7WJoDERjDDgS-Q6qrY,Cửa Hàng Tạp Hóa Xuân Hảo,Cửa hàng bách hóa,0917 919 595,"Cửa Hàng Tạp Hóa Xuân Hảo, 631 Đ. 30 Tháng 4, Hưng Lợi, Ninh Kiều, Cần Thơ","Hưng Lợi, Ninh Kiều",631 Đ. 30 Tháng 4,Cần Thơ,,"Ninh Kiều, Cần Thơ",VN
27,ChIJITv4KEyIoDERdhuho5UR_QA,Tạp Hóa Tuấn Duy,Cửa hàng tạp phẩm,0917 193 865,"Tạp Hóa Tuấn Duy, Đ. Trần Vĩnh Kiết, Hưng Lợi, Ninh Kiều, Cần Thơ","Hưng Lợi, Ninh Kiều",Đ. Trần Vĩnh Kiết,Cần Thơ,,"Ninh Kiều, Cần Thơ",VN
30,ChIJXeDn9zeIoDERtMzyjnZhZAA,Tạp hoá Gia dụng 60s,Cửa hàng đồ gia dụng,,"2QF5+4Q7 Tạp hoá Gia dụng 60s, Hưng Lợi, Ninh Kiều, Cần Thơ","Hưng Lợi, Ninh Kiều",2QF5+4Q7,Cần Thơ,,"Ninh Kiều, Cần Thơ",VN
32,ChIJQyOem59ioDERhTi5rudy2tg,Cửa Hàng Tạp Hoá Hồng Phước,Cửa hàng tạp hóa,0292 3825 809,"Cửa Hàng Tạp Hoá Hồng Phước, 16Bis Đ. Đồng Khởi, Tân An, Ninh Kiều, Cần Thơ","Tân An, Ninh Kiều",16Bis Đ. Đồng Khởi,Cần Thơ,,"Ninh Kiều, Cần Thơ",VN
35,ChIJrbdZSwqJoDERfZzhhVfMoxA,Cửa Hàng Tạp Hóa Diễm My,Cửa hàng bách hóa,0292 2483 646,"Cửa Hàng Tạp Hóa Diễm My, 251 Ấp Mỹ Phước, Huyện Phong Điền, An Bình, Ninh Kiều, Cần Thơ","An Bình, Ninh Kiều","251 Ấp Mỹ Phước, Huyện Phong Điền",Cần Thơ,,"Ninh Kiều, Cần Thơ",VN
38,ChIJU857ABCIoDERhAIaKASe1Lc,Tạp Hóa Chị Tuyết,Cửa hàng tạp hóa,0292 3897 355,"Tạp Hóa Chị Tuyết, 311/, 54 Đ. Nguyễn Văn Cừ, Thới Bình, Ninh Kiều, Cần Thơ","Thới Bình, Ninh Kiều","311/, 54 Đ. Nguyễn Văn Cừ",Cần Thơ,,"Ninh Kiều, Cần Thơ",VN
46,ChIJEUWf3GWJoDER01-1Tf2IJO8,Tạp hóa 144,Cửa hàng tạp phẩm,,"Tạp hóa 144, 281 Đ.Xuân Thủy, An Bình, Ninh Kiều, Cần Thơ","An Bình, Ninh Kiều",281 Đ.Xuân Thủy,Cần Thơ,,"Ninh Kiều, Cần Thơ",VN
49,ChIJTy-5VDOIoDERIxrdYmnrJQU,Cửa Hàng Tạp Hoá Bách Sơn,Cửa hàng bách hóa,,"Cửa Hàng Tạp Hoá Bách Sơn, 17 Đ. Trần Hoàng Na, Hưng Lợi, Ninh Kiều, Cần Thơ","Hưng Lợi, Ninh Kiều",17 Đ. Trần Hoàng Na,Cần Thơ,,"Ninh Kiều, Cần Thơ",VN
50,ChIJq6qqqq5ioDERfHVGD3JkQvU,Cửa Hàng Tạp Hóa Quang Linh,Cửa hàng bách hóa,0939 992 587,"Cửa Hàng Tạp Hóa Quang Linh, Kios 43, Nhà Lồng 3, Trung Tâm Thương Mại Cái Khế, Phường Cái Khế, Quận Ninh Kiều, Thành Phố Cần Thơ, Cái Khế, Ninh Kiều, Cần Thơ","Cái Khế, Ninh Kiều","Kios 43, Nhà Lồng 3, Trung Tâm Thương Mại Cái Khế, Phường Cái Khế, Quận Ninh Kiều, Thành Phố Cần Thơ",Cần Thơ,,"Ninh Kiều, Cần Thơ",VN
55,ChIJkavbq1qIoDERoMVNcNlGl2I,Cửa Hàng Tạp Hoá 130,Cửa hàng bách hóa,0901 020 389,"Cửa Hàng Tạp Hoá 130, 130 AB1, Xuân Thủy, Khu Dân Cư Cái Sơn - Hàng Bàng, Phường An Bình, Quận Ninh Kiều, Thành Phố Cần Thơ, An Bình, Ninh Kiều, Cần Thơ","An Bình, Ninh Kiều","130 AB1, Xuân Thủy, Khu Dân Cư Cái Sơn - Hàng Bàng, Phường An Bình, Quận Ninh Kiều, Thành Phố Cần Thơ",Cần Thơ,,"Ninh Kiều, Cần Thơ",VN
56,ChIJ5UjZqGmJoDERq9U-_Doj4no,Tạp hóa Ngọc Thúy,Cửa hàng tạp phẩm,,"Tạp hóa Ngọc Thúy, 55 Đ. 30 Tháng 4, Hưng Lợi, Ninh Kiều, Cần Thơ","Hưng Lợi, Ninh Kiều",55 Đ. 30 Tháng 4,Cần Thơ,,"Ninh Kiều, Cần Thơ",VN
60,ChIJpQjbMM2JoDERwyaXJxkWSGQ,Quán Café Tạp Hóa Huỳnh Hà,Quán cà phê,0292 3839 422,"Quán Café Tạp Hóa Huỳnh Hà, 202, Đường Tầm Vu, Quận Ninh Kiều, Tp Cần Thơ, Hưng Lợi, Ninh Kiều, Cần Thơ","Hưng Lợi, Ninh Kiều","202, Đường Tầm Vu, Quận Ninh Kiều, Tp Cần Thơ",Cần Thơ,,"Ninh Kiều, Cần Thơ",VN
61,ChIJY7fJQ6qJoDER_EcVLnId7Ls,Tạp hoá Phúc Thịnh,Cửa hàng tạp hóa,0775 862 662,"Tạp hoá Phúc Thịnh, 54 Đ. Trần Hoàng Na, Hưng Lợi, Ninh Kiều, Cần Thơ","Hưng Lợi, Ninh Kiều",54 Đ. Trần Hoàng Na,Cần Thơ,,"Ninh Kiều, Cần Thơ",VN
64,ChIJ37KacC2IoDERaUTJYbVeh5w,Cửa Hàng Tạp Hóa Vĩnh Thăng,Cửa hàng bách hóa,0292 3838 684,"Cửa Hàng Tạp Hóa Vĩnh Thăng, 248 Tầm Vu, Hưng Lợi, Ninh Kiều, Cần Thơ","Hưng Lợi, Ninh Kiều",248 Tầm Vu,Cần Thơ,,"Ninh Kiều, Cần Thơ",VN
65,ChIJBVYpQ62JoDERsamJ_Wb87zU,Cửa Hàng Tạp Hóa Tuyết,Cửa hàng bách hóa,0292 3844 138,"Cửa Hàng Tạp Hóa Tuyết, 249, Đường Cái Sơn Hàng Bàng, Quận Cái Răng, An Bình, Ninh Kiều, Cần Thơ","An Bình, Ninh Kiều","249, Đường Cái Sơn Hàng Bàng, Quận Cái Răng",Cần Thơ,,"Ninh Kiều, Cần Thơ",VN
68,ChIJn0SOd7mJoDER-yDNIUquP8g,Cửa Hàng Tạp Hóa Chị Sương,Cửa hàng tạp phẩm,0906 991 962,"Cửa Hàng Tạp Hóa Chị Sương, 382 Lê Bình, Cái Răng, Cần Thơ","Lê Bình, Cái Răng",382 Lê Bình,Cần Thơ,,"Cái Răng, Cần Thơ",VN
69,ChIJkXMrfDiIoDERATbm1hdzgOs,Cửa Hàng Tạp Hóa Cà Phê,Cửa hàng tạp hóa,0292 6507 779,"Cửa Hàng Tạp Hóa Cà Phê, 227/9, QL91B, Phường An Khánh, Ninh Kiều, Cần Thơ","Phường An Khánh, Ninh Kiều","227/9, QL91B",Cần Thơ,,"Ninh Kiều, Cần Thơ",VN
72,ChIJfxMKiwWJoDERiEnE1-MX-lg,Tạp Hóa Minh Vy,Cửa hàng tạp phẩm,0939 465 675,"2QGH+R59 Tạp Hóa Minh Vy, Xuân Khánh, Ninh Kiều, Cần Thơ","Xuân Khánh, Ninh Kiều",2QGH+R59,Cần Thơ,,"Ninh Kiều, Cần Thơ",VN
75,ChIJtVktjMmJoDERABdOQf0INbo,Tạp hóa Vũ,Cửa hàng tạp hóa,0939 884 412,"Tạp hóa Vũ, 472 Võ Văn Kiệt, An Thới, Bình Thủy, Cần Thơ","An Thới, Bình Thủy",472 Võ Văn Kiệt,Cần Thơ,,"Bình Thủy, Cần Thơ",VN
77,ChIJu6y47WuIoDERPPj4wEmjCKM,Tạp Hóa Quốc,Cửa hàng tạp hóa,0907 899 603,"Tạp Hóa Quốc, KDC Thời Nhứt 1, Số 16B Đường Số 6A, Phường An Khánh, Ninh Kiều, Cần Thơ","Phường An Khánh, Ninh Kiều","KDC Thời Nhứt 1, Số 16B Đường Số 6A",Cần Thơ,,"Ninh Kiều, Cần Thơ",VN
78,ChIJVTEYC1CIoDER8o-3fO6a8ps,Cửa Hàng Tạp Hoá Đỗ Quyên,Cửa hàng bách hóa,0966 777 738,"Cửa Hàng Tạp Hoá Đỗ Quyên, 245 Đ. Tú Xương, An Bình, Ninh Kiều, Cần Thơ","An Bình, Ninh Kiều",245 Đ. Tú Xương,Cần Thơ,,"Ninh Kiều, Cần Thơ",VN
79,ChIJa4n1PyeJoDERZYSQplKC3uM,Tạp Hóa Thắm,Cửa hàng bách hóa,,"Tạp Hóa Thắm, Long Tuyền, Phong Điền, Cần Thơ","Long Tuyền, Phong Điền",,Cần Thơ,,"Phong Điền, Cần Thơ",VN
80,ChIJvZVWErGJoDER77grrR75f0w,Cửa Hàng Tạp Hóa Tường Phát,Cửa hàng bách hóa,,"Cửa Hàng Tạp Hóa Tường Phát, 63 Trần Hưng Đạo, Lê Bình, Cái Răng, Cần Thơ","Lê Bình, Cái Răng",63 Trần Hưng Đạo,Cần Thơ,,"Cái Răng, Cần Thơ",VN
81,ChIJvztGLZ2JoDERJzbOUrYf4Dw,Tạp hóa Minh Nghi,Cửa hàng tạp phẩm,,"Tạp hóa Minh Nghi, 30 Hẻm 132 Đ. 3 Tháng 2, Hưng Lợi, Ninh Kiều, Cần Thơ","Hưng Lợi, Ninh Kiều",30 Hẻm 132 Đ. 3 Tháng 2,Cần Thơ,,"Ninh Kiều, Cần Thơ",VN
85,ChIJTz8q-jqIoDERQOMcrNVUrCo,Cửa Hàng Tạp Hóa Phúc Hậu,Cửa hàng tạp hóa,0292 3739 181,"Cửa Hàng Tạp Hóa Phúc Hậu, 168 Đ. 3 Tháng 2, Xuân Khánh, Ninh Kiều, Cần Thơ","Xuân Khánh, Ninh Kiều",168 Đ. 3 Tháng 2,Cần Thơ,,"Ninh Kiều, Cần Thơ",VN
87,ChIJHeAay7eJoDERH37Ffi0OlGk,Tạp hoá / Nhà trọ Minh Khang,Cửa hàng tạp phẩm,,"2QG8+929 Tạp hoá / Nhà trọ Minh Khang, Hẻm 51, Phường An Khánh, Ninh Kiều, Cần Thơ","Phường An Khánh, Ninh Kiều","2QG8+929, Hẻm 51",Cần Thơ,,"Ninh Kiều, Cần Thơ",VN
90,ChIJ4zcOTpZioDERJTuo35XyxTQ,Tạp hóa,Cửa hàng tạp hóa,,"2QHW+WRX Tạp hóa, Hẻm 3 Tổ 8 Khu Vực I, Hưng Phú, Cái Răng, Cần Thơ","Hưng Phú, Cái Răng","2QHW+WRX, Hẻm 3 Tổ 8 Khu Vực I",Cần Thơ,,"Cái Răng, Cần Thơ",VN
92,ChIJewzx2B-IoDERT7D8eTV6CiU,Cửa Hàng Tạp Hóa Quế Vân,Cửa hàng tạp hóa,,"Cửa Hàng Tạp Hóa Quế Vân, 65 Đ. Đề Thám, Tân An, Ninh Kiều, Cần Thơ","Tân An, Ninh Kiều",65 Đ. Đề Thám,Cần Thơ,,"Ninh Kiều, Cần Thơ",VN
93,ChIJ8TbxWp9ioDERZQ_917yzXCY,Cửa Hàng Tạp Hóa Lý Nhạn Yến,Cửa hàng bách hóa,0764 033 247,"Cửa Hàng Tạp Hóa Lý Nhạn Yến, 56 Phan Bội Châu, Tân An, Ninh Kiều, Cần Thơ","Tân An, Ninh Kiều",56 Phan Bội Châu,Cần Thơ,,"Ninh Kiều, Cần Thơ",VN
94,ChIJi_QK8qFioDERCsoRtFnpTcI,Co Sau-Co Bay Grocery Store,Cửa hàng bánh,0292 3825 485,"Co Sau-Co Bay Grocery Store, 27 Phan Đình Phùng, Tân An, Ninh Kiều, Cần Thơ","Tân An, Ninh Kiều",27 Phan Đình Phùng,Cần Thơ,,"Ninh Kiều, Cần Thơ",VN
96,ChIJh-54fbyJoDERi0pa9YE9Qm0,TẠP HÓA SỐ 04,Cửa hàng tạp hóa,0292 3832 690,"2QPF+H84 TẠP HÓA SỐ 04, Nguyễn Cư Trinh, An Phú, Ninh Kiều, Cần Thơ","An Phú, Ninh Kiều","2QPF+H84, Nguyễn Cư Trinh",Cần Thơ,,"Ninh Kiều, Cần Thơ",VN
99,ChIJFaYT71mJoDEROESeIbCfk4A,Tạp Hoá Hoài An,Cửa hàng tạp phẩm,0939 828 721,"Tạp Hoá Hoài An, 173 Đ. Phạm Ngũ Lão, Thới Bình, Ninh Kiều, Cần Thơ","Thới Bình, Ninh Kiều",173 Đ. Phạm Ngũ Lão,Cần Thơ,,"Ninh Kiều, Cần Thơ",VN
105,ChIJeV0rl59ioDER_K1QawqzjXQ,Thuan Food Grocery Store,Siêu thị,0292 3830 934,"Thuan Food Grocery Store, 114 Đường Châu Văn Liêm, Tân An, Ninh Kiều, Cần Thơ","Tân An, Ninh Kiều",114 Đường Châu Văn Liêm,Cần Thơ,,"Ninh Kiều, Cần Thơ",VN
109,ChIJi_jZXSKIoDERezTWXXZtStE,Cửa Hàng Tạp Hóa 44,Cửa hàng tạp hóa,0292 3830 379,"Cửa Hàng Tạp Hóa 44, 44 Đ. 3 Tháng 2, An Phú, Ninh Kiều, Cần Thơ","An Phú, Ninh Kiều",44 Đ. 3 Tháng 2,Cần Thơ,,"Ninh Kiều, Cần Thơ",VN
115,ChIJ7wCjkhKIoDERYniB5S2Fbk8,Cửa Hàng Tạp Hóa Kha,Cửa hàng bách hóa,0919 763 978,"2QV6+783 Cửa Hàng Tạp Hóa Kha, Nguyễn Văn Cừ Nối Dài, Phường An Khánh, Ninh Kiều, Cần Thơ","Phường An Khánh, Ninh Kiều","2QV6+783, Nguyễn Văn Cừ Nối Dài",Cần Thơ,,"Ninh Kiều, Cần Thơ",VN
116,ChIJFZc0i2uIoDER5igt-9NvOx0,Cửa Hàng Tạp Hóa Tư Hòa,Cửa hàng bách hóa,0292 3833 257,"Cửa Hàng Tạp Hóa Tư Hòa, 58 Đ. Tô Hiến Thành, Phường An Khánh, Ninh Kiều, Cần Thơ","Phường An Khánh, Ninh Kiều",58 Đ. Tô Hiến Thành,Cần Thơ,,"Ninh Kiều, Cần Thơ",VN
123,ChIJwajxXVGIoDERq8e1W3Euuk8,Tạp Hóa Ánh Tuyết,Cửa hàng tạp phẩm,,"2P9V+56C Tạp Hóa Ánh Tuyết, Đ. Hoàng Quốc Việt, An Bình, Ninh Kiều, Cần Thơ","An Bình, Ninh Kiều","2P9V+56C, Đ. Hoàng Quốc Việt",Cần Thơ,,"Ninh Kiều, Cần Thơ",VN
124,ChIJN85aciSJoDERm4wD3eicgs4,Tạp hóa Cô Năm,Cửa hàng đồ gia dụng,0389 739 089,"Tạp hóa Cô Năm, 255B/VM khu vực Bình Thường B, Bình Thủy, Cần Thơ 94211","An Bình, Bình Thủy",255B/VM khu vực Bình Thường B,Cần Thơ,94211.0,"Bình Thủy, Cần Thơ",VN
125,ChIJ7RWQObKJoDERDuEG5oBdOEg,Tạp Hóa Hiền,Cửa hàng tạp phẩm,,"2P5X+7HM Tạp Hóa Hiền, An Bình, Ninh Kiều, Cần Thơ","An Bình, Ninh Kiều",2P5X+7HM,Cần Thơ,,"Ninh Kiều, Cần Thơ",VN
126,ChIJBdwdlUuIoDERuL44uTFaKWs,Tạp Hóa Nhựt Trân,Cửa hàng bách hóa,,"2Q83+GHC Tạp Hóa Nhựt Trân, Hẻm 12 Đ. 3 Tháng 2, Hưng Lợi, Ninh Kiều, Cần Thơ","Hưng Lợi, Ninh Kiều","2Q83+GHC, Hẻm 12 Đ. 3 Tháng 2",Cần Thơ,,"Ninh Kiều, Cần Thơ",VN
127,ChIJPxDWdxaJoDERiISjT-txn00,Tạp hoá Hiền,Cửa hàng tạp hóa,,"Tạp hoá Hiền, 437 Nguyễn Văn Trường, An Bình, Bình Thủy, Cần Thơ","An Bình, Bình Thủy",437 Nguyễn Văn Trường,Cần Thơ,,"Bình Thủy, Cần Thơ",VN
128,ChIJo_UAFTqJoDERW5CaNFRsMCY,Tạp Hóa Anh Ngà,Cửa hàng tạp hóa,0903 029 583,"Tạp Hóa Anh Ngà, 171 Nguyễn Văn Trường, An Bình, Ninh Kiều, Cần Thơ","An Bình, Ninh Kiều",171 Nguyễn Văn Trường,Cần Thơ,,"Ninh Kiều, Cần Thơ",VN
129,ChIJvfscjKCJoDERc0au5yAGUQQ,Quầy Tạp Hóa Út sơn,Cửa hàng bách hóa,0292 2474 199,"Quầy Tạp Hóa Út sơn, 35/1, Đường Lộ Vòng Cung, Quận Ninh Kiều, An Bình, Ninh Kiều, Cần Thơ","An Bình, Ninh Kiều","35/1, Đường Lộ Vòng Cung, Quận Ninh Kiều",Cần Thơ,,"Ninh Kiều, Cần Thơ",VN
131,ChIJ4YT4yl2JoDERj5BTlpupOdA,Tạp hóa Cô Kiều,Cửa hàng tạp hóa,0914 484 101,"Tạp hóa Cô Kiều, 166/4A Đường Phạm Hùng, khu vực, Cái Răng, Cần Thơ","khu vực, Cái Răng",166/4A Đường Phạm Hùng,Cần Thơ,,"Cái Răng, Cần Thơ",VN
132,ChIJvRbkOLKJoDERrYcX1S16ZOc,Cửa Hàng Tạp Hóa Lê Thị Kiều Oanh,Cửa hàng bách hóa,0772 365 225,"Cửa Hàng Tạp Hóa Lê Thị Kiều Oanh, Lô 41, Đường Lộ Vòng Cung, Phường An Bình, Quận Ninh Kiều, An Bình, Ninh Kiều, Cần Thơ","An Bình, Ninh Kiều","Lô 41, Đường Lộ Vòng Cung, Phường An Bình, Quận Ninh Kiều",Cần Thơ,,"Ninh Kiều, Cần Thơ",VN
135,ChIJ_8U2wrCJoDERnF1n56WiaUY,Tiệm tạp hoá cô trinh,Cửa hàng tạp phẩm,0772 024 578,"2Q32+8HV Tiệm tạp hoá cô trinh, Nguyễn Trãi, Lê Bình, Cái Răng, Cần Thơ","Lê Bình, Cái Răng","2Q32+8HV, Nguyễn Trãi",Cần Thơ,,"Cái Răng, Cần Thơ",VN
136,ChIJB2DVYbeJoDERSt_hDhiL_Zs,Cửa Hàng Tạp Hóa Quỳnh Như,Cửa hàng bách hóa,0292 6546 855,"2Q23+HQJ Cửa Hàng Tạp Hóa Quỳnh Như, Lê Bình, Cái Răng, Cần Thơ","Lê Bình, Cái Răng",2Q23+HQJ,Cần Thơ,,"Cái Răng, Cần Thơ",VN
138,ChIJqyrnDrmJoDERGZ6_qEpMPPQ,Cửa Hàng Tạp Hóa 372C,Cửa hàng tạp phẩm,0937 627 071,"Cửa Hàng Tạp Hóa 372C, 372 Lê Bình, Cái Răng, Cần Thơ","Lê Bình, Cái Răng",372 Lê Bình,Cần Thơ,,"Cái Răng, Cần Thơ",VN
139,ChIJjRLzFEeIoDERYp3A7hyGEtY,Cửa Hàng Tạp Hóa Bảy Mai,Cửa hàng tạp hóa,0292 3890 097,"Cửa Hàng Tạp Hóa Bảy Mai, 327 Đ. Nguyễn Văn Linh, Hưng Lợi, Ninh Kiều, Cần Thơ","Hưng Lợi, Ninh Kiều",327 Đ. Nguyễn Văn Linh,Cần Thơ,,"Ninh Kiều, Cần Thơ",VN
140,ChIJuY70H4eJoDER0tS6ioG6ZH4,Tạp hoá Bích thùy,Cửa hàng tổng hợp,0788 882 862,"Tạp hoá Bích thùy, Hẻm 112 Đ. 3 Tháng 2, Hưng Lợi, Ninh Kiều, Cần Thơ","Hưng Lợi, Ninh Kiều",Hẻm 112 Đ. 3 Tháng 2,Cần Thơ,,"Ninh Kiều, Cần Thơ",VN
143,ChIJyavVV8uJoDERTx_p1pzClnc,Tạp Hóa Thùy Lâm,Cửa hàng bách hóa,0907 234 542,"Tạp Hóa Thùy Lâm, 151/49/2B, Trần Hoàng Na, Phường Hưng Lợi, Quận Ninh Kiều, Thành Phố Cần Thơ, Hưng Lợi, Ninh Kiều, Cần Thơ","Hưng Lợi, Ninh Kiều","151/49/2B, Trần Hoàng Na, Phường Hưng Lợi, Quận Ninh Kiều, Thành Phố Cần Thơ",Cần Thơ,,"Ninh Kiều, Cần Thơ",VN
144,ChIJx0F489SJoDERKYXH2M2FzTM,Tạp Hóa Quí Thư,Cửa hàng bách hóa,,"Tạp Hóa Quí Thư, Hưng Thạnh, Cái Răng, Cần Thơ","Hưng Thạnh, Cái Răng",,Cần Thơ,,"Cái Răng, Cần Thơ",VN
149,ChIJafEIUSOIoDERNyBMRSBOTrA,Cửa Hàng Tạp Hóa 128A,Cửa hàng tạp hóa,0292 3731 564,"Cửa Hàng Tạp Hóa 128A, 128 Đ. 3 Tháng 2, Xuân Khánh, Ninh Kiều, Cần Thơ","Xuân Khánh, Ninh Kiều",128 Đ. 3 Tháng 2,Cần Thơ,,"Ninh Kiều, Cần Thơ",VN
150,ChIJBUtRayOIoDERoivvLo1FONk,Tiệm Tạp Hoá Hoàng Văn Kim,Cửa hàng bách hóa,0903 822 442,"Tiệm Tạp Hoá Hoàng Văn Kim, Lô 75, Chợ Xuân Khánh, Phường Xuân Khánh, Quận Ninh Kiều, Xuân Khánh, Ninh Kiều, Cần Thơ","Xuân Khánh, Ninh Kiều","Lô 75, Chợ Xuân Khánh, Phường Xuân Khánh, Quận Ninh Kiều",Cần Thơ,,"Ninh Kiều, Cần Thơ",VN
155,ChIJFSh3IaJioDERbTF9nTSaVCw,Cửa Hàng Tạp Hoá Nám,Cửa hàng bách hóa,0292 3828 198,"Cửa Hàng Tạp Hoá Nám, 50 Đường Hai Bà Trưng, Tân An, Ninh Kiều, Cần Thơ","Tân An, Ninh Kiều",50 Đường Hai Bà Trưng,Cần Thơ,,"Ninh Kiều, Cần Thơ",VN
162,ChIJ7T0uPwGIoDERgUy8gQvL2cg,Cửa Hàng Tạp Hóa Thành Trung,Cửa hàng bách hóa,0909 908 251,"3Q2G+6XX Cửa Hàng Tạp Hóa Thành Trung, Đường Tôn Thất Tùng, Cái Khế, Ninh Kiều, Cần Thơ","Cái Khế, Ninh Kiều","3Q2G+6XX, Đường Tôn Thất Tùng",Cần Thơ,,"Ninh Kiều, Cần Thơ",VN
163,ChIJAV428oaHoDERpGMUXxz4wfc,Tạp hóa,Cửa hàng,,"3Q63+8VR Tạp hóa, Lê Văn Sô, An Thới, Bình Thủy, Cần Thơ","An Thới, Bình Thủy","3Q63+8VR, Lê Văn Sô",Cần Thơ,,"Bình Thủy, Cần Thơ",VN
164,ChIJoUUvpOaHoDERB2YhtJ6KGJg,Cửa Hàng Tạp Hóa Tuyết Sương,Cửa hàng bách hóa,0292 2462 033,"Cửa Hàng Tạp Hóa Tuyết Sương, 312 Đ. Cách Mạng Tháng 8, Bùi Hữu Nghĩa, Bình Thủy, Cần Thơ","Bùi Hữu Nghĩa, Bình Thủy",312 Đ. Cách Mạng Tháng 8,Cần Thơ,,"Bình Thủy, Cần Thơ",VN
165,ChIJq6qqqq5ioDERI13VK6A2YNE,Cửa Hàng Tạp Hóa Chúc,Cửa hàng bách hóa,0902 359 342,"Cửa Hàng Tạp Hóa Chúc, Kios 25, Nhà Lồng 3, Trung Tâm Thương Mại Cái Khế, Phường Cái Khế, Quận Ninh Kiều, Thành Phố Cần Thơ, Cái Khế, Ninh Kiều, Cần Thơ","Cái Khế, Ninh Kiều","Kios 25, Nhà Lồng 3, Trung Tâm Thương Mại Cái Khế, Phường Cái Khế, Quận Ninh Kiều, Thành Phố Cần Thơ",Cần Thơ,,"Ninh Kiều, Cần Thơ",VN
167,ChIJxeG9-KFioDERD7mZGRLZ6yY,Cửa Hàng Tạp Hóa Trần Thị Em,Cửa hàng bách hóa,0856 091 011,"Cửa Hàng Tạp Hóa Trần Thị Em, 1 Đ. Tân Trào, Tân An, Ninh Kiều, Cần Thơ","Tân An, Ninh Kiều",1 Đ. Tân Trào,Cần Thơ,,"Ninh Kiều, Cần Thơ",VN
168,ChIJm0cJdaBioDER-N45Za5DX9M,Cửa Hàng Tạp Hóa Hạnh Thu,Cửa hàng tạp hóa,0292 3768 571,"Cửa Hàng Tạp Hóa Hạnh Thu, 70 Đ. Đề Thám, Tân An, Ninh Kiều, Cần Thơ","Tân An, Ninh Kiều",70 Đ. Đề Thám,Cần Thơ,,"Ninh Kiều, Cần Thơ",VN
170,ChIJ-SwEBm9joDERoIkObsMbgLI,Tạp hóa Út Kiều,Cửa hàng tạp phẩm,,"2QHR+JCC Tạp hóa Út Kiều, Khu Vực 3, Hưng Phú, Cái Răng, Cần Thơ","Hưng Phú, Cái Răng","2QHR+JCC, Khu Vực 3",Cần Thơ,,"Cái Răng, Cần Thơ",VN
171,ChIJpzyy8CqJoDERgWOAj8-7fNs,TIỆM TẠP HÓA BÁNH BAO NHỎ YÊN,Cửa hàng tổng hợp,0763 823 807,"TIỆM TẠP HÓA BÁNH BAO NHỎ YÊN, 85 Đ. Đề Thám, Tân An, Ninh Kiều, Cần Thơ","Tân An, Ninh Kiều",85 Đ. Đề Thám,Cần Thơ,,"Ninh Kiều, Cần Thơ",VN
172,ChIJfcfWeRyIoDEReutGG5YJgYI,Cửa Hàng Tạp Hóa Xuân Chi,Cửa hàng bách hóa,,"Cửa Hàng Tạp Hóa Xuân Chi, 33 Đ. Huỳnh Thúc Kháng, An Cư, Ninh Kiều, Cần Thơ","An Cư, Ninh Kiều",33 Đ. Huỳnh Thúc Kháng,Cần Thơ,,"Ninh Kiều, Cần Thơ",VN
173,ChIJG1WaAqJioDERtMo2eFmx4QM,My Le Grocery Store,Cửa hàng bách hóa,,"My Le Grocery Store, 88 Đường Hai Bà Trưng, Street, Ninh Kiều, Cần Thơ","Street, Ninh Kiều",88 Đường Hai Bà Trưng,Cần Thơ,,"Ninh Kiều, Cần Thơ",VN
176,ChIJSSaxefyJoDER4wcuffKqsqI,Tạp hóa Thanh Tâm,Cửa hàng tạp phẩm,,"2QVF+56R Tạp hóa Thanh Tâm, Đ. Phạm Ngũ Lão, Thới Bình, Ninh Kiều, Cần Thơ","Thới Bình, Ninh Kiều","2QVF+56R, Đ. Phạm Ngũ Lão",Cần Thơ,,"Ninh Kiều, Cần Thơ",VN
183,ChIJiy21kRuIoDERzOyWRd_jIOc,Cửa Hàng Tạp Hóa Quang Lê,Cửa hàng bách hóa,0292 3832 639,"Cửa Hàng Tạp Hóa Quang Lê, 63 Đ. Huỳnh Thúc Kháng, An Cư, Ninh Kiều, Cần Thơ","An Cư, Ninh Kiều",63 Đ. Huỳnh Thúc Kháng,Cần Thơ,,"Ninh Kiều, Cần Thơ",VN
186,ChIJl9wgnBuIoDERsslJPb2Uc4Y,Tạp Hoá 54,Cửa hàng bách hóa,0292 3835 053,"Tạp Hoá 54, 42/80 Hùng Vương, An Cư, Ninh Kiều, Cần Thơ","An Cư, Ninh Kiều",42/80 Hùng Vương,Cần Thơ,,"Ninh Kiều, Cần Thơ",VN
190,ChIJd-R9qBuIoDERuNw-goTv1TI,Tạp Hoá Cô Mười,Cửa hàng bách hóa,0292 3835 451,"Tạp Hoá Cô Mười, 132/42/25A, Hùng Vương, Phường Thới Bình, Quận Ninh Kiều, Thành Phố Cần Thơ, An Phú, Ninh Kiều, Cần Thơ","An Phú, Ninh Kiều","132/42/25A, Hùng Vương, Phường Thới Bình, Quận Ninh Kiều, Thành Phố Cần Thơ",Cần Thơ,,"Ninh Kiều, Cần Thơ",VN
197,ChIJRZF_NU2JoDERRvXd3LfWOTo,TẠP HOÁ MAI TRINH,Cửa hàng tiện lợi,,"TẠP HOÁ MAI TRINH, 52 Đ. Võ Trường Toản, An Hoà, Ninh Kiều, Cần Thơ","An Hoà, Ninh Kiều",52 Đ. Võ Trường Toản,Cần Thơ,,"Ninh Kiều, Cần Thơ",VN
198,ChIJc0lbduWJoDERUR6GVDxTYrk,tạp hóa Năm Lợi,Cửa hàng tạp hóa,0292 3831 770,"tạp hóa Năm Lợi, 36 Đ. Nguyễn Tri Phương, Phường An Khánh, Ninh Kiều, Cần Thơ","Phường An Khánh, Ninh Kiều",36 Đ. Nguyễn Tri Phương,Cần Thơ,,"Ninh Kiều, Cần Thơ",VN
199,ChIJZ11eol6HoDERc48IAHn8pZw,Tạp Hóa Diệu,Cửa hàng tổng hợp,,"Tạp Hóa Diệu, 108 Trần Quang Diệu, An Thới, Bình Thủy, Cần Thơ","An Thới, Bình Thủy",108 Trần Quang Diệu,Cần Thơ,,"Bình Thủy, Cần Thơ",VN
201,ChIJQ5SQxzGJoDER-zEMP91pLQo,Tạp Hoá Thành Đạt,Cửa hàng tạp phẩm,,"Tạp Hoá Thành Đạt, 130B/5 Nguyễn Văn Cừ Nối Dài, Phường An Khánh, Ninh Kiều, Cần Thơ 900000","Phường An Khánh, Ninh Kiều",130B/5 Nguyễn Văn Cừ Nối Dài,Cần Thơ,900000.0,"Ninh Kiều, Cần Thơ",VN
206,ChIJq6qqBw-IoDERmBqpdMr__Nc,Cửa Hàng Tạp Hoá Minh Nhật,Cửa hàng bách hóa,0903 517 089,"Cửa Hàng Tạp Hoá Minh Nhật, 163G Đ. Nguyễn Văn Cừ, An Hoà, Ninh Kiều, Cần Thơ","An Hoà, Ninh Kiều",163G Đ. Nguyễn Văn Cừ,Cần Thơ,,"Ninh Kiều, Cần Thơ",VN
208,ChIJXdEW9L6JoDERKOggJD0apdM,Tạp Hoá Suka,Cửa hàng tổng hợp,0936 788 730,"Tạp Hoá Suka, 33 Đ.Số 4, Phường An Khánh, Ninh Kiều, Cần Thơ","Phường An Khánh, Ninh Kiều",33 Đ.Số 4,Cần Thơ,,"Ninh Kiều, Cần Thơ",VN
210,ChIJAchnkmuIoDERI0mMIJtHw3g,Cửa Hàng Tạp Hóa Thanh Hiền,Cửa hàng bách hóa,0935 116 201,"Cửa Hàng Tạp Hóa Thanh Hiền, Chợ phường An Khánh, Đường 18, Ninh Kiều, Cần Thơ","Đường 18, Ninh Kiều",Chợ phường An Khánh,Cần Thơ,,"Ninh Kiều, Cần Thơ",VN
212,ChIJO8pIAq-JoDERGi1FfM8LiHw,TIỆM TẠP HÓA CÔ HÍ,Cửa hàng quà tặng,0794 315 161,"TIỆM TẠP HÓA CÔ HÍ, 68 Hẻm Lò Mổ, Xuân Khánh, Ninh Kiều, Cần Thơ","Xuân Khánh, Ninh Kiều",68 Hẻm Lò Mổ,Cần Thơ,,"Ninh Kiều, Cần Thơ",VN
214,ChIJ86i1GviJoDER5bJf1lUk-9k,Tạp hoá Mít,Cửa hàng tạp phẩm,,"Tạp hoá Mít, 382/a2 Đ. Trần Nam Phú, Xuân Khánh, Ninh Kiều, Cần Thơ","Xuân Khánh, Ninh Kiều",382/a2 Đ. Trần Nam Phú,Cần Thơ,,"Ninh Kiều, Cần Thơ",VN
216,ChIJA62Je2uIoDERusfokfOq8CY,Cửa Hàng Tạp Hoá Thanh Nga,Cửa hàng bách hóa,0292 3812 577,"Cửa Hàng Tạp Hoá Thanh Nga, 14B, Đường 27, Khu Vực 4, Thới Nhựt, Phường An Khánh, Quận Ninh Kiều, Thành Phố Cần Thơ, Phường An Khánh, Ninh Kiều, Cần Thơ","Phường An Khánh, Ninh Kiều","14B, Đường 27, Khu Vực 4, Thới Nhựt, Phường An Khánh, Quận Ninh Kiều, Thành Phố Cần Thơ",Cần Thơ,,"Ninh Kiều, Cần Thơ",VN
217,ChIJb1MD30OIoDERGdX9Fmyb6pU,Cửa Hàng Tạp Hóa Vĩnh Hưng,Cửa hàng tạp hóa,0292 2475 474,"Cửa Hàng Tạp Hóa Vĩnh Hưng, 307c Đ. Nguyễn Văn Linh, Phường An Khánh, Ninh Kiều, Cần Thơ","Phường An Khánh, Ninh Kiều",307c Đ. Nguyễn Văn Linh,Cần Thơ,,"Ninh Kiều, Cần Thơ",VN
218,ChIJ-_gDURWIoDERRjpI7U82R7A,Tạp Hóa Hồng Diệu,Cửa hàng bách hóa,0292 3890 262,"2QM5+MM6 Tạp Hóa Hồng Diệu, Đ. Trần Nam Phú, Xuân Khánh, Ninh Kiều, Cần Thơ","Xuân Khánh, Ninh Kiều","2QM5+MM6, Đ. Trần Nam Phú",Cần Thơ,,"Ninh Kiều, Cần Thơ",VN
219,ChIJWe5cWkKIoDERl1dl0Qq49mQ,Cửa Hàng Tạp Hóa Thúy Vy,Cửa hàng bách hóa,0933 475 870,"Cửa Hàng Tạp Hóa Thúy Vy, 1 Đ. Nguyễn Văn Linh, Phường An Khánh, Ninh Kiều, Cần Thơ","Phường An Khánh, Ninh Kiều",1 Đ. Nguyễn Văn Linh,Cần Thơ,,"Ninh Kiều, Cần Thơ",VN
220,ChIJSXjuNSaJoDERZOujdkHIJug,Tạp hóa Hồng Hạnh,Cửa hàng tạp phẩm,,"2PCR+CPC Tạp hóa Hồng Hạnh, Đ. Hoàng Quốc Việt, An Bình, Ninh Kiều, Cần Thơ","An Bình, Ninh Kiều","2PCR+CPC, Đ. Hoàng Quốc Việt",Cần Thơ,,"Ninh Kiều, Cần Thơ",VN
221,ChIJCToHvVqIoDERq81PCDFL_yo,Tạp Hóa 737,Cửa hàng bách hóa,0937 471 676,"Tạp Hóa 737, 237 Nguyễn Văn Cừ Nối Dài, Phường An Khánh, Ninh Kiều, Cần Thơ","Phường An Khánh, Ninh Kiều",237 Nguyễn Văn Cừ Nối Dài,Cần Thơ,,"Ninh Kiều, Cần Thơ",VN
222,ChIJfTfoNEWIoDERkhrzHFqP6G0,Tạp hóa Anh Thư,Cửa hàng tạp hóa,,"2PGW+2QQ Tạp hóa Anh Thư, Đường số 3, An Bình, Ninh Kiều, Cần Thơ","An Bình, Ninh Kiều","2PGW+2QQ, Đường số 3",Cần Thơ,,"Ninh Kiều, Cần Thơ",VN
223,ChIJ37vC31KIoDERWWtttGbxmIw,Tạp Hoá Minh Quang,Cửa hàng bách hóa,0706 962 686,"Tạp Hoá Minh Quang, 247K, Khu Vực 4, Hoàng Quốc Việt, Phường An Bình, Quận Ninh Kiều, Thành Phố Cần Thơ, An Bình, Ninh Kiều, Cần Thơ","An Bình, Ninh Kiều","247K, Khu Vực 4, Hoàng Quốc Việt, Phường An Bình, Quận Ninh Kiều, Thành Phố Cần Thơ",Cần Thơ,,"Ninh Kiều, Cần Thơ",VN
224,ChIJdRGa8YCJoDERssvjmU7T-oY,Tạp hóa Trinh,Cửa hàng tạp phẩm,,"Tạp hóa Trinh, 4 Đ. Trần Vĩnh Kiết, An Bình, Ninh Kiều, Cần Thơ","An Bình, Ninh Kiều",4 Đ. Trần Vĩnh Kiết,Cần Thơ,,"Ninh Kiều, Cần Thơ",VN
225,ChIJ8bchkkOIoDERkS7OSDCw_ZE,Cửa Hàng Tạp Hóa Hương Sơn,Cửa hàng tạp hóa,0702 943 661,"Cửa Hàng Tạp Hóa Hương Sơn, 306 Nguyễn Văn Cừ Nối Dài, Phường An Khánh, Ninh Kiều, Cần Thơ","Phường An Khánh, Ninh Kiều",306 Nguyễn Văn Cừ Nối Dài,Cần Thơ,,"Ninh Kiều, Cần Thơ",VN
226,ChIJHRM-ssKJoDERydDOZM7YJAk,tạp hóa cô 6,Cửa hàng tạp phẩm,,"tạp hóa cô 6, 239 Đường Tạ Thị Phi, An Bình, Bình Thủy, Cần Thơ","An Bình, Bình Thủy",239 Đường Tạ Thị Phi,Cần Thơ,,"Bình Thủy, Cần Thơ",VN
227,ChIJu5AzJ1OIoDERyGAvXgsvzQw,Tạp Hoá Bảo Trân,Cửa hàng bách hóa,0945 148 260,"Tạp Hoá Bảo Trân, 315D/9, Khu Vực 4, Hoàng Quốc Việt, Phường An Bình, Quận Ninh Kiều, Thành Phố Cần Thơ, An Bình, Ninh Kiều, Cần Thơ","An Bình, Ninh Kiều","315D/9, Khu Vực 4, Hoàng Quốc Việt, Phường An Bình, Quận Ninh Kiều, Thành Phố Cần Thơ",Cần Thơ,,"Ninh Kiều, Cần Thơ",VN
228,ChIJjzAwIX6JoDER70wObP-uJ54,Tạp hóa Khánh Đăng,Cửa hàng tạp phẩm,,"Tạp hóa Khánh Đăng, 273 Đ. Trần Vĩnh Kiết, Phường An Khánh, Ninh Kiều, Cần Thơ","Phường An Khánh, Ninh Kiều",273 Đ. Trần Vĩnh Kiết,Cần Thơ,,"Ninh Kiều, Cần Thơ",VN
229,ChIJ1eaD4KuJoDER7lVV1inVIWQ,Tạp hóa Ngân Linh,Cửa hàng tạp phẩm,,"Tạp hóa Ngân Linh, 311 Đ. Nguyễn Văn Linh, Phường An Khánh, Ninh Kiều, Cần Thơ","Phường An Khánh, Ninh Kiều",311 Đ. Nguyễn Văn Linh,Cần Thơ,,"Ninh Kiều, Cần Thơ",VN
232,ChIJkfBUCaGJoDERbB_PEau9mBU,Tạp Hóa Khiêm,Cửa hàng tạp hóa,,"Tạp Hóa Khiêm, 396B/11 Nguyễn Văn Trường, An Bình, Ninh Kiều, Cần Thơ","An Bình, Ninh Kiều",396B/11 Nguyễn Văn Trường,Cần Thơ,,"Ninh Kiều, Cần Thơ",VN
233,ChIJz3rn2ROJoDERoZgNVGqDLN0,Cửa Hàng Tạp Hóa Cẩm Hường,Cửa hàng bách hóa,0292 3911 664,"Cửa Hàng Tạp Hóa Cẩm Hường, 171 Ấp Mỹ Ái, Huyện Phong Điền, Mỹ Khánh, Phong Điền, Cần Thơ","Mỹ Khánh, Phong Điền","171 Ấp Mỹ Ái, Huyện Phong Điền",Cần Thơ,,"Phong Điền, Cần Thơ",VN
234,ChIJNe1IopKJoDERuXrzTzzKfAo,Tạp Hóa Ba Sự,Cửa hàng tạp hóa,0292 3845 665,"Tạp Hóa Ba Sự, 20 - 21 Đ. Bùi Hữu Nghĩa, Long Tuyền, Bình Thủy, Cần Thơ","Long Tuyền, Bình Thủy",20 - 21 Đ. Bùi Hữu Nghĩa,Cần Thơ,,"Bình Thủy, Cần Thơ",VN
235,ChIJ1xYRh7SJoDERZF8sjBEM9c0,Tạp Hóa Thanh Bình,Cửa hàng tạp hóa,0867 898 959,"2PC6+347 Tạp Hóa Thanh Bình, Long Tuyền, Bình Thủy, Cần Thơ","Long Tuyền, Bình Thủy",2PC6+347,Cần Thơ,,"Bình Thủy, Cần Thơ",VN
236,ChIJ8aF3GCOJoDER6xJBVDB_o6I,Tạp Hóa - Cà Phê Hồng Tươi,Cửa hàng,,"Tạp Hóa - Cà Phê Hồng Tươi, Mỹ Khánh, Phong Điền, Cần Thơ","Mỹ Khánh, Phong Điền",,Cần Thơ,,"Phong Điền, Cần Thơ",VN
238,ChIJqw8z-qSJoDERG6eGUDNX5pA,Cửa Hàng Tạp Hoá Cô Chí,Cửa hàng bách hóa,0919 202 213,"Cửa Hàng Tạp Hoá Cô Chí, 65/1, Võ Tánh, Phường Lê Bình, Quận Cái Răng, Thành Phố Cần Thơ, Lê Bình, Cái Răng, Cần Thơ","Lê Bình, Cái Răng","65/1, Võ Tánh, Phường Lê Bình, Quận Cái Răng, Thành Phố Cần Thơ",Cần Thơ,,"Cái Răng, Cần Thơ",VN
239,ChIJRZ1v4K-JoDEROaswrPw7-dM,Cửa Hàng Tạp Hóa Ngân,Cửa hàng bách hóa,0932 887 537,"Cửa Hàng Tạp Hóa Ngân, 44/1, Đường Võ Tánh, Quận Cái Răng, Lê Bình, Cái Răng, Cần Thơ","Lê Bình, Cái Răng","44/1, Đường Võ Tánh, Quận Cái Răng",Cần Thơ,,"Cái Răng, Cần Thơ",VN
241,ChIJKSZLM6eJoDERf4VyJ0HR27M,Tạp hóa NHƯ Ý,Cửa hàng tạp hóa,0939 114 562,"Tạp hóa NHƯ Ý, 63A Kv Thạnh Huề, Thường Thạnh, Cái Răng, Cần Thơ","Thường Thạnh, Cái Răng",63A Kv Thạnh Huề,Cần Thơ,,"Cái Răng, Cần Thơ",VN
242,ChIJayFMprGJoDERljWbpY_E_Lg,Cửa Hàng Tạp Hóa Minh Yên,Cửa hàng bách hóa,0292 2243 264,"Cửa Hàng Tạp Hóa Minh Yên, 126 Võ Tánh, Lê Bình, Cái Răng, Cần Thơ","Lê Bình, Cái Răng",126 Võ Tánh,Cần Thơ,,"Cái Răng, Cần Thơ",VN
243,ChIJaTaFT7uJoDERqQeXsH5UVpo,Tiệm Tạp Hóa Lan Anh,Cửa hàng bách hóa,0939 021 473,"XPWX+R2V Tiệm Tạp Hóa Lan Anh, Nguyễn Việt Dũng, Lê Bình, Cái Răng, Cần Thơ","Lê Bình, Cái Răng","XPWX+R2V, Nguyễn Việt Dũng",Cần Thơ,,"Cái Răng, Cần Thơ",VN
244,ChIJn0tni7CJoDER5kElqDWQCjk,Cửa Hàng Tạp Hóa Hiếu Nhân,Cửa hàng bách hóa,0292 2460 462,"Cửa Hàng Tạp Hóa Hiếu Nhân, 467 Nguyễn Trãi, Lê Bình, Cái Răng, Cần Thơ","Lê Bình, Cái Răng",467 Nguyễn Trãi,Cần Thơ,,"Cái Răng, Cần Thơ",VN
248,ChIJ--HP6kqIoDERVasJpgdKVbE,Cửa Hàng Tạp Hóa Khương Thị Hạnh,Cửa hàng bách hóa,0777 270 818,"Cửa Hàng Tạp Hóa Khương Thị Hạnh, 38/18, Đường 3 Tháng 2, Phường Hưng Lợi, Quận Ninh Kiều, Hưng Lợi, Ninh Kiều, Cần Thơ","Hưng Lợi, Ninh Kiều","38/18, Đường 3 Tháng 2, Phường Hưng Lợi, Quận Ninh Kiều",Cần Thơ,,"Ninh Kiều, Cần Thơ",VN
249,ChIJP1IsakuIoDERhT04YNmrIpQ,Tạp Hóa Thanh Tân,Cửa hàng bách hóa,0292 3838 714,"Tạp Hóa Thanh Tân, 2/36, Đường 3/2, Quận Ninh Kiều, TP Cần Thơ, Hưng Lợi, Ninh Kiều, Cần Thơ","Hưng Lợi, Ninh Kiều","2/36, Đường 3/2, Quận Ninh Kiều, TP Cần Thơ",Cần Thơ,,"Ninh Kiều, Cần Thơ",VN
255,ChIJb0ROw7CJoDERKqzm9DNN2AM,Tiệm tạp hoá Phương Phương,Cửa hàng tạp phẩm,,"Tiệm tạp hoá Phương Phương, 74/1 Lê Bình, Cái Răng, Cần Thơ","Lê Bình, Cái Răng",74/1 Lê Bình,Cần Thơ,,"Cái Răng, Cần Thơ",VN
256,ChIJI5n2wkqIoDERc858x6-YWZ0,Tiệm Tạp Hóa Thới Hưng,Cửa hàng bách hóa,0292 3781 923,"Tiệm Tạp Hóa Thới Hưng, 36E, Đường 3/2, Quận Ninh Kiều, TP Cần Thơ, Hưng Lợi, Ninh Kiều, Cần Thơ","Hưng Lợi, Ninh Kiều","36E, Đường 3/2, Quận Ninh Kiều, TP Cần Thơ",Cần Thơ,,"Ninh Kiều, Cần Thơ",VN
258,ChIJZd2L3jmIoDERZZRXWfTyfNk,Tạp Hóa Huyền,Cửa hàng bách hóa,,"Tạp Hóa Huyền, Hưng Lợi, Ninh Kiều, Cần Thơ","Hưng Lợi, Ninh Kiều",,Cần Thơ,,"Ninh Kiều, Cần Thơ",VN
259,ChIJxSF3uDCIoDERFnhro6NeIyc,Cửa Hàng Tạp Hóa Ngọc Tiên,Cửa hàng bách hóa,,"Cửa Hàng Tạp Hóa Ngọc Tiên, 200 QL91B, Hưng Lợi, Ninh Kiều, Cần Thơ","Hưng Lợi, Ninh Kiều",200 QL91B,Cần Thơ,,"Ninh Kiều, Cần Thơ",VN
261,ChIJCSpeOQCJoDERB4q6uYiPp0g,Tạp hóa 68,Cửa hàng tạp phẩm,,"Tạp hóa 68, 44 Đ. Số 2, Khu dân cư Metro, Ninh Kiều, Cần Thơ","Khu dân cư Metro, Ninh Kiều",44 Đ. Số 2,Cần Thơ,,"Ninh Kiều, Cần Thơ",VN
262,ChIJhWMxfSGJoDERi_YnyF5-G_Q,Tạp hoá Yến Nhi,Cửa hàng tạp hóa,,"Tạp hoá Yến Nhi, 26 Đ. A3, Phường An Khánh, Ninh Kiều, Cần Thơ","Phường An Khánh, Ninh Kiều",26 Đ. A3,Cần Thơ,,"Ninh Kiều, Cần Thơ",VN
263,ChIJWUmr1PaJoDERWvynSKBwGck,Tạp Hóa A Luân,Cửa hàng tạp phẩm,,"2Q95+42G Tạp Hóa A Luân, Hưng Lợi, Ninh Kiều, Cần Thơ","Hưng Lợi, Ninh Kiều",2Q95+42G,Cần Thơ,,"Ninh Kiều, Cần Thơ",VN
264,ChIJN7V1K4yJoDER2MxA_HixXwA,Tiệm Tạp Hoá Liễu,Cửa hàng tạp phẩm,,"Tiệm Tạp Hoá Liễu, 11K2/3 Hẻm 3, Đường vào Sân Cầu Lông, Phường An Khánh, Ninh Kiều, Cần Thơ","Phường An Khánh, Ninh Kiều","11K2/3 Hẻm 3, Đường vào Sân Cầu Lông",Cần Thơ,,"Ninh Kiều, Cần Thơ",VN
266,ChIJeTdG5zmIoDERlqjkkG2MJ3w,Cửa Hàng Tạp Hóa Tuyến,Cửa hàng tạp hóa,0292 6292 918,"Cửa Hàng Tạp Hóa Tuyến, 13, Đường Quốc Lộ 91B, Quận Ninh Kiều, Tp Cần Thơ, Hưng Lợi, Ninh Kiều, Cần Thơ","Hưng Lợi, Ninh Kiều","13, Đường Quốc Lộ 91B, Quận Ninh Kiều, Tp Cần Thơ",Cần Thơ,,"Ninh Kiều, Cần Thơ",VN
267,ChIJURGySTeIoDERC_vZjcJuSuc,Tiệm Tạp Hóa Ngọc Thành,Cửa hàng bách hóa,0292 3782 578,"Tiệm Tạp Hóa Ngọc Thành, 2 Đ. Nguyễn Văn Linh, Hưng Lợi, Ninh Kiều, Cần Thơ","Hưng Lợi, Ninh Kiều",2 Đ. Nguyễn Văn Linh,Cần Thơ,,"Ninh Kiều, Cần Thơ",VN
269,ChIJc_W_fkeIoDERFWh7ECX1VSY,Cửa Hàng Tạp Hóa Thúy Hường,Cửa hàng tạp hóa,0292 3780 131,"Cửa Hàng Tạp Hóa Thúy Hường, 340 QL91B, Hưng Lợi, Bình Thủy, Cần Thơ","Hưng Lợi, Bình Thủy",340 QL91B,Cần Thơ,,"Bình Thủy, Cần Thơ",VN
272,ChIJAQzMhjaIoDERGCv9Qjb-bgc,Tạp Hóa Trâm,Cửa hàng bách hóa,,"Tạp Hóa Trâm, 127 Đ. 3 Tháng 2, Hưng Lợi, Ninh Kiều, Cần Thơ","Hưng Lợi, Ninh Kiều",127 Đ. 3 Tháng 2,Cần Thơ,,"Ninh Kiều, Cần Thơ",VN
276,ChIJFeaXaziIoDER5FkzI33SBHc,Cửa Hàng Tạp Hóa Huỳnh Thị Mỹ Duyên,Cửa hàng bách hóa,0763 792 313,"Cửa Hàng Tạp Hóa Huỳnh Thị Mỹ Duyên, 21C, Tỉnh Lộ 91B, Phường Hưng Lợi, Quận Ninh Kiều, Hưng Lợi, Ninh Kiều, Cần Thơ","Hưng Lợi, Ninh Kiều","21C, Tỉnh Lộ 91B, Phường Hưng Lợi, Quận Ninh Kiều",Cần Thơ,,"Ninh Kiều, Cần Thơ",VN
279,ChIJwWG9_DOIoDERHfDb5M787lI,Cửa Hàng Tạp Hóa 186,Cửa hàng tạp hóa,0292 3740 170,"Cửa Hàng Tạp Hóa 186, 186 Đ. 30 Tháng 4, Hưng Lợi, Ninh Kiều, Cần Thơ","Hưng Lợi, Ninh Kiều",186 Đ. 30 Tháng 4,Cần Thơ,,"Ninh Kiều, Cần Thơ",VN
280,ChIJUTXlozCIoDERxZUMh6bBjlQ,Cửa Hàng Tạp Hóa Ngọc Mai,Cửa hàng tạp hóa,,"Cửa Hàng Tạp Hóa Ngọc Mai, 223 Đ. 3 Tháng 2, Hưng Lợi, Ninh Kiều, Cần Thơ 900000","Hưng Lợi, Ninh Kiều",223 Đ. 3 Tháng 2,Cần Thơ,900000.0,"Ninh Kiều, Cần Thơ",VN
283,ChIJfbfaKz-IoDERHIbm0yYmYCg,Tạp Hóa Phượng 2,Cửa hàng bách hóa,0794 243 351,"Tạp Hóa Phượng 2, 20T2 Đ. Số 7, KDC Thới Nhật, Ninh Kiều, Cần Thơ","KDC Thới Nhật, Ninh Kiều",20T2 Đ. Số 7,Cần Thơ,,"Ninh Kiều, Cần Thơ",VN
284,ChIJrbHL5TWIoDERFGBo8T9n4Q0,Tạp Hóa Bạch Nguyệt,Cửa hàng bách hóa,0292 3838 787,"Tạp Hóa Bạch Nguyệt, 102/4 Đ. 3 Tháng 2, Hưng Lợi, Ninh Kiều, Cần Thơ","Hưng Lợi, Ninh Kiều",102/4 Đ. 3 Tháng 2,Cần Thơ,,"Ninh Kiều, Cần Thơ",VN
285,ChIJs0Sk_TSIoDERRabsauW1i2U,Cửa Hàng Tạp Hóa Đặng Thị Ngọc Yến,Cửa hàng bách hóa,0937 892 446,"Cửa Hàng Tạp Hóa Đặng Thị Ngọc Yến, 147, Đường 30 Tháng 4, Phường Hưng Lợi, Quận Ninh Kiều, Hưng Lợi, Ninh Kiều, Cần Thơ","Hưng Lợi, Ninh Kiều","147, Đường 30 Tháng 4, Phường Hưng Lợi, Quận Ninh Kiều",Cần Thơ,,"Ninh Kiều, Cần Thơ",VN
286,ChIJWyheTU-IoDERa5GvExmVjcM,Tạp hoá-Giải khát Anh Thy,Cửa hàng tạp hóa,,"Tạp hoá-Giải khát Anh Thy, An Khánh, Ninh Kiều, Cần Thơ","An Khánh, Ninh Kiều",,Cần Thơ,,"Ninh Kiều, Cần Thơ",VN
287,ChIJDQxtfTCIoDER0-nUDMlb-3E,Cửa Hàng Tạp Hóa Bích Ngọc,Cửa hàng bách hóa,0917 114 539,"Cửa Hàng Tạp Hóa Bích Ngọc, 12/27C, Ba Tháng Hai, Phường Hưng Lợi, Quận Ninh Kiều, Thành Phố Cần Thơ, Hưng Lợi, Ninh Kiều, Cần Thơ","Hưng Lợi, Ninh Kiều","12/27C, Ba Tháng Hai, Phường Hưng Lợi, Quận Ninh Kiều, Thành Phố Cần Thơ",Cần Thơ,,"Ninh Kiều, Cần Thơ",VN
288,ChIJ7yyuo12JoDERvmAkaAe6cgQ,Tạp Hoá Cô Uyên,Cửa hàng quần áo,0907 591 553,"Tạp Hoá Cô Uyên, 117 Hẻm 132 Đ. 3 Tháng 2, Hưng Lợi, Ninh Kiều, Cần Thơ","Hưng Lợi, Ninh Kiều",117 Hẻm 132 Đ. 3 Tháng 2,Cần Thơ,,"Ninh Kiều, Cần Thơ",VN
289,ChIJH3MUrzKIoDERqlLNUmN4M_I,Nhà Trọ - Tạp Hóa Huỳnh Hà,Cửa hàng,0292 3839 422,"Nhà Trọ - Tạp Hóa Huỳnh Hà, 202 Tầm Vu, Hưng Lợi, Ninh Kiều, Cần Thơ","Hưng Lợi, Ninh Kiều",202 Tầm Vu,Cần Thơ,,"Ninh Kiều, Cần Thơ",VN
300,ChIJF2uBd8uJoDER-gH8c1THyis,Tạp Hóa Miến,Cửa hàng bách hóa,,"2Q57+PF5 Tạp Hóa Miến, Hẻm 102, Hưng Lợi, Ninh Kiều, Cần Thơ","Hưng Lợi, Ninh Kiều","2Q57+PF5, Hẻm 102",Cần Thơ,,"Ninh Kiều, Cần Thơ",VN
301,ChIJEe7kT7WJoDERKvDLI3jdJEI,Cửa Hàng Tạp Hoá Toàn Tâm,Cửa hàng bách hóa,0292 3838 192,"Cửa Hàng Tạp Hoá Toàn Tâm, 59A, Đường 30/4, Quận Ninh Kiều, Tp Cần Thơ, Hưng Lợi, Ninh Kiều, Cần Thơ","Hưng Lợi, Ninh Kiều","59A, Đường 30/4, Quận Ninh Kiều, Tp Cần Thơ",Cần Thơ,,"Ninh Kiều, Cần Thơ",VN
308,ChIJg8z-k4CJoDERwxwMTT_jDpY,Tạp Hóa Dạ Hưng Thạnh,Cửa hàng bách hóa,0826 288 129,"2Q5C+F6V Tạp Hóa Dạ Hưng Thạnh, Hưng Thành, Cái Răng, Cần Thơ","Hưng Thành, Cái Răng",2Q5C+F6V,Cần Thơ,,"Cái Răng, Cần Thơ",VN
311,ChIJLyiXKoKJoDERF2fIj0u_gZY,Nhà Trọ Tạp Hoá Trạng Nguyên,Cửa hàng tạp hóa,0947 434 542,"Nhà Trọ Tạp Hoá Trạng Nguyên, 29 Đ. 3 Tháng 2, Hưng Lợi, Ninh Kiều, Cần Thơ","Hưng Lợi, Ninh Kiều",29 Đ. 3 Tháng 2,Cần Thơ,,"Ninh Kiều, Cần Thơ",VN
322,ChIJRzXjYTuIoDERr5AMgFXK7ac,Tạp Hóa Hoàng Nhanh,Cửa hàng bách hóa,,"Tạp Hóa Hoàng Nhanh, Xuân Khánh, Ninh Kiều, Cần Thơ","Xuân Khánh, Ninh Kiều",,Cần Thơ,,"Ninh Kiều, Cần Thơ",VN
324,ChIJp4FkzyaIoDERjP1pw5bHvz4,Tạp Hóa Tài Trí,Cửa hàng tạp phẩm,,"2QGH+P6G Tạp Hóa Tài Trí, Đ. Mạc Thiên Tích, Xuân Khánh, Ninh Kiều, Cần Thơ","Xuân Khánh, Ninh Kiều","2QGH+P6G, Đ. Mạc Thiên Tích",Cần Thơ,,"Ninh Kiều, Cần Thơ",VN
326,ChIJ6R4YgSGIoDERTD-Q8GjSTjE,Cửa Hàng Tạp Hóa Cô Vân,Cửa hàng tạp hóa,0292 3835 301,"Cửa Hàng Tạp Hóa Cô Vân, 174 Đ. Nguyễn Việt Hồng, Xuân Khánh, Ninh Kiều, Cần Thơ","Xuân Khánh, Ninh Kiều",174 Đ. Nguyễn Việt Hồng,Cần Thơ,,"Ninh Kiều, Cần Thơ",VN
336,ChIJzR_RVTqIoDER20wVmj7hrPE,Bui Thi Bich Ngoc Grocery Store,Cửa hàng bách hóa,0903 822 447,"Bui Thi Bich Ngoc Grocery Store, 33, Ba Thang Hai Street, Ninh Kieu District, Hưng Lợi, Ninh Kiều, Cần Thơ","Hưng Lợi, Ninh Kiều","33, Ba Thang Hai Street, Ninh Kieu District",Cần Thơ,,"Ninh Kiều, Cần Thơ",VN
339,ChIJcXNZm59ioDERZoVmyv2R858,Cửa Hàng Tạp Hoá Như Ý,Cửa hàng bách hóa,0292 3832 548,"Cửa Hàng Tạp Hoá Như Ý, 8 Đ. Đồng Khởi, Tân An, Ninh Kiều, Cần Thơ","Tân An, Ninh Kiều",8 Đ. Đồng Khởi,Cần Thơ,,"Ninh Kiều, Cần Thơ",VN
340,ChIJYeO4UBxjoDER8iuW08T1wLs,Tạp hóa Tuyết Hương,Cửa hàng tạp phẩm,,"Tạp hóa Tuyết Hương, 1 Đ. Cao Bá Quát, Tân An, Ninh Kiều, Cần Thơ","Tân An, Ninh Kiều",1 Đ. Cao Bá Quát,Cần Thơ,,"Ninh Kiều, Cần Thơ",VN
341,ChIJIdZ-6p1ioDERuLEohIkmylg,Cửa Hàng Tạp Hóa 95,Cửa hàng bách hóa,0292 3821 648,"Cửa Hàng Tạp Hóa 95, 95 Nguyễn Thị Minh Khai, An Lạc, Ninh Kiều, Cần Thơ","An Lạc, Ninh Kiều",95 Nguyễn Thị Minh Khai,Cần Thơ,,"Ninh Kiều, Cần Thơ",VN
342,ChIJP5zwvJ5ioDERT40hopKiUCM,Cửa Hàng Tạp Hóa Cúc,Cửa hàng bách hóa,0939 737 814,"2QHP+4M5 Cửa Hàng Tạp Hóa Cúc, Chợ Tân An, Đường Hai Bà Trưng, Tân An, Ninh Kiều, Cần Thơ","Tân An, Ninh Kiều","2QHP+4M5, Chợ Tân An, Đường Hai Bà Trưng",Cần Thơ,,"Ninh Kiều, Cần Thơ",VN
351,ChIJBfi9DyqHoDERR3ewLHc8a6c,Tạp hóa bảo tâm,Cửa hàng tạp phẩm,,"3Q3G+XWJ Tạp hóa bảo tâm, Cái Khế, Ninh Kiều, Cần Thơ","Cái Khế, Ninh Kiều",3Q3G+XWJ,Cần Thơ,,"Ninh Kiều, Cần Thơ",VN
352,ChIJdVxjHv6HoDERTffwsx7BXEA,Tạp Hóa Dũng,Cửa hàng bách hóa,,"Tạp Hóa Dũng, Cái Khế, Ninh Kiều, Cần Thơ","Cái Khế, Ninh Kiều",,Cần Thơ,,"Ninh Kiều, Cần Thơ",VN
353,ChIJc98sseWHoDERcLzyjBOJy8c,Tiệm Tạp Hóa Số 99,Cửa hàng bách hóa,,"Tiệm Tạp Hóa Số 99, Bùi Hữu Nghĩa, Bình Thủy, Cần Thơ","Bùi Hữu Nghĩa, Bình Thủy",,Cần Thơ,,"Bình Thủy, Cần Thơ",VN
354,ChIJlStDsgWIoDERgcBcF575oXQ,Tiệm Tạp Hóa Vinh Tuyền,Cửa hàng bách hóa,0972 653 654,"Tiệm Tạp Hóa Vinh Tuyền, 42/32d Đ. Trần Việt Châu, Thới Bình, Ninh Kiều, Cần Thơ","Thới Bình, Ninh Kiều",42/32d Đ. Trần Việt Châu,Cần Thơ,,"Ninh Kiều, Cần Thơ",VN
355,ChIJq6qqqq5ioDERK8JHHC36rIU,Cửa Hàng Tạp Hóa Nhẫn Thoa,Cửa hàng bách hóa,0292 3763 411,"Cửa Hàng Tạp Hóa Nhẫn Thoa, Kios 123, Nhà Lồng 3, Trung Tâm Thương Mại Cái Khế, Phường Cái Khế, Quận Ninh Kiều, Thành Phố Cần Thơ, Cái Khế, Ninh Kiều, Cần Thơ","Cái Khế, Ninh Kiều","Kios 123, Nhà Lồng 3, Trung Tâm Thương Mại Cái Khế, Phường Cái Khế, Quận Ninh Kiều, Thành Phố Cần Thơ",Cần Thơ,,"Ninh Kiều, Cần Thơ",VN
356,ChIJJ35diAaIoDERmTKQI4xG8qQ,Cửa Hàng Tạp Hóa Huỳnh Nga,Cửa hàng bách hóa,0292 3893 292,"Cửa Hàng Tạp Hóa Huỳnh Nga, 36 Đ. Trần Việt Châu, An Hoà, Ninh Kiều, Cần Thơ","An Hoà, Ninh Kiều",36 Đ. Trần Việt Châu,Cần Thơ,,"Ninh Kiều, Cần Thơ",VN
357,ChIJbUAJeEV9oDERkDEeCXzpRKo,"Hồng Châu Mua Bán Tạp Hóa, Mỹ Phầm Các Loại",Cửa hàng bách hóa,,"Hồng Châu Mua Bán Tạp Hóa, Mỹ Phầm Các Loại, Cái Vồn, Tx. Bình Minh, Vĩnh Long","Cái Vồn, Thị xã Bình Minh",,Vĩnh Long,,Vĩnh Long,VN
358,ChIJw5YZcwSIoDERkE9wp5XavXI,Cửa Hàng Tạp Hóa Hớn Hưng,Cửa hàng bách hóa,0292 2470 312,"Cửa Hàng Tạp Hóa Hớn Hưng, 24 Đ. Trần Việt Châu, Thới Bình, Ninh Kiều, Cần Thơ","Thới Bình, Ninh Kiều",24 Đ. Trần Việt Châu,Cần Thơ,,"Ninh Kiều, Cần Thơ",VN
359,ChIJMzKPcmuIoDER2_A_Q5VUFQg,Tạp Hóa - Rau Củ Cà Phê Kiều Linh,,,"Tạp Hóa - Rau Củ Cà Phê Kiều Linh, 74 Đường số 23, Phường An Khánh, Ninh Kiều, Cần Thơ","Phường An Khánh, Ninh Kiều",74 Đường số 23,Cần Thơ,,"Ninh Kiều, Cần Thơ",VN
360,ChIJI_SHLWhjoDERItdRYn-ILlw,Tạp Hoá Hồng Thu,Cửa hàng tạp phẩm,,"Tạp Hoá Hồng Thu, 34 Sông Hậu, Cái Khế, Ninh Kiều, Cần Thơ","Cái Khế, Ninh Kiều",34 Sông Hậu,Cần Thơ,,"Ninh Kiều, Cần Thơ",VN
361,ChIJVYcwnOeJoDERWL81zNGPjg4,Tạp Hóa Tùng Chi,Cửa hàng tạp phẩm,,"Tạp Hóa Tùng Chi, 23/110 Hẻm 22 Đ. Mạc Đĩnh Chi, An Cư, Ninh Kiều, Cần Thơ","An Cư, Ninh Kiều",23/110 Hẻm 22 Đ. Mạc Đĩnh Chi,Cần Thơ,,"Ninh Kiều, Cần Thơ",VN
362,ChIJf70bYwKIoDERp_30y-0CNkg,Cửa Hàng Tạp Hóa 59,Cửa hàng bách hóa,0292 3823 153,"Cửa Hàng Tạp Hóa 59, 59 Trần Phú, Thới Bình, Ninh Kiều, Cần Thơ","Thới Bình, Ninh Kiều",59 Trần Phú,Cần Thơ,,"Ninh Kiều, Cần Thơ",VN
363,ChIJUX4QmKBioDERqy7EGl9Xvds,Cửa Hàng Tạp Hóa Nguyễn Xuân Thủy,Cửa hàng bách hóa,0907 814 770,"Cửa Hàng Tạp Hóa Nguyễn Xuân Thủy, 22/23/47B, Đường Mạc Đĩnh Chi, Phường An Cư, Quận Ninh Kiều, Tân An, Ninh Kiều, Cần Thơ","Tân An, Ninh Kiều","22/23/47B, Đường Mạc Đĩnh Chi, Phường An Cư, Quận Ninh Kiều",Cần Thơ,,"Ninh Kiều, Cần Thơ",VN
364,ChIJTbhumaBioDERSOHWFazmxeY,Cửa Hàng Tạp Hóa Thanh,Cửa hàng tạp hóa,,"Cửa Hàng Tạp Hóa Thanh, 21 Hẻm 22 Đ. Mạc Đĩnh Chi, Tân An, Ninh Kiều, Cần Thơ","Tân An, Ninh Kiều",21 Hẻm 22 Đ. Mạc Đĩnh Chi,Cần Thơ,,"Ninh Kiều, Cần Thơ",VN
365,ChIJ8WDSvJ5ioDER_8NbUvSzpk0,Cửa Hàng Tạp Hóa Vĩnh Hưng,Cửa hàng bách hóa,0292 3812 021,"Cửa Hàng Tạp Hóa Vĩnh Hưng, 98 Đường Hai Bà Trưng, Tân An, Ninh Kiều, Cần Thơ","Tân An, Ninh Kiều",98 Đường Hai Bà Trưng,Cần Thơ,,"Ninh Kiều, Cần Thơ",VN
366,ChIJby-_BByIoDERy_DLcZd9xFw,Tạp Hóa Vinh,Cửa hàng bách hóa,,"Tạp Hóa Vinh, 68 Đ. Trần Hưng Đạo, An Cư, Ninh Kiều, Cần Thơ","An Cư, Ninh Kiều",68 Đ. Trần Hưng Đạo,Cần Thơ,,"Ninh Kiều, Cần Thơ",VN
367,ChIJAQlV1aFioDERlSiflt7VA2k,Cửa Hàng Tạp Hóa Ngọc Tiên,Cửa hàng bách hóa,,"Cửa Hàng Tạp Hóa Ngọc Tiên, 69 Võ Văn Tần, Tân An, Ninh Kiều, Cần Thơ","Tân An, Ninh Kiều",69 Võ Văn Tần,Cần Thơ,,"Ninh Kiều, Cần Thơ",VN
368,ChIJu2ZX9a9joDERLDNBSr3h5M4,Tạp Hóa Hiền Tùng,Cửa hàng bách hóa,0327 192 979,"Tạp Hóa Hiền Tùng, 21B/4 Khu Vực 3, Hưng Phú, Cái Răng, Cần Thơ 940009","Hưng Phú, Cái Răng",21B/4 Khu Vực 3,Cần Thơ,940009.0,"Cái Răng, Cần Thơ",VN
369,ChIJAyP7AqJioDERH43REz9ELHE,Cửa Hàng Tạp Hóa Mỹ Lệ,Cửa hàng bách hóa,0292 3810 750,"Cửa Hàng Tạp Hóa Mỹ Lệ, 88 Đường Hai Bà Trưng, Tân An, Ninh Kiều, Cần Thơ","Tân An, Ninh Kiều",88 Đường Hai Bà Trưng,Cần Thơ,,"Ninh Kiều, Cần Thơ",VN
370,ChIJK6PlHaJioDERbPPgGJQUhQc,Cửa Hàng Tạp Hóa Cô Út,Cửa hàng bách hóa,0292 3821 125,"Cửa Hàng Tạp Hóa Cô Út, 1 Đ. Tân Trào, Tân An, Ninh Kiều, Cần Thơ","Tân An, Ninh Kiều",1 Đ. Tân Trào,Cần Thơ,,"Ninh Kiều, Cần Thơ",VN
372,ChIJn_SVMpOJoDER_TsSyLwCoV8,Tạp hóa Đan Thy,Cửa hàng tạp phẩm,0921 206 959,"Tạp hóa Đan Thy, 17Đ Đ. Huỳnh Thúc Kháng, An Nghiệp, Ninh Kiều, Cần Thơ","An Nghiệp, Ninh Kiều",17Đ Đ. Huỳnh Thúc Kháng,Cần Thơ,,"Ninh Kiều, Cần Thơ",VN
373,ChIJVyOemZ5ioDERfRVedXZR2rc,Cửa Hàng Tạp Hóa 203,Cửa hàng bách hóa,,"Cửa Hàng Tạp Hóa 203, 203 Phan Đình Phùng, Tân An, Ninh Kiều, Cần Thơ","Tân An, Ninh Kiều",203 Phan Đình Phùng,Cần Thơ,,"Ninh Kiều, Cần Thơ",VN
374,ChIJr0gVEriJoDERKQNb6kqhEDE,Tạp hóa Hoàng,Cửa hàng tạp phẩm,,"Tạp hóa Hoàng, 69 Đ. Huỳnh Thúc Kháng, An Cư, Ninh Kiều, Cần Thơ","An Cư, Ninh Kiều",69 Đ. Huỳnh Thúc Kháng,Cần Thơ,,"Ninh Kiều, Cần Thơ",VN
375,ChIJSe-pNZ9ioDERA90qjMC1S_k,Cửa Hàng Tạp Hóa Đường Cát,Cửa hàng bách hóa,0292 3828 878,"Cửa Hàng Tạp Hóa Đường Cát, 1 Đường Nguyễn An Ninh, Tân An, Ninh Kiều, Cần Thơ","Tân An, Ninh Kiều",1 Đường Nguyễn An Ninh,Cần Thơ,,"Ninh Kiều, Cần Thơ",VN
376,ChIJ75opIuNjoDERI_oR3-TyfXQ,Tạp hóa Dì Ngân,Cửa hàng tạp phẩm,0909 811 630,"2QHW+WRX Tạp hóa Dì Ngân, Hẻm 3 Tổ 8 Khu Vực I, Hưng Phú, Cái Răng, Cần Thơ","Hưng Phú, Cái Răng","2QHW+WRX, Hẻm 3 Tổ 8 Khu Vực I",Cần Thơ,,"Cái Răng, Cần Thơ",VN
377,ChIJ851gChyIoDERaArPOn2OBE0,Tạp Hóa 45/18,Cửa hàng bách hóa,,"Tạp Hóa 45/18, An Nghiệp, Ninh Kiều, Cần Thơ","An Nghiệp, Ninh Kiều",,Cần Thơ,,"Ninh Kiều, Cần Thơ",VN
378,ChIJAyuRRp9ioDER33Fm0bpEpXA,Cửa Hàng Tạp Hóa Thanh,Cửa hàng bách hóa,0292 3753 832,"Cửa Hàng Tạp Hóa Thanh, 127, Đường Phan Đình Phùng, Quận Ninh Kiều, Tân An, Ninh Kiều, Cần Thơ","Tân An, Ninh Kiều","127, Đường Phan Đình Phùng, Quận Ninh Kiều",Cần Thơ,,"Ninh Kiều, Cần Thơ",VN
379,ChIJxepTn55ioDERZgiX_b-A8Lg,Cửa Hàng Tạp Hóa Lan,Cửa hàng bách hóa,0292 3821 816,"Cửa Hàng Tạp Hóa Lan, 160 Đường Hai Bà Trưng, Tân An, Ninh Kiều, Cần Thơ","Tân An, Ninh Kiều",160 Đường Hai Bà Trưng,Cần Thơ,,"Ninh Kiều, Cần Thơ",VN
380,ChIJuUreoUWJoDERvOnhkiXdHds,Tạp hóa Quí Thư 2,Cửa hàng tiện lợi,0983 113 226,"Tạp hóa Quí Thư 2, 260 Đ. 30 Tháng 4, Xuân Khánh, Ninh Kiều, Cần Thơ","Xuân Khánh, Ninh Kiều",260 Đ. 30 Tháng 4,Cần Thơ,,"Ninh Kiều, Cần Thơ",VN
381,ChIJ11zUq3hjoDERjTcKxoGetf8,Tạp Hóa Cô Hằng,Tiệm bánh,,"Tạp Hóa Cô Hằng, 12 Khu Vực 7, Hưng Phú, Cái Răng, Cần Thơ","Hưng Phú, Cái Răng",12 Khu Vực 7,Cần Thơ,,"Cái Răng, Cần Thơ",VN
382,ChIJ84q-LyCIoDERd2FTMenQSaM,Cửa Hàng Tạp Hóa Quốc Thanh,Cửa hàng bách hóa,0989 804 223,"Cửa Hàng Tạp Hóa Quốc Thanh, 21/17, Đường Đ. Nguyễn Việt Hồng, An Lạc, Ninh Kiều, Cần Thơ","An Lạc, Ninh Kiều","21/17, Đường Đ. Nguyễn Việt Hồng",Cần Thơ,,"Ninh Kiều, Cần Thơ",VN
383,ChIJRRMnlZlioDER2Kkbe5WN24U,Cửa Hàng Tạp Hóa Thanh Xuân,Cửa hàng bách hóa,0913 031 331,"Cửa Hàng Tạp Hóa Thanh Xuân, 149 Khu Vực 2, Hưng Phú, Cái Răng, Cần Thơ","Hưng Phú, Cái Răng",149 Khu Vực 2,Cần Thơ,,"Cái Răng, Cần Thơ",VN
384,ChIJrwjgoaBioDERSyIG03Bvt4I,Lien Grocery Store,Cửa hàng bách hóa,,"Lien Grocery Store, 16 Hẻm 22 Đ. Mạc Đĩnh Chi, Street, Ninh Kiều, Cần Thơ 900000","Street, Ninh Kiều",16 Hẻm 22 Đ. Mạc Đĩnh Chi,Cần Thơ,900000.0,"Ninh Kiều, Cần Thơ",VN
385,ChIJ5RM7Sp9ioDERXuJRy9GPY78,Bay Duong Grocery Store,Cửa hàng,0292 3813 997,"Bay Duong Grocery Store, 156 Đường Hai Bà Trưng, Tân An, Ninh Kiều, Cần Thơ","Tân An, Ninh Kiều",156 Đường Hai Bà Trưng,Cần Thơ,,"Ninh Kiều, Cần Thơ",VN
388,ChIJbZ4LsB2IoDER_NHiHvwtzEs,Tạp Hoá Ngọc Quyên,Cửa hàng tạp phẩm,,"Tạp Hoá Ngọc Quyên, 111A Hoàng Văn Thụ, An Cư, Ninh Kiều, Cần Thơ","An Cư, Ninh Kiều",111A Hoàng Văn Thụ,Cần Thơ,,"Ninh Kiều, Cần Thơ",VN
413,ChIJU9KpvRuIoDER2I128T1obOw,Cửa Hàng Tạp Hóa Thanh Hoa,Cửa hàng bách hóa,0949 648 048,"2QRF+3RJ Cửa Hàng Tạp Hóa Thanh Hoa, Đ. Huỳnh Thúc Kháng, An Phú, Ninh Kiều, Cần Thơ","An Phú, Ninh Kiều","2QRF+3RJ, Đ. Huỳnh Thúc Kháng",Cần Thơ,,"Ninh Kiều, Cần Thơ",VN
415,ChIJXaRM6hmIoDERQ-ILcbaoHgI,Tạp Hóa 49,Cửa hàng bách hóa,,"Tạp Hóa 49, Xuân Khánh, Ninh Kiều, Cần Thơ","Xuân Khánh, Ninh Kiều",,Cần Thơ,,"Ninh Kiều, Cần Thơ",VN
416,ChIJWWH0lp9ioDERhzOE22rN0KE,Cửa Hàng Tạp Hóa 132,Cửa hàng bách hóa,,"Cửa Hàng Tạp Hóa 132, 132 Đường Nguyễn An Ninh, Tân An, Ninh Kiều, Cần Thơ","Tân An, Ninh Kiều",132 Đường Nguyễn An Ninh,Cần Thơ,,"Ninh Kiều, Cần Thơ",VN
418,ChIJ6fXRiBuIoDERd_9PzoZ8mJ0,Tạp Hóa Diệu Linh,Cửa hàng bách hóa,,"Tạp Hóa Diệu Linh, An Nghiệp, Ninh Kiều, Cần Thơ","An Nghiệp, Ninh Kiều",,Cần Thơ,,"Ninh Kiều, Cần Thơ",VN
420,ChIJ4_ZJFh-IoDER7Bn7pHqTql4,Cửa Hàng Tạp Hóa Ngọc Ngân,Cửa hàng bách hóa,0292 3830 793,"Cửa Hàng Tạp Hóa Ngọc Ngân, 81, Trần Bình Trọng, Phường An Phú, Quận Ninh Kiều, TP Cần Thơ, An Phú, Ninh Kiều, Cần Thơ","An Phú, Ninh Kiều","81, Trần Bình Trọng, Phường An Phú, Quận Ninh Kiều, TP Cần Thơ",Cần Thơ,,"Ninh Kiều, Cần Thơ",VN
433,ChIJzRaMgCGIoDERX6_ot4Jsi_M,Tiệm Tạp Hóa Cô Vân,Cửa hàng bách hóa,0292 3835 625,"Tiệm Tạp Hóa Cô Vân, 110/15, Nguyễn Việt Hồng, Quận Ninh Kiều, Thành Phố Cần Thơ, 172 Đ. Nguyễn Việt Hồng, Xuân Khánh, Ninh Kiều, Cần Thơ","Xuân Khánh, Ninh Kiều","110/15, Nguyễn Việt Hồng, Quận Ninh Kiều, Thành Phố Cần Thơ, 172 Đ. Nguyễn Việt Hồng",Cần Thơ,,"Ninh Kiều, Cần Thơ",VN
437,ChIJJZYqpROIoDERFm1GFMZXEyM,Tạp Hóa Long Châu,Cửa hàng bách hóa,,"Tạp Hóa Long Châu, An Khánh, Ninh Kiều, Cần Thơ","An Khánh, Ninh Kiều",,Cần Thơ,,"Ninh Kiều, Cần Thơ",VN
438,ChIJR5npXh-IoDERyi3mHkDwsSQ,Tạp Hóa Tuyết,Cửa hàng bách hóa,0907 203 490,"Tạp Hóa Tuyết, 80 Đ. Nguyễn Việt Hồng, An Lạc, Ninh Kiều, Cần Thơ","An Lạc, Ninh Kiều",80 Đ. Nguyễn Việt Hồng,Cần Thơ,,"Ninh Kiều, Cần Thơ",VN
440,ChIJq6qqBw-IoDERD6J78el9kI0,Cửa Hàng Tạp Hóa 134B,Cửa hàng bách hóa,0292 3898 383,"Cửa Hàng Tạp Hóa 134B, 134B Đ. Nguyễn Văn Cừ, An Hoà, Ninh Kiều, Cần Thơ","An Hoà, Ninh Kiều",134B Đ. Nguyễn Văn Cừ,Cần Thơ,,"Ninh Kiều, Cần Thơ",VN
442,ChIJAbUhOxCIoDEROPXj3bbeo_0,Tạp Hóa Bách Phương,Cửa hàng bách hóa,,"Tạp Hóa Bách Phương, An Hòa, Ninh Kiều, Cần Thơ","An Hòa, Ninh Kiều",,Cần Thơ,,"Ninh Kiều, Cần Thơ",VN
448,ChIJ672AXyGIoDERtfBfGtbLGHY,Cửa Hàng Tạp Hóa Cô Nguyệt,Cửa hàng bách hóa,7103732696,"Cửa Hàng Tạp Hóa Cô Nguyệt, 61A Đ. Mậu Thân, An Nghiệp, Ninh Kiều, Cần Thơ","An Nghiệp, Ninh Kiều",61A Đ. Mậu Thân,Cần Thơ,,"Ninh Kiều, Cần Thơ",VN
450,ChIJMdlz8CCIoDERbF0oMfw0dpo,Quang Trung Grocery Store,Cửa hàng,0292 3820 570,"Quang Trung Grocery Store, 123, Quang Trung Street, Xuan Khanh Ward, Ninh Kieu District, Can Tho City, An Lạc, Ninh Kiều, Cần Thơ","An Lạc, Ninh Kiều","123, Quang Trung Street, Xuan Khanh Ward, Ninh Kieu District, Can Tho City",Cần Thơ,,"Ninh Kiều, Cần Thơ",VN
452,ChIJq6qqBw-IoDERSWZkeBeDAZk,Cửa Hàng Tạp Hoá Chi Dô,Cửa hàng tạp hóa,0292 3594 087,"Cửa Hàng Tạp Hoá Chi Dô, 291G/9, Đường Nguyễn Văn Cừ, Quận Ninh Kiều, Tp Cần Thơ, An Hoà, Ninh Kiều, Cần Thơ","An Hoà, Ninh Kiều","291G/9, Đường Nguyễn Văn Cừ, Quận Ninh Kiều, Tp Cần Thơ",Cần Thơ,,"Ninh Kiều, Cần Thơ",VN
453,ChIJq6qqBw-IoDER3RIXg77nYsE,Tiệm Tạp Hoá Hạnh Đào,Cửa hàng bách hóa,0979 297 534,"Tiệm Tạp Hoá Hạnh Đào, 138k, Đường Nguyễn Văn Cừ, Phường An Hoà, Quận Ninh Kiều, Tp Cần Thơ, An Hoà, Ninh Kiều, Cần Thơ","An Hoà, Ninh Kiều","138k, Đường Nguyễn Văn Cừ, Phường An Hoà, Quận Ninh Kiều, Tp Cần Thơ",Cần Thơ,,"Ninh Kiều, Cần Thơ",VN
455,ChIJbwHSuRKIoDER5N3uPx06988,Tạp Hóa Thành Lợi,Cửa hàng tạp hóa,,"2QV5+9P5 Tạp Hóa Thành Lợi, Phường An Khánh, Ninh Kiều, Cần Thơ","Phường An Khánh, Ninh Kiều",2QV5+9P5,Cần Thơ,,"Ninh Kiều, Cần Thơ",VN
456,ChIJq6qqBw-IoDERzXuiuQZ2eL8,Tiệm Tạp Hoá Thanh Trúc,Cửa hàng bách hóa,0292 2224 885,"Tiệm Tạp Hoá Thanh Trúc, 399 B, Đường Nguyễn Văn Cừ, Quận Ninh Kiều, Tp Cần Thơ, An Hoà, Ninh Kiều, Cần Thơ","An Hoà, Ninh Kiều","399 B, Đường Nguyễn Văn Cừ, Quận Ninh Kiều, Tp Cần Thơ",Cần Thơ,,"Ninh Kiều, Cần Thơ",VN
458,ChIJq6qqBw-IoDER3BOqG_jLqbY,Cửa Hàng Cà Phê - Tạp Hoá Lư Quyên,Cửa hàng tạp hóa,0945 050 450,"Cửa Hàng Cà Phê - Tạp Hoá Lư Quyên, Tp, 299B/9, Đ. Nguyễn Văn Cừ, An Hoà, Ninh Kiều, Cần Thơ","An Hoà, Ninh Kiều","Tp, 299B/9, Đ. Nguyễn Văn Cừ",Cần Thơ,,"Ninh Kiều, Cần Thơ",VN
462,ChIJc2yySkGJoDERYahXBFBU0_E,"Tạp Hóa Kim Cương - ĐL Bia, Nước Ngọt",Cửa hàng tạp phẩm,,"Tạp Hóa Kim Cương - ĐL Bia, Nước Ngọt, 139d Đ. Nguyễn Đệ, An Hoà, Ninh Kiều, Cần Thơ","An Hoà, Ninh Kiều",139d Đ. Nguyễn Đệ,Cần Thơ,,"Ninh Kiều, Cần Thơ",VN
463,ChIJkUD06RGIoDERURREPggZEJ4,Cửa Hàng Tạp Hoá Tư Tiệm,Cửa hàng bách hóa,0292 3835 650,"Cửa Hàng Tạp Hoá Tư Tiệm, 1, Mậu Thân, Quận Ninh Kiều, TP Cần Thơ, An Hoà, Ninh Kiều, Cần Thơ","An Hoà, Ninh Kiều","1, Mậu Thân, Quận Ninh Kiều, TP Cần Thơ",Cần Thơ,,"Ninh Kiều, Cần Thơ",VN
466,ChIJf9RmnRSIoDERCgMi6DwTWEM,Cửa Hàng Tạp Hóa Hưng Thịnh,Cửa hàng tạp hóa,0292 3895 703,"Cửa Hàng Tạp Hóa Hưng Thịnh, 132 Nguyễn Văn Cừ Nối Dài, Phường An Khánh, Ninh Kiều, Cần Thơ","Phường An Khánh, Ninh Kiều",132 Nguyễn Văn Cừ Nối Dài,Cần Thơ,,"Ninh Kiều, Cần Thơ",VN
467,ChIJ4blqzhOIoDERaWnV20P2EvE,Cửa Hàng Tạp Hóa Ngọc Hân,Cửa hàng bách hóa,7103893125,"Cửa Hàng Tạp Hóa Ngọc Hân, 134/6 Đ. Nguyễn Văn Cừ, Phường An Khánh, Ninh Kiều, Cần Thơ","Phường An Khánh, Ninh Kiều",134/6 Đ. Nguyễn Văn Cừ,Cần Thơ,,"Ninh Kiều, Cần Thơ",VN
471,ChIJTehbP22IoDER1XaSGGEE480,Tạp Hóa Phúc Hậu,Cửa hàng bách hóa,,"Tạp Hóa Phúc Hậu, 30 Đ. Chu Văn An, Phường An Khánh, Ninh Kiều, Cần Thơ","Phường An Khánh, Ninh Kiều",30 Đ. Chu Văn An,Cần Thơ,,"Ninh Kiều, Cần Thơ",VN
472,ChIJcce7mBOIoDERfp_sog2Sckw,Cửa Hàng Tạp Hóa Thiên Nga,Cửa hàng bách hóa,,"Cửa Hàng Tạp Hóa Thiên Nga, 132 Đ. Nguyễn Văn Cừ, Phường An Khánh, Ninh Kiều, Cần Thơ","Phường An Khánh, Ninh Kiều",132 Đ. Nguyễn Văn Cừ,Cần Thơ,,"Ninh Kiều, Cần Thơ",VN
475,ChIJC62GmBOIoDER_BQbXCsdp0Q,Cửa Hàng Tạp Hóa Thiên Duyên,Cửa hàng bách hóa,0292 6292 077,"Cửa Hàng Tạp Hóa Thiên Duyên, 132 Đ. Nguyễn Văn Cừ, Phường An Khánh, Ninh Kiều, Cần Thơ","Phường An Khánh, Ninh Kiều",132 Đ. Nguyễn Văn Cừ,Cần Thơ,,"Ninh Kiều, Cần Thơ",VN
476,ChIJq6qqBw-IoDERgRvArKjNfIA,Shop Tạp Hoá Cầu Vồng,Cửa hàng bách hóa,0292 3893 864,"Shop Tạp Hoá Cầu Vồng, 283 Đ. Nguyễn Văn Cừ, An Hoà, Ninh Kiều, Cần Thơ","An Hoà, Ninh Kiều",283 Đ. Nguyễn Văn Cừ,Cần Thơ,,"Ninh Kiều, Cần Thơ",VN
478,ChIJuencHhWIoDERMcY56Oa_6fk,Tạp Hóa Thúy,Cửa hàng bách hóa,,"Tạp Hóa Thúy, An Khánh, Ninh Kiều, Cần Thơ","An Khánh, Ninh Kiều",,Cần Thơ,,"Ninh Kiều, Cần Thơ",VN
479,ChIJrYCsqBSIoDER6gvpECd_xVg,Cửa Hàng Tạp Hóa VPP Thùy Linh,Cửa hàng bách hóa,0907 699 933,"Cửa Hàng Tạp Hóa VPP Thùy Linh, 171A Đ. Nguyễn Văn Cừ, An Hoà, Ninh Kiều, Cần Thơ","An Hoà, Ninh Kiều",171A Đ. Nguyễn Văn Cừ,Cần Thơ,,"Ninh Kiều, Cần Thơ",VN
480,ChIJa0l50hSIoDERRrUy2dYJ-Vg,Tạp Hóa Điếm Kiểu,Cửa hàng bách hóa,,"Tạp Hóa Điếm Kiểu, An Khánh, Ninh Kiều, Cần Thơ","An Khánh, Ninh Kiều",,Cần Thơ,,"Ninh Kiều, Cần Thơ",VN
483,ChIJf3d6QluJoDER8uZHtPRcJ6s,Tạp Hóa - Giặt Sấy Huyền Diệu,Dịch vụ giặt ủi,0366 541 151,"2PMX+C2G Tạp Hóa - Giặt Sấy Huyền Diệu, Phường An Khánh, Ninh Kiều, Cần Thơ","Phường An Khánh, Ninh Kiều",2PMX+C2G,Cần Thơ,,"Ninh Kiều, Cần Thơ",VN
487,ChIJ7-Or02iIoDERxg6zNl4fnwA,Tiệm Tạp Hóa,Cửa hàng bách hóa,,"2PQX+QPV Tiệm Tạp Hóa, Đ. Số 11, Phường An Khánh, Ninh Kiều, Cần Thơ","Phường An Khánh, Ninh Kiều","2PQX+QPV, Đ. Số 11",Cần Thơ,,"Ninh Kiều, Cần Thơ",VN
488,ChIJvfpKFW6JoDERRVcs1jh_Ac0,TẠP HOÁ ÔNG 7,Cửa hàng tạp phẩm,,"TẠP HOÁ ÔNG 7, 15 Hẻm 388 Đ. Nguyễn Văn Cừ, Phường An Khánh, Ninh Kiều, Cần Thơ","Phường An Khánh, Ninh Kiều",15 Hẻm 388 Đ. Nguyễn Văn Cừ,Cần Thơ,,"Ninh Kiều, Cần Thơ",VN
494,ChIJ4R-YC2yIoDERO4Hbw65St4M,Tiệm Tạp Hóa Thảo Tâm,Cửa hàng bách hóa,0913 150 369,"Tiệm Tạp Hóa Thảo Tâm, 17 Đ. Số 5A, Phường An Khánh, Ninh Kiều, Cần Thơ","Phường An Khánh, Ninh Kiều",17 Đ. Số 5A,Cần Thơ,,"Ninh Kiều, Cần Thơ",VN
495,ChIJk3Ei82uIoDERiznnJhNDdos,Cửa Hàng Tạp Hóa Thảo - Chợ An Khánh,Cửa hàng bách hóa,0914 865 478,"Cửa Hàng Tạp Hóa Thảo - Chợ An Khánh, Chợ phường An Khánh, Lô 164, Phường An Khánh, Ninh Kiều, Cần Thơ","Phường An Khánh, Ninh Kiều","Chợ phường An Khánh, Lô 164",Cần Thơ,,"Ninh Kiều, Cần Thơ",VN
496,ChIJ-XjnbmyIoDERhqvwyX9xFnI,Cửa Hàng Tạp Hóa Ngân Vy,Cửa hàng bách hóa,0292 6519 578,"Cửa Hàng Tạp Hóa Ngân Vy, 3 Đ. Tô Hiến Thành, Phường An Khánh, Ninh Kiều, Cần Thơ","Phường An Khánh, Ninh Kiều",3 Đ. Tô Hiến Thành,Cần Thơ,,"Ninh Kiều, Cần Thơ",VN
498,ChIJ6ex2QHGIoDERdku7nea1yTc,Tạp Hóa Quỳnh Chi,Cửa hàng bách hóa,0939 550 770,"2QX2+MGF Tạp Hóa Quỳnh Chi, Đường F10, An Thới, Bình Thủy, Cần Thơ 900000","An Thới, Bình Thủy","2QX2+MGF, Đường F10",Cần Thơ,900000.0,"Bình Thủy, Cần Thơ",VN
500,ChIJyaUMLmuIoDERq2ARxZJ14Kw,Tạp Hóa Huỳnh Huyện,Cửa hàng bách hóa,,"2QP5+Q7P Tạp Hóa Huỳnh Huyện, Hẻm liên tổ 9-10, Phường An Khánh, Ninh Kiều, Cần Thơ","Phường An Khánh, Ninh Kiều","2QP5+Q7P, Hẻm liên tổ 9-10",Cần Thơ,,"Ninh Kiều, Cần Thơ",VN
502,ChIJ4z1B1m6IoDERcmNvnbxOiNI,Tạp Hóa 19,Cửa hàng bách hóa,,"Tạp Hóa 19, 19 Đường Số 3, Phường An Khánh, Ninh Kiều, Cần Thơ","Phường An Khánh, Ninh Kiều",19 Đường Số 3,Cần Thơ,,"Ninh Kiều, Cần Thơ",VN
503,ChIJNy50yGqIoDER2lmw-j2a_sA,Cửa Hàng Tạp Hóa Tuyết,Cửa hàng bách hóa,,"Cửa Hàng Tạp Hóa Tuyết, 391 Đ. Nguyễn Văn Cừ, Phường An Khánh, Ninh Kiều, Cần Thơ","Phường An Khánh, Ninh Kiều",391 Đ. Nguyễn Văn Cừ,Cần Thơ,,"Ninh Kiều, Cần Thơ",VN
504,ChIJfZLS3GqIoDEReUng3P4Qy4Q,Tạp Hóa Thi Tân,Cửa hàng bách hóa,,"Tạp Hóa Thi Tân, An Khánh, Ninh Kiều, Cần Thơ","An Khánh, Ninh Kiều",,Cần Thơ,,"Ninh Kiều, Cần Thơ",VN
505,ChIJCXnnRm-IoDERltAyg2rGGaY,Tạp Hóa Sinh Viên,Cửa hàng bách hóa,,"Tạp Hóa Sinh Viên, Long Hòa, Ninh Kiều, Cần Thơ","Long Hòa, Ninh Kiều",,Cần Thơ,,"Ninh Kiều, Cần Thơ",VN
506,ChIJldBxdmyIoDERCiZ7EPVn0xk,Cửa Hàng Tạp Hóa Thanh Kiều,Cửa hàng bách hóa,0907 270 883,"Cửa Hàng Tạp Hóa Thanh Kiều, 1, KDC, Đường Số 5, Phường An Khánh, Ninh Kiều, Cần Thơ","Phường An Khánh, Ninh Kiều","1, KDC, Đường Số 5",Cần Thơ,,"Ninh Kiều, Cần Thơ",VN
507,ChIJz-_VhmqIoDERazdnNCqO1C4,Cửa Hàng Tạp Hóa Thanh Trúc,Cửa hàng tạp hóa,,"Cửa Hàng Tạp Hóa Thanh Trúc, 399 Đ. Nguyễn Văn Cừ, Phường An Khánh, Ninh Kiều, Cần Thơ","Phường An Khánh, Ninh Kiều",399 Đ. Nguyễn Văn Cừ,Cần Thơ,,"Ninh Kiều, Cần Thơ",VN
511,ChIJt5jafNiJoDERHkGqcATKf1k,TẠP HOÁ THUỲ NGÂN,Cửa hàng tiện lợi,,"TẠP HOÁ THUỲ NGÂN, 36 Đ. Võ Trường Toản, An Hoà, Ninh Kiều, Cần Thơ","An Hoà, Ninh Kiều",36 Đ. Võ Trường Toản,Cần Thơ,,"Ninh Kiều, Cần Thơ",VN
512,ChIJ-_4_tkWIoDERs-7NT7TRt64,Tạp Hóa Phú Thịnh,Cửa hàng bách hóa,,"2QG2+6FF Tạp Hóa Phú Thịnh, Đ. Trần Vĩnh Kiết, Phường An Khánh, Ninh Kiều, Cần Thơ","Phường An Khánh, Ninh Kiều","2QG2+6FF, Đ. Trần Vĩnh Kiết",Cần Thơ,,"Ninh Kiều, Cần Thơ",VN
513,ChIJ7ZraAmiIoDERQUYwMh5RLUY,Cửa Hàng Tạp Hóa Thùy Dung,Cửa hàng bách hóa,,"2PMX+Q2Q Cửa Hàng Tạp Hóa Thùy Dung, Đ. Nguyễn Văn Linh, Phường An Khánh, Ninh Kiều, Cần Thơ 910000","Phường An Khánh, Ninh Kiều","2PMX+Q2Q, Đ. Nguyễn Văn Linh",Cần Thơ,910000.0,"Ninh Kiều, Cần Thơ",VN
516,ChIJMQoICGiIoDERukYbnlYrhgU,Tiệm Tạp Hóa Minh Anh,Cửa hàng bách hóa,0974 643 475,"Tiệm Tạp Hóa Minh Anh, 301 Đ. Nguyễn Văn Linh, Phường An Khánh, Ninh Kiều, Cần Thơ","Phường An Khánh, Ninh Kiều",301 Đ. Nguyễn Văn Linh,Cần Thơ,,"Ninh Kiều, Cần Thơ",VN
518,ChIJV1p89WqIoDERU7calhp2x2k,Cửa Hàng Tạp Hóa 56,Cửa hàng bách hóa,0292 3893 907,"Cửa Hàng Tạp Hóa 56, 56, Trần Bạch Đằng, Phường An Khánh, Quận Ninh Kiều, Thành Phố Cần Thơ, Phường An Khánh, Ninh Kiều, Cần Thơ","Phường An Khánh, Ninh Kiều","56, Trần Bạch Đằng, Phường An Khánh, Quận Ninh Kiều, Thành Phố Cần Thơ",Cần Thơ,,"Ninh Kiều, Cần Thơ",VN
519,ChIJWY9mM0KIoDER6BKesRUBlgk,Tiệm Tạp Hóa Mỹ Thúy,Cửa hàng bách hóa,0292 3892 295,"Tiệm Tạp Hóa Mỹ Thúy, 7A10 KDC Thới Nhựt, Quận Ninh Kiều, Tp Cần Thơ, Phường An Khánh, Ninh Kiều, Cần Thơ","Phường An Khánh, Ninh Kiều","7A10 KDC Thới Nhựt, Quận Ninh Kiều, Tp Cần Thơ",Cần Thơ,,"Ninh Kiều, Cần Thơ",VN
520,ChIJP0PX30OIoDERZDUgjJMKXPU,Cửa Hàng Tạp Hóa Hồng Phương,Cửa hàng tạp hóa,0292 6535 300,"Cửa Hàng Tạp Hóa Hồng Phương, 305 Đ. Nguyễn Văn Linh, Phường An Khánh, Ninh Kiều, Cần Thơ","Phường An Khánh, Ninh Kiều",305 Đ. Nguyễn Văn Linh,Cần Thơ,,"Ninh Kiều, Cần Thơ",VN
521,ChIJMbxD9EKIoDERXKWyjseuo6Q,Cửa Hàng Tạp Hóa Cô Út,Cửa hàng tạp hóa,0819 231 508,"Cửa Hàng Tạp Hóa Cô Út, 237 Đ. Nguyễn Văn Linh, Phường An Khánh, Ninh Kiều, Cần Thơ","Phường An Khánh, Ninh Kiều",237 Đ. Nguyễn Văn Linh,Cần Thơ,,"Ninh Kiều, Cần Thơ",VN
522,ChIJ9aockECIoDERnstY1X36A_0,Tạp Hóa Uyên,Cửa hàng bách hóa,,"Tạp Hóa Uyên, An Khánh, Ninh Kiều, Cần Thơ","An Khánh, Ninh Kiều",,Cần Thơ,,"Ninh Kiều, Cần Thơ",VN
524,ChIJgQZb1mqIoDER8Ypa72JLVEo,Cửa Hàng Tạp Hóa Kiều Vy,Cửa hàng bách hóa,0915 611 626,"Cửa Hàng Tạp Hóa Kiều Vy, 383 Đ. Nguyễn Văn Cừ, Phường An Khánh, Ninh Kiều, Cần Thơ","Phường An Khánh, Ninh Kiều",383 Đ. Nguyễn Văn Cừ,Cần Thơ,,"Ninh Kiều, Cần Thơ",VN
526,ChIJIUwijUKIoDERMNTXhp8MoCM,Cửa Hàng Tạp Hóa Bách Hợp,Cửa hàng bách hóa,0799 556 227,"Cửa Hàng Tạp Hóa Bách Hợp, 337 Đ. Nguyễn Văn Linh, Phường An Khánh, Ninh Kiều, Cần Thơ","Phường An Khánh, Ninh Kiều",337 Đ. Nguyễn Văn Linh,Cần Thơ,,"Ninh Kiều, Cần Thơ",VN
527,ChIJo0L11EOIoDERi7tw2_DBs-I,Cửa Hàng Tạp Hóa Út Dung,Cửa hàng bách hóa,0292 3997 010,"Cửa Hàng Tạp Hóa Út Dung, 297 Nguyễn Văn Cừ Nối Dài, Phường An Khánh, Ninh Kiều, Cần Thơ","Phường An Khánh, Ninh Kiều",297 Nguyễn Văn Cừ Nối Dài,Cần Thơ,,"Ninh Kiều, Cần Thơ",VN
528,ChIJjSk8wUGIoDERA27svcysPeI,Tạp Hóa Thùy Trang,Cửa hàng bách hóa,,"Tạp Hóa Thùy Trang, An Khánh, Ninh Kiều, Cần Thơ","An Khánh, Ninh Kiều",,Cần Thơ,,"Ninh Kiều, Cần Thơ",VN
529,ChIJdeAWXxWIoDERuh-83_Ns0vo,Cửa Hàng Tạp Hóa Ngọc Sáng - Nguyễn Văn Cừ,Cửa hàng bách hóa,0941 608 966,"2QM5+GWW Cửa Hàng Tạp Hóa Ngọc Sáng - Nguyễn Văn Cừ, Nguyễn Văn Cừ Nối Dài, Phường An Khánh, Ninh Kiều, Cần Thơ","Phường An Khánh, Ninh Kiều","2QM5+GWW, Nguyễn Văn Cừ Nối Dài",Cần Thơ,,"Ninh Kiều, Cần Thơ",VN
530,ChIJMxpJUEKIoDER67GLPfXYw4o,Cửa Hàng Tạp Hóa Cô Nga,Cửa hàng tạp hóa,0292 3894 404,"Cửa Hàng Tạp Hóa Cô Nga, 290 QL91B, Phường An Khánh, Ninh Kiều, Cần Thơ","Phường An Khánh, Ninh Kiều",290 QL91B,Cần Thơ,,"Ninh Kiều, Cần Thơ",VN
531,ChIJiaFhfRWIoDERewWnuYOAWNw,Cửa Hàng Tạp Hóa Thúy Loan,Cửa hàng bách hóa,1699 294049,"Cửa Hàng Tạp Hóa Thúy Loan, 381Q1 Đ. Nguyễn Văn Cừ, Phường An Khánh, Ninh Kiều, Cần Thơ","Phường An Khánh, Ninh Kiều",381Q1 Đ. Nguyễn Văn Cừ,Cần Thơ,,"Ninh Kiều, Cần Thơ",VN
532,ChIJKwf4NEKIoDERv7Np9ga9lDY,Cửa Hàng Tạp Hóa & Mỹ Phẩm Hồng Phương,Cửa hàng bách hóa,0292 3525 300,"Cửa Hàng Tạp Hóa & Mỹ Phẩm Hồng Phương, 305D, Quốc Lộ 91B, Quận Ninh Kiều, Tp Cần Thơ, Phường An Khánh, Ninh Kiều, Cần Thơ","Phường An Khánh, Ninh Kiều","305D, Quốc Lộ 91B, Quận Ninh Kiều, Tp Cần Thơ",Cần Thơ,,"Ninh Kiều, Cần Thơ",VN
534,ChIJK8cznkWJoDERSGqP3t_6uCM,Cửa hàng tạp hoá Liêm,Cửa hàng tạp hóa,,"Cửa hàng tạp hoá Liêm, 27 Đường 4, An Bình, Bình Thủy, Cần Thơ","An Bình, Bình Thủy",27 Đường 4,Cần Thơ,,"Bình Thủy, Cần Thơ",VN
535,ChIJW1Qb2dGJoDERx2Ur2Xfi8jg,Tạp hóa Mỹ Phương,Cửa hàng tổng hợp,,"Tạp hóa Mỹ Phương, 409a Nguyễn Văn Cừ Nối Dài, An Bình, Ninh Kiều, Cần Thơ","An Bình, Ninh Kiều",409a Nguyễn Văn Cừ Nối Dài,Cần Thơ,,"Ninh Kiều, Cần Thơ",VN
536,ChIJFZ2a9kmJoDERWEjWtxGU0Cg,Tạp Hóa Kiều Trang,Cửa hàng tạp phẩm,,"2P9R+VPC Tạp Hóa Kiều Trang, An Bình, Ninh Kiều, Cần Thơ","An Bình, Ninh Kiều",2P9R+VPC,Cần Thơ,,"Ninh Kiều, Cần Thơ",VN
537,ChIJ9240VFCIoDERUXIr4VgqJRk,Cửa Hàng Tạp Hóa Phúc Nguyên,Cửa hàng bách hóa,0907 100 327,"Cửa Hàng Tạp Hóa Phúc Nguyên, 297 Đ.Xuân Thủy, An Bình, Ninh Kiều, Cần Thơ","An Bình, Ninh Kiều",297 Đ.Xuân Thủy,Cần Thơ,,"Ninh Kiều, Cần Thơ",VN
538,ChIJHSr1h0SIoDERA0YIWEZOalE,Cửa hàng tạp hóa,Cửa hàng tạp phẩm,,"2PHX+7W6 Cửa hàng tạp hóa, Đ. Trần Vĩnh Kiết, Phường An Khánh, Ninh Kiều, Cần Thơ","Phường An Khánh, Ninh Kiều","2PHX+7W6, Đ. Trần Vĩnh Kiết",Cần Thơ,,"Ninh Kiều, Cần Thơ",VN
539,ChIJPSiYMW-JoDERDRKZr-GT2Wc,Tạp hóa Bảo Ngọc,Cửa hàng tạp hóa,,"Tạp hóa Bảo Ngọc, 165 Đ. Trần Vĩnh Kiết, Hưng Lợi, Ninh Kiều, Cần Thơ","Hưng Lợi, Ninh Kiều",165 Đ. Trần Vĩnh Kiết,Cần Thơ,,"Ninh Kiều, Cần Thơ",VN
541,ChIJnbUCuEyIoDERwhB4VwPAg3g,Cửa Hàng Tạp Hóa Cô Mười,Cửa hàng bách hóa,0947 167 268,"Cửa Hàng Tạp Hóa Cô Mười, 4 Đ. Trần Vĩnh Kiết, An Bình, Ninh Kiều, Cần Thơ","An Bình, Ninh Kiều",4 Đ. Trần Vĩnh Kiết,Cần Thơ,,"Ninh Kiều, Cần Thơ",VN
542,ChIJI8n-SE-IoDERm8cc7eYSyo8,Cửa Hàng Tạp Hóa Cô Phượng,Cửa hàng bách hóa,0907 567 881,"Cửa Hàng Tạp Hóa Cô Phượng, 262B Đ. Trần Vĩnh Kiết, Hưng Lợi, Ninh Kiều, Cần Thơ","Hưng Lợi, Ninh Kiều",262B Đ. Trần Vĩnh Kiết,Cần Thơ,,"Ninh Kiều, Cần Thơ",VN
543,ChIJeWPqkUOIoDERirTwFImQtX8,Tiệm Tạp Hóa Hương Sơn,Cửa hàng bách hóa,0918 734 919,"Tiệm Tạp Hóa Hương Sơn, 306/9 Đ. Nguyễn Văn Cừ, Phường An Khánh, Ninh Kiều, Cần Thơ","Phường An Khánh, Ninh Kiều",306/9 Đ. Nguyễn Văn Cừ,Cần Thơ,,"Ninh Kiều, Cần Thơ",VN
544,ChIJiwitj0SIoDERpVm41bM7Wo0,Tiệm Tạp Hóa Ngọc Thúy,Cửa hàng bách hóa,0919 022 992,"Tiệm Tạp Hóa Ngọc Thúy, 10 Đ. Nguyễn Văn Cừ, Phường An Khánh, Ninh Kiều, Cần Thơ","Phường An Khánh, Ninh Kiều",10 Đ. Nguyễn Văn Cừ,Cần Thơ,,"Ninh Kiều, Cần Thơ",VN
545,ChIJ3xrbt0WIoDERvH01KYB4868,Tạp Hóa Như Ý,Cửa hàng bách hóa,,"2QG2+5F8 Tạp Hóa Như Ý, Đ. Trần Vĩnh Kiết, Phường An Khánh, Ninh Kiều, Cần Thơ","Phường An Khánh, Ninh Kiều","2QG2+5F8, Đ. Trần Vĩnh Kiết",Cần Thơ,,"Ninh Kiều, Cần Thơ",VN
546,ChIJmUbpSLOJoDERYkW_wLqwwp8,Tạp Hóa Trung,Cửa hàng bách hóa,0382 025 725,"Tạp Hóa Trung, 116C/3 Đ. 3 Tháng 2, Hưng Lợi, Ninh Kiều, Cần Thơ","Hưng Lợi, Ninh Kiều",116C/3 Đ. 3 Tháng 2,Cần Thơ,,"Ninh Kiều, Cần Thơ",VN
547,ChIJzal7IbeJoDER4sQlW2Lmm3U,Tạp hoá B8.202,Cửa hàng tạp phẩm,,"2P8M+6CP Tạp hoá B8.202, An Bình, Ninh Kiều, Cần Thơ","An Bình, Ninh Kiều",2P8M+6CP,Cần Thơ,,"Ninh Kiều, Cần Thơ",VN
548,ChIJWc5h7kWIoDERbokKRqx_MnE,Tiệm Tạp Hóa Cô Thu,Cửa hàng bách hóa,0989 952 568,"Tiệm Tạp Hóa Cô Thu, 8 Đ. Trần Vĩnh Kiết, Phường An Khánh, Ninh Kiều, Cần Thơ","Phường An Khánh, Ninh Kiều",8 Đ. Trần Vĩnh Kiết,Cần Thơ,,"Ninh Kiều, Cần Thơ",VN
549,ChIJJ2gjSU-IoDERCPfBEdaYkkM,Tạp Hóa Cô Út,Cửa hàng bách hóa,,"Tạp Hóa Cô Út, An Bình, Ninh Kiều, Cần Thơ","An Bình, Ninh Kiều",,Cần Thơ,,"Ninh Kiều, Cần Thơ",VN
550,ChIJaeXvE66JoDERVVea_woa2cc,Cửa Hàng Tạp Hóa Quốc Hương,Cửa hàng bách hóa,0292 3913 001,"Cửa Hàng Tạp Hóa Quốc Hương, An Bình, Ninh Kiều, Cần Thơ","An Bình, Ninh Kiều",,Cần Thơ,,"Ninh Kiều, Cần Thơ",VN
551,ChIJk_eruHmJoDERhNz-D-TqY9g,Tạp Hóa Trung Thủy,Cửa hàng tạp hóa,0292 3745 550,"Tạp Hóa Trung Thủy, Đ. Bùi Hữu Nghĩa, Long Tuyền, Bình Thủy, Cần Thơ","Long Tuyền, Bình Thủy",Đ. Bùi Hữu Nghĩa,Cần Thơ,,"Bình Thủy, Cần Thơ",VN
552,ChIJh7Hew0SIoDERghgWmzqIrCk,Cửa Hàng Tạp Hoá Trinh,Cửa hàng bách hóa,0904 500 330,"Cửa Hàng Tạp Hoá Trinh, 75B, Nguyễn Văn Cừ Nối Dài, Phường An Khánh, Quận Ninh Kiều, Thành Phố Cần Thơ, An Bình, Ninh Kiều, Cần Thơ","An Bình, Ninh Kiều","75B, Nguyễn Văn Cừ Nối Dài, Phường An Khánh, Quận Ninh Kiều, Thành Phố Cần Thơ",Cần Thơ,,"Ninh Kiều, Cần Thơ",VN
553,ChIJOXlUQrOJoDER_YOKRBnks9M,Cửa Hàng Tạp Hóa Ngọc Châu,Cửa hàng bách hóa,0292 3847 340,"Cửa Hàng Tạp Hóa Ngọc Châu, 91/2, Đường 3/2 Nối Dài, Phường An Bình, Quận Ninh Kiều, An Bình, Ninh Kiều, Cần Thơ","An Bình, Ninh Kiều","91/2, Đường 3/2 Nối Dài, Phường An Bình, Quận Ninh Kiều",Cần Thơ,,"Ninh Kiều, Cần Thơ",VN
554,ChIJtejSIk-IoDERhWPg3uz5tvs,Tạp Hóa Vân,Cửa hàng,,"2QC2+FHC Tạp Hóa Vân, Đ. Trần Vĩnh Kiết, Phường An Khánh, Ninh Kiều, Cần Thơ","Phường An Khánh, Ninh Kiều","2QC2+FHC, Đ. Trần Vĩnh Kiết",Cần Thơ,,"Ninh Kiều, Cần Thơ",VN
555,ChIJkxvb7UuIoDERBUno8lSbgTQ,Tạp Hóa 372,Cửa hàng bách hóa,,"Tạp Hóa 372, Hẻm 112 Đ. 3 Tháng 2, Hưng Lợi, Ninh Kiều, Cần Thơ","Hưng Lợi, Ninh Kiều",Hẻm 112 Đ. 3 Tháng 2,Cần Thơ,,"Ninh Kiều, Cần Thơ",VN
557,ChIJWeBaDq6JoDERIVwz0tchM-c,Tạp Hóa Cô Bạch,Cửa hàng bách hóa,0789 592 578,"Tạp Hóa Cô Bạch, 5 Lộ Vòng Cung, An Bình, Ninh Kiều, Cần Thơ","An Bình, Ninh Kiều",5 Lộ Vòng Cung,Cần Thơ,,"Ninh Kiều, Cần Thơ",VN
559,ChIJI3xZQrOJoDERcVDMFtcc0DA,Cửa Hàng Tạp Hóa Thanh Tuấn,Cửa hàng bách hóa,0993 662 877,"Cửa Hàng Tạp Hóa Thanh Tuấn, 90A, Quốc Lộ 1A, P. An Bình, Quận Ninh Kiều, An Bình, Ninh Kiều, Cần Thơ","An Bình, Ninh Kiều","90A, Quốc Lộ 1A, P. An Bình, Quận Ninh Kiều",Cần Thơ,,"Ninh Kiều, Cần Thơ",VN
560,ChIJn7TT30OIoDERfS66PuF2CbY,Cửa Hàng Tạp Hóa Yến Yến,Cửa hàng bách hóa,,"2QH2+XXQ Cửa Hàng Tạp Hóa Yến Yến, Đ. Nguyễn Văn Linh, Phường An Khánh, Ninh Kiều, Cần Thơ","Phường An Khánh, Ninh Kiều","2QH2+XXQ, Đ. Nguyễn Văn Linh",Cần Thơ,,"Ninh Kiều, Cần Thơ",VN
562,ChIJaa-wOEaIoDERAQVqR6ZIgck,Tiệm Tạp Hóa Thiên Tâm,Cửa hàng bách hóa,0917 361 743,"Tiệm Tạp Hóa Thiên Tâm, 88 Đường B22, Khu dân cư 91B, Ninh Kiều, Cần Thơ","Khu dân cư 91B, Ninh Kiều",88 Đường B22,Cần Thơ,,"Ninh Kiều, Cần Thơ",VN
563,ChIJ8WU1IUeIoDERt-Tr_yPbYuI,Cửa Hàng Tạp Hóa Cô 9,Cửa hàng bách hóa,,"2QG4+VC5 Cửa Hàng Tạp Hóa Cô 9, Đ. Nguyễn Văn Linh, Phường An Khánh, Ninh Kiều, Cần Thơ","Phường An Khánh, Ninh Kiều","2QG4+VC5, Đ. Nguyễn Văn Linh",Cần Thơ,,"Ninh Kiều, Cần Thơ",VN
564,ChIJXf-dTLKJoDERCOOE0AntsDo,Tạp Hóa Đoan Thùy,Cửa hàng bách hóa,0932 944 964,"Tạp Hóa Đoan Thùy, 134/3 Đ. 3 Tháng 2, An Bình, Ninh Kiều, Cần Thơ","An Bình, Ninh Kiều",134/3 Đ. 3 Tháng 2,Cần Thơ,,"Ninh Kiều, Cần Thơ",VN
565,ChIJkTv8S7OJoDERqtbwEY2wlxk,Tạp Hóa Quang Bảo Ngọc,Cửa hàng bách hóa,0913 712 708,"Tạp Hóa Quang Bảo Ngọc, 141B/3 Đ. 3 Tháng 2, Hưng Lợi, Ninh Kiều, Cần Thơ","Hưng Lợi, Ninh Kiều",141B/3 Đ. 3 Tháng 2,Cần Thơ,,"Ninh Kiều, Cần Thơ",VN
566,ChIJnTKOUkWIoDERQ7UDI18c0dU,Cửa Hàng Gạo Tạp Hóa 130,Cửa hàng bán thực phẩm sạch,0918 865 884,"Cửa Hàng Gạo Tạp Hóa 130, 130AB1 Đ.Xuân Thủy, An Bình, Ninh Kiều, Cần Thơ","An Bình, Ninh Kiều",130AB1 Đ.Xuân Thủy,Cần Thơ,,"Ninh Kiều, Cần Thơ",VN
568,ChIJ6feXt0GJoDERfqjdDxYSFlY,Tạp hoá - Giặt sấy Thuỷ,Cửa hàng tổng hợp,,"2PJX+2F8 Tạp hoá - Giặt sấy Thuỷ, Hẻm Tổ 10A, Phường An Khánh, Ninh Kiều, Cần Thơ","Phường An Khánh, Ninh Kiều","2PJX+2F8, Hẻm Tổ 10A",Cần Thơ,,"Ninh Kiều, Cần Thơ",VN
569,ChIJIeYbja2JoDER2nVUHRLXIRM,Tạp Hóa - Mỹ phẩm MyMy,Cửa hàng tạp phẩm,0397 618 774,"Tạp Hóa - Mỹ phẩm MyMy, 320b đường Hàng Xoài, P, Cái Răng, Cần Thơ","P, Cái Răng",320b đường Hàng Xoài,Cần Thơ,,"Cái Răng, Cần Thơ",VN
570,ChIJ49be71CJoDER-e-BYGG_4dg,TẠP HÓA THÁI LAN,Cửa hàng,0911 564 449,"2Q86+PJG TẠP HÓA THÁI LAN, Hẻm 107 Đ. 3 Tháng 2, Hưng Lợi, Ninh Kiều, Cần Thơ","Hưng Lợi, Ninh Kiều","2Q86+PJG, Hẻm 107 Đ. 3 Tháng 2",Cần Thơ,,"Ninh Kiều, Cần Thơ",VN
573,ChIJAdEKKAiJoDERPAV-5BJgrjI,Tạp Hóa Phượng,Cửa hàng bách hóa,,"Tạp Hóa Phượng, An Bình, Ninh Kiều, Cần Thơ","An Bình, Ninh Kiều",,Cần Thơ,,"Ninh Kiều, Cần Thơ",VN
574,ChIJycklsZKJoDER3zEqL0saInw,Tạp Hóa Tấn Phát,Cửa hàng tạp hóa,0949 456 954,"2P8G+4R8 Tạp Hóa Tấn Phát, Nguyễn Văn Trường, Long Tuyền, Bình Thủy, Cần Thơ","Long Tuyền, Bình Thủy","2P8G+4R8, Nguyễn Văn Trường",Cần Thơ,,"Bình Thủy, Cần Thơ",VN
575,ChIJPSzWiE-JoDER3DUXC_mJW3w,Tạp Hóa Lâm Lên,Cửa hàng tạp hóa,0827 450 679,"Tạp Hóa Lâm Lên, 68b Nguyễn Văn Trường, Long Tuyền, Bình Thủy, Cần Thơ","Long Tuyền, Bình Thủy",68b Nguyễn Văn Trường,Cần Thơ,,"Bình Thủy, Cần Thơ",VN
576,ChIJyzlHf-aIoDEREldObHx_CMo,Kim Hằng Tạp Hóa,Cửa hàng bách hóa,,"Kim Hằng Tạp Hóa, Long Tuyền, Bình Thủy, Cần Thơ","Long Tuyền, Bình Thủy",,Cần Thơ,,"Bình Thủy, Cần Thơ",VN
577,ChIJ24gvLBKJoDERgYAye0NJrSw,Tạp Hóa Phạm Duy,Cửa hàng bách hóa,,"Tạp Hóa Phạm Duy, Mỹ Khánh, Phong Điền, Cần Thơ","Mỹ Khánh, Phong Điền",,Cần Thơ,,"Phong Điền, Cần Thơ",VN
578,ChIJ1WxKORSJoDER9IuMZrKuo6s,Tạp Hóa Tường Vy,Cửa hàng bách hóa,,"Tạp Hóa Tường Vy, Mỹ Khánh, Phong Điền, Cần Thơ","Mỹ Khánh, Phong Điền",,Cần Thơ,,"Phong Điền, Cần Thơ",VN
579,ChIJjVN-OQeJoDERj26Ap4-MaAI,Tạp Hóa Ba Thông,Cửa hàng,,"2P4M+R82 Tạp Hóa Ba Thông, Nguyễn Văn Trường, An Bình, Ninh Kiều, Cần Thơ","An Bình, Ninh Kiều","2P4M+R82, Nguyễn Văn Trường",Cần Thơ,,"Ninh Kiều, Cần Thơ",VN
580,ChIJXy1t2RWJoDERKYkPnuW-j9w,Cửa Hàng Tạp Hóa Xuân Mai,Cửa hàng bách hóa,0939 663 461,"Cửa Hàng Tạp Hóa Xuân Mai, 38 Nguyễn Văn Cừ Nối Dài, Mỹ Khánh, Phong Điền, Cần Thơ","Mỹ Khánh, Phong Điền",38 Nguyễn Văn Cừ Nối Dài,Cần Thơ,,"Phong Điền, Cần Thơ",VN
581,ChIJX6LyDxKJoDERxBsUEFm55UE,Tạp Hóa Ngọc Tiên,Cửa hàng bách hóa,,"Tạp Hóa Ngọc Tiên, Mỹ Khánh, Phong Điền, Cần Thơ","Mỹ Khánh, Phong Điền",,Cần Thơ,,"Phong Điền, Cần Thơ",VN
582,ChIJy79OxRSJoDERYkJ1AdR5K98,Cửa Hàng Tạp Hóa Hồng Phước,Cửa hàng bách hóa,0292 3847 905,"Cửa Hàng Tạp Hóa Hồng Phước, 172 ĐT923, Mỹ Khánh, Phong Điền, Cần Thơ","Mỹ Khánh, Phong Điền",172 ĐT923,Cần Thơ,,"Phong Điền, Cần Thơ",VN
583,ChIJuYzR0xSJoDERkQrfsZ_QkOM,Cửa Hàng Tạp Hóa Hữu Nghị,Cửa hàng bách hóa,0292 3847 365,"Cửa Hàng Tạp Hóa Hữu Nghị, 167 ĐT923, Mỹ Khánh, Phong Điền, Cần Thơ","Mỹ Khánh, Phong Điền",167 ĐT923,Cần Thơ,,"Phong Điền, Cần Thơ",VN
584,ChIJLewu2xOJoDER55u_lsdvzyo,Tạp Hóa Cô Nga,Cửa hàng bách hóa,0857 607 891,"XPW9+VQ5 Tạp Hóa Cô Nga, Ấp Mỹ Phước, Phong Điền, Cần Thơ","Ấp Mỹ Phước, Phong Điền",XPW9+VQ5,Cần Thơ,,"Phong Điền, Cần Thơ",VN
585,ChIJEY1eZBSJoDERqyeayBP009g,Tạp Hóa Diễm My,Cửa hàng bách hóa,,"Tạp Hóa Diễm My, 12 Bông Vang, Mỹ Khánh, Phong Điền, Cần Thơ","Mỹ Khánh, Phong Điền",12 Bông Vang,Cần Thơ,,"Phong Điền, Cần Thơ",VN
588,ChIJye8X0qWJoDERACmtMmFN7V4,Tạp Hóa Mỹ Long,Cửa hàng bách hóa,,"Tạp Hóa Mỹ Long, An Bình, Ninh Kiều, Cần Thơ","An Bình, Ninh Kiều",,Cần Thơ,,"Ninh Kiều, Cần Thơ",VN
589,ChIJhelP1KCJoDERt4EdJGaMNPo,Tạp Hóa Tám Nhì,Cửa hàng bách hóa,,"XPWQ+J4P Tạp Hóa Tám Nhì, Nguyễn Văn Trường, An Bình, Ninh Kiều, Cần Thơ","An Bình, Ninh Kiều","XPWQ+J4P, Nguyễn Văn Trường",Cần Thơ,,"Ninh Kiều, Cần Thơ",VN
590,ChIJtyHYE66JoDERNkeA0zbX2Oc,Cửa Hàng Tạp Hóa Lâm Văn Tùa,Cửa hàng bách hóa,0292 3846 404,"Cửa Hàng Tạp Hóa Lâm Văn Tùa, An Bình, Ninh Kiều, Cần Thơ","An Bình, Ninh Kiều",,Cần Thơ,,"Ninh Kiều, Cần Thơ",VN
591,ChIJCUuDeq-JoDEReMUS4nQsN_4,Tạp Hóa Ngọc Vy,Cửa hàng bách hóa,0852 446 666,"Tạp Hóa Ngọc Vy, 64/2 Lộ Vòng Cung, An Bình, Ninh Kiều, Cần Thơ","An Bình, Ninh Kiều",64/2 Lộ Vòng Cung,Cần Thơ,,"Ninh Kiều, Cần Thơ",VN
592,ChIJHSNy_KSJoDERmljxrdkhaqk,Cửa Hàng Tạp Hoá Kim Anh,Cửa hàng bách hóa,0292 6297 925,"Cửa Hàng Tạp Hoá Kim Anh, 61/3A, Võ Tánh, Phường Lê Bình, Quận Cái Răng, Thành Phố Cần Thơ, Lê Bình, Cái Răng, Cần Thơ","Lê Bình, Cái Răng","61/3A, Võ Tánh, Phường Lê Bình, Quận Cái Răng, Thành Phố Cần Thơ",Cần Thơ,,"Cái Răng, Cần Thơ",VN
593,ChIJo9GuAqGJoDER52Q4xQ5lQ9U,Tiệm Tạp Hóa Thành,Cửa hàng bách hóa,0292 3746 704,"Tiệm Tạp Hóa Thành, 35, Đường Lộ Vòng Cung, Quận Ninh Kiều, An Bình, Ninh Kiều, Cần Thơ","An Bình, Ninh Kiều","35, Đường Lộ Vòng Cung, Quận Ninh Kiều",Cần Thơ,,"Ninh Kiều, Cần Thơ",VN
596,ChIJyeVP56CJoDERGhPWWfdtCt8,Cửa Hàng Tạp Hóa Bảo Ngọc,Cửa hàng bách hóa,0292 3848 757,"Cửa Hàng Tạp Hóa Bảo Ngọc, 245 Ấp Mỹ Ái, Huyện Phong Điền, An Bình, Ninh Kiều, Cần Thơ","An Bình, Ninh Kiều","245 Ấp Mỹ Ái, Huyện Phong Điền",Cần Thơ,,"Ninh Kiều, Cần Thơ",VN
597,ChIJB-VVSqSJoDERehtmM-ZGiic,Cửa Hàng Tạp Hóa,Cửa hàng bách hóa,0917 811 345,"Cửa Hàng Tạp Hóa, 105/2 Lộ Vòng Cung, An Bình, Ninh Kiều, Cần Thơ","An Bình, Ninh Kiều",105/2 Lộ Vòng Cung,Cần Thơ,,"Ninh Kiều, Cần Thơ",VN
598,ChIJZy326KCJoDERG4d2FP3-goU,Cửa Hàng Tạp Hóa Tuyền,Cửa hàng bách hóa,0292 3924 527,"Cửa Hàng Tạp Hóa Tuyền, 331A Ấp Mỹ Nhơn, Huyện Phong Điền, An Bình, Ninh Kiều, Cần Thơ","An Bình, Ninh Kiều","331A Ấp Mỹ Nhơn, Huyện Phong Điền",Cần Thơ,,"Ninh Kiều, Cần Thơ",VN
599,ChIJMbQJRa6JoDERhKbkm_kqXR4,Cửa Hàng Tạp Hóa Tuyết,Cửa hàng bách hóa,,"Cửa Hàng Tạp Hóa Tuyết, 157 ĐT923, An Bình, Ninh Kiều, Cần Thơ","An Bình, Ninh Kiều",157 ĐT923,Cần Thơ,,"Ninh Kiều, Cần Thơ",VN
601,ChIJqQGf3a6JoDER8beDXMbTSI8,Tạp Hóa Minh Hoàng,Cửa hàng bách hóa,,"Tạp Hóa Minh Hoàng, An Bình, Ninh Kiều, Cần Thơ","An Bình, Ninh Kiều",,Cần Thơ,,"Ninh Kiều, Cần Thơ",VN
602,ChIJ02i1y6WJoDERZbW9yXiOd7A,Tạp Hóa Tiến 72,Cửa hàng bách hóa,,"XPXR+RWC Tạp Hóa Tiến 72, Đường Số 8, An Bình, Ninh Kiều, Cần Thơ","An Bình, Ninh Kiều","XPXR+RWC, Đường Số 8",Cần Thơ,,"Ninh Kiều, Cần Thơ",VN
603,ChIJGyNs_KSJoDEReM_O8kaHBvU,Cửa Hàng Tạp Hoá Bích Trâm,Cửa hàng bách hóa,0939 253 931,"Cửa Hàng Tạp Hoá Bích Trâm, 41/3, Võ Tánh, Phường Lê Bình, Quận Cái Răng, Thành Phố Cần Thơ, Lê Bình, Cái Răng, Cần Thơ","Lê Bình, Cái Răng","41/3, Võ Tánh, Phường Lê Bình, Quận Cái Răng, Thành Phố Cần Thơ",Cần Thơ,,"Cái Răng, Cần Thơ",VN
604,ChIJxUaZGaGJoDERzl5PDUEnrb8,Tạp Hóa Anh Thư,Cửa hàng bách hóa,,"Tạp Hóa Anh Thư, An Bình, Ninh Kiều, Cần Thơ","An Bình, Ninh Kiều",,Cần Thơ,,"Ninh Kiều, Cần Thơ",VN
605,ChIJSSHaB66JoDER-GUJxXp1isM,Cửa Hàng Tạp Hóa Tuấn Kiệt,Cửa hàng bách hóa,0292 6280 290,"2P4W+VC9 Cửa Hàng Tạp Hóa Tuấn Kiệt, ĐT923, An Bình, Ninh Kiều, Cần Thơ","An Bình, Ninh Kiều","2P4W+VC9, ĐT923",Cần Thơ,,"Ninh Kiều, Cần Thơ",VN
606,ChIJzaRSOrGJoDERe7Kraxeve5E,Cửa Hàng Tạp Hóa Anh Thiện,Cửa hàng bách hóa,,"Cửa Hàng Tạp Hóa Anh Thiện, 18 Ngô Quyền, Lê Bình, Cái Răng, Cần Thơ","Lê Bình, Cái Răng",18 Ngô Quyền,Cần Thơ,,"Cái Răng, Cần Thơ",VN
607,ChIJqdzGHLGJoDERaQwZxyDrFlo,Cửa Hàng Tạp Hóa Huỳnh Minh,Cửa hàng bách hóa,,"Cửa Hàng Tạp Hóa Huỳnh Minh, 85 Quốc Lộ 1A, Lê Bình, Cái Răng, Cần Thơ","Lê Bình, Cái Răng",85 Quốc Lộ 1A,Cần Thơ,,"Cái Răng, Cần Thơ",VN
608,ChIJVVVVVaqJoDERiusI4-FHY7M,Cửa Hàng Tạp Hoá 144,Cửa hàng bách hóa,0705 907 441,"Cửa Hàng Tạp Hoá 144, 144 Đường Số 7, Khu Dân Cư Hồng Phát, Ninh Kiều, Cần Thơ","Khu Dân Cư Hồng Phát, Ninh Kiều",144 Đường Số 7,Cần Thơ,,"Ninh Kiều, Cần Thơ",VN
609,ChIJ7ZpQT7uJoDERQsg0eTfwlAQ,Tạp Hóa 28,Cửa hàng bách hóa,,"XPWX+W2R Tạp Hóa 28, Nguyễn Việt Dũng, Lê Bình, Cái Răng, Cần Thơ","Lê Bình, Cái Răng","XPWX+W2R, Nguyễn Việt Dũng",Cần Thơ,,"Cái Răng, Cần Thơ",VN
610,ChIJKSlpRa6JoDER-RSHafDTZPM,Cửa Hàng Tạp Hóa Trúc,Cửa hàng bách hóa,0365 547 883,"Cửa Hàng Tạp Hóa Trúc, 154 ĐT923, An Bình, Ninh Kiều, Cần Thơ 902340","An Bình, Ninh Kiều",154 ĐT923,Cần Thơ,902340.0,"Ninh Kiều, Cần Thơ",VN
611,ChIJ_yPpHaGJoDERcK23-CJzo-M,Cửa Hàng Tạp Hóa Trung Hiếu,Cửa hàng bách hóa,0292 3915 840,"Cửa Hàng Tạp Hóa Trung Hiếu, 41 ĐT923, An Bình, Ninh Kiều, Cần Thơ","An Bình, Ninh Kiều",41 ĐT923,Cần Thơ,,"Ninh Kiều, Cần Thơ",VN
612,ChIJd4_n76CJoDER-ss9PV02yUQ,Tạp Hóa Thành Đạt,Cửa hàng bách hóa,0706 665 661,"XPVP+WV9 Tạp Hóa Thành Đạt, Lộ Vòng Cung, An Bình, Ninh Kiều, Cần Thơ","An Bình, Ninh Kiều","XPVP+WV9, Lộ Vòng Cung",Cần Thơ,,"Ninh Kiều, Cần Thơ",VN
613,ChIJk-XnLb2JoDERKICVvldc-ks,Tạp Hóa Thảo My,Cửa hàng bách hóa,,"Tạp Hóa Thảo My, Lê Bình, Cái Răng, Cần Thơ","Lê Bình, Cái Răng",,Cần Thơ,,"Cái Răng, Cần Thơ",VN
614,ChIJn3Un1bGJoDERqcCN-NWXGYw,Tiệm Tạp Hóa Thiện Minh,Cửa hàng bách hóa,0902 505 992,"Tiệm Tạp Hóa Thiện Minh, 86/4, Khu Vực Yên Thuận, Cái Răng, Cần Thơ","Lê Bình, Cái Răng","86/4, Khu Vực Yên Thuận",Cần Thơ,,"Cái Răng, Cần Thơ",VN
615,ChIJ06KkUbuJoDERu19KL94kuS0,Tạp Hóa Trúc Nhiên,Cửa hàng bách hóa,,"Tạp Hóa Trúc Nhiên, Lê Bình, Cái Răng, Cần Thơ","Lê Bình, Cái Răng",,Cần Thơ,,"Cái Răng, Cần Thơ",VN
616,ChIJTyt9PrGJoDERNggDeni5OVc,Cửa Hàng Tạp Hóa Tâm Nga,Cửa hàng bách hóa,0292 3912 827,"Cửa Hàng Tạp Hóa Tâm Nga, 53/3 Hàm Nghi, Lê Bình, Cái Răng, Cần Thơ","Lê Bình, Cái Răng",53/3 Hàm Nghi,Cần Thơ,,"Cái Răng, Cần Thơ",VN
620,ChIJE-uHHLGJoDERg5gMemoMMjU,Cửa Hàng Tạp Hóa Zu Zu,Cửa hàng bách hóa,0942 163 861,"Cửa Hàng Tạp Hóa Zu Zu, 1 Đường 3-2, Hưng Lợi, Ninh Kiều, Cần Thơ","Hưng Lợi, Ninh Kiều",1 Đường 3-2,Cần Thơ,,"Ninh Kiều, Cần Thơ",VN
621,ChIJw8mpaV6JoDERc1lwuN95xl4,Tạp Hóa Minh Hồng,Cửa hàng tạp hóa,0292 3847 673,"Tạp Hóa Minh Hồng, 3 Lê Thái Tổ, Lê Bình, Cái Răng, Cần Thơ","Lê Bình, Cái Răng",3 Lê Thái Tổ,Cần Thơ,,"Cái Răng, Cần Thơ",VN
622,ChIJU1xrhaCJoDERH45K2bb-6JQ,Cửa Hàng Tạp Hóa Lâm Hùng,Cửa hàng bách hóa,0292 3913 745,"Cửa Hàng Tạp Hóa Lâm Hùng, 27 ĐT923, An Bình, Ninh Kiều, Cần Thơ","An Bình, Ninh Kiều",27 ĐT923,Cần Thơ,,"Ninh Kiều, Cần Thơ",VN
623,ChIJsWgeLEuJoDERIMhcDSr2h7I,TẠP HOÁ 1A,Cửa hàng tạp phẩm,,"TẠP HOÁ 1A, 3/2, Cần Thơ","An Bình, Cần Thơ",3/2,Cần Thơ,,Cần Thơ,VN
626,ChIJWXqCTLOJoDERXy5AqbHhOoo,Tạp Hoá Vân Anh,Cửa hàng bách hóa,0292 3913 620,"Tạp Hoá Vân Anh, 3 Đ. Trần Vĩnh Kiết, An Bình, Ninh Kiều, Cần Thơ","An Bình, Ninh Kiều",3 Đ. Trần Vĩnh Kiết,Cần Thơ,,"Ninh Kiều, Cần Thơ",VN
633,ChIJ85xzlUqIoDERZvJJR_Gt5MI,Cửa Hàng Tạp Hóa Thới Nhơn,Cửa hàng bách hóa,0292 3838 164,"Cửa Hàng Tạp Hóa Thới Nhơn, 36 Đ. 3 Tháng 2, Hưng Lợi, Ninh Kiều, Cần Thơ","Hưng Lợi, Ninh Kiều",36 Đ. 3 Tháng 2,Cần Thơ,,"Ninh Kiều, Cần Thơ",VN
635,ChIJ4Z7kP7GJoDERz0EN_8o8Rtw,Tiệm Tạp Hóa Kim Tuyến,Cửa hàng bách hóa,0292 3915 483,"Tiệm Tạp Hóa Kim Tuyến, 50/3 Đinh Tiên Hoàng, Lê Bình, Cái Răng, Cần Thơ","Lê Bình, Cái Răng",50/3 Đinh Tiên Hoàng,Cần Thơ,,"Cái Răng, Cần Thơ",VN
637,ChIJv0lUJbGJoDERZgyQ6PTk8WU,Cửa Hàng Tạp Hóa Mỹ Phụng,Cửa hàng bách hóa,0292 3846 634,"Cửa Hàng Tạp Hóa Mỹ Phụng, 18 Ngô Quyền, Lê Bình, Cái Răng, Cần Thơ","Lê Bình, Cái Răng",18 Ngô Quyền,Cần Thơ,,"Cái Răng, Cần Thơ",VN
639,ChIJQSRbCEyJoDER0NrM9-zUc2U,Tạp Hóa Trang,Cửa hàng tạp phẩm,,"Tạp Hóa Trang, 564c Duy Tân, Lê Bình, Cái Răng, Cần Thơ","Lê Bình, Cái Răng",564c Duy Tân,Cần Thơ,,"Cái Răng, Cần Thơ",VN
642,ChIJeyfSIbGJoDER3T_fvvAT8jE,Cửa Hàng Tạp Hóa Nguyễn Kim Huệ,Cửa hàng bách hóa,0855 820 120,"Cửa Hàng Tạp Hóa Nguyễn Kim Huệ, 4 Lê Thái Tổ, Lê Bình, Cái Răng, Cần Thơ","Lê Bình, Cái Răng",4 Lê Thái Tổ,Cần Thơ,,"Cái Răng, Cần Thơ",VN
643,ChIJ61vwwkqIoDERiJMY_TghfV0,Tiệm Tạp Hóa Lộc,Cửa hàng bách hóa,7103600257,"Tiệm Tạp Hóa Lộc, 36H Đ. 3 Tháng 2, Hưng Lợi, Ninh Kiều, Cần Thơ","Hưng Lợi, Ninh Kiều",36H Đ. 3 Tháng 2,Cần Thơ,,"Ninh Kiều, Cần Thơ",VN
652,ChIJCen300qIoDERh5HEtwu_6aM,Tạp Hóa Lê Linh,Cửa hàng bách hóa,0939 463 733,"Tạp Hóa Lê Linh, 20 Đ. 3 Tháng 2, Hưng Lợi, Ninh Kiều, Cần Thơ","Hưng Lợi, Ninh Kiều",20 Đ. 3 Tháng 2,Cần Thơ,,"Ninh Kiều, Cần Thơ",VN
657,ChIJ14oytcqJoDERxItTR3IxzYM,Cửa Hàng Tạp Hóa Ngọc Diễm,Cửa hàng bách hóa,0967 311 481,"Cửa Hàng Tạp Hóa Ngọc Diễm, 557 Đ. 30 Tháng 4, Hưng Lợi, Ninh Kiều, Cần Thơ","Hưng Lợi, Ninh Kiều",557 Đ. 30 Tháng 4,Cần Thơ,,"Ninh Kiều, Cần Thơ",VN
663,ChIJPaqXVVCIoDER5Jch9aAzDr0,Tiệm Tạp Hóa Phúc Nguyên,Cửa hàng bách hóa,0973 897 224,"Tiệm Tạp Hóa Phúc Nguyên, 297 Đ.Xuân Thủy, An Bình, Ninh Kiều, Cần Thơ","An Bình, Ninh Kiều",297 Đ.Xuân Thủy,Cần Thơ,,"Ninh Kiều, Cần Thơ",VN
664,ChIJ-0gu-7CJoDERjh-ilCVTN0g,Cửa Hàng Tạp Hóa Hồng Lan,Cửa hàng bách hóa,,"Cửa Hàng Tạp Hóa Hồng Lan, 147 QL1A, Lê Bình, Cái Răng, Cần Thơ","Lê Bình, Cái Răng",147 QL1A,Cần Thơ,,"Cái Răng, Cần Thơ",VN
665,ChIJESPvbLWJoDERxtRXkPX66nA,Tạp Hóa Bảo Khang,Cửa hàng bách hóa,,"Tạp Hóa Bảo Khang, Hưng Lợi, Ninh Kiều, Cần Thơ","Hưng Lợi, Ninh Kiều",,Cần Thơ,,"Ninh Kiều, Cần Thơ",VN
666,ChIJcyzrlLeJoDERTx8QOjpJfbo,Cửa Hàng Tạp Hóa Như Quỳnh,Cửa hàng bách hóa,0292 3847 822,"Cửa Hàng Tạp Hóa Như Quỳnh, 44/6, Đường Hậu Thạnh Mỹ, Quận Cái Răng, Lê Bình, Cái Răng, Cần Thơ","Lê Bình, Cái Răng","44/6, Đường Hậu Thạnh Mỹ, Quận Cái Răng",Cần Thơ,,"Cái Răng, Cần Thơ",VN
667,ChIJdekQhrCJoDERmlwM6fu-yW8,Cửa Hàng Tạp Hóa Thu Lâm,Cửa hàng bách hóa,0292 3847 262,"Cửa Hàng Tạp Hóa Thu Lâm, 462, Đường Nguyễn Trãi, Quận Cái Răng, TP Cần Thơ, Lê Bình, Cái Răng, Cần Thơ","Lê Bình, Cái Răng","462, Đường Nguyễn Trãi, Quận Cái Răng, TP Cần Thơ",Cần Thơ,,"Cái Răng, Cần Thơ",VN
669,ChIJG9MbZ7WJoDER424mV1CSGwk,Tạp Hóa Diễm My,Cửa hàng bách hóa,,"Tạp Hóa Diễm My, Hưng Lợi, Ninh Kiều, Cần Thơ","Hưng Lợi, Ninh Kiều",,Cần Thơ,,"Ninh Kiều, Cần Thơ",VN
672,ChIJOQn6DbKJoDERIaqn742ZapU,Tuan Kiet Grocery Store,Cửa hàng bách hóa,0292 6280 290,"Tuan Kiet Grocery Store, 226C, Lo Vong Cung Street, Ninh Kieu District, Can Tho City, An Bình, Ninh Kiều, Cần Thơ","An Bình, Ninh Kiều","226C, Lo Vong Cung Street, Ninh Kieu District, Can Tho City",Cần Thơ,,"Ninh Kiều, Cần Thơ",VN
674,ChIJszUzDGeJoDERXk09AQd6cnQ,Tạp Hoá Ngọc Lễ,Cửa hàng tạp hóa,,"Tạp Hoá Ngọc Lễ, 94 Đ. Nguyễn Hiền, Khu dân cư 91B, Ninh Kiều, Cần Thơ","Khu dân cư 91B, Ninh Kiều",94 Đ. Nguyễn Hiền,Cần Thơ,,"Ninh Kiều, Cần Thơ",VN
675,ChIJVy5OaMmJoDERRJgHNwbj8ok,Tạp Hoá Minh Nghĩa,Cửa hàng tạp phẩm,,"2QG5+4RP Tạp Hoá Minh Nghĩa, Hưng Lợi, Ninh Kiều, Cần Thơ","Hưng Lợi, Ninh Kiều",2QG5+4RP,Cần Thơ,,"Ninh Kiều, Cần Thơ",VN
676,ChIJD4JejTaIoDEREtE02C2PUI0,Cửa Hàng Tạp Hóa Thới Hưng,Cửa hàng bách hóa,0292 3838 464,"Cửa Hàng Tạp Hóa Thới Hưng, 36G, Ba Tháng Hai, Phường Hưng Lợi, Quận Ninh Kiều, Thành Phố Cần Thơ, Hưng Lợi, Ninh Kiều, Cần Thơ","Hưng Lợi, Ninh Kiều","36G, Ba Tháng Hai, Phường Hưng Lợi, Quận Ninh Kiều, Thành Phố Cần Thơ",Cần Thơ,,"Ninh Kiều, Cần Thơ",VN
677,ChIJG_qVJL6JoDERvhaPVDclwVI,Tạp Hoá Thuận Thảo,Cửa hàng,,"Tạp Hoá Thuận Thảo, 28 Đ. 3 Tháng 2, Hưng Lợi, Ninh Kiều, Cần Thơ","Hưng Lợi, Ninh Kiều",28 Đ. 3 Tháng 2,Cần Thơ,,"Ninh Kiều, Cần Thơ",VN
678,ChIJf1hBPj-JoDEROI1nd5YAp5E,Tạp hóa tuấn phát,Cửa hàng tạp phẩm,,"Tạp hóa tuấn phát, 25/8 Đ. Nguyễn Văn Linh, Hưng Lợi, Ninh Kiều, Cần Thơ","Hưng Lợi, Ninh Kiều",25/8 Đ. Nguyễn Văn Linh,Cần Thơ,,"Ninh Kiều, Cần Thơ",VN
679,ChIJF4d2XTaIoDERrO2fhzExSiU,Tạp Hóa Tuấn Minh,Cửa hàng bách hóa,0988 882 344,"Tạp Hóa Tuấn Minh, 132/7 Đ. 3 Tháng 2, Hưng Lợi, Ninh Kiều, Cần Thơ","Hưng Lợi, Ninh Kiều",132/7 Đ. 3 Tháng 2,Cần Thơ,,"Ninh Kiều, Cần Thơ",VN
681,ChIJrURYsH6JoDERt3vCYHfexVY,Tạp hóa 321,Cửa hàng tạp phẩm,,"Tạp hóa 321, 321 Đ. Nguyễn Văn Linh, Hưng Lợi, Ninh Kiều, Cần Thơ","Hưng Lợi, Ninh Kiều",321 Đ. Nguyễn Văn Linh,Cần Thơ,,"Ninh Kiều, Cần Thơ",VN
683,ChIJW3uoWDiIoDERvxDqGLBeYXI,Tạp Hóa Như,Cửa hàng bách hóa,0946 160 057,"Tạp Hóa Như, 44B Đ. Nguyễn Văn Linh, Hưng Lợi, Ninh Kiều, Cần Thơ","Hưng Lợi, Ninh Kiều",44B Đ. Nguyễn Văn Linh,Cần Thơ,,"Ninh Kiều, Cần Thơ",VN
684,ChIJ7dehZjiIoDERGxwBqv--31c,Tiệm Tạp Hóa Út Thư,Cửa hàng bách hóa,7103888452,"Tiệm Tạp Hóa Út Thư, 363 QL91B, Hưng Lợi, Ninh Kiều, Cần Thơ","Hưng Lợi, Ninh Kiều",363 QL91B,Cần Thơ,,"Ninh Kiều, Cần Thơ",VN
685,ChIJ_xWXQjiIoDERVfcccmDm_EY,Tạp Hóa Hoàng Phúc,Cửa hàng bách hóa,0292 3838 307,"Tạp Hóa Hoàng Phúc, 1N4, Nguyễn Văn Linh, Phường Hưng Lợi, Quận Ninh Kiều, Thành Phố Cần Thơ, Hưng Lợi, Ninh Kiều, Cần Thơ","Hưng Lợi, Ninh Kiều","1N4, Nguyễn Văn Linh, Phường Hưng Lợi, Quận Ninh Kiều, Thành Phố Cần Thơ",Cần Thơ,,"Ninh Kiều, Cần Thơ",VN
686,ChIJ_3wfbdiJoDERHXb7DIWlQsw,Tạp Hoá 3 Chị Em,Cửa hàng tạp hóa,0585 809 605,"Tạp Hoá 3 Chị Em, 58e Hẻm 58 Đ. 3 Tháng 2, Hưng Lợi, Ninh Kiều, Cần Thơ 92000","Hưng Lợi, Ninh Kiều",58e Hẻm 58 Đ. 3 Tháng 2,Cần Thơ,92000.0,"Ninh Kiều, Cần Thơ",VN
687,ChIJpyA4iuuJoDERnmL_87dZ3qk,Của hàng tạp hóa mỹ yên,Cửa hàng tạp phẩm,,"2Q96+QC4 Của hàng tạp hóa mỹ yên, Hưng Lợi, Ninh Kiều, Cần Thơ","Hưng Lợi, Ninh Kiều",2Q96+QC4,Cần Thơ,,"Ninh Kiều, Cần Thơ",VN
688,ChIJU1nz0ySJoDER9ALGmESmqAA,Tiệm tạp hoá Hậu,Cửa hàng,,"Tiệm tạp hoá Hậu, 68/20 Hẻm 132 Đ. 3 Tháng 2, Hưng Lợi, Ninh Kiều, Cần Thơ","Hưng Lợi, Ninh Kiều",68/20 Hẻm 132 Đ. 3 Tháng 2,Cần Thơ,,"Ninh Kiều, Cần Thơ",VN
692,ChIJ-UN8ZjiIoDERXxP6ZEXSu54,Cửa Hàng Tạp Hóa Ngọc Xuyến,Cửa hàng tạp hóa,0907 829 430,"Cửa Hàng Tạp Hóa Ngọc Xuyến, Hưng Lợi, Ninh Kiều, Cần Thơ","Hưng Lợi, Ninh Kiều",,Cần Thơ,,"Ninh Kiều, Cần Thơ",VN
695,ChIJpUi14DmIoDERFTYmQDh5Osw,Tạp Hóa Bảo Ngọc,Cửa hàng bách hóa,,"2QF7+55F Tạp Hóa Bảo Ngọc, Hẻm 28, Hưng Lợi, Ninh Kiều, Cần Thơ","Hưng Lợi, Ninh Kiều","2QF7+55F, Hẻm 28",Cần Thơ,,"Ninh Kiều, Cần Thơ",VN
698,ChIJA9sa4DmIoDER4rw2cjrrR8g,Cửa Hàng Tạp Hóa Trang,Cửa hàng tạp hóa,0918 033 133,"Cửa Hàng Tạp Hóa Trang, 17 QL91B, Hưng Lợi, Ninh Kiều, Cần Thơ","Hưng Lợi, Ninh Kiều",17 QL91B,Cần Thơ,,"Ninh Kiều, Cần Thơ",VN
700,ChIJ07Mw2jmIoDER-AKeqcdwVzU,Cửa Hàng Tạp Hóa Phúc Thiện,Cửa hàng bách hóa,0848 099 844,"Cửa Hàng Tạp Hóa Phúc Thiện, 17B Đ. Nguyễn Văn Linh, Hưng Lợi, Ninh Kiều, Cần Thơ","Hưng Lợi, Ninh Kiều",17B Đ. Nguyễn Văn Linh,Cần Thơ,,"Ninh Kiều, Cần Thơ",VN
702,ChIJNWYuLjeIoDEREL6GtZnMN-8,Cửa Hàng Tạp Hóa Thu Ngân,Cửa hàng bách hóa,0763 893 999,"Cửa Hàng Tạp Hóa Thu Ngân, 102/2H Đ. 3 Tháng 2, Hưng Lợi, Ninh Kiều, Cần Thơ","Hưng Lợi, Ninh Kiều",102/2H Đ. 3 Tháng 2,Cần Thơ,,"Ninh Kiều, Cần Thơ",VN
704,ChIJDQxtfTCIoDERlD1Vw0Mugh4,Cửa Hàng Tạp Hóa Minh Nghi,Cửa hàng bách hóa,0976 540 567,"Cửa Hàng Tạp Hóa Minh Nghi, 36/14, Ba Tháng Hai, Phường Hưng Lợi, Quận Ninh Kiều, Thành Phố Cần Thơ, Hưng Lợi, Ninh Kiều, Cần Thơ","Hưng Lợi, Ninh Kiều","36/14, Ba Tháng Hai, Phường Hưng Lợi, Quận Ninh Kiều, Thành Phố Cần Thơ",Cần Thơ,,"Ninh Kiều, Cần Thơ",VN
705,ChIJtScLYDeIoDERKuLKA-TM4D4,Tiệm Tạp Hóa Bích Liên,Cửa hàng bách hóa,0292 2339 001,"Tiệm Tạp Hóa Bích Liên, 11C Quốc Lộ 91B, Quận Ninh Kiều, Tp Cần Thơ","Hưng Lợi, Ninh Kiều","11C Quốc Lộ 91B, Quận Ninh Kiều, Tp Cần Thơ",Cần Thơ,,"Ninh Kiều, Cần Thơ",VN
707,ChIJxSF3uDCIoDERQr_ivtK6T_0,Cửa Hàng Tạp Hóa Xuân Hảo,Cửa hàng bách hóa,,"Cửa Hàng Tạp Hóa Xuân Hảo, 200 QL91B, Hưng Lợi, Ninh Kiều, Cần Thơ","Hưng Lợi, Ninh Kiều",200 QL91B,Cần Thơ,,"Ninh Kiều, Cần Thơ",VN
708,ChIJdx5OzDSIoDER_-8NiGJgwdI,Tạp Hóa Thu,Cửa hàng bách hóa,,"2Q66+RXV Tạp Hóa Thu, Hẻm 17, Hưng Lợi, Ninh Kiều, Cần Thơ","Hưng Lợi, Ninh Kiều","2Q66+RXV, Hẻm 17",Cần Thơ,,"Ninh Kiều, Cần Thơ",VN
709,ChIJb14ITTeIoDERkYOUVrWPcGc,Cửa Hàng Tạp Hóa Tám Bưởi,Cửa hàng bách hóa,0817 383 448,"Cửa Hàng Tạp Hóa Tám Bưởi, 10 QL91B, Hưng Lợi, Ninh Kiều, Cần Thơ","Hưng Lợi, Ninh Kiều",10 QL91B,Cần Thơ,,"Ninh Kiều, Cần Thơ",VN
711,ChIJOVykcjqIoDERQRerH_N069U,Quầy Tạp Hóa Ngọc Mai,Cửa hàng bách hóa,0292 3832 279,"Quầy Tạp Hóa Ngọc Mai, 223, Đường 3/2, Quận Ninh Kiều, Tp Cần Thơ, Hưng Lợi, Ninh Kiều, Cần Thơ","Hưng Lợi, Ninh Kiều","223, Đường 3/2, Quận Ninh Kiều, Tp Cần Thơ",Cần Thơ,,"Ninh Kiều, Cần Thơ",VN
713,ChIJ_Q3o3kOIoDER9OAvDfeqb3Q,Cửa Hàng Tạp Hóa Toàn Quý,Cửa hàng bách hóa,,"2QJ3+42F Cửa Hàng Tạp Hóa Toàn Quý, Đ. Nguyễn Văn Linh, Phường An Khánh, Ninh Kiều, Cần Thơ","Phường An Khánh, Ninh Kiều","2QJ3+42F, Đ. Nguyễn Văn Linh",Cần Thơ,,"Ninh Kiều, Cần Thơ",VN
714,ChIJlXL4QzmIoDERvyOf2yIOKS0,Tạp Hóa Cô Út,Cửa hàng bách hóa,,"Tạp Hóa Cô Út, An Khánh, Ninh Kiều, Cần Thơ","An Khánh, Ninh Kiều",,Cần Thơ,,"Ninh Kiều, Cần Thơ",VN
715,ChIJD4JejTaIoDERnheKf1Vq8Ws,Tạp Hóa Ái Vân,Cửa hàng bách hóa,0917 281 707,"Tạp Hóa Ái Vân, 12/13A, Ba Tháng Hai, Phường Hưng Lợi, Quận Ninh Kiều, Thành Phố Cần Thơ, Hưng Lợi, Ninh Kiều, Cần Thơ","Hưng Lợi, Ninh Kiều","12/13A, Ba Tháng Hai, Phường Hưng Lợi, Quận Ninh Kiều, Thành Phố Cần Thơ",Cần Thơ,,"Ninh Kiều, Cần Thơ",VN
716,ChIJ6Ym5n-WJoDERcGvkCoXut-g,Tạp hóa nhà trọ sinh viên,Cửa hàng,,"Tạp hóa nhà trọ sinh viên, 8 Đ. Nguyễn Văn Linh, Hưng Lợi, Ninh Kiều, Cần Thơ","Hưng Lợi, Ninh Kiều",8 Đ. Nguyễn Văn Linh,Cần Thơ,,"Ninh Kiều, Cần Thơ",VN
718,ChIJAebmszCIoDER24dF_X3Voq8,Tạp Hóa Trung,Cửa hàng bách hóa,,"Tạp Hóa Trung, Hưng Lợi, Ninh Kiều, Cần Thơ","Hưng Lợi, Ninh Kiều",,Cần Thơ,,"Ninh Kiều, Cần Thơ",VN
720,ChIJI-sVef6JoDER_q0Oiknqk6I,Tạp hóa Cô Linh,Cửa hàng tạp phẩm,,"Tạp hóa Cô Linh, 51F6A, Đ. 3 Tháng 2, Xuân Khánh, Ninh Kiều, Cần Thơ","Xuân Khánh, Ninh Kiều","51F6A, Đ. 3 Tháng 2",Cần Thơ,,"Ninh Kiều, Cần Thơ",VN
721,ChIJDazuVDOIoDERvlhKVPIhQMw,Cửa Hàng Tạp Hóa Mỹ Chi,Cửa hàng bách hóa,0292 3738 690,"Cửa Hàng Tạp Hóa Mỹ Chi, 40 Đ. Trần Hoàng Na, Hưng Lợi, Ninh Kiều, Cần Thơ 900000","Hưng Lợi, Ninh Kiều",40 Đ. Trần Hoàng Na,Cần Thơ,900000.0,"Ninh Kiều, Cần Thơ",VN
726,ChIJQciHazmIoDERfDci6ynvNHw,Tạp Hóa Gia Hân,Cửa hàng bách hóa,,"Tạp Hóa Gia Hân, An Khánh, Ninh Kiều, Cần Thơ","An Khánh, Ninh Kiều",,Cần Thơ,,"Ninh Kiều, Cần Thơ",VN
728,ChIJ9TE8zcyJoDERpUhlzER4f4Y,Tạp hoá Rau Củ Quả,Cửa hàng tạp phẩm,,"Tạp hoá Rau Củ Quả, 12/28d Hẻm 132 Đ. 3 Tháng 2, An Binh, Ninh Kiều, Cần Thơ","An Binh, Ninh Kiều",12/28d Hẻm 132 Đ. 3 Tháng 2,Cần Thơ,,"Ninh Kiều, Cần Thơ",VN
729,ChIJ76W74jKIoDERcL56JpPFPZU,Tạp Hóa Dũng Huệ,Cửa hàng,,"Tạp Hóa Dũng Huệ, Hẻm 216 Tầm Vu, Hưng Lợi, Ninh Kiều, Cần Thơ","Hưng Lợi, Ninh Kiều",Hẻm 216 Tầm Vu,Cần Thơ,,"Ninh Kiều, Cần Thơ",VN
730,ChIJbZPfV0KIoDERaz8-AYfvDb4,Tiệm Tạp Hóa Cô Thảo,Cửa hàng bách hóa,0905 180 624,"Tiệm Tạp Hóa Cô Thảo, 23B2 KDC Thới Nhựt, Quận Ninh Kiều, Tp Cần Thơ, Phường An Khánh, Ninh Kiều, Cần Thơ","Phường An Khánh, Ninh Kiều","23B2 KDC Thới Nhựt, Quận Ninh Kiều, Tp Cần Thơ",Cần Thơ,,"Ninh Kiều, Cần Thơ",VN
731,ChIJXUnvxD6IoDERgm5zkENBats,Tạp Hóa Cô Liễu,Cửa hàng bách hóa,0783 909 676,"Tạp Hóa Cô Liễu, 256 Đường 3 Tháng 2, Hưng Lợi, Ninh Kiều, Cần Thơ","Hưng Lợi, Ninh Kiều",256 Đường 3 Tháng 2,Cần Thơ,,"Ninh Kiều, Cần Thơ",VN
732,ChIJD_EfzUOIoDER-jZQSG8MgqM,Tiệm Tạp Hóa Cô Diệu,Cửa hàng bách hóa,0292 3895 016,"Tiệm Tạp Hóa Cô Diệu, An Khánh, Ninh Kiều, Cần Thơ","An Khánh, Ninh Kiều",,Cần Thơ,,"Ninh Kiều, Cần Thơ",VN
733,ChIJ-fVp0GmJoDERjFNBBtefY48,Giá Tốt - TẠP HÓA 99,Cửa hàng tạp hóa,,"Giá Tốt - TẠP HÓA 99, 12H/1 Khu Vực 3, P, Ninh Kiều, Cần Thơ","P, Ninh Kiều",12H/1 Khu Vực 3,Cần Thơ,,"Ninh Kiều, Cần Thơ",VN
735,ChIJrVZ0XDGIoDER94R5QjRq_Ec,Cửa Hàng Tạp Hóa Shop 180,Cửa hàng tạp hóa,0939 203 962,"Cửa Hàng Tạp Hóa Shop 180, 180/5 Hẻm 558, Hưng Lợi, Ninh Kiều, Cần Thơ","Hưng Lợi, Ninh Kiều",180/5 Hẻm 558,Cần Thơ,,"Ninh Kiều, Cần Thơ",VN
736,ChIJm6jL9y-IoDERfqa7KD9-I_8,Cửa Hàng Tạp Hóa Ngọc Trinh,Cửa hàng,0292 3769 035,"Cửa Hàng Tạp Hóa Ngọc Trinh, 290 Đ. 30 Tháng 4, Hưng Lợi, Ninh Kiều, Cần Thơ","Hưng Lợi, Ninh Kiều",290 Đ. 30 Tháng 4,Cần Thơ,,"Ninh Kiều, Cần Thơ",VN
740,ChIJr6vaoNuJoDERjNHYWGtGZPg,Tạp hóa + vật tư cây cảnh Cẩm Tiên,Cửa hàng tổng hợp,,"2Q96+MJW Tạp hóa + vật tư cây cảnh Cẩm Tiên, Khu dân cư 148, Ninh Kiều, Cần Thơ","Khu dân cư 148, Ninh Kiều",2Q96+MJW,Cần Thơ,,"Ninh Kiều, Cần Thơ",VN
742,ChIJve3H_TSIoDERR_cg_bB5nWU,Tạp Hoá Phượng,Cửa hàng bách hóa,0292 3828 159,"Tạp Hoá Phượng, 108/31, Đường 30/04, Quận Ninh Kiều, Tp Cần Thơ, Hưng Lợi, Ninh Kiều, Cần Thơ","Hưng Lợi, Ninh Kiều","108/31, Đường 30/04, Quận Ninh Kiều, Tp Cần Thơ",Cần Thơ,,"Ninh Kiều, Cần Thơ",VN
749,ChIJNac3UDOIoDERFO4M9PkD2Ns,Cửa Hàng Tạp Hoá Mỹ Tiên,Cửa hàng bách hóa,0292 3838 151,"Cửa Hàng Tạp Hoá Mỹ Tiên, 151/39D, Trần Hoàng Na, Quận Ninh Kiều, Đ. Trần Hoàng Na, Hưng Lợi, Ninh Kiều, Cần Thơ","Hưng Lợi, Ninh Kiều","151/39D, Trần Hoàng Na, Quận Ninh Kiều, Đ. Trần Hoàng Na",Cần Thơ,,"Ninh Kiều, Cần Thơ",VN
751,ChIJi9exs5uJoDERfS3oYiPd1ZE,Tạp Hóa Sĩ Đạt,Cửa hàng tạp phẩm,,"Tạp Hóa Sĩ Đạt, 248 Tầm Vu, Hưng Lợi, Ninh Kiều, Cần Thơ","Hưng Lợi, Ninh Kiều",248 Tầm Vu,Cần Thơ,,"Ninh Kiều, Cần Thơ",VN
754,ChIJDwO5MzOIoDERm4_OevOS7iE,Tạp Hóa 50/86,Cửa hàng bách hóa,,"2Q68+QHF Tạp Hóa 50/86, Hẻm 50, Hưng Lợi, Ninh Kiều, Cần Thơ","Hưng Lợi, Ninh Kiều","2Q68+QHF, Hẻm 50",Cần Thơ,,"Ninh Kiều, Cần Thơ",VN
758,ChIJ08PopTSIoDER4E5loYShaZU,Cửa Hàng Tạp Hóa 32,Cửa hàng bách hóa,,"Cửa Hàng Tạp Hóa 32, 151 Đ. Trần Hoàng Na, Hưng Lợi, Ninh Kiều, Cần Thơ","Hưng Lợi, Ninh Kiều",151 Đ. Trần Hoàng Na,Cần Thơ,,"Ninh Kiều, Cần Thơ",VN
762,ChIJkei_bcyJoDEREer86kOSbGE,Tạp Hóa Cô Hai,Cửa hàng,,"Tạp Hóa Cô Hai, 89 Tầm Vu, Hưng Lợi, Ninh Kiều, Cần Thơ","Hưng Lợi, Ninh Kiều",89 Tầm Vu,Cần Thơ,,"Ninh Kiều, Cần Thơ",VN
763,ChIJD0d-ATKIoDER6vXtAWQIB0I,Tạp Hóa Minh Nguyệt,Cửa hàng bách hóa,,"2Q89+MXW Tạp Hóa Minh Nguyệt, Hẻm 278 Tầm Vu, Hưng Lợi, Ninh Kiều, Cần Thơ","Hưng Lợi, Ninh Kiều","2Q89+MXW, Hẻm 278 Tầm Vu",Cần Thơ,,"Ninh Kiều, Cần Thơ",VN
764,ChIJXbcTV8yJoDERKn_pKGvfCa4,Tạp Hóa Thành Phục,Cửa hàng bách hóa,,"Tạp Hóa Thành Phục, 93 Tầm Vu, Hưng Lợi, Ninh Kiều, Cần Thơ","Hưng Lợi, Ninh Kiều",93 Tầm Vu,Cần Thơ,,"Ninh Kiều, Cần Thơ",VN
766,ChIJX8qiOzCIoDERGZbMYBNpcqo,Cửa Hàng Tạp Hóa Thu Thảo,Cửa hàng bách hóa,,"Cửa Hàng Tạp Hóa Thu Thảo, 280 Đ. 30 Tháng 4, Hưng Lợi, Ninh Kiều, Cần Thơ","Hưng Lợi, Ninh Kiều",280 Đ. 30 Tháng 4,Cần Thơ,,"Ninh Kiều, Cần Thơ",VN
771,ChIJxyTycC2IoDERKR6T9npiEw8,Cửa Hàng Tạp Hóa Xuân Niềm,Cửa hàng bách hóa,,"Cửa Hàng Tạp Hóa Xuân Niềm, 242 Tầm Vu, Hưng Lợi, Ninh Kiều, Cần Thơ","Hưng Lợi, Ninh Kiều",242 Tầm Vu,Cần Thơ,,"Ninh Kiều, Cần Thơ",VN
778,ChIJD3VQ7S2IoDERGiYWgssPN1A,Tiệm Tạp Hóa Cẩm Tiên,Cửa hàng bách hóa,,"Tiệm Tạp Hóa Cẩm Tiên, Hưng Lợi, Ninh Kiều, Cần Thơ","Hưng Lợi, Ninh Kiều",,Cần Thơ,,"Ninh Kiều, Cần Thơ",VN
786,ChIJ6_3nAs2JoDERvn3kFyHnLh0,Cửa Hàng Tạp Hóa Diễm Phúc,Cửa hàng bách hóa,0292 3739 785,"Cửa Hàng Tạp Hóa Diễm Phúc, 150 Tầm Vu, Hưng Lợi, Ninh Kiều, Cần Thơ","Hưng Lợi, Ninh Kiều",150 Tầm Vu,Cần Thơ,,"Ninh Kiều, Cần Thơ",VN
789,ChIJ3X20ei2IoDERTNZJw7kaQCM,Cửa Hàng Tạp Hóa Trinh Lan,Cửa hàng bách hóa,0292 3739 614,"Cửa Hàng Tạp Hóa Trinh Lan, 151 Tầm Vu, Hưng Lợi, Ninh Kiều, Cần Thơ","Hưng Lợi, Ninh Kiều",151 Tầm Vu,Cần Thơ,,"Ninh Kiều, Cần Thơ",VN
805,ChIJSTKElqqJoDERSGF8eKJTGgE,Tạp hoá Phương,Cửa hàng tạp hóa,,"Tạp hoá Phương, 49g Nguyễn Văn Trỗi, Xuân Khánh, Ninh Kiều, Cần Thơ","Xuân Khánh, Ninh Kiều",49g Nguyễn Văn Trỗi,Cần Thơ,,"Ninh Kiều, Cần Thơ",VN
808,ChIJn_NIXiGIoDERerwFIph83AE,Cửa Hàng Tạp Hóa 25,Cửa hàng tạp hóa,0292 3832 284,"Cửa Hàng Tạp Hóa 25, 25 Đ. Mậu Thân, Xuân Khánh, Ninh Kiều, Cần Thơ","Xuân Khánh, Ninh Kiều",25 Đ. Mậu Thân,Cần Thơ,,"Ninh Kiều, Cần Thơ",VN
814,ChIJO4uyOyGIoDERAw2jgwrmhHw,Cửa Hàng Tạp Hóa Cô Sáu,Cửa hàng bách hóa,7103824786,"Cửa Hàng Tạp Hóa Cô Sáu, 1 Đ. 30 Tháng 4, Xuân Khánh, Ninh Kiều, Cần Thơ","Xuân Khánh, Ninh Kiều",1 Đ. 30 Tháng 4,Cần Thơ,,"Ninh Kiều, Cần Thơ",VN
821,ChIJxbG_wuaJoDERynxK9v4C6F0,Tạp hoá Quyển,Cửa hàng tạp hóa,,"Tạp hoá Quyển, 124/11a Đ. 3 Tháng 2, Xuân Khánh, Ninh Kiều, Cần Thơ","Xuân Khánh, Ninh Kiều",124/11a Đ. 3 Tháng 2,Cần Thơ,,"Ninh Kiều, Cần Thơ",VN
826,ChIJj-mQXSWIoDERf3wPiRn7XnE,Tạp Hóa Hoàng Huy,Cửa hàng bách hóa,,"Tạp Hóa Hoàng Huy, 338 Đ. 30 Tháng 4, Xuân Khánh, Ninh Kiều, Cần Thơ","Xuân Khánh, Ninh Kiều",338 Đ. 30 Tháng 4,Cần Thơ,,"Ninh Kiều, Cần Thơ",VN
834,ChIJo4PBriaIoDERRo5DtYVLB48,Cửa Hàng Tạp Hóa 09,Cửa hàng bách hóa,0292 3751 598,"Cửa Hàng Tạp Hóa 09, 202 Đ. 30 Tháng 4, Xuân Khánh, Ninh Kiều, Cần Thơ","Xuân Khánh, Ninh Kiều",202 Đ. 30 Tháng 4,Cần Thơ,,"Ninh Kiều, Cần Thơ",VN
837,ChIJOYxXUjqIoDERRzf3XJd-oXM,Cửa Hàng Tạp Hóa Ngọc Phượng,Cửa hàng bách hóa,0947 445 560,"Cửa Hàng Tạp Hóa Ngọc Phượng, 49D Đ. 3 Tháng 2, Xuân Khánh, Ninh Kiều, Cần Thơ","Xuân Khánh, Ninh Kiều",49D Đ. 3 Tháng 2,Cần Thơ,,"Ninh Kiều, Cần Thơ",VN
838,ChIJczvGqyaIoDER3Qi_U3MlFrM,Cửa Hàng Tạp Hóa Nguyễn Mạnh Hùng,Cửa hàng bách hóa,0818 074 938,"Cửa Hàng Tạp Hóa Nguyễn Mạnh Hùng, Lô 33, Đường Ba Mươi Tháng Tư, Phường Xuân Khánh, Quận Ninh Kiều, Xuân Khánh, Ninh Kiều, Cần Thơ","Xuân Khánh, Ninh Kiều","Lô 33, Đường Ba Mươi Tháng Tư, Phường Xuân Khánh, Quận Ninh Kiều",Cần Thơ,,"Ninh Kiều, Cần Thơ",VN
845,ChIJ23uIpiaIoDERbZ8_OUb6j2k,Cửa Hàng Tạp Hóa Mỹ Hiền,Cửa hàng bách hóa,0292 3829 743,"Cửa Hàng Tạp Hóa Mỹ Hiền, 10 Đ. 30 Tháng 4, Xuân Khánh, Ninh Kiều, Cần Thơ","Xuân Khánh, Ninh Kiều",10 Đ. 30 Tháng 4,Cần Thơ,,"Ninh Kiều, Cần Thơ",VN
847,ChIJTbgNufKJoDERWAhlPPAq-xo,Tạp hoá Hải Ly,Cửa hàng tạp phẩm,,"Tạp hoá Hải Ly, 124/11B Đ. 3 Tháng 2, Xuân Khánh, Ninh Kiều, Cần Thơ","Xuân Khánh, Ninh Kiều",124/11B Đ. 3 Tháng 2,Cần Thơ,,"Ninh Kiều, Cần Thơ",VN
853,ChIJiXRB7yaIoDER4c1rXwLh61Q,Cửa Hàng Tạp Hóa Cô Ba,Cửa hàng bách hóa,7103752342,"Cửa Hàng Tạp Hóa Cô Ba, 239 Nguyễn Thị Minh Khai, Xuân Khánh, Ninh Kiều, Cần Thơ","Xuân Khánh, Ninh Kiều",239 Nguyễn Thị Minh Khai,Cần Thơ,,"Ninh Kiều, Cần Thơ",VN
861,ChIJgdJNzCOIoDERzmqDiY2j-XI,Café - Tạp Hóa Ngọc Diễm,Cửa hàng,,"Café - Tạp Hóa Ngọc Diễm, Xuân Khánh, Ninh Kiều, Cần Thơ","Xuân Khánh, Ninh Kiều",,Cần Thơ,,"Ninh Kiều, Cần Thơ",VN
867,ChIJbekLF6BioDEROjxNjCznljI,Tạp Hoá Hùng,Cửa hàng bách hóa,,"Tạp Hoá Hùng, An Cư, Ninh Kiều, Cần Thơ","An Cư, Ninh Kiều",,Cần Thơ,,"Ninh Kiều, Cần Thơ",VN
884,ChIJl58LvJ5ioDERtOOY5ZrN8VY,Cửa Hàng Tạp Hóa Hằng Nga,Cửa hàng bách hóa,0777 956 970,"Cửa Hàng Tạp Hóa Hằng Nga, Lô 4D, Chợ Tân An, Đường Hai Bà Trưng, Tân An, Ninh Kiều, Cần Thơ","Tân An, Ninh Kiều","Lô 4D, Chợ Tân An, Đường Hai Bà Trưng",Cần Thơ,,"Ninh Kiều, Cần Thơ",VN
886,ChIJ28Bm-Z1ioDERsq1PI75Zx5s,Cửa Hàng Tạp Hóa Hà Thị Phương Yến,Cửa hàng bách hóa,0761 309 716,"Cửa Hàng Tạp Hóa Hà Thị Phương Yến, Lô 83, Chợ An Lạc, Đường Nguyễn Thị Minh Khai, Phường An Lạc, Quận Ninh Kiều, An Lạc, Ninh Kiều, Cần Thơ","An Lạc, Ninh Kiều","Lô 83, Chợ An Lạc, Đường Nguyễn Thị Minh Khai, Phường An Lạc, Quận Ninh Kiều",Cần Thơ,,"Ninh Kiều, Cần Thơ",VN
889,ChIJnQFTFCKIoDERzpohXG_pUPA,Tạp Hóa Kiều Trinh,Cửa hàng bách hóa,,"2QJF+PX3 Tạp Hóa Kiều Trinh, Đ. Mậu Thân, An Phú, Ninh Kiều, Cần Thơ","An Phú, Ninh Kiều","2QJF+PX3, Đ. Mậu Thân",Cần Thơ,,"Ninh Kiều, Cần Thơ",VN
896,ChIJwbp-FieIoDER8YSCi2hgWC8,Cửa Hàng Tạp Hóa Minh Phương,Cửa hàng tạp hóa,0292 3751 156,"Cửa Hàng Tạp Hóa Minh Phương, 193 Nguyễn Thị Minh Khai, An Lạc, Ninh Kiều, Cần Thơ","An Lạc, Ninh Kiều",193 Nguyễn Thị Minh Khai,Cần Thơ,,"Ninh Kiều, Cần Thơ",VN
897,ChIJZ5TfOSSIoDERwqhF8ERMgZU,Cửa Hàng Tạp Hóa Thu Tâm,Cửa hàng tạp hóa,0292 2220 243,"Cửa Hàng Tạp Hóa Thu Tâm, 1 Đ. 30 Tháng 4, Xuân Khánh, Ninh Kiều, Cần Thơ","Xuân Khánh, Ninh Kiều",1 Đ. 30 Tháng 4,Cần Thơ,,"Ninh Kiều, Cần Thơ",VN
905,ChIJh5Nkr59ioDERXhq64Ny_lMw,Cửa Hàng Tạp Hoá Chí Thảo,Cửa hàng bách hóa,0939 607 099,"Cửa Hàng Tạp Hoá Chí Thảo, 70 Đ. Đồng Khởi, Tân An, Ninh Kiều, Cần Thơ","Tân An, Ninh Kiều",70 Đ. Đồng Khởi,Cần Thơ,,"Ninh Kiều, Cần Thơ",VN
908,ChIJjUlfg5BioDER3NTJ1SuGbkk,Tạp Hóa Út Ngoan,Cửa hàng bách hóa,,"2QFV+RM3 Tạp Hóa Út Ngoan, Đường A13, Hưng Phú, Cái Răng, Cần Thơ","Hưng Phú, Cái Răng","2QFV+RM3, Đường A13",Cần Thơ,,"Cái Răng, Cần Thơ",VN
910,ChIJ35AQRcdjoDERjCYG4RbAokc,Tạp hoá và đồ chơi trẻ em,Cửa hàng đồ chơi,0939 365 379,"Tạp hoá và đồ chơi trẻ em, 6 Nguyễn Thái Học, Tân An, Ninh Kiều, Cần Thơ","Tân An, Ninh Kiều",6 Nguyễn Thái Học,Cần Thơ,,"Ninh Kiều, Cần Thơ",VN
911,ChIJ72Vk6J5ioDERsEbuFaDl4XM,Ty Grocery Store,Cửa hàng,0292 3811 744,"Ty Grocery Store, 20 Đ. Cao Bá Quát, Tân An, Ninh Kiều, Cần Thơ","Tân An, Ninh Kiều",20 Đ. Cao Bá Quát,Cần Thơ,,"Ninh Kiều, Cần Thơ",VN
