,place_id,name,main_category,phone,address,address_ward,address_street,address_city,address_postal_code,address_state,address_country_code
0,ChIJwwv91gaJoDERMuxX5iF9wkQ,Máy nước nóng Cần Thơ,Cửa hàng vật liệu xây dựng,+84 914 833 738,"Máy nước nóng Cần Thơ, 169 Đ. 3 Tháng 2, Hưng Lợi, Ninh Kiều, Cần Thơ, Việt Nam","Hưng Lợi, Ninh Kiều",169 Đ. 3 Tháng 2,Cần Thơ,,"Ninh Kiều, Cần Thơ",VN
2,ChIJhcJb00WJoDER_zISkOw-GBY,Mua Nhanh VLXD - Rita Võ Cần Thơ,Cửa hàng vật liệu xây dựng,+84 292 2212 343,"Mua Nhanh VLXD - Rita Võ Cần Thơ, 103 Đ. 3 Tháng 2, Hưng Lợi, Ninh Kiều, Cần Thơ 900000, Việt Nam","Hưng Lợi, Ninh Kiều",103 Đ. 3 Tháng 2,Cần Thơ,900000.0,"Ninh Kiều, Cần Thơ",VN
3,ChIJ46L26jWIoDERstboJ_LEaxo,Công ty trách nhiệm hữu hạn Phước Nguyên,Nhà cung cấp vật liệu xây dựng,+84 292 3839 106,"Công ty trách nhiệm hữu hạn Phước Nguyên, 94A Đ. 3 Tháng 2, Hưng Lợi, Ninh Kiều, Cần Thơ, Việt Nam","Hưng Lợi, Ninh Kiều",94A Đ. 3 Tháng 2,Cần Thơ,,"Ninh Kiều, Cần Thơ",VN
4,ChIJTyLlrtl9oDERcaL_gIZeSO8,GIÀN GIÁO THÁI MỸ,Nhà cung cấp vật liệu xây dựng,+84 907 889 600,"GIÀN GIÁO THÁI MỸ, 30/9 Đ. Nguyễn Văn Cừ, Cái Khế, Ninh Kiều, Cần Thơ, Việt Nam","Cái Khế, Ninh Kiều",30/9 Đ. Nguyễn Văn Cừ,Cần Thơ,,"Ninh Kiều, Cần Thơ",VN
5,ChIJf9LCO6qJoDERcNZjYiF773g,Cửa hàng Saigondoor,Cửa hàng vật liệu xây dựng,+84 849 600 600,"Cửa hàng Saigondoor, 94C Đ. 3 Tháng 2, Hưng Lợi, Ninh Kiều, Cần Thơ 900000, Việt Nam","Hưng Lợi, Ninh Kiều",94C Đ. 3 Tháng 2,Cần Thơ,900000.0,"Ninh Kiều, Cần Thơ",VN
6,ChIJrfG282uJoDERSAmR01FJvVw,Vật liệu xây dưng Chí Thanh,Cửa hàng vật liệu xây dựng,+84 987 871 966,"Vật liệu xây dưng Chí Thanh, 58 e Đ. 3 Tháng 2, Hưng Lợi, Ninh Kiều, Cần Thơ, Việt Nam","Hưng Lợi, Ninh Kiều",58 e Đ. 3 Tháng 2,Cần Thơ,,"Ninh Kiều, Cần Thơ",VN
18,ChIJa5Ahn--JoDERLyJtt_NQyLw,DNTN Diễm Ngân - Trụ sở chính,Cửa hàng vật liệu xây dựng,+84 988 160 567,"DNTN Diễm Ngân - Trụ sở chính, 170 Đ. 3 Tháng 2, Hưng Lợi, Ninh Kiều, Cần Thơ, Việt Nam","Hưng Lợi, Ninh Kiều",170 Đ. 3 Tháng 2,Cần Thơ,,"Ninh Kiều, Cần Thơ",VN
24,ChIJEZua-UaJoDERX8q9SgAh8I8,Vật liệu chống thấm Cần Thơ - Công ty TNHH Tín Minh Khoa,Cửa hàng vật liệu xây dựng,+84 916 869 091,"Vật liệu chống thấm Cần Thơ - Công ty TNHH Tín Minh Khoa, 52 Đ. Trần Hoàng Na, Hưng Lợi, Ninh Kiều, Cần Thơ 70000, Việt Nam","Hưng Lợi, Ninh Kiều",52 Đ. Trần Hoàng Na,Cần Thơ,70000.0,"Ninh Kiều, Cần Thơ",VN
39,ChIJh1aT_V-JoDERYUqfvIWPUNU,VẬT LIỆU XÂY DỰNG CẦN THƠ - VẬT LIỆU XANH,Cửa hàng vật liệu xây dựng,+84 941 405 259,"VẬT LIỆU XÂY DỰNG CẦN THƠ - VẬT LIỆU XANH, 278/13A Tầm Vu, Hưng Lợi, Ninh Kiều, Cần Thơ 90000, Việt Nam","Hưng Lợi, Ninh Kiều",278/13A Tầm Vu,Cần Thơ,90000.0,"Ninh Kiều, Cần Thơ",VN
45,ChIJY8Wc4aKJoDERTGCjsynCx7Q,Showroom Triều Thuận Hưng NVC,Cửa hàng vật liệu xây dựng,,"Showroom Triều Thuận Hưng NVC, 161 Đ. Nguyễn Văn Cừ, Phường An Khánh, Ninh Kiều, Cần Thơ, Việt Nam","Phường An Khánh, Ninh Kiều",161 Đ. Nguyễn Văn Cừ,Cần Thơ,,"Ninh Kiều, Cần Thơ",VN
57,ChIJS8hY9CeJoDERrBM6fT6N9bU,Công ty CP CN Vật Liệu Toàn Cầu,Nhà cung cấp vật liệu xây dựng,+84 909 898 150,"Công ty CP CN Vật Liệu Toàn Cầu, 5 Đ. Nguyễn Đệ, An Hoà, Bình Thủy, Cần Thơ, Việt Nam","An Hoà, Bình Thủy",5 Đ. Nguyễn Đệ,Cần Thơ,,"Bình Thủy, Cần Thơ",VN
64,ChIJ0_tEoJOJoDERoYBolclGvN4,Cửa Hàng Vật Liệu Ốp Tường,Cửa hàng nội thất,+84 901 030 442,"Cửa Hàng Vật Liệu Ốp Tường, 96 Đường Trần Hoàng Na, Khu dân cư 91B, Ninh Kiều, Cần Thơ, Việt Nam","Khu dân cư 91B, Ninh Kiều",96 Đường Trần Hoàng Na,Cần Thơ,,"Ninh Kiều, Cần Thơ",VN
67,ChIJD4vwrM2JoDERBbBPjC95GPg,VLXD Huệ Lộc Gạch Men Đẹp Uy Tín Cần Thơ - Vị Thanh - Sóc Trăng,Cửa hàng vật liệu xây dựng,+84 939 359 521,"VLXD Huệ Lộc Gạch Men Đẹp Uy Tín Cần Thơ - Vị Thanh - Sóc Trăng, 47 Đ. 3 Tháng 2, Hưng Lợi, Ninh Kiều, Cần Thơ, Việt Nam","Hưng Lợi, Ninh Kiều",47 Đ. 3 Tháng 2,Cần Thơ,,"Ninh Kiều, Cần Thơ",VN
71,ChIJjR0GTayJoDERxsI-MiKRqjs,Công ty Ốp lát Trang trí Ngân Điền,Cửa hàng vật liệu xây dựng,+84 942 520 529,"Công ty Ốp lát Trang trí Ngân Điền, Canh 172 Đ. Nguyễn Văn Cừ, An Bình, Ninh Kiều, Cần Thơ, Việt Nam","An Bình, Ninh Kiều",Canh 172 Đ. Nguyễn Văn Cừ,Cần Thơ,,"Ninh Kiều, Cần Thơ",VN
72,ChIJRW6QV3aIoDERDye78TPTFzU,DNTN VLXD MINH LONG 2,Cửa hàng vật liệu xây dựng,+84 292 3881 951,"DNTN VLXD MINH LONG 2, 56 Đường Trần Bạch Đằng, KV.An Bình ,P, Ninh Kiều, Cần Thơ, Việt Nam","KV.An Bình ,P, Ninh Kiều",56 Đường Trần Bạch Đằng,Cần Thơ,,"Ninh Kiều, Cần Thơ",VN
86,ChIJ_6LJthOIoDER0lnScSvIDIU,CÔNG TY TNHH TMDV PHÁT TRIỂN ĐÔNG ĐÔNG,Cửa hàng vật liệu xây dựng,+84 907 310 073,"CÔNG TY TNHH TMDV PHÁT TRIỂN ĐÔNG ĐÔNG, 138H Đ. Nguyễn Văn Cừ, P, Ninh Kiều, Cần Thơ 900000, Việt Nam","P, Ninh Kiều",138H Đ. Nguyễn Văn Cừ,Cần Thơ,900000.0,"Ninh Kiều, Cần Thơ",VN
88,ChIJL95w1rCJoDERBKsOxh1IP84,Vlxd phước thành,Cửa hàng vật liệu xây dựng,+84 909 101 204,"Vlxd phước thành, Ấp mỹ phước, xã mỹ khánh, Mỹ Khánh, Phong Điền, Cần Thơ 70000, Việt Nam","Mỹ Khánh, Phong Điền","Ấp mỹ phước, xã mỹ khánh",Cần Thơ,70000.0,"Phong Điền, Cần Thơ",VN
90,ChIJ965l8YthoDERJ46BobbFtcg,Vật Liệu Xây Dựng Hưng Thịnh.,Cửa hàng vật liệu xây dựng,+84 939 882 599,"Vật Liệu Xây Dựng Hưng Thịnh., Ấp Tân Thuận, Phong Điền, Cần Thơ, Việt Nam","Ấp Tân Thuận, Phong Điền",,Cần Thơ,,"Phong Điền, Cần Thơ",VN
91,ChIJeetvou-IoDERa_kMXjiaWFw,Cửa Hàng Vlxd Sơn Huệ,Cửa hàng vật liệu xây dựng,+84 292 3845 154,"2PGC+C9G Cửa Hàng Vlxd Sơn Huệ, Đ. Bùi Hữu Nghĩa, Long Tuyền, Bình Thủy, Cần Thơ, Việt Nam","Long Tuyền, Bình Thủy","2PGC+C9G, Đ. Bùi Hữu Nghĩa",Cần Thơ,,"Bình Thủy, Cần Thơ",VN
92,ChIJwaBL65qIoDERkMEHmd-XYJw,Cửa Hàng Vlxd Hai Là,Cửa hàng vật liệu xây dựng,+84 292 3845 246,"Cửa Hàng Vlxd Hai Là, 28 Đ. Bùi Hữu Nghĩa, Long Tuyền, Bình Thủy, Cần Thơ, Việt Nam","Long Tuyền, Bình Thủy",28 Đ. Bùi Hữu Nghĩa,Cần Thơ,,"Bình Thủy, Cần Thơ",VN
93,ChIJFWU2kUKIoDERAWct5CQcxKQ,Cửa Hàng Vlxd & Trang Trí Nội Thất Thành Đạt,Cửa hàng vật liệu xây dựng,+84 292 3898 459,"Cửa Hàng Vlxd & Trang Trí Nội Thất Thành Đạt, 337 Đ. Nguyễn Văn Linh, Phường An Khánh, Ninh Kiều, Cần Thơ, Việt Nam","Phường An Khánh, Ninh Kiều",337 Đ. Nguyễn Văn Linh,Cần Thơ,,"Ninh Kiều, Cần Thơ",VN
96,ChIJgdEnwmeIoDERUz8VL0AVoYs,Cửa Hàng Vlxd Hùng Bảo,Cửa hàng vật liệu xây dựng,+84 292 6292 945,"Cửa Hàng Vlxd Hùng Bảo, 285/91B, Khu Vực Bình Phó B, Bình Thủy, Cần Thơ, Việt Nam","Khu Vực Bình Phó B, Bình Thủy",285/91B,Cần Thơ,,"Bình Thủy, Cần Thơ",VN
103,ChIJmdG-1kOIoDERHwBOqaWbhKY,Cửa Hàng Ván Ép Bá Đạt,Cửa hàng vật liệu xây dựng,,"Cửa Hàng Ván Ép Bá Đạt, 329 Nguyễn Văn Cừ Nối Dài, Phường An Khánh, Ninh Kiều, Cần Thơ, Việt Nam","Phường An Khánh, Ninh Kiều",329 Nguyễn Văn Cừ Nối Dài,Cần Thơ,,"Ninh Kiều, Cần Thơ",VN
105,ChIJl1-Hd5GJoDER5RQLB8DqfN8,CHVLXD BẢY ĐÚNG,Cửa hàng vật liệu xây dựng,+84 292 6504 546,"2QF2+JQH CHVLXD BẢY ĐÚNG, Đ. Trần Vĩnh Kiết, Phường An Khánh, Ninh Kiều, Cần Thơ, Việt Nam","Phường An Khánh, Ninh Kiều","2QF2+JQH, Đ. Trần Vĩnh Kiết",Cần Thơ,,"Ninh Kiều, Cần Thơ",VN
108,ChIJB5QJVbaOoDERCPkXnEY3sP0,Cửa Hàng Vlxd Trọng Phủ,Cửa hàng vật liệu xây dựng,+84 292 2464 123,"Cửa Hàng Vlxd Trọng Phủ, 41 ĐT923, Thị trấn Phong Điền, Phong Điền, Cần Thơ, Việt Nam","Thị trấn Phong Điền, Phong Điền",41 ĐT923,Cần Thơ,,"Phong Điền, Cần Thơ",VN
109,ChIJk7XqDa-JoDER9GK-pCuzp-8,Kho hàng Cty TNHH Phước Nguyên,Cửa hàng vật liệu xây dựng,+84 292 3740 043,"Kho hàng Cty TNHH Phước Nguyên, 1 Lộ Vòng Cung, An Bình, Ninh Kiều, Cần Thơ, Việt Nam","An Bình, Ninh Kiều",1 Lộ Vòng Cung,Cần Thơ,,"Ninh Kiều, Cần Thơ",VN
113,ChIJD4JejTaIoDER2cCfgaX9eCQ,Doanh Nghiệp Tư Nhân Gia Tôn,Cửa hàng vật liệu xây dựng,+84 292 3738 539,"Doanh Nghiệp Tư Nhân Gia Tôn, 32, Ba Tháng Hai, Phường Hưng Lợi, Quận Ninh Kiều, Thành Phố Cần Thơ, Hưng Lợi, Ninh Kiều, Cần Thơ, Việt Nam","Hưng Lợi, Ninh Kiều","32, Ba Tháng Hai, Phường Hưng Lợi, Quận Ninh Kiều, Thành Phố Cần Thơ",Cần Thơ,,"Ninh Kiều, Cần Thơ",VN
115,ChIJP_tduTeIoDERZm3plRsRAfo,Tiệm Chuyên Cân- Chỉnh Heo Béc Dầu Huy,Cửa hàng vật liệu xây dựng,+84 913 180 808,"Tiệm Chuyên Cân- Chỉnh Heo Béc Dầu Huy, 64 Ngô Sĩ Liên, Hưng Lợi, Ninh Kiều, Cần Thơ, Việt Nam","Hưng Lợi, Ninh Kiều",64 Ngô Sĩ Liên,Cần Thơ,,"Ninh Kiều, Cần Thơ",VN
116,ChIJY8m1wjaIoDERt0XlAkgkbBM,VLXD & TTNT Trường Giang,Cửa hàng vật liệu xây dựng,+84 292 3782 723,"VLXD & TTNT Trường Giang, 199c Đ. 3 Tháng 2, Hưng Lợi, Ninh Kiều, Cần Thơ, Việt Nam","Hưng Lợi, Ninh Kiều",199c Đ. 3 Tháng 2,Cần Thơ,,"Ninh Kiều, Cần Thơ",VN
121,ChIJq6qqBw-IoDERFApE-TEcwho,Công Ty TNHH VLXD Sang Giàu,Cửa hàng vật liệu xây dựng,+84 292 3895 456,"Công Ty TNHH VLXD Sang Giàu, 140, Đường Nguyễn Văn Cừ, Phường An Hoà, Quận Ninh Kiều, Tp Cần Thơ, An Hoà, Ninh Kiều, Cần Thơ, Việt Nam","An Hoà, Ninh Kiều","140, Đường Nguyễn Văn Cừ, Phường An Hoà, Quận Ninh Kiều, Tp Cần Thơ",Cần Thơ,,"Ninh Kiều, Cần Thơ",VN
122,ChIJoeb_JZ9ioDERDKNxB_x2Ghw,Cửa Hàng Vật Tư Công Nghiệp Hải Lâm,Cửa hàng vật liệu xây dựng,+84 292 3826 033,"Cửa Hàng Vật Tư Công Nghiệp Hải Lâm, Đường Ngô Đức Kế, Tân An, Ninh Kiều, Cần Thơ, Việt Nam","Tân An, Ninh Kiều",Đường Ngô Đức Kế,Cần Thơ,,"Ninh Kiều, Cần Thơ",VN
123,ChIJXUZnjEJioDERytq_T3qk4Ao,Công Ty Tnhh Kinh Doanh Vlxd Phan Thanh,Cửa hàng vật liệu xây dựng,+84 292 3837 877,"Công Ty Tnhh Kinh Doanh Vlxd Phan Thanh, 14 Quang Trung, Hưng Phú, Cái Răng, Cần Thơ, Việt Nam","Hưng Phú, Cái Răng",14 Quang Trung,Cần Thơ,,"Cái Răng, Cần Thơ",VN
138,ChIJ1bqrzxOIoDER2RL97HvAYHk,Doanh Nghiệp Tư Nhân Quốc Toàn,Cửa hàng vật liệu xây dựng,+84 292 3890 374,"Doanh Nghiệp Tư Nhân Quốc Toàn, Cạnh 134/6, Nguyễn Văn Cừ, Phường An Khánh, Quận Ninh Kiều, Phường An Khánh, Ninh Kiều, Cần Thơ, Việt Nam","Phường An Khánh, Ninh Kiều","Cạnh 134/6, Nguyễn Văn Cừ, Phường An Khánh, Quận Ninh Kiều",Cần Thơ,,"Ninh Kiều, Cần Thơ",VN
142,ChIJBb36w_yJoDERH8JdwB-_P1c,VLXD Dương Vương,Nhà cung cấp vật liệu xây dựng,+84 292 2224 579,"VLXD Dương Vương, 311e Đ. Hoàng Quốc Việt, An Bình, Ninh Kiều, Cần Thơ, Việt Nam","An Bình, Ninh Kiều",311e Đ. Hoàng Quốc Việt,Cần Thơ,,"Ninh Kiều, Cần Thơ",VN
143,ChIJSdzkdEWJoDERTVLmgpkZsiM,Công Ty TNHH VLXD Minh Trường,Cửa hàng vật liệu xây dựng,+84 918 366 611,"Công Ty TNHH VLXD Minh Trường, 104 Đường B30, Khu dân cư 91B, Ninh Kiều, Cần Thơ, Việt Nam","Khu dân cư 91B, Ninh Kiều",104 Đường B30,Cần Thơ,,"Ninh Kiều, Cần Thơ",VN
144,ChIJDZ_rxESIoDERU2fNd3bvFDg,Công Ty TNHH Tú Gia Việt,Cửa hàng vật liệu xây dựng,+84 292 3765 388,"2PGX+Q5C Công Ty TNHH Tú Gia Việt, Nguyễn Văn Cừ Nối Dài, Phường An Bình, Quận Ninh Kiều, Thành Phố Cần Thơ, An Bình, Ninh Kiều, Cần Thơ, Việt Nam","An Bình, Ninh Kiều","2PGX+Q5C, Nguyễn Văn Cừ Nối Dài, Phường An Bình, Quận Ninh Kiều, Thành Phố Cần Thơ",Cần Thơ,,"Ninh Kiều, Cần Thơ",VN
146,ChIJrTuZjEeJoDER9c0ZSd0neAU,Nhà Máy Tôn Thép Và Trang Trí Nội Thất Thái Lâm,Cửa hàng vật liệu xây dựng,+84 907 422 246,"Nhà Máy Tôn Thép Và Trang Trí Nội Thất Thái Lâm, 745 ( Cầu Trường Tiền, Nguyễn Văn Cừ Nối Dài, Mỹ Khánh, Phong Điền, Cần Thơ, Việt Nam","Mỹ Khánh, Phong Điền","745 ( Cầu Trường Tiền, Nguyễn Văn Cừ Nối Dài",Cần Thơ,,"Phong Điền, Cần Thơ",VN
147,ChIJYeWa_66JoDERsso9DNO0Ah0,Đại Lý Trần Thạch Cao Thanh Phương,Cửa hàng vật liệu xây dựng,+84 906 771 245,"Đại Lý Trần Thạch Cao Thanh Phương, 171/4, Đường Lộ Vòng Cung, Quận Ninh Kiều, An Bình, Ninh Kiều, Cần Thơ, Việt Nam","An Bình, Ninh Kiều","171/4, Đường Lộ Vòng Cung, Quận Ninh Kiều",Cần Thơ,,"Ninh Kiều, Cần Thơ",VN
149,ChIJ_TIp2RKJoDERiiO1a3Sh7iI,Kho cát đá Cty TNHH Phước Nguyên,Cửa hàng vật liệu xây dựng,+84 292 6290 996,"Kho cát đá Cty TNHH Phước Nguyên, 54/1 Lộ Vòng Cung, An Bình, Ninh Kiều, Cần Thơ, Việt Nam","An Bình, Ninh Kiều",54/1 Lộ Vòng Cung,Cần Thơ,,"Ninh Kiều, Cần Thơ",VN
150,ChIJTeMKgKSJoDERClDafD2oUYk,Tiệm Cửa Sắt Phúc Lợi,Cửa hàng vật liệu xây dựng,+84 907 119 660,"Tiệm Cửa Sắt Phúc Lợi, 15/1, Đường Võ Tánh, Quận Cái Răng, Lê Bình, Cái Răng, Cần Thơ, Việt Nam","Lê Bình, Cái Răng","15/1, Đường Võ Tánh, Quận Cái Răng",Cần Thơ,,"Cái Răng, Cần Thơ",VN
152,ChIJnbIzd-KJoDERZgFyoOzVWqM,Cửa Hàng Vật Liệu Xây Dựng Dao Quỳnh,Cửa hàng vật liệu xây dựng,+84 907 609 152,"Cửa Hàng Vật Liệu Xây Dựng Dao Quỳnh, Phú Thứ, Cái Răng, Cần Thơ, Việt Nam","Phú Thứ, Cái Răng",,Cần Thơ,,"Cái Răng, Cần Thơ",VN
157,ChIJ_xWXQjiIoDER1wVNMrGvd_U,Cửa Hàng Sắt Thép Hưng Thịnh Phát,Cửa hàng vật liệu xây dựng,+84 292 3735 228,"Cửa Hàng Sắt Thép Hưng Thịnh Phát, 331, Nguyễn Văn Linh, Phường Hưng Lợi, Quận Ninh Kiều, Thành Phố Cần Thơ, Hưng Lợi, Ninh Kiều, Cần Thơ, Việt Nam","Hưng Lợi, Ninh Kiều","331, Nguyễn Văn Linh, Phường Hưng Lợi, Quận Ninh Kiều, Thành Phố Cần Thơ",Cần Thơ,,"Ninh Kiều, Cần Thơ",VN
159,ChIJWfS6ejWIoDER4a7tXH8QOJ8,DNTN Đại Sơn,Cửa hàng vật liệu xây dựng,+84 932 868 289,"2Q75+JJG DNTN Đại Sơn, Đ. 3 Tháng 2, Hưng Lợi, Ninh Kiều, Cần Thơ, Việt Nam","Hưng Lợi, Ninh Kiều","2Q75+JJG, Đ. 3 Tháng 2",Cần Thơ,,"Ninh Kiều, Cần Thơ",VN
167,ChIJMfZwR_mHoDER1RCoOC2Ysyc,Showroom Phát Đạt,Cửa hàng vật liệu xây dựng,+84 909 066 595,"Showroom Phát Đạt, 9/9 Cồn Khương, Cái Khế, Ninh Kiều, Cần Thơ, Việt Nam","Cái Khế, Ninh Kiều",9/9 Cồn Khương,Cần Thơ,,"Ninh Kiều, Cần Thơ",VN
168,ChIJ03YeGASIoDERj-NTKSSqYzE,Cửa Hàng Vật Liệu Xây Dựng Và Trang Trí Nội Thất Cao Phúc,Cửa hàng vật liệu xây dựng,+84 292 3896 465,"Cửa Hàng Vật Liệu Xây Dựng Và Trang Trí Nội Thất Cao Phúc, 36/48, Trần Việt Châu, Quận Ninh Kiều, TP Cần Thơ, Việt Nam","Thới Bình, Ninh Kiều","36/48, Trần Việt Châu, Quận Ninh Kiều, TP Cần Thơ",Cần Thơ,,"Ninh Kiều, Cần Thơ",VN
169,ChIJueA4xwaIoDERfvMMGqHzuWA,Cửa Hàng Vật Liệu Xây Dựng Phong Hạnh,Cửa hàng vật liệu xây dựng,+84 292 3897 325,"Cửa Hàng Vật Liệu Xây Dựng Phong Hạnh, 104, Đường Đ. Cách Mạng Tháng 8, Cái Khế, Ninh Kiều, Cần Thơ, Việt Nam","Cái Khế, Ninh Kiều","104, Đường Đ. Cách Mạng Tháng 8",Cần Thơ,,"Ninh Kiều, Cần Thơ",VN
170,ChIJ_eLFH_6HoDERJPsDvI-qMlk,Dntn Vlxd Minh Nhiên,Cửa hàng vật liệu xây dựng,+84 292 3769 495,"Dntn Vlxd Minh Nhiên, 8 Cồn Khương, Cái Khế, Ninh Kiều, Cần Thơ, Việt Nam","Cái Khế, Ninh Kiều",8 Cồn Khương,Cần Thơ,,"Ninh Kiều, Cần Thơ",VN
171,ChIJq6qqBw-IoDERXyvmrtJ09rk,Cửa Hàng VLXD Ngọc Vinh,Cửa hàng vật liệu xây dựng,+84 292 3896 117,"Cửa Hàng VLXD Ngọc Vinh, 175, Đường Nguyễn Văn Cừ, Phường An Hoà, Quận Ninh Kiều, Tp Cần Thơ, An Hoà, Ninh Kiều, Cần Thơ, Việt Nam","An Hoà, Ninh Kiều","175, Đường Nguyễn Văn Cừ, Phường An Hoà, Quận Ninh Kiều, Tp Cần Thơ",Cần Thơ,,"Ninh Kiều, Cần Thơ",VN
172,ChIJVzeBpS-IoDER5W3gNLcm9vQ,Cửa Hàng Vật Liệu Xây Dựng Thanh Hương,Cửa hàng vật liệu xây dựng,+84 292 3840 915,"Cửa Hàng Vật Liệu Xây Dựng Thanh Hương, 251/48 Đ. Trần Ngọc Quế, Xuân Khánh, Ninh Kiều, Cần Thơ, Việt Nam","Xuân Khánh, Ninh Kiều",251/48 Đ. Trần Ngọc Quế,Cần Thơ,,"Ninh Kiều, Cần Thơ",VN
173,ChIJKcgGhTWIoDERRLYp4ngJJag,Cửa Hàng Vật Liệu Xây Dựng Đại Sơn,Cửa hàng vật liệu xây dựng,+84 292 6250 278,"Cửa Hàng Vật Liệu Xây Dựng Đại Sơn, 67A, Đường 3/2, Quận Ninh Kiều, Tp Cần Thơ, Hưng Lợi, Ninh Kiều, Cần Thơ, Việt Nam","Hưng Lợi, Ninh Kiều","67A, Đường 3/2, Quận Ninh Kiều, Tp Cần Thơ",Cần Thơ,,"Ninh Kiều, Cần Thơ",VN
174,ChIJ4ZH5U8eJoDERromrZ06Jj4o,Vật Liệu Xây Dựng Hai Tràm,Cửa hàng vật liệu xây dựng,,"XQW5+FH9 Vật Liệu Xây Dựng Hai Tràm, Cầu, Ấp Mỹ, Cái Răng, Cần Thơ, Việt Nam","Ấp Mỹ, Cái Răng","XQW5+FH9, Cầu",Cần Thơ,,"Cái Răng, Cần Thơ",VN
175,ChIJb3WUK0WIoDERHE9EqagU_L0,Cửa Hàng Vật Liệu Xây Dựng & Trang Trí Nội Thất Hùng Cẩm II,Cửa hàng vật liệu xây dựng,,"Cửa Hàng Vật Liệu Xây Dựng & Trang Trí Nội Thất Hùng Cẩm II, 28 Nguyễn Văn Cừ Nối Dài, An Bình, Ninh Kiều, Cần Thơ, Việt Nam","An Bình, Ninh Kiều",28 Nguyễn Văn Cừ Nối Dài,Cần Thơ,,"Ninh Kiều, Cần Thơ",VN
176,ChIJwZ_KDrOJoDERZkt16pKrnu0,Cửa Hàng Vật Liệu Xây Dựng Thanh Phát,Cửa hàng vật liệu xây dựng,+84 292 3847 847,"Cửa Hàng Vật Liệu Xây Dựng Thanh Phát, 83/2, Quốc Lộ 1A, Phường An Bình, Quận Ninh Kiều, An Bình, Ninh Kiều, Cần Thơ, Việt Nam","An Bình, Ninh Kiều","83/2, Quốc Lộ 1A, Phường An Bình, Quận Ninh Kiều",Cần Thơ,,"Ninh Kiều, Cần Thơ",VN
177,ChIJWTlXpj6JoDERhz4-LVoElKs,Vật Liệu Xây Dựng 7 Lành,Cửa hàng vật liệu xây dựng,,"XQP3+757 Vật Liệu Xây Dựng 7 Lành, Hàng Gòn, Thường Thạnh, Cái Răng, Cần Thơ, Việt Nam","Thường Thạnh, Cái Răng","XQP3+757, Hàng Gòn",Cần Thơ,,"Cái Răng, Cần Thơ",VN
178,ChIJB2LZ1COIoDERDV-fdbcq5u8,Cửa Hàng Vlxd Minh Long,Cửa hàng vật liệu xây dựng,+84 939 783 456,"Cửa Hàng Vlxd Minh Long, 108 Đ. Mậu Thân, Xuân Khánh, Ninh Kiều, Cần Thơ, Việt Nam","Xuân Khánh, Ninh Kiều",108 Đ. Mậu Thân,Cần Thơ,,"Ninh Kiều, Cần Thơ",VN
179,ChIJUUnD5kaIoDERmLmvUOo10RI,DNTN Vật liệu Xây Dựng Hồng Thắm,Cửa hàng vật liệu xây dựng,+84 977 448 038,"DNTN Vật liệu Xây Dựng Hồng Thắm, 120/91B, Quốc Lộ 91B, Quận Bình Thủy, Phường An Khánh, Ninh Kiều, Cần Thơ, Việt Nam","Phường An Khánh, Ninh Kiều","120/91B, Quốc Lộ 91B, Quận Bình Thủy",Cần Thơ,,"Ninh Kiều, Cần Thơ",VN
180,ChIJ6wl1vjqIoDERVHRmWK616MQ,DNTN Vật Liệu Xây Dựng Định Nhân,Cửa hàng vật liệu xây dựng,+84 292 3840 867,"DNTN Vật Liệu Xây Dựng Định Nhân, 164/7, Đường Đ. Trần Ngọc Quế, Xuân Khánh, Ninh Kiều, Cần Thơ, Việt Nam","Xuân Khánh, Ninh Kiều","164/7, Đường Đ. Trần Ngọc Quế",Cần Thơ,,"Ninh Kiều, Cần Thơ",VN
181,ChIJQa7bni2IoDERBLv96yP3tgo,Vlxd Thanh Trúc,Cửa hàng vật liệu xây dựng,,"Vlxd Thanh Trúc, 57-59 Tầm Vu, Hưng Lợi, Ninh Kiều, Cần Thơ, Việt Nam","Hưng Lợi, Ninh Kiều",57-59 Tầm Vu,Cần Thơ,,"Ninh Kiều, Cần Thơ",VN
182,ChIJ_Q8tViGGoDERF1Zc6VVhkSY,Công Ty TNHH Một Thành Viên Vật Liệu Xây Dựng Trung Tín,Cửa hàng vật liệu xây dựng,+84 939 786 665,"Công Ty TNHH Một Thành Viên Vật Liệu Xây Dựng Trung Tín, 232/11 Khu Vực Bình Dương, Long Hoà, Bình Thủy, Cần Thơ, Việt Nam","Long Hoà, Bình Thủy",232/11 Khu Vực Bình Dương,Cần Thơ,,"Bình Thủy, Cần Thơ",VN
183,ChIJxXbNC66JoDEREx4tg8kYFMg,Công Ty TNHH Vật Liệu Xây Dựng Thanh Giang,Cửa hàng vật liệu xây dựng,+84 911 633 187,"Công Ty TNHH Vật Liệu Xây Dựng Thanh Giang, 247L, Đường Hoàng Quốc Việt, Phường An Bình, Quận Ninh Kiều, An Bình, Ninh Kiều, Cần Thơ, Việt Nam","An Bình, Ninh Kiều","247L, Đường Hoàng Quốc Việt, Phường An Bình, Quận Ninh Kiều",Cần Thơ,,"Ninh Kiều, Cần Thơ",VN
191,ChIJK7vbXCeIoDEROMnRLpPingE,Cơ Sở Rang Xay Bột Tín,Cửa hàng vật liệu xây dựng,+84 292 3837 483,"Cơ Sở Rang Xay Bột Tín, Đường Nguyễn Thị Minh Khai, An Lạc, Ninh Kiều, Cần Thơ, Việt Nam","An Lạc, Ninh Kiều",Đường Nguyễn Thị Minh Khai,Cần Thơ,,"Ninh Kiều, Cần Thơ",VN
196,ChIJ_____5ZioDER09YnceVqaEo,Cơ Sở Cho Thuê Trang Thiết Bị Xây Dựng,Cửa hàng vật liệu xây dựng,+84 937 782 628,"Cơ Sở Cho Thuê Trang Thiết Bị Xây Dựng, 300A2, KV8, Phường Hưng Phú, Quận Cái Răng, Hưng Phú, Cái Răng, Cần Thơ, Việt Nam","Hưng Phú, Cái Răng","300A2, KV8, Phường Hưng Phú, Quận Cái Răng",Cần Thơ,,"Cái Răng, Cần Thơ",VN
201,ChIJodsoVLmJoDERl0kc1eUcx6o,Cửa Hàng Vật Liệu Xây Dựng Thanh Thủy,Cửa hàng vật liệu xây dựng,+84 292 3849 984,"Cửa Hàng Vật Liệu Xây Dựng Thanh Thủy, 195, Đường Trần Hưng Đạo, Quận Cái Răng, Lê Bình, Cái Răng, Cần Thơ, Việt Nam","Lê Bình, Cái Răng","195, Đường Trần Hưng Đạo, Quận Cái Răng",Cần Thơ,,"Cái Răng, Cần Thơ",VN
244,ChIJf51c-yCIoDER1GscTjwujxE,Cửa Hàng Y- Nha Khoa Nguyễn Vui,Cửa hàng dụng cụ,+84 292 3813 841,"Cửa Hàng Y- Nha Khoa Nguyễn Vui, 154 Nguyễn Trãi, An Hội, Ninh Kiều, Cần Thơ, Việt Nam","An Hội, Ninh Kiều",154 Nguyễn Trãi,Cần Thơ,,"Ninh Kiều, Cần Thơ",VN
247,ChIJnV1_IjuIoDERlIUaBG4mViQ,"Gia Lac Steel Co.,Ltd",Cửa hàng vật liệu xây dựng,+84 292 2483 766,"Gia Lac Steel Co.,Ltd, 88/2, Area No 1, 3/2 Street, Ninh Kieu District, Can Tho City, Xuân Khánh, Ninh Kiều, Cần Thơ, Việt Nam","Xuân Khánh, Ninh Kiều","88/2, Area No 1, 3/2 Street, Ninh Kieu District, Can Tho City",Cần Thơ,,"Ninh Kiều, Cần Thơ",VN
258,ChIJgQXPnqKJoDER5B2HU7lcHyQ,Vựa gạch MINH CHÍ,Cửa hàng vật liệu xây dựng,+84 913 705 988,"Vựa gạch MINH CHÍ, 127/8c7 Đ. Võ Văn Kiệt, An Hoà, Ninh Kiều, Cần Thơ, Việt Nam","An Hoà, Ninh Kiều",127/8c7 Đ. Võ Văn Kiệt,Cần Thơ,,"Ninh Kiều, Cần Thơ",VN
270,ChIJQYkOlGyIoDERmNmA4wNtBnk,Công Ty TNHH TM Thiết Bị An Gia Phát,Cửa hàng vật liệu xây dựng,+84 963 619 796,"Công Ty TNHH TM Thiết Bị An Gia Phát, 65-67 Đ. Nguyễn Tri Phương, Phường An Khánh, Ninh Kiều, Cần Thơ, Việt Nam","Phường An Khánh, Ninh Kiều",65-67 Đ. Nguyễn Tri Phương,Cần Thơ,,"Ninh Kiều, Cần Thơ",VN
280,ChIJy-iiKkKIoDERsqDDemXddW0,Cửa Hàng Vlxd Bình Minh,Cửa hàng vật liệu xây dựng,+84 947 923 499,"Cửa Hàng Vlxd Bình Minh, 138 Nguyễn Văn Cừ Nối Dài, Phường An Khánh, Ninh Kiều, Cần Thơ, Việt Nam","Phường An Khánh, Ninh Kiều",138 Nguyễn Văn Cừ Nối Dài,Cần Thơ,,"Ninh Kiều, Cần Thơ",VN
284,ChIJBbFeUhWIoDER-wuwE_sv5sE,Công Ty TNHH TM DV Thành Đăng,Cửa hàng vật liệu xây dựng,+84 939 070 779,"Công Ty TNHH TM DV Thành Đăng, 138/20, Khu Vực I, Phường An Khánh, Quận Ninh Kiều, Thành Phố Cần Thơ, Phường An Khánh, Ninh Kiều, Cần Thơ 902494, Việt Nam","Phường An Khánh, Ninh Kiều","138/20, Khu Vực I, Phường An Khánh, Quận Ninh Kiều, Thành Phố Cần Thơ",Cần Thơ,902494.0,"Ninh Kiều, Cần Thơ",VN
285,ChIJY95wrs2JoDER1hOlLgW6qbg,VLXD-TTNT HƯNG PHÚC THỊNH,Cửa hàng vật liệu xây dựng,+84 949 761 122,"VLXD-TTNT HƯNG PHÚC THỊNH, 407A Nguyễn Văn Cừ Nối Dài, An Bình, Ninh Kiều, Cần Thơ, Việt Nam","An Bình, Ninh Kiều",407A Nguyễn Văn Cừ Nối Dài,Cần Thơ,,"Ninh Kiều, Cần Thơ",VN
291,ChIJ0aHdmkiIoDERTAijPpTiyJk,Công Ty Trách Nhiệm Hữu Hạn Một Thành Viên Đình Luật,Cửa hàng vật liệu xây dựng,+84 907 780 331,"Công Ty Trách Nhiệm Hữu Hạn Một Thành Viên Đình Luật, 43A1, Khu Dân Cư 91B, Phường An Khánh, Quận Ninh Kiều, Thành Phố Cần Thơ, Hưng Lợi, Ninh Kiều, Cần Thơ, Việt Nam","Hưng Lợi, Ninh Kiều","43A1, Khu Dân Cư 91B, Phường An Khánh, Quận Ninh Kiều, Thành Phố Cần Thơ",Cần Thơ,,"Ninh Kiều, Cần Thơ",VN
293,ChIJzfsdyVqIoDERzbYWfPIe9Vg,Cửa Hàng Sắt Thép Hoàng Gia Phát,Cửa hàng vật liệu xây dựng,+84 292 6551 999,"Cửa Hàng Sắt Thép Hoàng Gia Phát, 78 Nguyễn Văn Cừ Nối Dài, An Bình, Ninh Kiều, Cần Thơ, Việt Nam","An Bình, Ninh Kiều",78 Nguyễn Văn Cừ Nối Dài,Cần Thơ,,"Ninh Kiều, Cần Thơ",VN
296,ChIJY3yhyEmJoDERkxEFbHyiHXQ,CÔNG TY TNHH MTV SX TM TẤN HOÀNG PHÁT,Cửa hàng vật liệu xây dựng,+84 918 423 798,"CÔNG TY TNHH MTV SX TM TẤN HOÀNG PHÁT, 58 Nguyễn Văn Cừ Nối Dài, An Bình, Ninh Kiều, Cần Thơ, Việt Nam","An Bình, Ninh Kiều",58 Nguyễn Văn Cừ Nối Dài,Cần Thơ,,"Ninh Kiều, Cần Thơ",VN
297,ChIJn0vSnxOJoDERDDtRiLQdUTk,VLXD Đại Tín,Cửa hàng vật liệu xây dựng,,"VLXD Đại Tín, 31 Trần Chiên, Lê Bình, Cái Răng, Cần Thơ, Việt Nam","Lê Bình, Cái Răng",31 Trần Chiên,Cần Thơ,,"Cái Răng, Cần Thơ",VN
299,ChIJgbM50FKIoDERKCgjcAtn0cU,Công Ty TNHH Phân Phối Xi Măng Tây Đô Đại Việt,Cửa hàng vật liệu xây dựng,+84 292 3844 993,"Công Ty TNHH Phân Phối Xi Măng Tây Đô Đại Việt, 247/8, Đường Cái Sơn Hàng Bàng, Quận Cái Răng, An Bình, Ninh Kiều, Cần Thơ, Việt Nam","An Bình, Ninh Kiều","247/8, Đường Cái Sơn Hàng Bàng, Quận Cái Răng",Cần Thơ,,"Ninh Kiều, Cần Thơ",VN
300,ChIJXRUDco-JoDERUhL8GeEUavc,Cửa hàng vật liệu xây dựng số 1,Cửa hàng vật liệu xây dựng,+84 939 157 156,"XPMC+WF9 Cửa hàng vật liệu xây dựng số 1, Nhơn Nghĩa, Phong Điền, Cần Thơ, Việt Nam","Nhơn Nghĩa, Phong Điền",XPMC+WF9,Cần Thơ,,"Phong Điền, Cần Thơ",VN
302,ChIJn7kzG7KJoDERmFr9TlIwDgM,Cửa Hàng VLXD Hồng Phước,Cửa hàng vật liệu xây dựng,+84 919 367 907,"Cửa Hàng VLXD Hồng Phước, 4 Lộ Vòng Cung, An Bình, Ninh Kiều, Cần Thơ, Việt Nam","An Bình, Ninh Kiều",4 Lộ Vòng Cung,Cần Thơ,,"Ninh Kiều, Cần Thơ",VN
314,ChIJId4_jaCJoDERDhS8sOd5QiY,Cửa Hàng Vlxd Linh Phượng,Cửa hàng vật liệu xây dựng,+84 292 3912 669,"Cửa Hàng Vlxd Linh Phượng, 35 Lộ Vòng Cung, An Bình, Ninh Kiều, Cần Thơ, Việt Nam","An Bình, Ninh Kiều",35 Lộ Vòng Cung,Cần Thơ,,"Ninh Kiều, Cần Thơ",VN
315,ChIJl1_EQAyJoDERB6o7uqjVW40,Cơ Sở Sắt Mỹ Thuật Hoàng Giang,Cửa hàng vật liệu xây dựng,+84 334 700 811,"Cơ Sở Sắt Mỹ Thuật Hoàng Giang, 94 Lộ Vòng Cung, An Bình, Phong Điền, Cần Thơ, Việt Nam","An Bình, Phong Điền",94 Lộ Vòng Cung,Cần Thơ,,"Phong Điền, Cần Thơ",VN
316,ChIJaxaP35eJoDERAxvXv6Lq9Iw,Công Ty Tnhh Mtv Vật Liệu Xây Dựng Hoa Sen,Cửa hàng vật liệu xây dựng,+84 292 3527 269,"Công Ty Tnhh Mtv Vật Liệu Xây Dựng Hoa Sen, 202 QL1A, Ba Láng, Cái Răng, Cần Thơ, Việt Nam","Ba Láng, Cái Răng",202 QL1A,Cần Thơ,,"Cái Răng, Cần Thơ",VN
366,ChIJD4JejTaIoDERIubih070Jew,Cửa Hàng Hoàng Ngân,Cửa hàng vật liệu xây dựng,+84 292 3817 818,"Cửa Hàng Hoàng Ngân, 39, Ba Tháng Hai, Phường Hưng Lợi, Quận Ninh Kiều, Thành Phố Cần Thơ, Hưng Lợi, Ninh Kiều, Cần Thơ, Việt Nam","Hưng Lợi, Ninh Kiều","39, Ba Tháng Hai, Phường Hưng Lợi, Quận Ninh Kiều, Thành Phố Cần Thơ",Cần Thơ,,"Ninh Kiều, Cần Thơ",VN
370,ChIJP3MwWjSIoDERl_3bCvhWdQ8,Công Ty TNHH Thương Mại Dịch Vụ Phần Mềm Nam Nguyên,Cửa hàng vật liệu xây dựng,+84 939 868 911,"Công Ty TNHH Thương Mại Dịch Vụ Phần Mềm Nam Nguyên, 190E/2, Đường 30/4, Phường Hưng Lợi, Quận Ninh Kiều, Thành Phố Cần Thơ, Hưng Lợi, Ninh Kiều, Cần Thơ, Việt Nam","Hưng Lợi, Ninh Kiều","190E/2, Đường 30/4, Phường Hưng Lợi, Quận Ninh Kiều, Thành Phố Cần Thơ",Cần Thơ,,"Ninh Kiều, Cần Thơ",VN
375,ChIJHRR-usyJoDERfTRE5TAgT9o,Công Ty TNHH T & S Long Hậu Tại Cần Thơ,Cửa hàng vật liệu xây dựng,+84 908 426 999,"Công Ty TNHH T & S Long Hậu Tại Cần Thơ, 51B Đ. Trần Hoàng Na, Hưng Lợi, Ninh Kiều, Cần Thơ, Việt Nam","Hưng Lợi, Ninh Kiều",51B Đ. Trần Hoàng Na,Cần Thơ,,"Ninh Kiều, Cần Thơ",VN
380,ChIJIV885jCIoDERXnNqT246yRA,Công Ty TNHH Một Thành Viên Xây Dựng Thương Mại Dịch Vụ Phúc Gia,Cửa hàng vật liệu xây dựng,+84 985 558 995,"Công Ty TNHH Một Thành Viên Xây Dựng Thương Mại Dịch Vụ Phúc Gia, 30C, Đường Nguyễn Văn Linh, Phường Hưng Lợi, Quận Ninh Kiều, Hưng Lợi, Ninh Kiều, Cần Thơ, Việt Nam","Hưng Lợi, Ninh Kiều","30C, Đường Nguyễn Văn Linh, Phường Hưng Lợi, Quận Ninh Kiều",Cần Thơ,,"Ninh Kiều, Cần Thơ",VN
381,ChIJ1zpYrMyJoDERNG4was32Tec,Tiệm Thu Mua Phế Liệu Trường Thọ,Cửa hàng vật liệu xây dựng,+84 908 659 574,"Tiệm Thu Mua Phế Liệu Trường Thọ, 151/40C Đ. Trần Hoàng Na, Hưng Lợi, Ninh Kiều, Cần Thơ, Việt Nam","Hưng Lợi, Ninh Kiều",151/40C Đ. Trần Hoàng Na,Cần Thơ,,"Ninh Kiều, Cần Thơ",VN
383,ChIJc8gB2i2IoDERgIl-4LR1Rtw,Cửa Hàng Vlxd Thanh Tâm,Cửa hàng vật liệu xây dựng,,"Cửa Hàng Vlxd Thanh Tâm, 302 Tầm Vu, Hưng Lợi, Ninh Kiều, Cần Thơ, Việt Nam","Hưng Lợi, Ninh Kiều",302 Tầm Vu,Cần Thơ,,"Ninh Kiều, Cần Thơ",VN
420,ChIJszA9CQ9joDER6oZhb6MNfKU,Vật,Cửa hàng vật liệu xây dựng,,"Vật, 180 Trần Phú, Cái Khế, Ninh Kiều, Cần Thơ, Việt Nam","Cái Khế, Ninh Kiều",180 Trần Phú,Cần Thơ,,"Ninh Kiều, Cần Thơ",VN
421,ChIJTdupRAOIoDERGBef3H-49R8,Doanh Nghiệp Tn Vật Liệu Xây Dựng Minh Long 2,Cửa hàng vật liệu xây dựng,,"Doanh Nghiệp Tn Vật Liệu Xây Dựng Minh Long 2, 90/2/25A Hùng Vương, Thới Bình, Ninh Kiều, Cần Thơ, Việt Nam","Thới Bình, Ninh Kiều",90/2/25A Hùng Vương,Cần Thơ,,"Ninh Kiều, Cần Thơ",VN
422,ChIJX4P-Wv-HoDERT3suzxMRvT8,Cửa Hàng Đá Hoa Cương Thành Hải,Cửa hàng vật liệu xây dựng,+84 939 943 835,"Cửa Hàng Đá Hoa Cương Thành Hải, 295, Nguyễn Văn Cừ, Cồn Khương, Phường Cái Khế, Quận Ninh Kiều, Thành Phố Cần Thơ, Cái Khế, Ninh Kiều, Cần Thơ, Việt Nam","Cái Khế, Ninh Kiều","295, Nguyễn Văn Cừ, Cồn Khương, Phường Cái Khế, Quận Ninh Kiều, Thành Phố Cần Thơ",Cần Thơ,,"Ninh Kiều, Cần Thơ",VN
423,ChIJq6qqBw-IoDERZqD8092zxVg,Cửa Hàng Vật Liệu Xây Dựng Anh Tài,Cửa hàng vật liệu xây dựng,+84 903 516 078,"Cửa Hàng Vật Liệu Xây Dựng Anh Tài, 365/14, Đường Nguyễn Văn Cừ, Quận Ninh Kiều, Tp Cần Thơ, An Hoà, Ninh Kiều, Cần Thơ, Việt Nam","An Hoà, Ninh Kiều","365/14, Đường Nguyễn Văn Cừ, Quận Ninh Kiều, Tp Cần Thơ",Cần Thơ,,"Ninh Kiều, Cần Thơ",VN
424,ChIJI4pyXkGIoDERaNrIDhS1ymY,Vật Liệu Xây Dựng Huệ Lộc,Cửa hàng vật liệu xây dựng,,"Vật Liệu Xây Dựng Huệ Lộc, An Khánh, Ninh Kiều, Cần Thơ, Việt Nam","An Khánh, Ninh Kiều",,Cần Thơ,,"Ninh Kiều, Cần Thơ",VN
425,ChIJq6qqBw-IoDERBjf0cRQqikE,Công Ty TNHH Vật Liệu Xây Dựng Trang Trí Nội Thất Mai Hoa 2,Cửa hàng vật liệu xây dựng,+84 292 6291 559,"Công Ty TNHH Vật Liệu Xây Dựng Trang Trí Nội Thất Mai Hoa 2, 163C/7, Đường Nguyễn Văn Cừ, Q. Ninh Kiều, Tp Cần Thơ, An Hoà, Ninh Kiều, Cần Thơ, Việt Nam","An Hoà, Ninh Kiều","163C/7, Đường Nguyễn Văn Cừ, Q. Ninh Kiều, Tp Cần Thơ",Cần Thơ,,"Ninh Kiều, Cần Thơ",VN
426,ChIJq6qqBw-IoDERIdcRtWuSS0Q,Cơ Sở Vật Liệu Xây Dựng Như Ý,Cửa hàng vật liệu xây dựng,+84 292 3891 291,"Cơ Sở Vật Liệu Xây Dựng Như Ý, 635, Đường Nguyễn Văn Cừ, Quận Ninh Kiều, Tp Cần Thơ, An Hoà, Ninh Kiều, Cần Thơ, Việt Nam","An Hoà, Ninh Kiều","635, Đường Nguyễn Văn Cừ, Quận Ninh Kiều, Tp Cần Thơ",Cần Thơ,,"Ninh Kiều, Cần Thơ",VN
427,ChIJ77mBLeiJoDER3f821HscMTU,Vật Liệu Xây Dựng Vũ Hưng,Cửa hàng vật liệu xây dựng,+84 939 767 950,"Vật Liệu Xây Dựng Vũ Hưng, 15 Đường Yết Kiêu, An Nghiệp, Ninh Kiều, Cần Thơ, Việt Nam","An Nghiệp, Ninh Kiều",15 Đường Yết Kiêu,Cần Thơ,,"Ninh Kiều, Cần Thơ",VN
428,ChIJq6qqBw-IoDERWCwwxEgM8zU,Công Ty DNTN VLXD Nhựt Triều,Cửa hàng vật liệu xây dựng,+84 292 3896 516,"Công Ty DNTN VLXD Nhựt Triều, 117/15, Đường Nguyễn Văn Cừ, Phường An Hoà, Quận Ninh Kiều, Tp Cần Thơ, An Hoà, Ninh Kiều, Cần Thơ, Việt Nam","An Hoà, Ninh Kiều","117/15, Đường Nguyễn Văn Cừ, Phường An Hoà, Quận Ninh Kiều, Tp Cần Thơ",Cần Thơ,,"Ninh Kiều, Cần Thơ",VN
429,ChIJn2UQwxGIoDERtfIixlNajo8,Cửa Hàng VLXD Tài Phát,Cửa hàng vật liệu xây dựng,+84 292 3834 462,"Cửa Hàng VLXD Tài Phát, 140B, Đường Mậu Thân, Quận Ninh Kiều, Tp Cần Thơ, An Hoà, Ninh Kiều, Cần Thơ, Việt Nam","An Hoà, Ninh Kiều","140B, Đường Mậu Thân, Quận Ninh Kiều, Tp Cần Thơ",Cần Thơ,,"Ninh Kiều, Cần Thơ",VN
430,ChIJh7CHWMKHoDERJWMDebwgHyQ,Công Ty Tnhh Vật Liệu Xây Dựng Đại Xuân,Cửa hàng vật liệu xây dựng,,"Công Ty Tnhh Vật Liệu Xây Dựng Đại Xuân, 512 Đ. Cách Mạng Tháng 8, Bùi Hữu Nghĩa, Bình Thủy, Cần Thơ 94207, Việt Nam","Bùi Hữu Nghĩa, Bình Thủy",512 Đ. Cách Mạng Tháng 8,Cần Thơ,94207.0,"Bình Thủy, Cần Thơ",VN
431,ChIJuRDS41SHoDERgKHd9UH4z2M,công ty VGC,Nhà cung cấp vật liệu xây dựng,+84 971 664 677,"công ty VGC, số 12, đường 14 khu vực 3, Sông Hậu, P, Ninh Kiều, Cần Thơ 94000, Việt Nam","P, Ninh Kiều","số 12, đường 14 khu vực 3, Sông Hậu",Cần Thơ,94000.0,"Ninh Kiều, Cần Thơ",VN
432,ChIJSQD0nRSIoDERfEeLkHRd5Ws,Dntn Vật Liệu Xây Dựng Thanh Lộc,Cửa hàng vật liệu xây dựng,+84 915 222 429,"Dntn Vật Liệu Xây Dựng Thanh Lộc, 136 Đ. Nguyễn Văn Cừ, Phường An Khánh, Ninh Kiều, Cần Thơ, Việt Nam","Phường An Khánh, Ninh Kiều",136 Đ. Nguyễn Văn Cừ,Cần Thơ,,"Ninh Kiều, Cần Thơ",VN
433,ChIJfd9Rxy2IoDERH0CbKTi5N2I,Vật Liệu Xây Dựng Phan Thông,Cửa hàng vật liệu xây dựng,,"Vật Liệu Xây Dựng Phan Thông, 105 Tầm Vu, Hưng Lợi, Ninh Kiều, Cần Thơ, Việt Nam","Hưng Lợi, Ninh Kiều",105 Tầm Vu,Cần Thơ,,"Ninh Kiều, Cần Thơ",VN
434,ChIJq6qqBw-IoDERKPZZfsPED8s,Công Ty DNTN VLXD Thanh Huyền,Cửa hàng vật liệu xây dựng,+84 292 3892 457,"Công Ty DNTN VLXD Thanh Huyền, 117/15, Đường Nguyễn Văn Cừ, Phường An Hoà, Quận Ninh Kiều, Tp Cần Thơ, An Hoà, Ninh Kiều, Cần Thơ, Việt Nam","An Hoà, Ninh Kiều","117/15, Đường Nguyễn Văn Cừ, Phường An Hoà, Quận Ninh Kiều, Tp Cần Thơ",Cần Thơ,,"Ninh Kiều, Cần Thơ",VN
435,ChIJR36FWahioDERX7Q6qabDlGM,Công Ty TNHH Hai Thành Viên Dầu Khí Lê Hoàng,Cửa hàng vật liệu xây dựng,+84 292 3655 788,"Công Ty TNHH Hai Thành Viên Dầu Khí Lê Hoàng, 171, Trần Văn Khéo, Phường Cái Khế, Quận Ninh Kiều, Thành Phố Cần Thơ, Cái Khế, Ninh Kiều, Cần Thơ, Việt Nam","Cái Khế, Ninh Kiều","171, Trần Văn Khéo, Phường Cái Khế, Quận Ninh Kiều, Thành Phố Cần Thơ",Cần Thơ,,"Ninh Kiều, Cần Thơ",VN
436,ChIJT33gpySIoDERrPdaXWaqjGA,Cửa Hàng Vật Liệu Xây Dựng Mạnh Hà,Cửa hàng vật liệu xây dựng,+84 292 6251 764,"Cửa Hàng Vật Liệu Xây Dựng Mạnh Hà, 120A, Đường 3/2, Quận Ninh Kiều, Tp Cần Thơ, Xuân Khánh, Ninh Kiều, Cần Thơ, Việt Nam","Xuân Khánh, Ninh Kiều","120A, Đường 3/2, Quận Ninh Kiều, Tp Cần Thơ",Cần Thơ,,"Ninh Kiều, Cần Thơ",VN
437,ChIJSR7aUmmnf2QRnk0ZIJVdPD0,VLXD TRƯỜNG PHÁT,Cửa hàng vật liệu xây dựng,+84 934 633 646,,,,,,,
438,ChIJHdAwhf6HoDER1o_bGC585r4,Cơ Sở Cửa Sắt - Cửa Gỗ Minh Phát,Cửa hàng vật liệu xây dựng,,"Cơ Sở Cửa Sắt - Cửa Gỗ Minh Phát, Cái Khế, Ninh Kiều, Cần Thơ, Việt Nam","Cái Khế, Ninh Kiều",,Cần Thơ,,"Ninh Kiều, Cần Thơ",VN
439,ChIJnV2Kop9ioDERcIBzPzUVpUc,Tiệm Hàn Vật Liệu Xây Dựng Sáu Nghệ,Cửa hàng vật liệu xây dựng,+84 292 3825 156,"Tiệm Hàn Vật Liệu Xây Dựng Sáu Nghệ, 103 Đường Nguyễn An Ninh, Tân An, Ninh Kiều, Cần Thơ, Việt Nam","Tân An, Ninh Kiều",103 Đường Nguyễn An Ninh,Cần Thơ,,"Ninh Kiều, Cần Thơ",VN
440,ChIJ25BeyUqIoDERu6-C_mxlfL8,Cơ Sở Sản Xuất Vật Liệu Chí Thành,Cửa hàng vật liệu xây dựng,+84 292 3838 390,"Cơ Sở Sản Xuất Vật Liệu Chí Thành, 4, Đường 30/4, Quận Ninh Kiều, TP Cần Thơ, Hưng Lợi, Ninh Kiều, Cần Thơ, Việt Nam","Hưng Lợi, Ninh Kiều","4, Đường 30/4, Quận Ninh Kiều, TP Cần Thơ",Cần Thơ,,"Ninh Kiều, Cần Thơ",VN
441,ChIJ8yZyFSeIoDER2GmtcFuHesI,Cửa Hàng Vật Liệu Xây Dựng Nguyễn Khánh,Cửa hàng vật liệu xây dựng,,"Cửa Hàng Vật Liệu Xây Dựng Nguyễn Khánh, Xuân Khánh, Ninh Kiều, Cần Thơ, Việt Nam","Xuân Khánh, Ninh Kiều",,Cần Thơ,,"Ninh Kiều, Cần Thơ",VN
442,ChIJwVdUk-OHoDERjxY0Wid6eS4,Cửa Hàng Vlxd Hồng Phước,Cửa hàng vật liệu xây dựng,+84 292 3887 566,"Cửa Hàng Vlxd Hồng Phước, 19 Đ. Cách Mạng Tháng 8, An Thới, Bình Thủy, Cần Thơ, Việt Nam","An Thới, Bình Thủy",19 Đ. Cách Mạng Tháng 8,Cần Thơ,,"Bình Thủy, Cần Thơ",VN
443,ChIJ0wssDTiIoDERfR5Kq3n0b2w,Cửa Hàng Vật Liệu Xây Dựng Văn Hiếu,Cửa hàng vật liệu xây dựng,+84 292 2211 073,"Cửa Hàng Vật Liệu Xây Dựng Văn Hiếu, 91B, Đường Quốc Lộ 91B, Quận Ninh Kiều, TP.Cần Thơ, Hưng Lợi, Ninh Kiều, Cần Thơ, Việt Nam","Hưng Lợi, Ninh Kiều","91B, Đường Quốc Lộ 91B, Quận Ninh Kiều, TP.Cần Thơ",Cần Thơ,,"Ninh Kiều, Cần Thơ",VN
444,ChIJSa3pS6BioDERDB1VGQ8dGWU,Công ty TNHH kết cấu thép Nhật An,Cửa hàng vật liệu xây dựng,+84 28 3973 3385,"Công ty TNHH kết cấu thép Nhật An, 75 Hòa Bình, Phường Tân Thới Hòa, Quận Tân Phú, Tân An, Ninh Kiều, Cần Thơ, Việt Nam","Tân An, Ninh Kiều","75 Hòa Bình, Phường Tân Thới Hòa, Quận Tân Phú",Cần Thơ,,"Ninh Kiều, Cần Thơ",VN
445,ChIJDQxtfTCIoDER8JOEDAPR51U,Cửa Hàng Vật Liệu Xây Dựng Hùng Dũng,Cửa hàng vật liệu xây dựng,+84 292 3781 672,"Cửa Hàng Vật Liệu Xây Dựng Hùng Dũng, 12/40, Ba Tháng Hai, Phường Hưng Lợi, Quận Ninh Kiều, Thành Phố Cần Thơ, Hưng Lợi, Ninh Kiều, Cần Thơ, Việt Nam","Hưng Lợi, Ninh Kiều","12/40, Ba Tháng Hai, Phường Hưng Lợi, Quận Ninh Kiều, Thành Phố Cần Thơ",Cần Thơ,,"Ninh Kiều, Cần Thơ",VN
446,ChIJOxNk_gaIoDERkKDxioYxZhU,Cn Cty Cp Đtư Và Kd Vlxd Fico Tại Tp Cần Thơ,Cửa hàng vật liệu xây dựng,,"Cn Cty Cp Đtư Và Kd Vlxd Fico Tại Tp Cần Thơ, hẻm 512 khu dân cư An Thới Cách Mạng Tháng 8 Thành Phố Cần Thơ, Cần Thơ, Việt Nam","Cái Khế, Ninh Kiều",hẻm 512 khu dân cư An Thới Cách Mạng Tháng 8 Thành Phố Cần Thơ,Cần Thơ,,"Ninh Kiều, Cần Thơ",VN
447,ChIJ353SBjiIoDERKH2O62XhZVU,Công Ty TNHH Vật Liệu Xây Dựng Tổng Hợp Tây Nam,Cửa hàng vật liệu xây dựng,+84 907 816 681,"Công Ty TNHH Vật Liệu Xây Dựng Tổng Hợp Tây Nam, 18A Đ. Nguyễn Văn Linh, Hưng Lợi, Ninh Kiều, Cần Thơ, Việt Nam","Hưng Lợi, Ninh Kiều",18A Đ. Nguyễn Văn Linh,Cần Thơ,,"Ninh Kiều, Cần Thơ",VN
448,ChIJg2KEzlOIoDERbbyYbZILHnU,Dntn Vật Liệu Xây Dựng Diệu Linh,Cửa hàng vật liệu xây dựng,+84 292 6518 791,"Dntn Vật Liệu Xây Dựng Diệu Linh, 313 Cái Sơn Hàng Bàng, An Bình, Ninh Kiều, Cần Thơ, Việt Nam","An Bình, Ninh Kiều",313 Cái Sơn Hàng Bàng,Cần Thơ,,"Ninh Kiều, Cần Thơ",VN
449,ChIJiwlN--aqUAURrsWtkKxaYVA,Của Hàng Vật Liệu Xây Dựng Việt Nha,Cửa hàng vật liệu xây dựng,+84 918 826 063,,,,,,,
450,ChIJlWGpVWaIoDERZuH4TWPLgys,Cửa Hàng Vật Liệu Xây Dựng Đức Tuấn,Cửa hàng vật liệu xây dựng,+84 292 3798 989,"Cửa Hàng Vật Liệu Xây Dựng Đức Tuấn, 280 QL91B, Phường An Khánh, Bình Thủy, Cần Thơ, Việt Nam","Phường An Khánh, Bình Thủy",280 QL91B,Cần Thơ,,"Bình Thủy, Cần Thơ",VN
451,ChIJ-y48UpCIoDER8fWH09RIpN4,Tâm Cảnh Bán Vật Liệu Xây Dựng,Cửa hàng vật liệu xây dựng,,"Tâm Cảnh Bán Vật Liệu Xây Dựng, Long Tuyền, Bình Thủy, Cần Thơ, Việt Nam","Long Tuyền, Bình Thủy",,Cần Thơ,,"Bình Thủy, Cần Thơ",VN
452,ChIJ43zObzSIoDER6sv4I_towEM,Cửa Hàng Vật Liệu Xây Dựng - Trang Trí Nội Thất Hải Phụng,Cửa hàng vật liệu xây dựng,+84 292 3738 347,"Cửa Hàng Vật Liệu Xây Dựng - Trang Trí Nội Thất Hải Phụng, 209, 30/04, Quận Ninh Kiều, TP. Cần Thơ, Hưng Lợi, Ninh Kiều, Cần Thơ, Việt Nam","Hưng Lợi, Ninh Kiều","209, 30/04, Quận Ninh Kiều, TP. Cần Thơ",Cần Thơ,,"Ninh Kiều, Cần Thơ",VN
453,ChIJMzt252aIoDERraeBACIC-kA,DNTN Vật Liệu Xây Dựng Hùng Bảo,Cửa hàng vật liệu xây dựng,+84 292 6292 945,"DNTN Vật Liệu Xây Dựng Hùng Bảo, 285/91, QuốcT Lộ 91B, Quận Bình Thủy, Tp Cần Thơ, Phường An Khánh, Ninh Kiều, Cần Thơ, Việt Nam","Phường An Khánh, Ninh Kiều","285/91, QuốcT Lộ 91B, Quận Bình Thủy, Tp Cần Thơ",Cần Thơ,,"Ninh Kiều, Cần Thơ",VN
454,ChIJbeneAjuIoDER2UcBQnwCVLs,Cửa Hàng Vật Liệu Xây Dựng & Trang Trí Nội Thất Hùng Cẩm,Cửa hàng vật liệu xây dựng,+84 292 3835 051,"Cửa Hàng Vật Liệu Xây Dựng & Trang Trí Nội Thất Hùng Cẩm, 43 Đ. 3 Tháng 2, Xuân Khánh, Ninh Kiều, Cần Thơ, Việt Nam","Xuân Khánh, Ninh Kiều",43 Đ. 3 Tháng 2,Cần Thơ,,"Ninh Kiều, Cần Thơ",VN
455,ChIJcUuP2zmIoDER_I06oji-Tg4,Cửa Hàng Vật Liệu Xây Dựng Huy Hoàng,Cửa hàng vật liệu xây dựng,+84 7106297179,"Cửa Hàng Vật Liệu Xây Dựng Huy Hoàng, 7, QL91B, Hưng Lợi, Bình Thủy, Cần Thơ, Việt Nam","Hưng Lợi, Bình Thủy","7, QL91B",Cần Thơ,,"Bình Thủy, Cần Thơ",VN
456,ChIJMyU2uGeIoDERKalOwwywOoE,Công Ty Vật Liệu Xây Dựng Tây Nam,Cửa hàng vật liệu xây dựng,+84 292 3897 668,"Công Ty Vật Liệu Xây Dựng Tây Nam, 290, Quốc Lộ 91B, Quận Bình Thủy, Tp Cần Thơ, Việt Nam","Phường An Khánh, Ninh Kiều","290, Quốc Lộ 91B, Quận Bình Thủy, Tp Cần Thơ",Cần Thơ,,"Ninh Kiều, Cần Thơ",VN
457,ChIJ55uCNJCJoDERKHv-gKiXFJo,Cửa Hàng Vật Liệu Xây Dựng TÚ HẰNG,Cửa hàng vật liệu xây dựng,+84 907 000 291,"Cửa Hàng Vật Liệu Xây Dựng TÚ HẰNG, 64/4 Đ. Nguyễn Văn Linh, P, Bình Thủy, Cần Thơ, Việt Nam","P, Bình Thủy",64/4 Đ. Nguyễn Văn Linh,Cần Thơ,,"Bình Thủy, Cần Thơ",VN
458,ChIJt3x8tROIoDERZfLc3zYNq2s,Cửa Hàng Vlxd - Trang Trí Nội Thất Hùng Cẩm 1,Cửa hàng vật liệu xây dựng,+84 292 3895 638,"Cửa Hàng Vlxd - Trang Trí Nội Thất Hùng Cẩm 1, 89 Đ. Nguyễn Văn Cừ, Phường An Khánh, Ninh Kiều, Cần Thơ, Việt Nam","Phường An Khánh, Ninh Kiều",89 Đ. Nguyễn Văn Cừ,Cần Thơ,,"Ninh Kiều, Cần Thơ",VN
459,ChIJL-xC91aIoDER4qTSdkKv8A8,Cửa Hàng Vật Liệu Xây Dựng Tám Phước,Cửa hàng vật liệu xây dựng,,"Cửa Hàng Vật Liệu Xây Dựng Tám Phước, Long Tuyền, Ninh Kiều, Cần Thơ, Việt Nam","Long Tuyền, Ninh Kiều",,Cần Thơ,,"Ninh Kiều, Cần Thơ",VN
460,ChIJkwEMNyCIoDERReH1LA9Vkc4,Cửa Hàng Vật Liệu Cách Nhiệt Miền Tây,Cửa hàng vật liệu xây dựng,+84 292 3822 956,"Cửa Hàng Vật Liệu Cách Nhiệt Miền Tây, 12 Đ. Nguyễn Việt Hồng, An Lạc, Ninh Kiều, Cần Thơ, Việt Nam","An Lạc, Ninh Kiều",12 Đ. Nguyễn Việt Hồng,Cần Thơ,,"Ninh Kiều, Cần Thơ",VN
461,ChIJFaJCFTeIoDERKPeFy-AEhAA,DNTN Vật Liệu Xây Dựng Thành Hưng,Cửa hàng vật liệu xây dựng,+84 292 3994 559,"DNTN Vật Liệu Xây Dựng Thành Hưng, 13/6, Quốc Lộ 91B, Quận Bình Thủy, Hưng Lợi, Ninh Kiều, Cần Thơ, Việt Nam","Hưng Lợi, Ninh Kiều","13/6, Quốc Lộ 91B, Quận Bình Thủy",Cần Thơ,,"Ninh Kiều, Cần Thơ",VN
462,ChIJKZSZZ0GIoDER7uQdD8ccvQQ,Cửa Hàng Vật Tư Xây Dựng Nam Phát,Cửa hàng vật liệu xây dựng,+84 292 3893 684,"Cửa Hàng Vật Tư Xây Dựng Nam Phát, 337B1, Quốc Lộ 91B, Quận Ninh Kiều, Thành Phố Cần Thơ, Phường An Khánh, Ninh Kiều, Cần Thơ, Việt Nam","Phường An Khánh, Ninh Kiều","337B1, Quốc Lộ 91B, Quận Ninh Kiều, Thành Phố Cần Thơ",Cần Thơ,,"Ninh Kiều, Cần Thơ",VN
463,ChIJPUanMmuIoDERVGnxREWsv_8,Cửa Hàng Vlxd Nam Thành,Cửa hàng vật liệu xây dựng,+84 292 2470 847,"Cửa Hàng Vlxd Nam Thành, 163 Đ. Nguyễn Văn Cừ, Phường An Khánh, Ninh Kiều, Cần Thơ, Việt Nam","Phường An Khánh, Ninh Kiều",163 Đ. Nguyễn Văn Cừ,Cần Thơ,,"Ninh Kiều, Cần Thơ",VN
464,ChIJSyQ6tkqIoDERUHrReuzFQFQ,DNTN Vật Liệu Xây Dựng Công Lập,Cửa hàng vật liệu xây dựng,+84 292 3846 057,"DNTN Vật Liệu Xây Dựng Công Lập, 307, Quốc Lộ 1A, Quận Cái Răng, Hưng Lợi, Ninh Kiều, Cần Thơ, Việt Nam","Hưng Lợi, Ninh Kiều","307, Quốc Lộ 1A, Quận Cái Răng",Cần Thơ,,"Ninh Kiều, Cần Thơ",VN
465,ChIJH8dLpUiIoDER_1Y_e3_M24I,Cửa Hàng Vật Tư Xây Dựng Anh Minh,Cửa hàng vật liệu xây dựng,+84 898 087 272,"Cửa Hàng Vật Tư Xây Dựng Anh Minh, 71, KDC, 91B Đ. Ngô Tất Tố, Phường An Khánh, Ninh Kiều, Cần Thơ 94000, Việt Nam","Phường An Khánh, Ninh Kiều","71, KDC, 91B Đ. Ngô Tất Tố",Cần Thơ,94000.0,"Ninh Kiều, Cần Thơ",VN
466,ChIJ44QKcByIoDERoqogkKcDmgQ,Công Ty TNHH Kiến Trúc Quy Hoạch Xây Dựng Eke,Cửa hàng vật liệu xây dựng,+84 908 399 666,"Công Ty TNHH Kiến Trúc Quy Hoạch Xây Dựng Eke, 17 Đ. Huỳnh Thúc Kháng, An Cư, Ninh Kiều, Cần Thơ, Việt Nam","An Cư, Ninh Kiều",17 Đ. Huỳnh Thúc Kháng,Cần Thơ,,"Ninh Kiều, Cần Thơ",VN
467,ChIJIY2F_SmIoDERTPdsVt8xq9Q,Công Ty Vật Liệu Xây Dựng Ngọc Thắng 75B2,Cửa hàng vật liệu xây dựng,+84 292 7843 011,"Công Ty Vật Liệu Xây Dựng Ngọc Thắng 75B2, 26A Khu Dân Cư Hưng Phú, Đường Quang Trung, Quận Cái Răng, Tp Cần Thơ, Hưng Phú, Cái Răng, Cần Thơ, Việt Nam","Hưng Phú, Cái Răng","26A Khu Dân Cư Hưng Phú, Đường Quang Trung, Quận Cái Răng, Tp Cần Thơ",Cần Thơ,,"Cái Răng, Cần Thơ",VN
468,ChIJFW9aGeWIoDERLj3W88ts3-0,Cửa Hàng Vật Liệu Xây Dựng Linh Phương,Cửa hàng vật liệu xây dựng,,"Cửa Hàng Vật Liệu Xây Dựng Linh Phương, Long Tuyền, Bình Thủy, Cần Thơ, Việt Nam","Long Tuyền, Bình Thủy",,Cần Thơ,,"Bình Thủy, Cần Thơ",VN
469,ChIJecLv6UqIoDERKYeNow6EJxU,Cửa Hàng Vật Liệu Xây Dựng Phát Đạt,Cửa hàng vật liệu xây dựng,+84 292 3508 202,"Cửa Hàng Vật Liệu Xây Dựng Phát Đạt, 36C, Đường 3/2, Quận Ninh Kiều, TP Cần Thơ, Hưng Lợi, Ninh Kiều, Cần Thơ, Việt Nam","Hưng Lợi, Ninh Kiều","36C, Đường 3/2, Quận Ninh Kiều, TP Cần Thơ",Cần Thơ,,"Ninh Kiều, Cần Thơ",VN
470,ChIJu4kR7JGIoDERbKHmnnokxjk,Công Ty TNHH Vật Liệu Xây Dựng Trang Trí Nội Thất Nam Gia Hưng,Cửa hàng vật liệu xây dựng,+84 949 203 135,"Công Ty TNHH Vật Liệu Xây Dựng Trang Trí Nội Thất Nam Gia Hưng, 1168 Đ. Bùi Hữu Nghĩa, Long Tuyền, Bình Thủy, Cần Thơ, Việt Nam","Long Tuyền, Bình Thủy",1168 Đ. Bùi Hữu Nghĩa,Cần Thơ,,"Bình Thủy, Cần Thơ",VN
471,ChIJfYPFU7eFoDERk3c6_mB1ZB4,Cửa Hàng Vật Liệu Xây Dựng Từ Kiệt,Cửa hàng vật liệu xây dựng,,"Cửa Hàng Vật Liệu Xây Dựng Từ Kiệt, Phước Thới, Ô Môn, Cần Thơ, Việt Nam","Phước Thới, Ô Môn",,Cần Thơ,,"Ô Môn, Cần Thơ",VN
477,ChIJFzk2AKJioDERUki_98DgBWk,Cửa Hàng Vlxd,Cửa hàng vật liệu xây dựng,,"Cửa Hàng Vlxd, 110 Đường Hai Bà Trưng, Tân An, Ninh Kiều, Cần Thơ, Việt Nam","Tân An, Ninh Kiều",110 Đường Hai Bà Trưng,Cần Thơ,,"Ninh Kiều, Cần Thơ",VN
485,ChIJyVMuB6hioDERHeibhR_Ek0I,Tiệm Cửa Sắt Hải,Cửa hàng vật liệu xây dựng,+84 918 174 070,"Tiệm Cửa Sắt Hải, Đường Trần Văn Khéo, An Hội, Ninh Kiều, Cần Thơ, Việt Nam","An Hội, Ninh Kiều",Đường Trần Văn Khéo,Cần Thơ,,"Ninh Kiều, Cần Thơ",VN
490,ChIJa2i2QZ5ioDER3mm9Mui3CkI,Cửa Hàng Vlxd Kim Quyên,Cửa hàng vật liệu xây dựng,,"2QHM+9G7 Cửa Hàng Vlxd Kim Quyên, Hẻm 72B Nguyễn Thị Minh Khai, Tân An, Ninh Kiều, Cần Thơ, Việt Nam","Tân An, Ninh Kiều","2QHM+9G7, Hẻm 72B Nguyễn Thị Minh Khai",Cần Thơ,,"Ninh Kiều, Cần Thơ",VN
493,ChIJL8jz_5ZioDER0N847bkVdVU,Cửa Hàng VLXD Ngọc Thế,Cửa hàng vật liệu xây dựng,+84 939 537 795,"Cửa Hàng VLXD Ngọc Thế, 11, Khu Vực 10, Phường Hưng Phú, Quận Cái Răng, Thành Phố Cần Thơ, Hưng Phú, Cái Răng, Cần Thơ, Việt Nam","Hưng Phú, Cái Răng","11, Khu Vực 10, Phường Hưng Phú, Quận Cái Răng, Thành Phố Cần Thơ",Cần Thơ,,"Cái Răng, Cần Thơ",VN
494,ChIJf3ooIpxioDERAGHo_CPrL9E,DNTN VLXD Mai Thành,Cửa hàng vật liệu xây dựng,+84 292 3822 663,"DNTN VLXD Mai Thành, Đường Nguyễn Thị Minh Khai, Tân An, Ninh Kiều, Cần Thơ, Việt Nam","Tân An, Ninh Kiều",Đường Nguyễn Thị Minh Khai,Cần Thơ,,"Ninh Kiều, Cần Thơ",VN
495,ChIJseiz7ZNjoDERtb2yA6-dmM0,CÔNG TY TNHH THIẾT BỊ ĐIỆN TỬ TRUNG TÍN,Cửa hàng vật liệu xây dựng,+84 919 819 090,"CÔNG TY TNHH THIẾT BỊ ĐIỆN TỬ TRUNG TÍN, 20 Đ. Điện Biên Phủ, Tân An, Ninh Kiều, Cần Thơ, Việt Nam","Tân An, Ninh Kiều",20 Đ. Điện Biên Phủ,Cần Thơ,,"Ninh Kiều, Cần Thơ",VN
497,ChIJn9JztdmJoDERQCKOPYgd4NI,VLXD-TTNT Sơn Hà,Cửa hàng vật liệu xây dựng,+84 919 130 742,"VLXD-TTNT Sơn Hà, 180 Đ. Trần Hưng Đạo, An Phú, Ninh Kiều, Cần Thơ, Việt Nam","An Phú, Ninh Kiều",180 Đ. Trần Hưng Đạo,Cần Thơ,,"Ninh Kiều, Cần Thơ",VN
506,ChIJl50ToRmIoDER_gr4H8EMld4,Cửa Hàng VLXD Tân Minh Phát,Cửa hàng vật liệu xây dựng,+84 909 204 461,"Cửa Hàng VLXD Tân Minh Phát, 49 Nguyễn Cư Trinh, An Phú, Ninh Kiều, Cần Thơ, Việt Nam","An Phú, Ninh Kiều",49 Nguyễn Cư Trinh,Cần Thơ,,"Ninh Kiều, Cần Thơ",VN
507,ChIJE-64IMZjoDEREZ9PGL_ZjQ8,CÔNG TY TNHH CK XD PHÚC HẬU,Cửa hàng vật liệu xây dựng,+84 932 804 988,"CÔNG TY TNHH CK XD PHÚC HẬU, 20 Đ. Điện Biên Phủ, Tân An, Ninh Kiều, Cần Thơ, Việt Nam","Tân An, Ninh Kiều",20 Đ. Điện Biên Phủ,Cần Thơ,,"Ninh Kiều, Cần Thơ",VN
509,ChIJM9dHbKBioDERHSBRgWFj3R4,Cửa Hàng Đá Hiếu,Cửa hàng vật liệu xây dựng,+84 939 767 388,"Cửa Hàng Đá Hiếu, 45 Đ. Nguyễn Khuyến, Tân An, Ninh Kiều, Cần Thơ, Việt Nam","Tân An, Ninh Kiều",45 Đ. Nguyễn Khuyến,Cần Thơ,,"Ninh Kiều, Cần Thơ",VN
515,ChIJpwV0qSSIoDEReEzSInBe_1c,DNTN Vạn Phước,Cửa hàng vật liệu xây dựng,+84 292 3838 086,"DNTN Vạn Phước, 228 Đ. 3 Tháng 2, Xuân Khánh, Ninh Kiều, Cần Thơ, Việt Nam","Xuân Khánh, Ninh Kiều",228 Đ. 3 Tháng 2,Cần Thơ,,"Ninh Kiều, Cần Thơ",VN
518,ChIJl3Q-GZ9ioDERailI09733sg,Cửa Hàng Sắt Thép Chi Được,Cửa hàng vật liệu xây dựng,+84 292 3824 794,"Cửa Hàng Sắt Thép Chi Được, Đường Ngô Đức Kế, Tân An, Ninh Kiều, Cần Thơ, Việt Nam","Tân An, Ninh Kiều",Đường Ngô Đức Kế,Cần Thơ,,"Ninh Kiều, Cần Thơ",VN
519,ChIJ1VHNr2NioDERGUasj47pDSQ,Cửa Hàng Vật Liệu Xây Dựng Trường Phát Mêkong,Cửa hàng vật liệu xây dựng,+84 918 839 946,"Cửa Hàng Vật Liệu Xây Dựng Trường Phát Mêkong, Đường Võ Nguyên Giáp, Khu Vực Thạnh Lợi, P, Cái Răng, Cần Thơ, Việt Nam","Khu Vực Thạnh Lợi, P, Cái Răng",Đường Võ Nguyên Giáp,Cần Thơ,,"Cái Răng, Cần Thơ",VN
523,ChIJzxCvlSOIoDERjq6eL8gGxKU,Tb Store,Cửa hàng vật liệu xây dựng,,"Tb Store, 40/2A Đ. 3/2, Xuân Khánh, Ninh Kiều, Cần Thơ, Việt Nam","Xuân Khánh, Ninh Kiều",40/2A Đ. 3/2,Cần Thơ,,"Ninh Kiều, Cần Thơ",VN
524,ChIJ8Z8bpJ9ioDER-FfgF2Qlz_s,Cửa Hàng Sắt Thép Thanh Sơn,Cửa hàng vật liệu xây dựng,+84 292 3817 918,"Cửa Hàng Sắt Thép Thanh Sơn, 18 Đ. Đồng Khởi, Tân An, Ninh Kiều, Cần Thơ, Việt Nam","Tân An, Ninh Kiều",18 Đ. Đồng Khởi,Cần Thơ,,"Ninh Kiều, Cần Thơ",VN
572,ChIJmyzVVBuIoDERImF3x1rn2aQ,Cơ Sở Cửa Sắt Bé Năm,Cửa hàng vật liệu xây dựng,,"Cơ Sở Cửa Sắt Bé Năm, Thới Binh, Ninh Kiều, Cần Thơ, Việt Nam","Thới Binh, Ninh Kiều",,Cần Thơ,,"Ninh Kiều, Cần Thơ",VN
598,ChIJW17L0BiIoDERGJ4TNfPBMcM,Công Ty TNHH Trọng Thùy,Cửa hàng vật liệu xây dựng,+84 931 924 898,"Công Ty TNHH Trọng Thùy, 192 Đ. Trần Hưng Đạo, An Phú, Ninh Kiều, Cần Thơ, Việt Nam","An Phú, Ninh Kiều",192 Đ. Trần Hưng Đạo,Cần Thơ,,"Ninh Kiều, Cần Thơ",VN
631,ChIJxx1osRuIoDERySD7rQdOkpQ,Công Ty TNHH TM DV Song Kim Cần Thơ,Cửa hàng vật liệu xây dựng,+84 919 363 629,"Công Ty TNHH TM DV Song Kim Cần Thơ, 103B Đ. Huỳnh Thúc Kháng, An Phú, Ninh Kiều, Cần Thơ, Việt Nam","An Phú, Ninh Kiều",103B Đ. Huỳnh Thúc Kháng,Cần Thơ,,"Ninh Kiều, Cần Thơ",VN
662,ChIJn98zWaqJoDERbwqslK2gxaw,Kho 141A,Cửa hàng vật liệu xây dựng,,"Kho 141A, 141a Đ. Trần Hưng Đạo, An Nghiệp, Ninh Kiều, Cần Thơ, Việt Nam","An Nghiệp, Ninh Kiều",141a Đ. Trần Hưng Đạo,Cần Thơ,,"Ninh Kiều, Cần Thơ",VN
685,ChIJb6g_N2uHooQR12SWHTK4fbs,Công ty TNHH Nguyễn Thạch,Cửa hàng vật liệu xây dựng,+84 292 3898 344,,,,,,,
702,ChIJq6qqBw-IoDERgy8qpWNNB8U,Cơ Sở Cửa Nhôm - Sắt - Inox Cường Phát,Cửa hàng vật liệu xây dựng,+84 292 3738 746,"Cơ Sở Cửa Nhôm - Sắt - Inox Cường Phát, 69/54, 30/04, Quận Ninh Kiều, Tp Cần Thơ, An Hoà, Ninh Kiều, Cần Thơ, Việt Nam","An Hoà, Ninh Kiều","69/54, 30/04, Quận Ninh Kiều, Tp Cần Thơ",Cần Thơ,,"Ninh Kiều, Cần Thơ",VN
703,ChIJrwCiJyiJoDERWZsH_zTB5jU,Nhà Máy Tôn Thép Thái Lâm,Cửa hàng vật liệu xây dựng,+84 979 537 773,"Nhà Máy Tôn Thép Thái Lâm, 745 Đ. Nguyễn Văn Cừ, Mỹ Ái, TP, Cần Thơ 92000, Việt Nam","Mỹ Ái, TP","Nhà Máy Tôn Thép Thái Lâm, 745 Đ. Nguyễn Văn Cừ",Cần Thơ,92000.0,"TP, Cần Thơ",VN
731,ChIJQ1PMrw-IoDERzr_iaR4GSQg,Công Ty TNHH Thương Mại Dịch Vụ Huỳnh Phương Bình 7879,Cửa hàng vật liệu xây dựng,+84 915 178 087,"2QW9+F5P Công Ty TNHH Thương Mại Dịch Vụ Huỳnh Phương Bình 7879, Đ. Nguyễn Văn Cừ, An Hoà, Bình Thủy, Cần Thơ, Việt Nam","An Hoà, Bình Thủy","2QW9+F5P, Đ. Nguyễn Văn Cừ",Cần Thơ,,"Bình Thủy, Cần Thơ",VN
733,ChIJmSjoiWuIoDERuaCplvgqpuw,Dịch Vụ Cho Thuê Thiết Bị Xây Dụng Chú Tư,Cửa hàng vật liệu xây dựng,+84 915 785 599,"Dịch Vụ Cho Thuê Thiết Bị Xây Dụng Chú Tư, 46, Đường 5A, Khu Dân Cư Thới Nhựt, Phường An Khánh, Quận Ninh Kiều, Thành Phố Cần Thơ, Phường An Khánh, Ninh Kiều, Cần Thơ, Việt Nam","Phường An Khánh, Ninh Kiều","46, Đường 5A, Khu Dân Cư Thới Nhựt, Phường An Khánh, Quận Ninh Kiều, Thành Phố Cần Thơ",Cần Thơ,,"Ninh Kiều, Cần Thơ",VN
735,ChIJC58q20OIoDERhFgxVI20NiI,Công Ty Cổ Phần Vật Liệu Cửa Nhôm Cần Thơ,Cửa hàng vật liệu xây dựng,,"Công Ty Cổ Phần Vật Liệu Cửa Nhôm Cần Thơ, 62/9 Đ. Nguyễn Văn Cừ, Phường An Khánh, Ninh Kiều, Cần Thơ, Việt Nam","Phường An Khánh, Ninh Kiều",62/9 Đ. Nguyễn Văn Cừ,Cần Thơ,,"Ninh Kiều, Cần Thơ",VN
736,ChIJBbeVEXaJoDERws_xl7qr-X0,VLXD Oanh,Cửa hàng vật liệu xây dựng,+84 909 110 132,"VLXD Oanh, Phường An Khánh, Ninh Kiều, Cần Thơ, Việt Nam","Phường An Khánh, Ninh Kiều",,Cần Thơ,,"Ninh Kiều, Cần Thơ",VN
738,ChIJeeDpK0WIoDERr7rc9nEfyQg,Công Ty Tnhh 1 Thành Viên Vật Liệu Xây Dựng Khánh Ninh,Cửa hàng vật liệu xây dựng,,"Công Ty Tnhh 1 Thành Viên Vật Liệu Xây Dựng Khánh Ninh, 40 Nguyễn Văn Cừ Nối Dài, An Bình, Ninh Kiều, Cần Thơ, Việt Nam","An Bình, Ninh Kiều",40 Nguyễn Văn Cừ Nối Dài,Cần Thơ,,"Ninh Kiều, Cần Thơ",VN
742,ChIJD9sU3ECIoDERctSHeQvMJCA,"An Gia Lac Co., Ltd",Cửa hàng vật liệu xây dựng,+84 292 3872 973,"An Gia Lac Co., Ltd, 56, Tran Bach Dang Street, An Khanh Ward, Ninh Kieu District, Phường An Khánh, Ninh Kiều, Cần Thơ, Việt Nam","Phường An Khánh, Ninh Kiều","56, Tran Bach Dang Street, An Khanh Ward, Ninh Kieu District",Cần Thơ,,"Ninh Kiều, Cần Thơ",VN
767,ChIJX70HwUGIoDERMWsuUPW3bDk,Cửa Hàng Vlxd Hoa Mai 2,Cửa hàng vật liệu xây dựng,+84 292 3895 524,"Cửa Hàng Vlxd Hoa Mai 2, 372 Nguyễn Văn Cừ Nối Dài, Phường An Khánh, Ninh Kiều, Cần Thơ, Việt Nam","Phường An Khánh, Ninh Kiều",372 Nguyễn Văn Cừ Nối Dài,Cần Thơ,,"Ninh Kiều, Cần Thơ",VN
778,ChIJiSm2N2yIoDERhcj8BAbi81Q,Cửa Hàng Đá Hoa Cương Nghị,Cửa hàng vật liệu xây dựng,+84 932 886 588,"Cửa Hàng Đá Hoa Cương Nghị, 200 Đ. Nguyễn Tri Phương, Phường An Khánh, Ninh Kiều, Cần Thơ, Việt Nam","Phường An Khánh, Ninh Kiều",200 Đ. Nguyễn Tri Phương,Cần Thơ,,"Ninh Kiều, Cần Thơ",VN
784,ChIJd_0bNWyIoDER3h7c98hJGUs,Cơ Sở Kỹ Thuật Sắt Anh Duy,Cửa hàng vật liệu xây dựng,,"Cơ Sở Kỹ Thuật Sắt Anh Duy, An Khánh, Ninh Kiều, Cần Thơ, Việt Nam","An Khánh, Ninh Kiều",,Cần Thơ,,"Ninh Kiều, Cần Thơ",VN
785,ChIJmYo_2D-IoDER58Slczo88_w,Thu Mua Phế Liệu Trung,Cửa hàng vật liệu xây dựng,+84 939 111 030,"2QM6+F64 Thu Mua Phế Liệu Trung, Nguyễn Văn Cừ Nối Dài, Phường An Khánh, Ninh Kiều, Cần Thơ, Việt Nam","Phường An Khánh, Ninh Kiều","2QM6+F64, Nguyễn Văn Cừ Nối Dài",Cần Thơ,,"Ninh Kiều, Cần Thơ",VN
788,ChIJayUztGqIoDERMShwwZWAPPI,Cửa Hàng Thiết Bị Xây Dựng Lê Lam,Cửa hàng vật liệu xây dựng,+84 989 798 477,"2QM5+X8W Cửa Hàng Thiết Bị Xây Dựng Lê Lam, Nguyễn Văn Cừ Nối Dài, Phường An Khánh, Ninh Kiều, Cần Thơ, Việt Nam","Phường An Khánh, Ninh Kiều","2QM5+X8W, Nguyễn Văn Cừ Nối Dài",Cần Thơ,,"Ninh Kiều, Cần Thơ",VN
789,ChIJOz1EMhKIoDERRHF7LJeaNcQ,Cơ Sở Sắt Nghệ Phát,Cửa hàng vật liệu xây dựng,,"Cơ Sở Sắt Nghệ Phát, 134 Đ. Nguyễn Văn Cừ, Phường An Khánh, Ninh Kiều, Cần Thơ, Việt Nam","Phường An Khánh, Ninh Kiều",134 Đ. Nguyễn Văn Cừ,Cần Thơ,,"Ninh Kiều, Cần Thơ",VN
790,ChIJqYPQsBOIoDERwarsMZt5fw8,Cửa Hàng Trần Thạch Cao Thái Hà,Cửa hàng vật liệu xây dựng,+84 292 3897 568,"Cửa Hàng Trần Thạch Cao Thái Hà, 138 Nguyễn Văn Cừ Nối Dài, Phường An Khánh, Ninh Kiều, Cần Thơ, Việt Nam","Phường An Khánh, Ninh Kiều",138 Nguyễn Văn Cừ Nối Dài,Cần Thơ,,"Ninh Kiều, Cần Thơ",VN
792,ChIJxQMd71CIoDERl2If6feAVDo,Cửa Hàng Vlxd Linh Phương,Cửa hàng vật liệu xây dựng,+84 292 3782 713,"Cửa Hàng Vlxd Linh Phương, 126 Nguyễn Văn Cừ Nối Dài, An Bình, Ninh Kiều, Cần Thơ, Việt Nam","An Bình, Ninh Kiều",126 Nguyễn Văn Cừ Nối Dài,Cần Thơ,,"Ninh Kiều, Cần Thơ",VN
795,ChIJG8Z3eVCIoDERWNyP5hBP8iI,Cửa Hàng Vlxd Toàn Thắng,Cửa hàng vật liệu xây dựng,+84 292 3895 627,"Cửa Hàng Vlxd Toàn Thắng, 96 Nguyễn Văn Cừ Nối Dài, An Bình, Ninh Kiều, Cần Thơ, Việt Nam","An Bình, Ninh Kiều",96 Nguyễn Văn Cừ Nối Dài,Cần Thơ,,"Ninh Kiều, Cần Thơ",VN
797,ChIJN5LDeVCIoDERv8VqR8wn6Q4,Công Ty TNHH Thép Linh Phượng,Cửa hàng vật liệu xây dựng,+84 292 3782 713,"Công Ty TNHH Thép Linh Phượng, 96 Đ. Nguyễn Văn Cừ, Phường An Khánh, Ninh Kiều, Cần Thơ, Việt Nam","Phường An Khánh, Ninh Kiều",96 Đ. Nguyễn Văn Cừ,Cần Thơ,,"Ninh Kiều, Cần Thơ",VN
805,ChIJldoVPU-IoDERMRnPcokwywc,Công Ty Tnhh Vật Liệu Xây Dựng Nội Thất Ngôi Sao,Cửa hàng vật liệu xây dựng,,"Công Ty Tnhh Vật Liệu Xây Dựng Nội Thất Ngôi Sao, An Bình, Ninh Kiều, Cần Thơ, Việt Nam","An Bình, Ninh Kiều",,Cần Thơ,,"Ninh Kiều, Cần Thơ",VN
810,ChIJI0_H1mqJoDERv8APaq2SaRM,Cửa hàng Vũ Ngọc,Cửa hàng vật liệu xây dựng,+84 939 989 916,"Cửa hàng Vũ Ngọc, 15 đường 36 kdc hai bên đường, Nguyễn Văn Cừ Nối Dài, An Bình, Bình Thủy, Cần Thơ, Việt Nam","An Bình, Bình Thủy","15 đường 36 kdc hai bên đường, Nguyễn Văn Cừ Nối Dài",Cần Thơ,,"Bình Thủy, Cần Thơ",VN
814,ChIJmeHZe1yIoDERDIO5ymU0RqM,Công ty TNHH Thương Mại Dịch Vụ Vận Tải Phú Quốc,Cửa hàng vật liệu xây dựng,+84 7103892511,"Công ty TNHH Thương Mại Dịch Vụ Vận Tải Phú Quốc, 306F/12, Cái Sơn Hàng Bàng, P. An Khánh, Q, Ninh Kiều, Cần Thơ, Việt Nam","An Bình, Ninh Kiều","306F/12, Cái Sơn Hàng Bàng, P. An Khánh, Q",Cần Thơ,,"Ninh Kiều, Cần Thơ",VN
815,ChIJydqk7qSJoDERooDluJa-0Lc,Doanh Nghiệp Tư Nhân Vật Liệu Xây Dựng Yến Thanh,Cửa hàng vật liệu xây dựng,+84 292 3847 349,"Doanh Nghiệp Tư Nhân Vật Liệu Xây Dựng Yến Thanh, 26/2E, Đường Võ Tánh, Quận Cái Răng, Lê Bình, Cái Răng, Cần Thơ, Việt Nam","Lê Bình, Cái Răng","26/2E, Đường Võ Tánh, Quận Cái Răng",Cần Thơ,,"Cái Răng, Cần Thơ",VN
821,ChIJT2sCSRyJoDER3YOfs4C2axc,Việt Thái Steel - Tôn Sắt Thép,Cửa hàng vật liệu xây dựng,+84 838 888 286,"Việt Thái Steel - Tôn Sắt Thép, 1 Đ. 3 Tháng 2, An Bình, Ninh Kiều, Cần Thơ, Việt Nam","An Bình, Ninh Kiều",1 Đ. 3 Tháng 2,Cần Thơ,,"Ninh Kiều, Cần Thơ",VN
822,ChIJ3y--qLSJoDERNZQpKGQznL4,Doanh Nghiệp Tư Nhân Gia Lạc,Cửa hàng vật liệu xây dựng,+84 947 077 033,"Doanh Nghiệp Tư Nhân Gia Lạc, 88/2 Đường 3-2, Hưng Lợi, Ninh Kiều, Cần Thơ, Việt Nam","Hưng Lợi, Ninh Kiều",88/2 Đường 3-2,Cần Thơ,,"Ninh Kiều, Cần Thơ",VN
824,ChIJZ4tuxESIoDERMn_z_ilPpdg,Công Ty TNHH Thép Đại Anh Phát,Cửa hàng vật liệu xây dựng,+84 292 6551 999,"Công Ty TNHH Thép Đại Anh Phát, 78, Nguyễn Văn Cừ Nối Dài, Phường An Bình, Quận Ninh Kiều, Thành Phố Cần Thơ, An Bình, Ninh Kiều, Cần Thơ, Việt Nam","An Bình, Ninh Kiều","78, Nguyễn Văn Cừ Nối Dài, Phường An Bình, Quận Ninh Kiều, Thành Phố Cần Thơ",Cần Thơ,,"Ninh Kiều, Cần Thơ",VN
825,ChIJyzXGN8qJoDEREF7ssnGYZnQ,Cửa Hàng Vật Liệu Xây Dựng Nguyễn Ngân,Cửa hàng vật liệu xây dựng,+84 292 3838 259,"Cửa Hàng Vật Liệu Xây Dựng Nguyễn Ngân, 19, Đường Tầm Vu, Quận Ninh Kiều, Tp Cần Thơ, Hưng Lợi, Ninh Kiều, Cần Thơ, Việt Nam","Hưng Lợi, Ninh Kiều","19, Đường Tầm Vu, Quận Ninh Kiều, Tp Cần Thơ",Cần Thơ,,"Ninh Kiều, Cần Thơ",VN
828,ChIJxb_aWISJoDER6NsXxLVRHa8,Cửa Hàng Vật Liệu Xây Dựng Tấm Lợp Nhựa Hợp Hưng,Cửa hàng vật liệu xây dựng,,"Cửa Hàng Vật Liệu Xây Dựng Tấm Lợp Nhựa Hợp Hưng, Ba Láng, Cái Răng, Cần Thơ, Việt Nam","Ba Láng, Cái Răng",,Cần Thơ,,"Cái Răng, Cần Thơ",VN
829,ChIJVf9at7eJoDERIi4G_7ehEyQ,VLXD Kim Đại Nam,Cửa hàng vật liệu xây dựng,,"2Q95+567 VLXD Kim Đại Nam, Đ. Trần Hoàng Na, Hưng Lợi, Ninh Kiều, Cần Thơ, Việt Nam","Hưng Lợi, Ninh Kiều","2Q95+567, Đ. Trần Hoàng Na",Cần Thơ,,"Ninh Kiều, Cần Thơ",VN
831,ChIJZZk_lpiJoDERos-1RguJin4,Cửa Hàng Vật Liệu Xây Dựng Tân Đạt,Cửa hàng vật liệu xây dựng,,"Cửa Hàng Vật Liệu Xây Dựng Tân Đạt, Ba Láng, Cái Răng, Cần Thơ, Việt Nam","Ba Láng, Cái Răng",,Cần Thơ,,"Cái Răng, Cần Thơ",VN
835,ChIJ-4f1sLSJoDERd78zXbB9G_w,DNTN Sản Xuất - Thương Mại Tám Tươi,Cửa hàng vật liệu xây dựng,+84 292 3894 928,"DNTN Sản Xuất - Thương Mại Tám Tươi, 132, KV1 Đường 3-2 Nối Dài P. An Bình, Quận Ninh Kiều, Hưng Lợi, Ninh Kiều, Cần Thơ, Việt Nam","Hưng Lợi, Ninh Kiều","132, KV1 Đường 3-2 Nối Dài P. An Bình, Quận Ninh Kiều",Cần Thơ,,"Ninh Kiều, Cần Thơ",VN
838,ChIJEY1BqvaIoDERPtZ0wuR1laU,Cửa Hàng Thùy Trang,Cửa hàng vật liệu xây dựng,+84 7103845265,"Cửa Hàng Thùy Trang, 177/28, Khu Vực Bình Dương A, Bình Thủy, Cần Thơ, Việt Nam","Long Tuyền, Bình Thủy","177/28, Khu Vực Bình Dương A",Cần Thơ,,"Bình Thủy, Cần Thơ",VN
843,ChIJA865gNqIoDERB2LQ6Ns1Ruo,Cửa Hàng Vật Liệu Xây Dựng Nam Thành 2,Cửa hàng vật liệu xây dựng,,"Cửa Hàng Vật Liệu Xây Dựng Nam Thành 2, Phong Điền, Cần Thơ, Việt Nam",Phong Điền,,Cần Thơ,,"Phong Điền, Cần Thơ",VN
844,ChIJ-aJh9WmJoDERXDUJisfCymk,Cửa Hàng Vật Liệu Xây Dựng Bảy Âu,Cửa hàng vật liệu xây dựng,+84 907 349 838,"XPP7+V5Q Cửa Hàng Vật Liệu Xây Dựng Bảy Âu, Ấp Mỹ Ái, Phong Điền, Cần Thơ, Việt Nam","Ấp Mỹ Ái, Phong Điền",XPP7+V5Q,Cần Thơ,,"Phong Điền, Cần Thơ",VN
846,ChIJ8--aDxKJoDERcoFZzDi4kms,Dntn Tấn Quang,Cửa hàng vật liệu xây dựng,,"Dntn Tấn Quang, Mỹ Khánh, Phong Điền, Cần Thơ, Việt Nam","Mỹ Khánh, Phong Điền",,Cần Thơ,,"Phong Điền, Cần Thơ",VN
847,ChIJIS5bwjKPoDERIbhfXKbcfyw,Vật Liệu Xây Dựng Hồng Thắm,Cửa hàng vật liệu xây dựng,,"Vật Liệu Xây Dựng Hồng Thắm, Phong Điền, Cần Thơ, Việt Nam",Phong Điền,,Cần Thơ,,"Phong Điền, Cần Thơ",VN
863,ChIJA_PdbY2JoDERNQgqhhNAe3I,VLXD GIÁ RẺ - Văn Anh,Cửa hàng vật liệu xây dựng,+84 356 561 417,"XPPQ+5QJ VLXD GIÁ RẺ - Văn Anh, QL61C, Ba Láng, Cái Răng, Cần Thơ, Việt Nam","Ba Láng, Cái Răng","XPPQ+5QJ, QL61C",Cần Thơ,,"Cái Răng, Cần Thơ",VN
866,ChIJFxaL-TePoDERKG25MnKP4SM,Đại Lý Kinh Doanh Thép Vas Cửa Hàng Vật Liệu Xây Dựng Minh 565,Cửa hàng vật liệu xây dựng,,"Đại Lý Kinh Doanh Thép Vas Cửa Hàng Vật Liệu Xây Dựng Minh 565, Phong Điền, Cần Thơ, Việt Nam",Phong Điền,,Cần Thơ,,"Phong Điền, Cần Thơ",VN
867,ChIJx3nyU66JoDERfQNDg9EFyB0,DNTN Tôn Lộc Phát,Cửa hàng vật liệu xây dựng,+84 939 176 868,"DNTN Tôn Lộc Phát, 124/3 Lộ Vòng Cung, An Bình, Ninh Kiều, Cần Thơ, Việt Nam","An Bình, Ninh Kiều",124/3 Lộ Vòng Cung,Cần Thơ,,"Ninh Kiều, Cần Thơ",VN
871,ChIJ47hh_d6IoDER9d8YQcw1GMg,Cơ Sở Cửa Sắt Thái Thuấn,Cửa hàng vật liệu xây dựng,,"Cơ Sở Cửa Sắt Thái Thuấn, Long Tuyền, Bình Thủy, Cần Thơ, Việt Nam","Long Tuyền, Bình Thủy",,Cần Thơ,,"Bình Thủy, Cần Thơ",VN
874,ChIJSfvUnCOKoDERhQRbA7vFbFc,Cửa Hàng Vật Liệu Xây Dựng Huỳnh Trần,Cửa hàng vật liệu xây dựng,,"Cửa Hàng Vật Liệu Xây Dựng Huỳnh Trần, Thường Thạnh, Cái Răng, Cần Thơ, Việt Nam","Thường Thạnh, Cái Răng",,Cần Thơ,,"Cái Răng, Cần Thơ",VN
875,ChIJR74fSuWJoDERTmFgUxrfGqg,Tiến Ngọc Cửa Hàng Vật Liệu Xây Dựng,Cửa hàng vật liệu xây dựng,,"Tiến Ngọc Cửa Hàng Vật Liệu Xây Dựng, Thường Thạnh, Cái Răng, Cần Thơ, Việt Nam","Thường Thạnh, Cái Răng",,Cần Thơ,,"Cái Răng, Cần Thơ",VN
876,ChIJXVeX74SJoDERU_NnDnnuDzs,Cửa Hàng Vật Liệu Xây Dựng Ngân Hà,Cửa hàng vật liệu xây dựng,+84 292 3840 956,"Cửa Hàng Vật Liệu Xây Dựng Ngân Hà, 166C, KV2 Quốc Lộ 1A, Quận Cái Răng, Ba Láng, Cái Răng, Cần Thơ, Việt Nam","Ba Láng, Cái Răng","166C, KV2 Quốc Lộ 1A, Quận Cái Răng",Cần Thơ,,"Cái Răng, Cần Thơ",VN
885,ChIJPYp-3YCJoDERa3w8g30irnc,Vật Liệu Xây Dựng TTNT Việt Hùng,Cửa hàng đồ gia dụng,+84 984 309 875,"XPCQ+PRM Vật Liệu Xây Dựng TTNT Việt Hùng, Ba Láng, Cái Răng, Cần Thơ, Việt Nam","Ba Láng, Cái Răng",XPCQ+PRM,Cần Thơ,,"Cái Răng, Cần Thơ",VN
890,ChIJRUKXzT2PoDERicA45Ai8xmo,Cửa Hàng Vật Liệu Xây Dựng Sáu Ni,Cửa hàng vật liệu xây dựng,,"Cửa Hàng Vật Liệu Xây Dựng Sáu Ni, Phong Điền, Cần Thơ, Việt Nam",Phong Điền,,Cần Thơ,,"Phong Điền, Cần Thơ",VN
891,ChIJ0VbA2ceOoDERE0Zb1fuwaU0,Cửa Hàng Vật Liệu Xây Dựng 565,Cửa hàng vật liệu xây dựng,+84 292 3850 565,"Cửa Hàng Vật Liệu Xây Dựng 565, 249 ĐT923, Ấp Nhơn, Phong Điền, Cần Thơ, Việt Nam","Ấp Nhơn, Phong Điền",249 ĐT923,Cần Thơ,,"Phong Điền, Cần Thơ",VN
903,ChIJuxLi-aCJoDER3DhMMjonQRY,Xưởng Cán Tôn Xà Gồ Toàn Thịnh,Cửa hàng vật liệu xây dựng,+84 292 3846 833,"Xưởng Cán Tôn Xà Gồ Toàn Thịnh, Đường Lộ Vòng Cung, An Bình, Ninh Kiều, Cần Thơ, Việt Nam","An Bình, Ninh Kiều",Đường Lộ Vòng Cung,Cần Thơ,,"Ninh Kiều, Cần Thơ",VN
906,ChIJB0OVk7CJoDERs0Ev3TqaPbw,Cửa Hàng VLXD Thành Tâm,Cửa hàng vật liệu xây dựng,+84 292 3846 541,"Cửa Hàng VLXD Thành Tâm, 452 Đ. Phạm Hùng, Lê Bình, Cái Răng, Cần Thơ, Việt Nam","Lê Bình, Cái Răng",452 Đ. Phạm Hùng,Cần Thơ,,"Cái Răng, Cần Thơ",VN
912,ChIJI_hd1QmJoDERIgzKSAb0npA,Cơ Sở Nhôm - Sắt - Inox Tuấn,Cửa hàng vật liệu xây dựng,,"XPXP+R2P Cơ Sở Nhôm - Sắt - Inox Tuấn, Nguyễn Văn Trường, An Bình, Ninh Kiều, Cần Thơ, Việt Nam","An Bình, Ninh Kiều","XPXP+R2P, Nguyễn Văn Trường",Cần Thơ,,"Ninh Kiều, Cần Thơ",VN
926,ChIJBWkbkbeJoDERh0Ct-hE1o14,Cửa Hàng VLXD Sáu Bé,Cửa hàng vật liệu xây dựng,+84 932 903 987,"Cửa Hàng VLXD Sáu Bé, 35/5K Trần Chiên, Lê Bình, Cái Răng, Cần Thơ, Việt Nam","Lê Bình, Cái Răng",35/5K Trần Chiên,Cần Thơ,,"Cái Răng, Cần Thơ",VN
940,ChIJCyW93r6JoDERr_Lx4tox5Lo,Cửa Hàng Thu Mua Phế Liệu,Cửa hàng vật liệu xây dựng,+84 989 019 331,"Cửa Hàng Thu Mua Phế Liệu, 295A, Khu Vực Yên Trung, Quốc Lộ 1A, Phường Lê Bình, Quận Cái Răng, Thành Phố Cần Thơ, Thường Thạnh, Cái Răng, Cần Thơ, Việt Nam","Thường Thạnh, Cái Răng","295A, Khu Vực Yên Trung, Quốc Lộ 1A, Phường Lê Bình, Quận Cái Răng, Thành Phố Cần Thơ",Cần Thơ,,"Cái Răng, Cần Thơ",VN
947,ChIJjeqnZa2JoDERZqCi79eH5-A,Cơ Sở Kỹ Nghệ Sắt Phương,Cửa hàng vật liệu xây dựng,,"Cơ Sở Kỹ Nghệ Sắt Phương, An Bình, Ninh Kiều, Cần Thơ, Việt Nam","An Bình, Ninh Kiều",,Cần Thơ,,"Ninh Kiều, Cần Thơ",VN
960,ChIJI-f87lCIoDERnDigEk3ZUkc,Công Ty Co Tư Vấn Thiết Kế Xây Dựng - Vlxd Anh Quân Cần Thơ,Cửa hàng vật liệu xây dựng,+84 292 3899 012,"Công Ty Co Tư Vấn Thiết Kế Xây Dựng - Vlxd Anh Quân Cần Thơ, 126 Nguyễn Văn Cừ Nối Dài, An Bình, Ninh Kiều, Cần Thơ, Việt Nam","An Bình, Ninh Kiều",126 Nguyễn Văn Cừ Nối Dài,Cần Thơ,,"Ninh Kiều, Cần Thơ",VN
967,ChIJWzZNZbOJoDER3TJWWVsgpiQ,Công Ty Cổ Phần Xây Dựng - Thương Mại Trương Giang,Cửa hàng vật liệu xây dựng,+84 292 3918 394,"Công Ty Cổ Phần Xây Dựng - Thương Mại Trương Giang, 110, Quốc Lộ 1A, P. An Bình, Quận Ninh Kiều, An Bình, Ninh Kiều, Cần Thơ, Việt Nam","An Bình, Ninh Kiều","110, Quốc Lộ 1A, P. An Bình, Quận Ninh Kiều",Cần Thơ,,"Ninh Kiều, Cần Thơ",VN
970,ChIJp6SK11KIoDERMiZjNRSbaQ8,Cửa Hàng Gỗ Tô Tôn,Cửa hàng vật liệu xây dựng,+84 918 171 991,"Cửa Hàng Gỗ Tô Tôn, 311, Hoàng Quốc Việt, Phường An Bình, Quận Ninh Kiều, Thành Phố Cần Thơ, An Bình, Ninh Kiều, Cần Thơ, Việt Nam","An Bình, Ninh Kiều","311, Hoàng Quốc Việt, Phường An Bình, Quận Ninh Kiều, Thành Phố Cần Thơ",Cần Thơ,,"Ninh Kiều, Cần Thơ",VN
971,ChIJZRu8qEmIoDEROrQmSwJ8Das,Cửa Hàng Đại Thắng,Cửa hàng vật liệu xây dựng,+84 936 491 426,"Cửa Hàng Đại Thắng, 5 Đ. A3, Khu dân cư 91B, Ninh Kiều, Cần Thơ, Việt Nam","Khu dân cư 91B, Ninh Kiều",5 Đ. A3,Cần Thơ,,"Ninh Kiều, Cần Thơ",VN
976,ChIJKYxso0qIoDER7NsyJEm9DrA,DNTN Xi Măng - VLXD Hồng Hà,Cửa hàng vật liệu xây dựng,+84 913 618 638,"DNTN Xi Măng - VLXD Hồng Hà, 45, Đường 3/2, Quận Ninh Kiều, TP Cần Thơ, Hưng Lợi, Ninh Kiều, Cần Thơ, Việt Nam","Hưng Lợi, Ninh Kiều","45, Đường 3/2, Quận Ninh Kiều, TP Cần Thơ",Cần Thơ,,"Ninh Kiều, Cần Thơ",VN
979,ChIJ_4z6eDWIoDERCAFJ9dveR-w,Cửa Hàng Vlxd Diễm Ngọc,Cửa hàng vật liệu xây dựng,,"Cửa Hàng Vlxd Diễm Ngọc, 69 Đ. 3 Tháng 2, Hưng Lợi, Ninh Kiều, Cần Thơ, Việt Nam","Hưng Lợi, Ninh Kiều",69 Đ. 3 Tháng 2,Cần Thơ,,"Ninh Kiều, Cần Thơ",VN
993,ChIJrbfM2SCJoDERRN4ZcVI9GYs,CỬA HÀNG THỊNH PHÁT,Cửa hàng vật liệu xây dựng,+84 932 909 779,"CỬA HÀNG THỊNH PHÁT, 551 Đ. 30 Tháng 4, Hưng Lợi, Ninh Kiều, Cần Thơ, Việt Nam","Hưng Lợi, Ninh Kiều",551 Đ. 30 Tháng 4,Cần Thơ,,"Ninh Kiều, Cần Thơ",VN
1000,ChIJK4kUQTaIoDERsTmJvIoayLg,Công Ty TNHH Một Thành Viên Đầu Tư Xây Dựng Thương Mại AKT,Cửa hàng vật liệu xây dựng,+84 966 596 652,"Công Ty TNHH Một Thành Viên Đầu Tư Xây Dựng Thương Mại AKT, 15A Hẻm 132 Đ. 3 Tháng 2, Hưng Lợi, Ninh Kiều, Cần Thơ, Việt Nam","Hưng Lợi, Ninh Kiều",15A Hẻm 132 Đ. 3 Tháng 2,Cần Thơ,,"Ninh Kiều, Cần Thơ",VN
1001,ChIJ8UlTZUiIoDERjyqWPpRQM1I,Công Ty TNHH Sản Xuất Thương Mại Z.E.N,Cửa hàng vật liệu xây dựng,+84 292 3601 889,"Công Ty TNHH Sản Xuất Thương Mại Z.E.N, 96, Đường B13, Khu Dân Cư 91B, Khu Vực 6, Phường An Khánh, Quận Ninh Kiều, Thành Phố Cần Thơ, Hưng Lợi, Ninh Kiều, Cần Thơ, Việt Nam","Hưng Lợi, Ninh Kiều","96, Đường B13, Khu Dân Cư 91B, Khu Vực 6, Phường An Khánh, Quận Ninh Kiều, Thành Phố Cần Thơ",Cần Thơ,,"Ninh Kiều, Cần Thơ",VN
1014,ChIJh8w2iTaIoDER7NokrwPB_8Q,Cửa Hàng Vlxd - Trang Trí Nội Thất Gia Khang,Cửa hàng vật liệu xây dựng,+84 292 2241 940,"Cửa Hàng Vlxd - Trang Trí Nội Thất Gia Khang, 126 Đ. 3 Tháng 2, Hưng Lợi, Ninh Kiều, Cần Thơ, Việt Nam","Hưng Lợi, Ninh Kiều",126 Đ. 3 Tháng 2,Cần Thơ,,"Ninh Kiều, Cần Thơ",VN
1019,ChIJt3moWTeIoDERCaURySzEXyM,Công Ty MTV Tin Học Việt Anh,Cửa hàng vật liệu xây dựng,+84 7106253357,"Công Ty MTV Tin Học Việt Anh, 22B QL91B, Hưng Lợi, Ninh Kiều, Cần Thơ, Việt Nam","Hưng Lợi, Ninh Kiều",22B QL91B,Cần Thơ,,"Ninh Kiều, Cần Thơ",VN
1026,ChIJcUMaz0mIoDERCQCqzGiWJeo,Gạch Men Vạn Phúc,Cửa hàng vật liệu xây dựng,,"Gạch Men Vạn Phúc, 57 Hẻm 132 Đ. 3 Tháng 2, Hưng Lợi, Ninh Kiều, Cần Thơ 900000, Việt Nam","Hưng Lợi, Ninh Kiều",57 Hẻm 132 Đ. 3 Tháng 2,Cần Thơ,900000.0,"Ninh Kiều, Cần Thơ",VN
1027,ChIJuXtDPTWIoDERcuZcf--GGtk,Công Ty TNHH TM DV VLXD Tân Phước Thịnh,Cửa hàng vật liệu xây dựng,+84 7106253454,"Công Ty TNHH TM DV VLXD Tân Phước Thịnh, 66 Hẻm 553, Hưng Lợi, Ninh Kiều, Cần Thơ, Việt Nam","Hưng Lợi, Ninh Kiều",66 Hẻm 553,Cần Thơ,,"Ninh Kiều, Cần Thơ",VN
1032,ChIJyfVuz0mIoDERDhhiVzo1Eac,Công Ty Cổ Phần Mega Meta,Cửa hàng vật liệu xây dựng,+84 939 060 838,"Công Ty Cổ Phần Mega Meta, 199 Hẻm 132 Đ. 3 Tháng 2, Hưng Lợi, Ninh Kiều, Cần Thơ, Việt Nam","Hưng Lợi, Ninh Kiều",199 Hẻm 132 Đ. 3 Tháng 2,Cần Thơ,,"Ninh Kiều, Cần Thơ",VN
1033,ChIJBVUdtjeJoDERe6wBnc-Xl0Q,Công ty TNHH Thương Mại và Dịch Vụ Diệp Thanh Bình,Cửa hàng vật liệu xây dựng,+84 292 3838 129,"Công ty TNHH Thương Mại và Dịch Vụ Diệp Thanh Bình, 219 A Hẻm 132 Đ. 3 Tháng 2, Hưng Lợi, Ninh Kiều, Cần Thơ, Việt Nam","Hưng Lợi, Ninh Kiều",219 A Hẻm 132 Đ. 3 Tháng 2,Cần Thơ,,"Ninh Kiều, Cần Thơ",VN
1036,ChIJM-zTuTWIoDERsPVMhtxthBc,Công Ty TNHH TM & Dịch Vụ Thanh Bình,Cửa hàng vật liệu xây dựng,+84 292 3781 556,"2Q86+88J Công Ty TNHH TM & Dịch Vụ Thanh Bình, Đ. Trần Hoàng Na, Hưng Lợi, Ninh Kiều, Cần Thơ, Việt Nam","Hưng Lợi, Ninh Kiều","2Q86+88J, Đ. Trần Hoàng Na",Cần Thơ,,"Ninh Kiều, Cần Thơ",VN
1040,ChIJx9cXAUGIoDERxYdCRKEuz0E,Cửa Hàng VLXD Minh Kha,Cửa hàng vật liệu xây dựng,+84 913 618 848,"2QJ4+95R Cửa Hàng VLXD Minh Kha, Đường 7A, Phường An Khánh, Ninh Kiều, Cần Thơ, Việt Nam","Phường An Khánh, Ninh Kiều","2QJ4+95R, Đường 7A",Cần Thơ,,"Ninh Kiều, Cần Thơ",VN
1054,ChIJ-eCnlDSIoDERgUVhjLe1_HA,Công Ty TNHH TM Dịch Vụ Chống Thấm Tây Đô,Cửa hàng vật liệu xây dựng,+84 979 888 842,"Công Ty TNHH TM Dịch Vụ Chống Thấm Tây Đô, 5 Đ. Trần Hoàng Na, Hưng Lợi, Ninh Kiều, Cần Thơ, Việt Nam","Hưng Lợi, Ninh Kiều",5 Đ. Trần Hoàng Na,Cần Thơ,,"Ninh Kiều, Cần Thơ",VN
1066,ChIJO5t8Sc2JoDER9Rf0K7b7hTA,Cửa Hàng Vlxd Mai Tâm,Cửa hàng vật liệu xây dựng,+84 292 6276 343,"Cửa Hàng Vlxd Mai Tâm, 117 Tầm Vu, Hưng Lợi, Ninh Kiều, Cần Thơ, Việt Nam","Hưng Lợi, Ninh Kiều",117 Tầm Vu,Cần Thơ,,"Ninh Kiều, Cần Thơ",VN
1070,ChIJE5ItdzWIoDER_piOJ9gUYhA,Phat Cuong Iron-Steel Product Private Enterprise,Cửa hàng vật liệu xây dựng,+84 292 3824 856,"Phat Cuong Iron-Steel Product Private Enterprise, 77B, 3/2 Street, Hung Loi Ward, Ninh Kieu District, Can Tho City, Hưng Lợi, Ninh Kiều, Cần Thơ, Việt Nam","Hưng Lợi, Ninh Kiều","77B, 3/2 Street, Hung Loi Ward, Ninh Kieu District, Can Tho City",Cần Thơ,,"Ninh Kiều, Cần Thơ",VN
1072,ChIJWfWNUzOIoDERTBRs_5-hdv0,DNTN TM DV Sơn Tĩnh Điện Kiều Anh,Cửa hàng vật liệu xây dựng,+84 7103840537,"DNTN TM DV Sơn Tĩnh Điện Kiều Anh, 58, Đường Đ. Trần Hoàng Na, Hưng Lợi, Ninh Kiều, Cần Thơ, Việt Nam","Hưng Lợi, Ninh Kiều","58, Đường Đ. Trần Hoàng Na",Cần Thơ,,"Ninh Kiều, Cần Thơ",VN
1075,ChIJYay8HM2JoDER5o2S_Qe2xk4,Dntn Thương Mại Phúc Vinh,Cửa hàng vật liệu xây dựng,+84 292 3838 977,"Dntn Thương Mại Phúc Vinh, 156 Tầm Vu, Hưng Lợi, Ninh Kiều, Cần Thơ, Việt Nam","Hưng Lợi, Ninh Kiều",156 Tầm Vu,Cần Thơ,,"Ninh Kiều, Cần Thơ",VN
1083,ChIJS_07q8qJoDERkD3P1Re4t04,Công Ty TNHH MTV Nhân Nhân Hậu,Cửa hàng vật liệu xây dựng,+84 7106253503,"Công Ty TNHH MTV Nhân Nhân Hậu, 36K Đường 3-2, Hưng Lợi, Ninh Kiều, Cần Thơ, Việt Nam","Hưng Lợi, Ninh Kiều",36K Đường 3-2,Cần Thơ,,"Ninh Kiều, Cần Thơ",VN
1124,ChIJnzfF0yOIoDERgcBn2TlVufs,Doanh Nghiệp Tư Nhân Thép V Đa Năng Có Lỗ Phú Nguyên,Cửa hàng vật liệu xây dựng,+84 918 119 961,"Doanh Nghiệp Tư Nhân Thép V Đa Năng Có Lỗ Phú Nguyên, 5/2, Bờ Hồ, Đ. Mậu Thân, Xuân Khánh, Ninh Kiều, Cần Thơ, Việt Nam","Xuân Khánh, Ninh Kiều","5/2, Bờ Hồ, Đ. Mậu Thân",Cần Thơ,,"Ninh Kiều, Cần Thơ",VN
1129,ChIJ_4zKuSSIoDERSPgSOT1kdIo,Công Ty TNHH MTV TM Dịch Vụ Huỳnh Hải Phụng,Cửa hàng vật liệu xây dựng,+84 943 557 766,"Công Ty TNHH MTV TM Dịch Vụ Huỳnh Hải Phụng, 5A Đ. 30 Tháng 4, Xuân Khánh, Ninh Kiều, Cần Thơ, Việt Nam","Xuân Khánh, Ninh Kiều",5A Đ. 30 Tháng 4,Cần Thơ,,"Ninh Kiều, Cần Thơ",VN
1135,ChIJD0eLtGqIoDERgz9F5lFsNDo,Cửa Hàng Thiết Bị Xây Dựng Lê Nam,Cửa hàng vật liệu xây dựng,+84 989 798 477,"Cửa Hàng Thiết Bị Xây Dựng Lê Nam, 18, Liên Tổ 2 - 3, Nguyễn Văn Cừ Nối Dài, Phường An Khánh, Quận Ninh Kiều, Thành Phố Cần Thơ, Phường An Khánh, Ninh Kiều, Cần Thơ, Việt Nam","Phường An Khánh, Ninh Kiều","18, Liên Tổ 2 - 3, Nguyễn Văn Cừ Nối Dài, Phường An Khánh, Quận Ninh Kiều, Thành Phố Cần Thơ",Cần Thơ,,"Ninh Kiều, Cần Thơ",VN
1166,ChIJRc93OSCIoDERlrMxcLlLk3M,Cửa Hàng Thép Phú Nguyên,Cửa hàng vật liệu xây dựng,+84 292 2214 086,"Cửa Hàng Thép Phú Nguyên, Đường Đ. Nguyễn Việt Hồng, An Lạc, Ninh Kiều, Cần Thơ, Việt Nam","An Lạc, Ninh Kiều",Đường Đ. Nguyễn Việt Hồng,Cần Thơ,,"Ninh Kiều, Cần Thơ",VN
1188,ChIJQejRBJ9ioDERvABjHEClYp0,Cửa Hàng Phụng Nga Kinh Doanh Vật Tư Công Nghiệp,Cửa hàng vật liệu xây dựng,+84 292 3814 811,"Cửa Hàng Phụng Nga Kinh Doanh Vật Tư Công Nghiệp, 25, Đường Điện Biên Phủ, Quận Ninh Kiều, Tp Cần Thơ, Tân An, Ninh Kiều, Cần Thơ, Việt Nam","Tân An, Ninh Kiều","25, Đường Điện Biên Phủ, Quận Ninh Kiều, Tp Cần Thơ",Cần Thơ,,"Ninh Kiều, Cần Thơ",VN
1189,ChIJk-nJAp9ioDERzTzmr7kmqhw,Cửa Hàng Thiết Bị Cơ Khí Trung,Cửa hàng vật liệu xây dựng,+84 919 505 445,"Cửa Hàng Thiết Bị Cơ Khí Trung, 71, Đường Ngô Đức Kế, Tân An, Ninh Kiều, Cần Thơ, Việt Nam","Tân An, Ninh Kiều","71, Đường Ngô Đức Kế",Cần Thơ,,"Ninh Kiều, Cần Thơ",VN
1192,ChIJL_r_qJ9ioDERHajP0IwIMvw,Cửa Hàng Sắt Thép Chi Bu Loong,Cửa hàng vật liệu xây dựng,+84 292 3824 790,"Cửa Hàng Sắt Thép Chi Bu Loong, 110, Đường Ngô Đức Kế, Tân An, Ninh Kiều, Cần Thơ, Việt Nam","Tân An, Ninh Kiều","110, Đường Ngô Đức Kế",Cần Thơ,,"Ninh Kiều, Cần Thơ",VN
1197,ChIJdcIj0J1ioDERKJjqBXekHt0,Cửa Hàng VLXD Mai Hoa 1,Cửa hàng vật liệu xây dựng,+84 292 3827 736,"Cửa Hàng VLXD Mai Hoa 1, 14 Nguyễn Thị Minh Khai, Tân An, Ninh Kiều, Cần Thơ, Việt Nam","Tân An, Ninh Kiều",14 Nguyễn Thị Minh Khai,Cần Thơ,,"Ninh Kiều, Cần Thơ",VN
