,place_id,name,main_category,phone,address,address_ward,address_street,address_city,address_postal_code,address_state,address_country_code
0,ChIJJeaXxf6JoDER4-1cQ49XMHk,CellphoneS Cần Thơ,Cửa hàng máy tính,+84 28 7100 9272,"CellphoneS Cần Thơ, 272 Đ. 30 Tháng 4, Hưng Lợi, Ninh Kiều, Cần Thơ 900000, Việt Nam","Hưng Lợi, Ninh Kiều",272 Đ. 30 Tháng 4,Cần Thơ,900000.0,"Ninh Kiều, Cần Thơ",VN
1,ChIJyShuuTCIoDERJ0vRVxlMw3U,Siêu thị Thế Giới Di Động,Cửa hàng điện thoại di động,+84 1900 232460,"Siêu thị Thế Giới Di Động, 217 Hẻm 132 Đ. 3 Tháng 2, P, Ninh Kiều, Cần Thơ 94000, Việt Nam","P, Ninh Kiều",217 Hẻm 132 Đ. 3 Tháng 2,Cần Thơ,94000.0,"Ninh Kiều, Cần Thơ",VN
16,ChIJb3RfZzqIoDER4PV_KrSl5Hc,Di Động Rẻ by Di Động Thông Minh,Cửa hàng điện thoại di động,+84 911 108 855,"Di Động Rẻ by Di Động Thông Minh, 184A Đ. 3 Tháng 2, Hưng Lợi, Ninh Kiều, Cần Thơ, Việt Nam","Hưng Lợi, Ninh Kiều",184A Đ. 3 Tháng 2,Cần Thơ,,"Ninh Kiều, Cần Thơ",VN
25,ChIJl6LSChOIoDERSRE1820HPNM,Ép kính điện thoại Nguyễn An Cần Thơ,Cửa hàng điện thoại di động,+84 888 797 334,"Ép kính điện thoại Nguyễn An Cần Thơ, 48 Đ. Mậu Thân, An Nghiệp, Ninh Kiều, Cần Thơ, Việt Nam","An Nghiệp, Ninh Kiều",48 Đ. Mậu Thân,Cần Thơ,,"Ninh Kiều, Cần Thơ",VN
33,ChIJ45LnXzqIoDERvQB-QiEDX20,Siêu thị Điện máy XANH,Cửa hàng bán đồ điện tử,+84 1900 232461,"Siêu thị Điện máy XANH, 172B Đường 3, 2 Đ. 3 Tháng 2, Hưng Lợi, Ninh Kiều, Cần Thơ 94000, Việt Nam","Hưng Lợi, Ninh Kiều","172B Đường 3, 2 Đ. 3 Tháng 2",Cần Thơ,94000.0,"Ninh Kiều, Cần Thơ",VN
41,ChIJvSnTPSZjoDEROjZ3gp-p80I,duongphi.com - Cần Thơ,Cửa hàng điện thoại di động,+84 1900 3121,"duongphi.com - Cần Thơ, 76 Nguyễn Trãi, An Hội, Ninh Kiều, Cần Thơ 94000, Việt Nam","An Hội, Ninh Kiều",76 Nguyễn Trãi,Cần Thơ,94000.0,"Ninh Kiều, Cần Thơ",VN
48,ChIJJzJ2ZjOJoDERxEFFd7yMLWQ,Siêu thị Thế Giới Di Động,Cửa hàng điện thoại di động,+84 1900 232460,"Siêu thị Thế Giới Di Động, 305V Nguyễn Văn Linh, Khu Vực 3, P, Ninh Kiều, Cần Thơ 94000, Việt Nam","P, Ninh Kiều","305V Nguyễn Văn Linh, Khu Vực 3",Cần Thơ,94000.0,"Ninh Kiều, Cần Thơ",VN
50,ChIJoWjOraFioDERMFNgcvEgUdo,Siêu thị Điện máy XANH,Cửa hàng bán đồ điện tử,+84 1900 232461,"Siêu thị Điện máy XANH, Số 08 Hòa Bình, P, Ninh Kiều, 94000, Việt Nam","P, Ninh Kiều",Số 08 Hòa Bình,Cần Thơ,94000.0,"Ninh Kiều, Cần Thơ",VN
55,ChIJSYbJvwOIoDER4BWs2D8l9bw,Siêu thị Thế Giới Di Động,Cửa hàng điện thoại di động,+84 1900 232460,"Siêu thị Thế Giới Di Động, 35B Đ. Cách Mạng Tháng 8, Thới Bình, Ninh Kiều, Cần Thơ 920000, Việt Nam","Thới Bình, Ninh Kiều",35B Đ. Cách Mạng Tháng 8,Cần Thơ,920000.0,"Ninh Kiều, Cần Thơ",VN
59,ChIJDRigsx6IoDERlGl5bkb1AWE,FPT Shop,Cửa hàng điện thoại di động,+84 1800 6601,"FPT Shop, 83 Đ. Trần Hưng Đạo, An Phú, Ninh Kiều, Cần Thơ, Việt Nam","An Phú, Ninh Kiều",83 Đ. Trần Hưng Đạo,Cần Thơ,,"Ninh Kiều, Cần Thơ",VN
67,ChIJlYL9tDCIoDER4k4t8fQq70k,FPT Shop,Cửa hàng điện thoại di động,+84 1800 6601,"FPT Shop, 198B Hẻm 132 Đ. 3 Tháng 2, Hưng Lợi, Ninh Kiều, Cần Thơ, Việt Nam","Hưng Lợi, Ninh Kiều",198B Hẻm 132 Đ. 3 Tháng 2,Cần Thơ,,"Ninh Kiều, Cần Thơ",VN
69,ChIJV5IfL6lioDERqRBqd3ttzgI,Siêu Thị Điện Máy Nội Thất Chợ Lớn,Cửa hàng bán đồ điện tử,+84 28 3856 3388,"Siêu Thị Điện Máy Nội Thất Chợ Lớn, 112 Trần Phú, Cái Khế, Ninh Kiều, Cần Thơ 90000, Việt Nam","Cái Khế, Ninh Kiều",112 Trần Phú,Cần Thơ,90000.0,"Ninh Kiều, Cần Thơ",VN
70,ChIJyxFsbB2IoDERMDa-beoiL3Y,Trung Tâm Sửa Chữa Điện Thoại Kim Ánh,Cửa hàng điện thoại di động,+84 939 967 386,"Trung Tâm Sửa Chữa Điện Thoại Kim Ánh, 306C Đ. Nguyễn Văn Linh, Phường An Khánh, Ninh Kiều, Cần Thơ, Việt Nam","Phường An Khánh, Ninh Kiều",306C Đ. Nguyễn Văn Linh,Cần Thơ,,"Ninh Kiều, Cần Thơ",VN
85,ChIJBxMuRbqJoDEREQhSX5r0ZxE,"Siêu thị Điện máy XANH Cái Răng, Cần Thơ",Cửa hàng bán đồ điện tử,+84 1900 232461,"Siêu thị Điện máy XANH Cái Răng, Cần Thơ, Yên Hạ, Lê Bình, Cái Răng, Cần Thơ 94000, Việt Nam","Lê Bình, Cái Răng",Yên Hạ,Cần Thơ,94000.0,"Cái Răng, Cần Thơ",VN
86,ChIJPw1xhbRjoDERnAjR8eGYBuM,102 Store,Cửa hàng điện thoại di động,+84 909 885 102,"102 Store, 27 Phan Đình Phùng, Tân An, Ninh Kiều, Cần Thơ, Việt Nam","Tân An, Ninh Kiều",27 Phan Đình Phùng,Cần Thơ,,"Ninh Kiều, Cần Thơ",VN
94,ChIJ4dJkaA-IoDER9-afKI7oMcw,"Thành Mobile - sửa điện thoại cần thơ, thay kính điện thoại lấy liền tại cần thơ,thay Pin",Dịch vụ sửa chữa điện thoại,+84 988 888 367,"Thành Mobile - sửa điện thoại cần thơ, thay kính điện thoại lấy liền tại cần thơ,thay Pin, tp, 188 Đ. Nguyễn Văn Cừ, An Hoà, Ninh Kiều, Cần Thơ 900000, Việt Nam","An Hoà, Ninh Kiều","tp, 188 Đ. Nguyễn Văn Cừ",Cần Thơ,900000.0,"Ninh Kiều, Cần Thơ",VN
108,ChIJryMggh2IoDER8s2MYHn5x5c,Showroom iTamLoan,Cửa hàng điện thoại di động,+84 1900 6459,"Showroom iTamLoan, 46-48 Trần Văn Khéo, An Hội, Ninh Kiều, Cần Thơ 900000, Việt Nam","An Hội, Ninh Kiều",46-48 Trần Văn Khéo,Cần Thơ,900000.0,"Ninh Kiều, Cần Thơ",VN
115,ChIJQ5kf7V-JoDERyB1ukcK7wu8,Hoàng Hà Mobile,Cửa hàng điện thoại di động,+84 828 522 255,"Hoàng Hà Mobile, 221 Đ. 3 Tháng 2, Hưng Lợi, Ninh Kiều, Cần Thơ 900000, Việt Nam","Hưng Lợi, Ninh Kiều",221 Đ. 3 Tháng 2,Cần Thơ,900000.0,"Ninh Kiều, Cần Thơ",VN
118,ChIJZe9nlBGIoDERHj-QSA4szpY,"Siêu thị Điện máy XANH Mậu Thân, Cần Thơ",Cửa hàng bán đồ điện tử,+84 1900 232461,"Siêu thị Điện máy XANH Mậu Thân, Cần Thơ, 43 Đ. Mậu Thân, An Hoà, Ninh Kiều, Cần Thơ 94000, Việt Nam","An Hoà, Ninh Kiều",43 Đ. Mậu Thân,Cần Thơ,94000.0,"Ninh Kiều, Cần Thơ",VN
121,ChIJj3Ntc0eJoDERIjmPNzf-jHE,Cửa hàng Điện Thoại Hoàng Long,Cửa hàng điện thoại di động,+84 934 175 111,"Cửa hàng Điện Thoại Hoàng Long, 13 Đ. Trần Ngọc Quế, Xuân Khánh, Ninh Kiều, Cần Thơ 920000, Việt Nam","Xuân Khánh, Ninh Kiều",13 Đ. Trần Ngọc Quế,Cần Thơ,920000.0,"Ninh Kiều, Cần Thơ",VN
136,ChIJNR__MDeIoDERrVEw_HflcEM,"Siêu Thị Điện Thoại, Laptop Phương Tùng",Cửa hàng điện thoại di động,+84 1800 6869,"Siêu Thị Điện Thoại, Laptop Phương Tùng, 211 Đ. 3 Tháng 2, Hưng Lợi, Ninh Kiều, Cần Thơ 940000, Việt Nam","Hưng Lợi, Ninh Kiều",211 Đ. 3 Tháng 2,Cần Thơ,940000.0,"Ninh Kiều, Cần Thơ",VN
151,ChIJPZoj-MKHoDEROMteWddIFbg,Siêu thị Điện máy XANH,Cửa hàng bán đồ điện tử,+84 1900 232461,"Siêu thị Điện máy XANH, 115 Đ. Cách Mạng Tháng 8, Bùi Hữu Nghĩa, Bình Thủy, Cần Thơ 270000, Việt Nam","Bùi Hữu Nghĩa, Bình Thủy",115 Đ. Cách Mạng Tháng 8,Cần Thơ,270000.0,"Bình Thủy, Cần Thơ",VN
152,ChIJYYvNCz2JoDERIkD_ETEpRb4,"Hoàng Anh Mobile - Cửa hàng bán lẻ điện thoại di động, smartphone, phụ kiện chính hãng Cần Thơ.",Cửa hàng điện thoại di động,+84 941 944 448,"Hoàng Anh Mobile - Cửa hàng bán lẻ điện thoại di động, smartphone, phụ kiện chính hãng Cần Thơ., 73 Đ. Cách Mạng Tháng 8, An Hoà, Ninh Kiều, Cần Thơ, Việt Nam","An Hoà, Ninh Kiều",73 Đ. Cách Mạng Tháng 8,Cần Thơ,,"Ninh Kiều, Cần Thơ",VN
165,ChIJy42CTCGIoDERLwLay5Fnns4,Phương Tùng Luxury Store Chi Nhánh 30/4,Cửa hàng điện thoại di động,+84 1800 6869,"Phương Tùng Luxury Store Chi Nhánh 30/4, 192 Đ. 30 Tháng 4, Xuân Khánh, Ninh Kiều, Cần Thơ, Việt Nam","Xuân Khánh, Ninh Kiều",192 Đ. 30 Tháng 4,Cần Thơ,,"Ninh Kiều, Cần Thơ",VN
178,ChIJOSN4beVjoDERk-nVpeDzRIc,102 Store - Phụ kiện điện thoại cần thơ,Cửa hàng phụ kiện điện thoại di động,+84 918 888 874,"102 Store - Phụ kiện điện thoại cần thơ, 45 Đ.Xô Viết Nghệ Tĩnh, An Hội, Ninh Kiều, Cần Thơ, Việt Nam","An Hội, Ninh Kiều",45 Đ.Xô Viết Nghệ Tĩnh,Cần Thơ,,"Ninh Kiều, Cần Thơ",VN
184,ChIJ2Q8VQRqIoDER8BuXEZsciGM,Tứ Quí Care - Sửa chữa và thay kính điện thoại Cần Thơ,Cửa hàng điện thoại di động,+84 943 498 269,"Tứ Quí Care - Sửa chữa và thay kính điện thoại Cần Thơ, 2B Đ. Mậu Thân, An Phú, Ninh Kiều, Cần Thơ 94000, Việt Nam","An Phú, Ninh Kiều",2B Đ. Mậu Thân,Cần Thơ,94000.0,"Ninh Kiều, Cần Thơ",VN
199,ChIJ90mWDahioDERpwoy0Z9tkpo,Phụ Kiện - Linh Kiện - Ép Kính | Hùng Phát,Công ty điện thoại,+84 292 6262 929,"Phụ Kiện - Linh Kiện - Ép Kính | Hùng Phát, 40 Trần Văn Khéo, An Hội, Ninh Kiều, Cần Thơ 900000, Việt Nam","An Hội, Ninh Kiều",40 Trần Văn Khéo,Cần Thơ,900000.0,"Ninh Kiều, Cần Thơ",VN
208,ChIJfZMwM2pjoDERorvVy-bfXr0,Ken Táo,Cửa hàng điện thoại di động,+84 858 585 585,"Ken Táo, 9 Đ. Nguyễn Văn Cừ, An Hoà, Ninh Kiều, Cần Thơ, Việt Nam","An Hoà, Ninh Kiều",9 Đ. Nguyễn Văn Cừ,Cần Thơ,,"Ninh Kiều, Cần Thơ",VN
213,ChIJT0_B6xCJoDERnUsB8v6TImw,"Phukien4U.vn - Phụ kiện điện thoại chính hãng, Sửa điện thoại tại Cần Thơ",Cửa hàng,+84 337 479 669,"Phukien4U.vn - Phụ kiện điện thoại chính hãng, Sửa điện thoại tại Cần Thơ, 90A/3 Đường 3/2, P. An Bình, Q, Ninh Kiều, Cần Thơ, Việt Nam","An Bình, Ninh Kiều","90A/3 Đường 3/2, P. An Bình, Q",Cần Thơ,,"Ninh Kiều, Cần Thơ",VN
219,ChIJddwY9YGJoDERthmbXWw-tYk,CƯỜNG MOBILE CẦN THƠ,Cửa hàng điện thoại di động,+84 911 774 444,"CƯỜNG MOBILE CẦN THƠ, 119 Xô Viết Nghĩa Tĩnh, P, Ninh Kiều, Cần Thơ 900000, Việt Nam","P, Ninh Kiều",119 Xô Viết Nghĩa Tĩnh,Cần Thơ,900000.0,"Ninh Kiều, Cần Thơ",VN
222,ChIJ28skeBSJoDERZ_hxVN31Yow,Di Động Việt,Cửa hàng điện thoại di động,+84 1800 6018,"Di Động Việt, 24B Nguyễn Trãi, Thới Bình, Ninh Kiều, Cần Thơ 900000, Việt Nam","Thới Bình, Ninh Kiều",24B Nguyễn Trãi,Cần Thơ,900000.0,"Ninh Kiều, Cần Thơ",VN
237,ChIJayLS8CCIoDERNPdYWqLPIfY,Phụ Kiện Số - 133A Xô Viết Nghệ Tỉnh,Cửa hàng phụ kiện điện thoại di động,+84 292 6544 134,"Phụ Kiện Số - 133A Xô Viết Nghệ Tỉnh, 133A Đ.Xô Viết Nghệ Tĩnh, An Cư, Ninh Kiều, Cần Thơ 94000, Việt Nam","An Cư, Ninh Kiều",133A Đ.Xô Viết Nghệ Tĩnh,Cần Thơ,94000.0,"Ninh Kiều, Cần Thơ",VN
243,ChIJ0WpT6hyIoDER4A9un5ShZy8,Di Động Thiên Minh,Cửa hàng điện thoại di động,+84 919 325 545,"Di Động Thiên Minh, 110 Hùng Vương, An Cư, Ninh Kiều, Cần Thơ, Việt Nam","An Cư, Ninh Kiều",110 Hùng Vương,Cần Thơ,,"Ninh Kiều, Cần Thơ",VN
244,ChIJDcMWcAiJoDERqzha_s_kEPI,Mạnh Cường Mobile Cần Thơ,Cửa hàng bán đồ điện tử,+84 912 446 646,"Mạnh Cường Mobile Cần Thơ, 24 Hùng Vương, Thới Bình, Ninh Kiều, Cần Thơ, Việt Nam","Thới Bình, Ninh Kiều",24 Hùng Vương,Cần Thơ,,"Ninh Kiều, Cần Thơ",VN
251,ChIJW5tZ98OJoDERtk4AJA4iDZM,Siêu thị Điện máy XANH,Cửa hàng bán đồ điện tử,+84 1900 232461,"Siêu thị Điện máy XANH, 01 Bis, KDC, 91B Đ. Nguyễn Văn Linh, Phường An Khánh, Ninh Kiều, Cần Thơ 94000, Việt Nam","Phường An Khánh, Ninh Kiều","01 Bis, KDC, 91B Đ. Nguyễn Văn Linh",Cần Thơ,94000.0,"Ninh Kiều, Cần Thơ",VN
252,ChIJ8WuG5NyJoDERgSoTUUt-1Ho,Táo Luxury,Cửa hàng điện thoại di động,+84 857 777 485,"Táo Luxury, 6A Cách Mạnh Tháng Tám, Cái Khế, Ninh Kiều, Cần Thơ 900000, Việt Nam","Cái Khế, Ninh Kiều",6A Cách Mạnh Tháng Tám,Cần Thơ,900000.0,"Ninh Kiều, Cần Thơ",VN
255,ChIJw4alvuiJoDERWaSLJP9kne4,Thanh Táo Store,Cửa hàng điện thoại di động,+84 783 756 666,"Thanh Táo Store, 4 Đ. Đinh Tiên Hoàng, An Hội, Ninh Kiều, Cần Thơ, Việt Nam","An Hội, Ninh Kiều",4 Đ. Đinh Tiên Hoàng,Cần Thơ,,"Ninh Kiều, Cần Thơ",VN
256,ChIJA5_r5x-JoDERQ_FX757N5-4,Phụ Kiện Xịn,Cửa hàng phụ kiện điện thoại di động,+84 837 327 456,"Phụ Kiện Xịn, 144 Đ. Nguyễn Việt Hồng, Xuân Khánh, Ninh Kiều, Cần Thơ, Việt Nam","Xuân Khánh, Ninh Kiều",144 Đ. Nguyễn Việt Hồng,Cần Thơ,,"Ninh Kiều, Cần Thơ",VN
260,ChIJWaio91eJoDERVq22PtIr8CA,N. HOÁ STORE,Cửa hàng điện thoại di động,+84 565 678 928,"N. HOÁ STORE, 04 Đ. 3 Tháng 2, Hưng Lợi, Ninh Kiều, Cần Thơ, Việt Nam","Hưng Lợi, Ninh Kiều",04 Đ. 3 Tháng 2,Cần Thơ,,"Ninh Kiều, Cần Thơ",VN
266,ChIJyUHW15-JoDERmcl6_JTFUas,24H MOBILE,Cửa hàng điện thoại di động,+84 978 221 952,"24H MOBILE, 577 Đ. 30 Tháng 4, Hưng Lợi, Ninh Kiều, Cần Thơ, Việt Nam","Hưng Lợi, Ninh Kiều",577 Đ. 30 Tháng 4,Cần Thơ,,"Ninh Kiều, Cần Thơ",VN
267,ChIJI9yY54JjoDERmbZRmZGdFis,Hoàng Hà Mobile,Cửa hàng điện thoại di động,+84 794 308 899,"Hoàng Hà Mobile, 11 Đại lộ Hoà Bình, Tân An, Ninh Kiều, Cần Thơ 900000, Việt Nam","Tân An, Ninh Kiều",11 Đại lộ Hoà Bình,Cần Thơ,900000.0,"Ninh Kiều, Cần Thơ",VN
272,ChIJ6ZHcPWCHoDER0fhpB8G_iOA,Siêu thị Điện máy XANH,Cửa hàng bán đồ điện tử,+84 1900 232461,"Siêu thị Điện máy XANH, Hẻm 115 Cách Mạng Tháng Tám, An Thới, Bình Thủy, Cần Thơ 94000, Việt Nam","An Thới, Bình Thủy",Hẻm 115 Cách Mạng Tháng Tám,Cần Thơ,94000.0,"Bình Thủy, Cần Thơ",VN
278,ChIJNTQWR2VjoDERPY1G_8yUJN0,DI ĐỘNG BULL,Cửa hàng điện thoại di động,+84 899 499 444,"DI ĐỘNG BULL, 24 Đ. Mậu Thân, An Nghiệp, Ninh Kiều, Cần Thơ 94154, Việt Nam","An Nghiệp, Ninh Kiều",24 Đ. Mậu Thân,Cần Thơ,94154.0,"Ninh Kiều, Cần Thơ",VN
281,ChIJYZ-FE8SJoDEREHWhpr9OmP4,Nguyên Mobile Cần Thơ,Cửa hàng điện thoại di động,+84 902 461 740,"Nguyên Mobile Cần Thơ, 77 Đường số 23, Khu Dân Cư, Ninh Kiều, Cần Thơ, Việt Nam","Khu Dân Cư, Ninh Kiều",77 Đường số 23,Cần Thơ,,"Ninh Kiều, Cần Thơ",VN
283,ChIJ25v-soGJoDERppd2BcjtFRM,Nguyễn Đoàn apple,Cửa hàng bán đồ điện tử,+84 901 044 400,"Nguyễn Đoàn apple, 53 Đ. Trần Hoàng Na, Hưng Lợi, Ninh Kiều, Cần Thơ 90004, Việt Nam","Hưng Lợi, Ninh Kiều",53 Đ. Trần Hoàng Na,Cần Thơ,90004.0,"Ninh Kiều, Cần Thơ",VN
285,ChIJw8bofl-JoDERsb-THXpTktc,Cảnh Phúc Mobile,Cửa hàng điện thoại di động,+84 583 020 097,"Cảnh Phúc Mobile, 9/2 Phạm Ngọc Hưng, Phường An Khánh, Bình Thủy, Cần Thơ, Việt Nam","Phường An Khánh, Bình Thủy",9/2 Phạm Ngọc Hưng,Cần Thơ,,"Bình Thủy, Cần Thơ",VN
287,ChIJ_yyx3neJoDERxWyhiGYGrRI,Vy Shop ( phụ kiện điện thoại),Cửa hàng điện thoại di động,,"Vy Shop ( phụ kiện điện thoại), 49 Đ. 3 Tháng 2, Xuân Khánh, Ninh Kiều, Cần Thơ, Việt Nam","Xuân Khánh, Ninh Kiều",49 Đ. 3 Tháng 2,Cần Thơ,,"Ninh Kiều, Cần Thơ",VN
302,ChIJJ93aDV-JoDERm1_oRI5bumU,"Tứ Quí Care 2 - Sửa chữa điện thoại, thay kính điện thoại tại Cần Thơ",Cửa hàng sửa chữa điện thoại di động,+84 901 044 299,"Tứ Quí Care 2 - Sửa chữa điện thoại, thay kính điện thoại tại Cần Thơ, 121 Đ.Xô Viết Nghệ Tĩnh, An Cư, Ninh Kiều, Cần Thơ 94000, Việt Nam","An Cư, Ninh Kiều",121 Đ.Xô Viết Nghệ Tĩnh,Cần Thơ,94000.0,"Ninh Kiều, Cần Thơ",VN
311,ChIJM0zmqwuJoDERLc8VRBmtKBY,TU STORE,Cửa hàng điện thoại di động,+84 939 670 123,"TU STORE, 224C Đ. Nguyễn Văn Cừ, An Hoà, Ninh Kiều, Cần Thơ, Việt Nam","An Hoà, Ninh Kiều",224C Đ. Nguyễn Văn Cừ,Cần Thơ,,"Ninh Kiều, Cần Thơ",VN
312,ChIJgx5oi2KJoDEReyrhv1gpK6w,Anh Huy Store Cần Thơ,Cửa hàng điện thoại di động,+84 947 144 441,"Anh Huy Store Cần Thơ, 39 Hẻm 132 Đ. 3 Tháng 2, Xuân Khánh, Ninh Kiều, Cần Thơ 900000, Việt Nam","Xuân Khánh, Ninh Kiều",39 Hẻm 132 Đ. 3 Tháng 2,Cần Thơ,900000.0,"Ninh Kiều, Cần Thơ",VN
313,ChIJx4v8alyJoDERr83Ud5Q9djA,Siêu thị TopZone - Hệ thống cửa hàng Apple chính hãng 100%,Cửa hàng điện thoại di động,+84 1900 969642,"Siêu thị TopZone - Hệ thống cửa hàng Apple chính hãng 100%, Số 08 Hoà Bình, P, Ninh Kiều, Cần Thơ 94000, Việt Nam","P, Ninh Kiều",Số 08 Hoà Bình,Cần Thơ,94000.0,"Ninh Kiều, Cần Thơ",VN
314,ChIJX-ByD9-JoDERaa3MEVycKVY,Siêu thị Thế Giới Di Động,Cửa hàng điện thoại di động,+84 1900 232460,"Siêu thị Thế Giới Di Động, 403 Đ. Nguyễn Văn Cừ, An Hoà, Ninh Kiều, Cần Thơ 94000, Việt Nam","An Hoà, Ninh Kiều",403 Đ. Nguyễn Văn Cừ,Cần Thơ,94000.0,"Ninh Kiều, Cần Thơ",VN
321,ChIJq6Zsq0GJoDER_gnuWOFv8rc,Điện thoại di động Dương Linh,Cửa hàng điện thoại di động,+84 932 896 860,"Điện thoại di động Dương Linh, 388A/35, Nguyễn Văn Cừ Nối Dài, KV2, Ninh Kiều, Cần Thơ 900000, Việt Nam","KV2, Ninh Kiều","388A/35, Nguyễn Văn Cừ Nối Dài",Cần Thơ,900000.0,"Ninh Kiều, Cần Thơ",VN
333,ChIJ0yts0OaJoDER8QpOlk31LOw,Ép Kính Chấn Phong Cần Thơ,Cửa hàng điện thoại di động,+84 901 042 575,"Ép Kính Chấn Phong Cần Thơ, 112/46 Hẻm 112 Đ. 3 Tháng 2, Hưng Lợi, Ninh Kiều, Cần Thơ 900000, Việt Nam","Hưng Lợi, Ninh Kiều",112/46 Hẻm 112 Đ. 3 Tháng 2,Cần Thơ,900000.0,"Ninh Kiều, Cần Thơ",VN
334,ChIJwUxH3y2JoDERvB2p3MjXavM,Gaming phone Cần Thơ,Cửa hàng điện thoại di động,+84 988 775 119,"Gaming phone Cần Thơ, 278A1/8 Đ. Trần Vĩnh Kiết, Khu vực 2, Ninh Kiều, Cần Thơ, Việt Nam","Khu vực 2, Ninh Kiều",278A1/8 Đ. Trần Vĩnh Kiết,Cần Thơ,,"Ninh Kiều, Cần Thơ",VN
335,ChIJVxJb026JoDEREBURNLOrh0w,Quý Mobile,Cửa hàng điện thoại di động,+84 845 456 456,"Quý Mobile, 486 Đường 30/4, Hưng Lợi, Ninh Kiều, Cần Thơ, Việt Nam","Hưng Lợi, Ninh Kiều",486 Đường 30/4,Cần Thơ,,"Ninh Kiều, Cần Thơ",VN
340,ChIJa-sPk0OJoDEROtFxYGXrDGY,ĐTDĐ NGUYỄN ĐOÀN MOBILE,Cửa hàng điện thoại di động,+84 918 365 859,"ĐTDĐ NGUYỄN ĐOÀN MOBILE, 175 Đ. Trần Việt Châu, An Hoà, Ninh Kiều, Cần Thơ 900000, Việt Nam","An Hoà, Ninh Kiều",175 Đ. Trần Việt Châu,Cần Thơ,900000.0,"Ninh Kiều, Cần Thơ",VN
341,ChIJU0b1UkxjoDER3t9Z8BQJLA0,Long Apple,Cửa hàng điện thoại di động,+84 906 977 666,"Long Apple, 75 Đ.Xô Viết Nghệ Tĩnh, An Cư, Ninh Kiều, Cần Thơ 900000, Việt Nam","An Cư, Ninh Kiều",75 Đ.Xô Viết Nghệ Tĩnh,Cần Thơ,900000.0,"Ninh Kiều, Cần Thơ",VN
342,ChIJyajuAK9joDERBz5sVp_1SoA,Phụ kiện điện thoại Long CT,Cửa hàng điện thoại di động,+84 364 433 233,"2R28+PP8 Phụ kiện điện thoại Long CT, Phú Thứ, Cái Răng, Cần Thơ, Việt Nam","Phú Thứ, Cái Răng",2R28+PP8,Cần Thơ,,"Cái Răng, Cần Thơ",VN
343,ChIJqeJpK4djoDERF_if-d2pF0A,HOÀ HUỲNH STORE - Cần Thơ,Cửa hàng điện thoại di động,+84 932 878 878,"HOÀ HUỲNH STORE - Cần Thơ, 20 Lý Hồng Thanh, P, Q.NK, Cần Thơ, Việt Nam","P, Q.NK",20 Lý Hồng Thanh,Cần Thơ,,"Q.NK, Cần Thơ",VN
347,ChIJJbwFWEuJoDERG4S17KpyK2o,Công ty cổ phần đầu tư công nghệ Phương Tùng,Cửa hàng bán đồ điện tử,,"Công ty cổ phần đầu tư công nghệ Phương Tùng, Đ. Nguyễn Văn Linh, Hưng Lợi, Ninh Kiều, Cần Thơ, Việt Nam","Hưng Lợi, Ninh Kiều",Đ. Nguyễn Văn Linh,Cần Thơ,,"Ninh Kiều, Cần Thơ",VN
348,ChIJlcXvgXuJoDERc8D3xJ3BJC0,Siêu thị Điện máy XANH,Cửa hàng bán đồ điện tử,+84 1900 232461,"Siêu thị Điện máy XANH, Ấp Mỹ Phước, xã, Phong Điền, Cần Thơ 94000, Việt Nam","Ấp Mỹ Phước, xã, Phong Điền",,Cần Thơ,94000.0,"Phong Điền, Cần Thơ",VN
350,ChIJpebHRLqJoDERMeY9u1A3t5M,Thế Giới Di Động,Cửa hàng điện thoại di động,+84 28 3810 2102,"Thế Giới Di Động, Khu Yên Hạ, P, Cái Răng, Cần Thơ, Việt Nam","P, Cái Răng",Khu Yên Hạ,Cần Thơ,,"Cái Răng, Cần Thơ",VN
353,ChIJvWCTB7aJoDERMdTZ1jL0bRU,Quốc Bảo 365 Store,Cửa hàng điện thoại di động,+84 898 656 565,"Quốc Bảo 365 Store, Đ. Trần Hoàng Na, Hưng Lợi, Ninh Kiều, Cần Thơ, Việt Nam","Hưng Lợi, Ninh Kiều",Đ. Trần Hoàng Na,Cần Thơ,,"Ninh Kiều, Cần Thơ",VN
359,ChIJ0bx9a5yJoDER7YDHVJmbP-0,Phụ Kiện Điện Thoại Khá Rẻ,Cửa hàng bán đồ điện tử,+84 787 880 078,"Phụ Kiện Điện Thoại Khá Rẻ, 87a Đ. Phan Đăng Lưu, Thới Bình, Ninh Kiều, Cần Thơ, Việt Nam","Thới Bình, Ninh Kiều",87a Đ. Phan Đăng Lưu,Cần Thơ,,"Ninh Kiều, Cần Thơ",VN
360,ChIJD-R2PEGHoDERJOeICVj15FU,Vinh Shop - Điện Thoại Cũ Giá Rẻ,Cửa hàng điện thoại di động,+84 989 686 090,"Vinh Shop - Điện Thoại Cũ Giá Rẻ, 381K Đ. Trần Nam Phú, Phường An Khánh, Ninh Kiều, Cần Thơ, Việt Nam","Phường An Khánh, Ninh Kiều",381K Đ. Trần Nam Phú,Cần Thơ,,"Ninh Kiều, Cần Thơ",VN
361,ChIJvwUEwpqIoDERcRY4UJfiPsw,Cửa Hàng Sửa Chữa Điện Thoại Minh Thông,Cửa hàng điện thoại di động,+84 939 822 554,"Cửa Hàng Sửa Chữa Điện Thoại Minh Thông, 399B Đ. Bùi Hữu Nghĩa, Long Tuyền, Bình Thủy, Cần Thơ, Việt Nam","Long Tuyền, Bình Thủy",399B Đ. Bùi Hữu Nghĩa,Cần Thơ,,"Bình Thủy, Cần Thơ",VN
362,ChIJ29p5sNtjoDERxHuLBT0AjSs,ITMobile,Cửa hàng điện thoại di động,+84 848 656 565,"ITMobile, 43 Nguyễn Trãi, Tân An, Ninh Kiều, Cần Thơ 900000, Việt Nam","Tân An, Ninh Kiều",43 Nguyễn Trãi,Cần Thơ,900000.0,"Ninh Kiều, Cần Thơ",VN
363,ChIJPWGxZwhjoDERxGw0UT6XBdQ,Vũ Cuxi,Cửa hàng điện thoại di động,+84 942 111 166,"Vũ Cuxi, 72 Đ.Xô Viết Nghệ Tĩnh, An Hội, Ninh Kiều, Cần Thơ 900000, Việt Nam","An Hội, Ninh Kiều",72 Đ.Xô Viết Nghệ Tĩnh,Cần Thơ,900000.0,"Ninh Kiều, Cần Thơ",VN
366,ChIJ8bZ5gzyJoDERTIlblmmgcKc,Viện Di Động,Cửa hàng điện thoại di động,+84 1800 6729,"Viện Di Động, 24 Nguyễn Trãi, Thới Bình, Ninh Kiều, Cần Thơ 900000, Việt Nam","Thới Bình, Ninh Kiều",24 Nguyễn Trãi,Cần Thơ,900000.0,"Ninh Kiều, Cần Thơ",VN
390,ChIJV5ImCaOJoDERHiG11Z7tv9U,Siêu thị Điện máy XANH,Cửa hàng bán đồ điện tử,+84 1900 232461,"Siêu thị Điện máy XANH, Đường Trương Vĩnh Nguyên, khu vực Thạnh Mỹ, Cái Răng, Cần Thơ 94000, Việt Nam","khu vực Thạnh Mỹ, Cái Răng",Đường Trương Vĩnh Nguyên,Cần Thơ,94000.0,"Cái Răng, Cần Thơ",VN
395,ChIJj8XM3w-JoDERYe0bU2G46B0,Siêu thị TopZone - Hệ thống cửa hàng Apple chính hãng 100%,Cửa hàng điện thoại di động,+84 1900 969642,"Siêu thị TopZone - Hệ thống cửa hàng Apple chính hãng 100%, 217 Hẻm 132 Đ. 3 Tháng 2, Hưng Lợi, Ninh Kiều, Cần Thơ 94000, Việt Nam","Hưng Lợi, Ninh Kiều",217 Hẻm 132 Đ. 3 Tháng 2,Cần Thơ,94000.0,"Ninh Kiều, Cần Thơ",VN
399,ChIJY2_7FSOIoDERcz7s-D0GiTc,Cửa Hàng Đtdđ Nhựt Tân,Cửa hàng điện thoại di động,+84 292 3834 122,"Cửa Hàng Đtdđ Nhựt Tân, 112A Đ. 3 Tháng 2, Xuân Khánh, Ninh Kiều, Cần Thơ, Việt Nam","Xuân Khánh, Ninh Kiều",112A Đ. 3 Tháng 2,Cần Thơ,,"Ninh Kiều, Cần Thơ",VN
405,ChIJC-p35hSJoDERCgt90J2vpk8,Điện Thoại THANH BÌNH,Cửa hàng điện thoại di động,+84 918 024 333,"Điện Thoại THANH BÌNH, 185 Huỳnh Cương, An Cư, Ninh Kiều, Cần Thơ, Việt Nam","An Cư, Ninh Kiều",185 Huỳnh Cương,Cần Thơ,,"Ninh Kiều, Cần Thơ",VN
419,ChIJbbJKgJOJoDER4RmY-djHiZQ,Tiên Tiên Apple,Cửa hàng bán đồ điện tử,+84 818 825 333,"Tiên Tiên Apple, 85 Đ. Đề Thám, An Cư, Ninh Kiều, Cần Thơ, Việt Nam","An Cư, Ninh Kiều",85 Đ. Đề Thám,Cần Thơ,,"Ninh Kiều, Cần Thơ",VN
421,ChIJC9tuwbeOoDERzdLVShXt8zc,Cửa Hàng Đtdđ Triều Anh,Cửa hàng điện thoại di động,+84 939 856 999,"Cửa Hàng Đtdđ Triều Anh, 208 ĐT923, Thị trấn Phong Điền, Phong Điền, Cần Thơ, Việt Nam","Thị trấn Phong Điền, Phong Điền",208 ĐT923,Cần Thơ,,"Phong Điền, Cần Thơ",VN
422,ChIJLar8PjpjoDEROgIvMoIJ0lI,VIP Mobile,Cửa hàng điện thoại di động,+84 567 402 222,"VIP Mobile, 74 Đ. Xô Viết Nghệ Tĩnh, An Cư, Ninh Kiều, Cần Thơ, Việt Nam","An Cư, Ninh Kiều",74 Đ. Xô Viết Nghệ Tĩnh,Cần Thơ,,"Ninh Kiều, Cần Thơ",VN
430,ChIJU6KnAVWJoDERjX_Rp0bfmmM,Cữa Hàng Điện thoại Laptop HKP,Cửa hàng điện thoại di động,,"Cữa Hàng Điện thoại Laptop HKP, 53a1 đường bờ hồ bún xáng, Phường An Khánh, Ninh Kiều, Cần Thơ, Việt Nam","Phường An Khánh, Ninh Kiều",53a1 đường bờ hồ bún xáng,Cần Thơ,,"Ninh Kiều, Cần Thơ",VN
445,ChIJv7bo1dSJoDERZ6q389eJxto,Phụ Kiện Phú LP,Cửa hàng phụ kiện điện thoại di động,+84 916 265 168,"Phụ Kiện Phú LP, 13a Đ. Nguyễn Văn Linh, Hưng Lợi, Ninh Kiều, Cần Thơ, Việt Nam","Hưng Lợi, Ninh Kiều",13a Đ. Nguyễn Văn Linh,Cần Thơ,,"Ninh Kiều, Cần Thơ",VN
452,ChIJK4XTRimJoDERSrSsmyPQEfQ,Sim số đẹp sửa điện thoại Tài Nam Cần Thơ,Cửa hàng điện thoại di động,+84 292 3751 494,"Sim số đẹp sửa điện thoại Tài Nam Cần Thơ, 216 Đ. 30 Tháng 4, P, Ninh Kiều, Cần Thơ 900000, Việt Nam","P, Ninh Kiều",216 Đ. 30 Tháng 4,Cần Thơ,900000.0,"Ninh Kiều, Cần Thơ",VN
466,ChIJwVV8KgOIoDERGWpWNNwwpbU,Trung Tâm Giải Mã Điện Thoại Chuyên Nghiệp,Cửa hàng điện thoại di động,+84 909 057 057,"Trung Tâm Giải Mã Điện Thoại Chuyên Nghiệp, 51, Đường Đ. Đinh Tiên Hoàng, An Hội, Ninh Kiều, Cần Thơ, Việt Nam","An Hội, Ninh Kiều","51, Đường Đ. Đinh Tiên Hoàng",Cần Thơ,,"Ninh Kiều, Cần Thơ",VN
475,ChIJk2v3p1tjoDER5ppdSkMxy0s,BeApple Store - iPhone Zin Chất Cần Thơ,Cửa hàng điện thoại di động,+84 784 452 452,"BeApple Store - iPhone Zin Chất Cần Thơ, 31 Đ. Cao Bá Quát, Tân An, Ninh Kiều, Cần Thơ, Việt Nam","Tân An, Ninh Kiều",31 Đ. Cao Bá Quát,Cần Thơ,,"Ninh Kiều, Cần Thơ",VN
476,ChIJHewi3AljoDERR3qsPHDS4cY,KIM APPLE,Cửa hàng điện thoại di động,+84 917 713 099,"KIM APPLE, 84B Đ. Xô Viết Nghệ Tĩnh, An Cư, Ninh Kiều, Cần Thơ, Việt Nam","An Cư, Ninh Kiều",84B Đ. Xô Viết Nghệ Tĩnh,Cần Thơ,,"Ninh Kiều, Cần Thơ",VN
484,ChIJjVeHeZ9ioDERb9Tn___kAiw,Cửa Hàng Đtdđ Quốc Hòa,Cửa hàng,+84 292 3825 954,"Cửa Hàng Đtdđ Quốc Hòa, 28 Đ. Nam Kỳ Khởi Nghĩa, Tân An, Ninh Kiều, Cần Thơ 94112, Việt Nam","Tân An, Ninh Kiều",28 Đ. Nam Kỳ Khởi Nghĩa,Cần Thơ,94112.0,"Ninh Kiều, Cần Thơ",VN
485,ChIJH1OXRBSJoDER0L-RBz2juSI,Cửa hàng 108 STORE - Điện thoại iPhone giá rẻ Cần Thơ,Cửa hàng điện thoại di động,+84 981 180 108,"Cửa hàng 108 STORE - Điện thoại iPhone giá rẻ Cần Thơ, 108/4 Hẻm 108 Đ. 30 Tháng 4, An Lạc, Ninh Kiều, Cần Thơ 94000, Việt Nam","An Lạc, Ninh Kiều",108/4 Hẻm 108 Đ. 30 Tháng 4,Cần Thơ,94000.0,"Ninh Kiều, Cần Thơ",VN
498,ChIJWTVOTxyIoDERvwEXVEEhoxk,SBlueshop,Cửa hàng điện thoại di động,,"SBlueshop, 58 Đ. Trần Bình Trọng, An Phú, Ninh Kiều, Cần Thơ, Việt Nam","An Phú, Ninh Kiều",58 Đ. Trần Bình Trọng,Cần Thơ,,"Ninh Kiều, Cần Thơ",VN
500,ChIJ3xxZuRKIoDERjiFoju3B2Po,Cửa hàng Máy Tính và Điện Thoại Công Nghệ Số,Cửa hàng bán đồ điện tử,+84 363 318 823,"Cửa hàng Máy Tính và Điện Thoại Công Nghệ Số, 161H5/13, Hẻm liên tổ 12-13-14-15-16-17-18-19-20, Phường An Khánh, Ninh Kiều, Cần Thơ, Việt Nam","Phường An Khánh, Ninh Kiều","161H5/13, Hẻm liên tổ 12-13-14-15-16-17-18-19-20",Cần Thơ,,"Ninh Kiều, Cần Thơ",VN
501,ChIJD4JejTaIoDERX5R-5gtyslE,Cửa Hàng Điện Thoại Hàn Quốc,Cửa hàng điện thoại di động,+84 966 577 752,"Cửa Hàng Điện Thoại Hàn Quốc, 6, Ba Tháng Hai, Phường Hưng Lợi, Quận Ninh Kiều, Thành Phố Cần Thơ, Hưng Lợi, Ninh Kiều, Cần Thơ, Việt Nam","Hưng Lợi, Ninh Kiều","6, Ba Tháng Hai, Phường Hưng Lợi, Quận Ninh Kiều, Thành Phố Cần Thơ",Cần Thơ,,"Ninh Kiều, Cần Thơ",VN
502,ChIJVRnVyJFioDERhZEi1StR09w,Cửa hàng điện thoại di động Hoa An,Cửa hàng điện thoại di động,+84 907 941 624,"Cửa hàng điện thoại di động Hoa An, 64 QL1A, Hưng Phú, Cái Răng, Cần Thơ, Việt Nam","Hưng Phú, Cái Răng",64 QL1A,Cần Thơ,,"Cái Răng, Cần Thơ",VN
507,ChIJHcpJQ0CJoDERE0Uf3L-_dns,An Tân 3,Cửa hàng điện thoại di động,,"2QV7+CW4 An Tân 3, Đ. Nguyễn Văn Cừ, Phường An Khánh, Ninh Kiều, Cần Thơ, Việt Nam","Phường An Khánh, Ninh Kiều","2QV7+CW4, Đ. Nguyễn Văn Cừ",Cần Thơ,,"Ninh Kiều, Cần Thơ",VN
511,ChIJDXgabOmJoDERFEs8AgqPhQg,Khả Duy Mobile,Cửa hàng điện thoại di động,+84 702 680 999,"Khả Duy Mobile, 104-106 Đ. Nguyễn Tri Phương, Phường An Khánh, Ninh Kiều, Cần Thơ, Việt Nam","Phường An Khánh, Ninh Kiều",104-106 Đ. Nguyễn Tri Phương,Cần Thơ,,"Ninh Kiều, Cần Thơ",VN
517,ChIJRQhLSM-PoDERNpcmUcyVUm0,Cửa hàng Máy Tính Điện Thoại Cần Thơ,Cửa hàng sửa chữa điện thoại di động,+84 939 790 467,"Cửa hàng Máy Tính Điện Thoại Cần Thơ, 7 Đ. Bùi Hữu Nghĩa, Giai Xuân, Phong Điền, Cần Thơ, Việt Nam","Giai Xuân, Phong Điền",7 Đ. Bùi Hữu Nghĩa,Cần Thơ,,"Phong Điền, Cần Thơ",VN
522,ChIJrxD0IMKJoDERdV8ETzSX70c,SUN Apple Store,Cửa hàng điện thoại di động,+84 888 816 018,"SUN Apple Store, 501A Hẻm 553, Hưng Lợi, Ninh Kiều, Cần Thơ 94000, Việt Nam","Hưng Lợi, Ninh Kiều",501A Hẻm 553,Cần Thơ,94000.0,"Ninh Kiều, Cần Thơ",VN
527,ChIJxczyV8eJoDERpIyrOf0YuvQ,Minh Mobile,Cửa hàng điện thoại di động,,"Minh Mobile, 109 Đ.Xô Viết Nghệ Tĩnh, An Hội, Ninh Kiều, Cần Thơ, Việt Nam","An Hội, Ninh Kiều",109 Đ.Xô Viết Nghệ Tĩnh,Cần Thơ,,"Ninh Kiều, Cần Thơ",VN
531,ChIJVQPKWYmJoDERFNDSIQj1Fz8,Cửa Hàng Điện Thoại Di Động BOL GA,Cửa hàng,+84 855 656 565,"Cửa Hàng Điện Thoại Di Động BOL GA, ĐC:, 10 Đ. Nguyễn Văn Linh, Hưng Lợi, Ninh Kiều, Cần Thơ, Việt Nam","Hưng Lợi, Ninh Kiều","ĐC:, 10 Đ. Nguyễn Văn Linh",Cần Thơ,,"Ninh Kiều, Cần Thơ",VN
538,ChIJmX91RESJoDERgLCDnney9ik,Cửa hàng đtdđ Tiến THT,Cửa hàng điện thoại di động,+84 917 229 345,"Cửa hàng đtdđ Tiến THT, 172b Đ. Lê Bình, Hưng Lợi, Ninh Kiều, Cần Thơ 92000, Việt Nam","Hưng Lợi, Ninh Kiều",172b Đ. Lê Bình,Cần Thơ,92000.0,"Ninh Kiều, Cần Thơ",VN
541,ChIJYa2QJ2uIoDERgEoaCZYi_5Y,Cửa Hàng Điện Thoại Di Động Cường Thịnh,Cửa hàng điện thoại di động,+84 906 737 737,"Cửa Hàng Điện Thoại Di Động Cường Thịnh, 132K, Đường Nguyễn Văn Cừ, Phường An Khánh, Quận Ninh Kiều, Phường An Khánh, Ninh Kiều, Cần Thơ, Việt Nam","Phường An Khánh, Ninh Kiều","132K, Đường Nguyễn Văn Cừ, Phường An Khánh, Quận Ninh Kiều",Cần Thơ,,"Ninh Kiều, Cần Thơ",VN
542,ChIJQV7SqhCIoDERP2xjcXfYgJo,Cửa Hàng Điện Thoại Di Động Bo Bo,Cửa hàng điện thoại di động,+84 909 566 669,"2QGH+784 Cửa Hàng Điện Thoại Di Động Bo Bo, Chợ, Xuân Khánh, Ninh Kiều, Cần Thơ, Việt Nam","Xuân Khánh, Ninh Kiều","2QGH+784, Chợ",Cần Thơ,,"Ninh Kiều, Cần Thơ",VN
543,ChIJTVmsvAyJoDERoMhH-zsgr9Q,Cửa Hàng Điện Thoại New Phones,Cửa hàng bán đồ điện tử,,"Cửa Hàng Điện Thoại New Phones, 5Đ, 218, Đ. Trần Hưng Đạo, An Phú, Ninh Kiều, Cần Thơ, Việt Nam","An Phú, Ninh Kiều","5Đ, 218, Đ. Trần Hưng Đạo",Cần Thơ,,"Ninh Kiều, Cần Thơ",VN
544,ChIJy9hz8CCIoDER8YKUxiWZ2Yw,Cửa hàng điện thoại Viễn Hưng,Cửa hàng điện thoại di động,+84 292 3812 555,"Cửa hàng điện thoại Viễn Hưng, 121 Quang Trung, An Lạc, Ninh Kiều, Cần Thơ, Việt Nam","An Lạc, Ninh Kiều",121 Quang Trung,Cần Thơ,,"Ninh Kiều, Cần Thơ",VN
549,ChIJfX3DwrKJoDERucVt8WAk84Y,Phụ Kiện Cần thơ,Cửa hàng phụ kiện điện thoại di động,+84 907 780 091,"Phụ Kiện Cần thơ, 109 Đ.Xô Viết Nghệ Tĩnh, An Hội, Ninh Kiều, Cần Thơ, Việt Nam","An Hội, Ninh Kiều",109 Đ.Xô Viết Nghệ Tĩnh,Cần Thơ,,"Ninh Kiều, Cần Thơ",VN
573,ChIJh6MFsbSJoDERu7wAr7lcVIY,Cửa Hàng Điện Thoại Di Động Hông Công,Cửa hàng điện thoại di động,+84 939 613 136,"Cửa Hàng Điện Thoại Di Động Hông Công, 32/1 Đường 3/2 nối dài, An Bình, Ninh Kiều, Cần Thơ, Việt Nam","An Bình, Ninh Kiều",32/1 Đường 3/2 nối dài,Cần Thơ,,"Ninh Kiều, Cần Thơ",VN
589,ChIJy2QBS7KJoDERlndcKq5XS_Y,Cửa Hàng ĐTDĐ HỒNG CÔNG,Cửa hàng điện thoại di động,,"Cửa Hàng ĐTDĐ HỒNG CÔNG, 134 Đ. 3 Tháng 2, An Bình, Ninh Kiều, Cần Thơ, Việt Nam","An Bình, Ninh Kiều",134 Đ. 3 Tháng 2,Cần Thơ,,"Ninh Kiều, Cần Thơ",VN
614,ChIJB9MZb0WJoDERDLSgV-ZmW-I,Điện Thoại Châu Tùng,Cửa hàng điện thoại di động,+84 944 222 227,"Điện Thoại Châu Tùng, 196 Đ. Nguyễn Văn Cừ, An Hoà, Ninh Kiều, Cần Thơ 84071, Việt Nam","An Hoà, Ninh Kiều",196 Đ. Nguyễn Văn Cừ,Cần Thơ,84071.0,"Ninh Kiều, Cần Thơ",VN
615,ChIJNxJLugaIoDERZwS3LEdvlxI,Cửa Hàng Đtdđ Diễm Sơn,Cửa hàng điện thoại di động,+84 939 663 606,"Cửa Hàng Đtdđ Diễm Sơn, 61 Đ. Cách Mạng Tháng 8, Thới Bình, Ninh Kiều, Cần Thơ 901157, Việt Nam","Thới Bình, Ninh Kiều",61 Đ. Cách Mạng Tháng 8,Cần Thơ,901157.0,"Ninh Kiều, Cần Thơ",VN
616,ChIJL32v-DqIoDERa_qWXl1ii-o,Cửa Hàng Điện Thoại Di Động Phong Nhã,Cửa hàng điện thoại di động,+84 982 299 405,"Cửa Hàng Điện Thoại Di Động Phong Nhã, 51/47B, Đường 3/2, Quận Ninh Kiều, Tp Cần Thơ, Hưng Lợi, Ninh Kiều, Cần Thơ, Việt Nam","Hưng Lợi, Ninh Kiều","51/47B, Đường 3/2, Quận Ninh Kiều, Tp Cần Thơ",Cần Thơ,,"Ninh Kiều, Cần Thơ",VN
617,ChIJaYFg1KmJoDER-hpJF1dEDQc,Phụ kiện điện thoại Nguyễn Thương Store,Cửa hàng bán đồ điện tử,+84 843 343 626,"Phụ kiện điện thoại Nguyễn Thương Store, 132/25c, Hẻm 132, Hẻm 132 Đ. 3 Tháng 2, Hưng Lợi, Ninh Kiều, Cần Thơ, Việt Nam","Hưng Lợi, Ninh Kiều","132/25c, Hẻm 132, Hẻm 132 Đ. 3 Tháng 2",Cần Thơ,,"Ninh Kiều, Cần Thơ",VN
618,ChIJrx7vglGJoDERN5lQmqJI8No,Trung Tâm Sửa Chữa Điện Thoại Nguyễn Nhân,Cửa hàng bán đồ điện tử,+84 292 6290 039,"Trung Tâm Sửa Chữa Điện Thoại Nguyễn Nhân, 3A Đ. Nguyễn Văn Linh, Hưng Lợi, Ninh Kiều, Cần Thơ, Việt Nam","Hưng Lợi, Ninh Kiều",3A Đ. Nguyễn Văn Linh,Cần Thơ,,"Ninh Kiều, Cần Thơ",VN
642,ChIJ6wLxwWqIoDERHbJPpBGfQag,iPro Service Cần Thơ,Cửa hàng điện thoại di động,+84 915 955 554,"iPro Service Cần Thơ, 188/17A Đ. Nguyễn Văn Cừ, Phường An Khánh, Ninh Kiều, Cần Thơ 92000, Việt Nam","Phường An Khánh, Ninh Kiều",188/17A Đ. Nguyễn Văn Cừ,Cần Thơ,92000.0,"Ninh Kiều, Cần Thơ",VN
643,ChIJ06YFuECLoDERlWe79e1XfIk,Gmos Store,Cửa hàng bán đồ điện tử,+84 907 502 102,"Gmos Store, 170/B3 Nguyễn Văn Cừ Nối Dài, Phường An Khánh, Ninh Kiều, Cần Thơ 92000, Việt Nam","Phường An Khánh, Ninh Kiều",170/B3 Nguyễn Văn Cừ Nối Dài,Cần Thơ,92000.0,"Ninh Kiều, Cần Thơ",VN
645,ChIJ8zd4IryJoDERLgkLAB9esvw,Cửa Hàng Điện Thoại Di Động Anh Quý 1,Cửa hàng điện thoại di động,+84 292 2460 248,"Cửa Hàng Điện Thoại Di Động Anh Quý 1, 63/6, Đường Trần Hưng Đạo, Quận Cái Răng, Lê Bình, Cái Răng, Cần Thơ, Việt Nam","Lê Bình, Cái Răng","63/6, Đường Trần Hưng Đạo, Quận Cái Răng",Cần Thơ,,"Cái Răng, Cần Thơ",VN
653,ChIJe_5fC8GOoDERhZp2zErJ-ec,Cửa Hàng Điện Thoại Di Động Minh,Cửa hàng điện thoại di động,+84 787 942 591,"Cửa Hàng Điện Thoại Di Động Minh, 153 Ấp Thị Tứ, Đường Tỉnh Lộ 923, Thị Trấn Phong Điền, Huyện Phong Điền, Thị trấn Phong Điền, Phong Điền, Cần Thơ, Việt Nam","Thị trấn Phong Điền, Phong Điền","153 Ấp Thị Tứ, Đường Tỉnh Lộ 923, Thị Trấn Phong Điền, Huyện Phong Điền",Cần Thơ,,"Phong Điền, Cần Thơ",VN
655,ChIJhXsvgPCPoDERoPdQChZyY-w,"camera, máy in, máy tính, điện thoại Cần Thơ",Cửa hàng bán đồ điện tử,+84 939 790 467,"camera, máy in, máy tính, điện thoại Cần Thơ, Chợ Cả Lang, Giai Xuân, Phong Điền, Cần Thơ, Việt Nam","Giai Xuân, Phong Điền",Chợ Cả Lang,Cần Thơ,,"Phong Điền, Cần Thơ",VN
667,ChIJ8V0--vaJoDERmFIASHJKxn8,Thu mua điện thoại cũ Cần Thơ,Trung tâm mua sắm,+84 898 923 237,"Thu mua điện thoại cũ Cần Thơ, 2-10 Đường B22, Hưng Lợi, Ninh Kiều, Cần Thơ, Việt Nam","Hưng Lợi, Ninh Kiều",2-10 Đường B22,Cần Thơ,,"Ninh Kiều, Cần Thơ",VN
670,ChIJF8EKYsiJoDERaPsFMFGKFp4,Chí Danh Apple Chuyên Bán Iphone,Cửa hàng điện thoại di động,+84 906 456 198,"Chí Danh Apple Chuyên Bán Iphone, Hẻm 117/5 Hẻm 132 Đ. 3 Tháng 2, Hưng Lợi, Ninh Kiều, Cần Thơ, Việt Nam","Hưng Lợi, Ninh Kiều",Hẻm 117/5 Hẻm 132 Đ. 3 Tháng 2,Cần Thơ,,"Ninh Kiều, Cần Thơ",VN
677,ChIJVcQFMDaIoDER_eWvb_Nmhx4,ĐTDĐ Hồ Hải,Dịch vụ sửa chữa điện thoại,+84 385 172 943,"ĐTDĐ Hồ Hải, Đ. 3 Tháng 2, Hưng Lợi, Ninh Kiều, Cần Thơ 900000, Việt Nam","Hưng Lợi, Ninh Kiều",Đ. 3 Tháng 2,Cần Thơ,900000.0,"Ninh Kiều, Cần Thơ",VN
687,ChIJa9xlyw-IoDERQ04kxKWMVN8,Cửa Hàng Điện Thoại Di Động Hưng Nguyễn,Cửa hàng điện thoại di động,+84 904 535 158,"Cửa Hàng Điện Thoại Di Động Hưng Nguyễn, 335 Đ. Nguyễn Văn Cừ, An Hoà, Ninh Kiều, Cần Thơ, Việt Nam","An Hoà, Ninh Kiều",335 Đ. Nguyễn Văn Cừ,Cần Thơ,,"Ninh Kiều, Cần Thơ",VN
688,ChIJjVes0aNioDERHWz89LgTMF4,CỮA HÀNG ĐIỆN THOẠI,Cửa hàng điện thoại di động,,"CỮA HÀNG ĐIỆN THOẠI, P. Q., 9 Ngô Gia Tự, Tân An, Ninh Kiều, Cần Thơ 910000, Việt Nam","Tân An, Ninh Kiều","P. Q., 9 Ngô Gia Tự",Cần Thơ,910000.0,"Ninh Kiều, Cần Thơ",VN
689,ChIJD5BAuGuIoDERbXAoC4eaIfQ,Cửa Hàng Điện Thoại,Cửa hàng điện thoại di động,+84 938 238 861,"Cửa Hàng Điện Thoại, 75 Đ. số 30, Phường An Khánh, Ninh Kiều, Cần Thơ, Việt Nam","Phường An Khánh, Ninh Kiều",75 Đ. số 30,Cần Thơ,,"Ninh Kiều, Cần Thơ",VN
690,ChIJr_fVIUWHoDERepQxUbPhwgk,Điện Thoại Hữu Lợi 2 (Bửu Lăng),Cửa hàng điện thoại di động,+84 902 379 938,"Điện Thoại Hữu Lợi 2 (Bửu Lăng), 01 Đ. Bùi Hữu Nghĩa, Bình Thuỷ, Bình Thủy, Cần Thơ 94252, Việt Nam","Bình Thuỷ, Bình Thủy",01 Đ. Bùi Hữu Nghĩa,Cần Thơ,94252.0,"Bình Thủy, Cần Thơ",VN
691,ChIJGUuwg59ioDERGRJAAB4Bqvc,Cửa Hàng Điện Thoại Hồng Đăng,Cửa hàng điện thoại di động,+84 898 333 339,"Cửa Hàng Điện Thoại Hồng Đăng, 3 Đ. Đồng Khởi, Tân An, Ninh Kiều, Cần Thơ 90000, Việt Nam","Tân An, Ninh Kiều",3 Đ. Đồng Khởi,Cần Thơ,90000.0,"Ninh Kiều, Cần Thơ",VN
692,ChIJFfK0c2yIoDERSdoDU-axl5A,Cửa Hàng Điện Thoại Di Động 8 Đỏ,Cửa hàng điện thoại di động,+84 907 447 189,"Cửa Hàng Điện Thoại Di Động 8 Đỏ, L60, Đường 17, Chợ An Khánh, Phường An Khánh, Quận Ninh Kiều, Thành Phố Cần Thơ, Phường An Khánh, Ninh Kiều, Cần Thơ, Việt Nam","Phường An Khánh, Ninh Kiều","L60, Đường 17, Chợ An Khánh, Phường An Khánh, Quận Ninh Kiều, Thành Phố Cần Thơ",Cần Thơ,,"Ninh Kiều, Cần Thơ",VN
693,ChIJSTUxSp9ioDERROEinmH8cAg,Cửa Hàng Điện Thoại Di Động Hoàng,Cửa hàng điện thoại di động,+84 292 3823 172,"Cửa Hàng Điện Thoại Di Động Hoàng, 156 Đường Hai Bà Trưng, Tân An, Ninh Kiều, Cần Thơ, Việt Nam","Tân An, Ninh Kiều",156 Đường Hai Bà Trưng,Cần Thơ,,"Ninh Kiều, Cần Thơ",VN
694,ChIJL2I2QieIoDER1s_ETD1BQak,Cửa Hàng Điện Thoại Di Động Nguyễn Hữu Phúc,Cửa hàng điện thoại di động,+84 813 667 253,"Cửa Hàng Điện Thoại Di Động Nguyễn Hữu Phúc, 2 Quang Trung, Khu Vực 6, Ninh Kiều, Cần Thơ, Việt Nam","Khu Vực 6, Ninh Kiều",2 Quang Trung,Cần Thơ,,"Ninh Kiều, Cần Thơ",VN
695,ChIJJYCy9aWJoDERZ0aSWNzBrmg,Cửa Hàng Điện Thoại Nguyễn Thông mobile,Cửa hàng bán đồ điện tử,,"2QG5+CF6 Cửa Hàng Điện Thoại Nguyễn Thông mobile, khu cán bộ giảng viên đại học cần thơ, Đ. Nguyễn Văn Linh, Phường An Khánh, Ninh Kiều, Cần Thơ, Việt Nam","Phường An Khánh, Ninh Kiều","2QG5+CF6, khu cán bộ giảng viên đại học cần thơ, Đ. Nguyễn Văn Linh",Cần Thơ,,"Ninh Kiều, Cần Thơ",VN
696,ChIJpbjq9J9ioDERlG4qM939QJ4,Công Ty TNHH Dịch Vụ Điện Thoại Quốc Hưng,Cửa hàng điện thoại di động,+84 292 3812 388,"Công Ty TNHH Dịch Vụ Điện Thoại Quốc Hưng, 74 Đ. Nam Kỳ Khởi Nghĩa, Tân An, Ninh Kiều, Cần Thơ, Việt Nam","Tân An, Ninh Kiều",74 Đ. Nam Kỳ Khởi Nghĩa,Cần Thơ,,"Ninh Kiều, Cần Thơ",VN
697,ChIJyYq9BiiIoDER9DseEj_HRss,Cửa Hàng Điện Thoại Di Động 91,Cửa hàng điện thoại di động,+84 833 155 665,"Cửa Hàng Điện Thoại Di Động 91, 91, Đường Quang Trung, Quận Cái Răng, Hưng Phú, Cái Răng, Cần Thơ, Việt Nam","Hưng Phú, Cái Răng","91, Đường Quang Trung, Quận Cái Răng",Cần Thơ,,"Cái Răng, Cần Thơ",VN
698,ChIJ5-N53EOIoDERenSGR1kHujE,Cửa Hàng Điện Thoại Di Động Thành Đạt,Cửa hàng điện thoại di động,+84 906 350 180,"Cửa Hàng Điện Thoại Di Động Thành Đạt, 271/91, Quốc Lộ 91B, Quận Bình Thủy, Tp Cần Thơ, Phường An Khánh, Ninh Kiều, Cần Thơ, Việt Nam","Phường An Khánh, Ninh Kiều","271/91, Quốc Lộ 91B, Quận Bình Thủy, Tp Cần Thơ",Cần Thơ,,"Ninh Kiều, Cần Thơ",VN
699,ChIJ0YaZ7TSIoDEREK1ejOk4lB0,ĐIỆN THOẠI QUỐC DŨNG,Cửa hàng điện thoại di động,+84 939 522 959,"ĐIỆN THOẠI QUỐC DŨNG, 151 Đ. Trần Hoàng Na, Hưng Lợi, Ninh Kiều, Cần Thơ, Việt Nam","Hưng Lợi, Ninh Kiều",151 Đ. Trần Hoàng Na,Cần Thơ,,"Ninh Kiều, Cần Thơ",VN
700,ChIJU3h1nEFjoDERJdOP-uS913c,DUY IPHONE_ CẦN THƠ TTTM CÁI KHẾ ,Cửa hàng điện thoại di động,+84 939 353 935,"DUY IPHONE_ CẦN THƠ TTTM CÁI KHẾ , Đ. Hồ Tùng Mậu, Cái Khế, Ninh Kiều, Cần Thơ 92000, Việt Nam","Cái Khế, Ninh Kiều",Đ. Hồ Tùng Mậu,Cần Thơ,92000.0,"Ninh Kiều, Cần Thơ",VN
701,ChIJ-3pSoIKJoDERbGLAoYnhWm0,Cửa Hàng Điện Thoại Di Động Sang IP,Cửa hàng điện thoại di động,+84 849 794 919,"Cửa Hàng Điện Thoại Di Động Sang IP, 251/40C Đ. Trần Ngọc Quế, Xuân Khánh, Ninh Kiều, Cần Thơ 94115, Việt Nam","Xuân Khánh, Ninh Kiều",251/40C Đ. Trần Ngọc Quế,Cần Thơ,94115.0,"Ninh Kiều, Cần Thơ",VN
702,ChIJfaS0TTSIoDERHI9Nu2fvHwo,Cửa Hàng Điện Thoại Di Động GSM,Cửa hàng điện thoại di động,+84 292 3514 514,"Cửa Hàng Điện Thoại Di Động GSM, 118/20A, Đường 30/4, Quận Ninh Kiều, Hưng Lợi, Ninh Kiều, Cần Thơ, Việt Nam","Hưng Lợi, Ninh Kiều","118/20A, Đường 30/4, Quận Ninh Kiều",Cần Thơ,,"Ninh Kiều, Cần Thơ",VN
703,ChIJL_q0XhqJoDERPL8KETrl1r0,Phụ Kiện 108,Cửa hàng bán đồ điện tử,,"Phụ Kiện 108, 12 Đ. Nguyễn Đức Cảnh, Thới Bình, Ninh Kiều, Cần Thơ, Việt Nam","Thới Bình, Ninh Kiều",12 Đ. Nguyễn Đức Cảnh,Cần Thơ,,"Ninh Kiều, Cần Thơ",VN
704,ChIJ-T7j7xGIoDERV0r0n701mr4,Van Anh Mobile Store,Cửa hàng,+84 292 3891 456,"Van Anh Mobile Store, 335 Đ. Nguyễn Văn Cừ, An Hoà, Ninh Kiều, Cần Thơ, Việt Nam","An Hoà, Ninh Kiều",335 Đ. Nguyễn Văn Cừ,Cần Thơ,,"Ninh Kiều, Cần Thơ",VN
705,ChIJrR0JRp9ioDERQfCY4HVOtdI,Cửa Hàng Điện Thoại Điện Máy Thanh Liêm 1,Cửa hàng,+84 292 3819 678,"Cửa Hàng Điện Thoại Điện Máy Thanh Liêm 1, 27, Đường Đ. Phan Chu Trinh, Tân An, Ninh Kiều, Cần Thơ, Việt Nam","Tân An, Ninh Kiều","27, Đường Đ. Phan Chu Trinh",Cần Thơ,,"Ninh Kiều, Cần Thơ",VN
723,ChIJq6qqqhWIoDERh10W9-vTKko,Cửa Hàng Điện Thoại Di Động ĐỘC và LẠ 3,Cửa hàng điện thoại di động,+84 939 397 393,"Cửa Hàng Điện Thoại Di Động ĐỘC và LẠ 3, 107 Nguyễn Văn Cừ Nối Dài, Phường An Khánh, Ninh Kiều, Cần Thơ, Việt Nam","Phường An Khánh, Ninh Kiều",107 Nguyễn Văn Cừ Nối Dài,Cần Thơ,,"Ninh Kiều, Cần Thơ",VN
772,ChIJ8ZFd08iJoDER2ihOnU6G1LM,T&T Mobile Store,Cửa hàng bán đồ điện tử,+84 949 866 664,"T&T Mobile Store, 70/24 Đ. Trần Hưng Đạo, An Cư, Ninh Kiều, Cần Thơ, Việt Nam","An Cư, Ninh Kiều",70/24 Đ. Trần Hưng Đạo,Cần Thơ,,"Ninh Kiều, Cần Thơ",VN
783,ChIJq6qqBw-IoDER1De3NZbfkLs,Tiệm Sửa Điện Tử 41,Cửa hàng bán đồ điện tử,+84 919 263 367,"Tiệm Sửa Điện Tử 41, 82A, 30/4, Quận Ninh Kiều, Tp Cần Thơ, An Hoà, Ninh Kiều, Cần Thơ, Việt Nam","An Hoà, Ninh Kiều","82A, 30/4, Quận Ninh Kiều, Tp Cần Thơ",Cần Thơ,,"Ninh Kiều, Cần Thơ",VN
801,ChIJIWTQtn-JoDERwBIvPjB4ep8,Cửa Hàng ĐTDĐ Văn Apple Cần Thơ,Cửa hàng điện thoại di động,+84 386 145 679,"Cửa Hàng ĐTDĐ Văn Apple Cần Thơ, 75b Đ. Phạm Thế Hiển, Phường An Khánh, Ninh Kiều, Cần Thơ, Việt Nam","Phường An Khánh, Ninh Kiều",75b Đ. Phạm Thế Hiển,Cần Thơ,,"Ninh Kiều, Cần Thơ",VN
813,ChIJ3ZA7HA6JoDERRw_8xwrC_4Q,Điện Thoại Di Động Vy Mobile,Cửa hàng bán đồ điện tử,+84 888 574 444,"Điện Thoại Di Động Vy Mobile, Đường Số 4, An Bình, Bình Thủy, Cần Thơ, Việt Nam","An Bình, Bình Thủy",Đường Số 4,Cần Thơ,,"Bình Thủy, Cần Thơ",VN
821,ChIJp3XQIY-JoDERt5MviJ_o6oo,Cửa hàng điện thoại Vũ Vân,Cửa hàng điện thoại di động,,"Cửa hàng điện thoại Vũ Vân, 20 Trần Chiên, Lê Bình, Cái Răng, Cần Thơ, Việt Nam","Lê Bình, Cái Răng",20 Trần Chiên,Cần Thơ,,"Cái Răng, Cần Thơ",VN
824,ChIJD4JejTaIoDERpDsy8hc2_X0,Cửa Hàng Điện Thoại Hoài Minh,Cửa hàng điện thoại di động,+84 907 210 350,"Cửa Hàng Điện Thoại Hoài Minh, 58, Ba Tháng Hai, Phường Hưng Lợi, Quận Ninh Kiều, Thành Phố Cần Thơ, Hưng Lợi, Ninh Kiều, Cần Thơ, Việt Nam","Hưng Lợi, Ninh Kiều","58, Ba Tháng Hai, Phường Hưng Lợi, Quận Ninh Kiều, Thành Phố Cần Thơ",Cần Thơ,,"Ninh Kiều, Cần Thơ",VN
825,ChIJNZHQQjGIoDERtEfV40f87G4,Hoang Kim Mobile Phone Store,Cửa hàng,+84 907 271 102,"Hoang Kim Mobile Phone Store, 156, 30/4 Street, Ninh Kieu District, Can Tho City, Hưng Lợi, Ninh Kiều, Cần Thơ, Việt Nam","Hưng Lợi, Ninh Kiều","156, 30/4 Street, Ninh Kieu District, Can Tho City",Cần Thơ,,"Ninh Kiều, Cần Thơ",VN
826,ChIJ0-v96ROJoDERIJszHU5Hz8g,Cửa Hàng Điện Thoại Tiến Đạt,Cửa hàng điện thoại di động,+84 962 623 738,"Cửa Hàng Điện Thoại Tiến Đạt, 125, Lộ Vòng Cung, Xã Mỹ Khánh, Huyện Phong Điền, Thành Phố Cần Thơ, Mỹ Khánh, Phong Điền, Cần Thơ, Việt Nam","Mỹ Khánh, Phong Điền","125, Lộ Vòng Cung, Xã Mỹ Khánh, Huyện Phong Điền, Thành Phố Cần Thơ",Cần Thơ,,"Phong Điền, Cần Thơ",VN
827,ChIJOYMmEbyJoDER5poJ7QwAFe4,Cửa Hàng Điện Thoại Di Động Quốc Tuấn 2,Cửa hàng điện thoại di động,+84 292 3914 788,"Cửa Hàng Điện Thoại Di Động Quốc Tuấn 2, 74/4, Đường Trần Hưng Đạo, Quận Cái Răng, Lê Bình, Cái Răng, Cần Thơ, Việt Nam","Lê Bình, Cái Răng","74/4, Đường Trần Hưng Đạo, Quận Cái Răng",Cần Thơ,,"Cái Răng, Cần Thơ",VN
831,ChIJlwso51eJoDERv-Tz2zTAYfI,Shop phụ kiện điện thoại TRIẾT ỐP,Cửa hàng điện thoại di động,,"2PPG+84R Shop phụ kiện điện thoại TRIẾT ỐP, Đinh Công Chánh, Long Tuyền, Bình Thủy, Cần Thơ, Việt Nam","Long Tuyền, Bình Thủy","2PPG+84R, Đinh Công Chánh",Cần Thơ,,"Bình Thủy, Cần Thơ",VN
833,ChIJZ4AYqPeJoDERZHC3IVzvt3c,Đại lý Thẻ Game-Điện Thoại-Super 79,Cửa hàng,,"Đại lý Thẻ Game-Điện Thoại-Super 79, 93 Đ. Trần Vĩnh Kiết, An Bình, Ninh Kiều, Cần Thơ, Việt Nam","An Bình, Ninh Kiều",93 Đ. Trần Vĩnh Kiết,Cần Thơ,,"Ninh Kiều, Cần Thơ",VN
839,ChIJdV4q6eWIoDERExkYa7frEZQ,Cửa Hàng Sim Thẻ Nguyễn Ngọc Tuyền,Cửa hàng điện thoại di động,+84 777 027 649,"Cửa Hàng Sim Thẻ Nguyễn Ngọc Tuyền, 404A, Đường Bùi Hữu Nghĩa Khu Vực Bình Dương B, Phường Long Tuyền, Quận Bình Thủy, Long Tuyền, Bình Thủy, Cần Thơ, Việt Nam","Long Tuyền, Bình Thủy","404A, Đường Bùi Hữu Nghĩa Khu Vực Bình Dương B, Phường Long Tuyền, Quận Bình Thủy",Cần Thơ,,"Bình Thủy, Cần Thơ",VN
841,ChIJCxLoLrSOoDER9Dc_WpDWdro,Cửa Hàng Điện Thoại Di Động Hồng Vân,Cửa hàng điện thoại di động,+84 292 3850 424,"Cửa Hàng Điện Thoại Di Động Hồng Vân, 42 Ấp Thị Tứ, Đường Tỉnh Lộ 923, Thị Trấn Phong Điền, Huyện Phong Điền, Thị trấn Phong Điền, Phong Điền, Cần Thơ, Việt Nam","Thị trấn Phong Điền, Phong Điền","42 Ấp Thị Tứ, Đường Tỉnh Lộ 923, Thị Trấn Phong Điền, Huyện Phong Điền",Cần Thơ,,"Phong Điền, Cần Thơ",VN
850,ChIJ399zcQqJoDERRomVm4_k5dE,Đại Lý Sim Card Đoàn,Cửa hàng điện thoại di động,+84 292 3846 764,"Đại Lý Sim Card Đoàn, 453 Ấp Mỹ Nhơn, Huyện Phong Điền, An Bình, Ninh Kiều, Cần Thơ, Việt Nam","An Bình, Ninh Kiều","453 Ấp Mỹ Nhơn, Huyện Phong Điền",Cần Thơ,,"Ninh Kiều, Cần Thơ",VN
854,ChIJA1Hx1sGOoDERdhnbJxcaQ08,Đại Lý Điện Thoại Di Động Thiên Bảo,Cửa hàng điện thoại di động,+84 292 3850 559,"Đại Lý Điện Thoại Di Động Thiên Bảo, 299 Ấp Thị Tứ, Đường Tỉnh Lộ 923, Thị Trấn Phong Điền, Huyện Phong Điền, Thị trấn Phong Điền, Phong Điền, Cần Thơ, Việt Nam","Thị trấn Phong Điền, Phong Điền","299 Ấp Thị Tứ, Đường Tỉnh Lộ 923, Thị Trấn Phong Điền, Huyện Phong Điền",Cần Thơ,,"Phong Điền, Cần Thơ",VN
885,ChIJlSzyC66JoDERZPqiAgO6ADc,Cửa Hàng Ninh Kiều 5,Cửa hàng điện thoại di động,+84 292 3911 922,"Cửa Hàng Ninh Kiều 5, 108, Đường 3-2 Nối Dài, Phường An Bình, Quận Ninh Kiều, Thành Phố Cần Thơ, An Bình, Ninh Kiều, Cần Thơ, Việt Nam","An Bình, Ninh Kiều","108, Đường 3-2 Nối Dài, Phường An Bình, Quận Ninh Kiều, Thành Phố Cần Thơ",Cần Thơ,,"Ninh Kiều, Cần Thơ",VN
913,ChIJc_i1cpSJoDER4kkG8sh83Z0,Trường Mobile,Cửa hàng điện thoại di động,+84 962 223 344,"Trường Mobile, 5c Đ. 30 Tháng 4, Xuân Khánh, Ninh Kiều, Cần Thơ, Việt Nam","Xuân Khánh, Ninh Kiều",5c Đ. 30 Tháng 4,Cần Thơ,,"Ninh Kiều, Cần Thơ",VN
922,ChIJXxhOIDeIoDERqs2HqkuuSy4,Công Ty TNHH MTV DVTM Trung Phát,Cửa hàng điện thoại di động,+84 292 3840 205,"Công Ty TNHH MTV DVTM Trung Phát, 148/85, Đường 3/2, Phường Hưng Lợi, Quận Ninh Kiều, Hưng Lợi, Ninh Kiều, Cần Thơ, Việt Nam","Hưng Lợi, Ninh Kiều","148/85, Đường 3/2, Phường Hưng Lợi, Quận Ninh Kiều",Cần Thơ,,"Ninh Kiều, Cần Thơ",VN
932,ChIJNWYuLjeIoDERMLokXEbw1ok,Cửa Hàng Sim Số X Phone,Cửa hàng điện thoại di động,+84 292 3839 569,"Cửa Hàng Sim Số X Phone, 203A Đ. 3 Tháng 2, Hưng Lợi, Ninh Kiều, Cần Thơ, Việt Nam","Hưng Lợi, Ninh Kiều",203A Đ. 3 Tháng 2,Cần Thơ,,"Ninh Kiều, Cần Thơ",VN
968,ChIJvdG0jp9ioDERmDKk5sa4QaU,Cửa Hàng Nguyễn Khánh Mobile,Cửa hàng điện thoại di động,+84 939 686 874,"Cửa Hàng Nguyễn Khánh Mobile, 60C Đ. Nam Kỳ Khởi Nghĩa, Tân An, Ninh Kiều, Cần Thơ, Việt Nam","Tân An, Ninh Kiều",60C Đ. Nam Kỳ Khởi Nghĩa,Cần Thơ,,"Ninh Kiều, Cần Thơ",VN
984,ChIJn3pqYwGIoDERHopmFpzQ4lc,Cửa Hàng Điện Thoại Di Động Minh Hiếu,Cửa hàng điện thoại di động,+84 292 5648 870,"Cửa Hàng Điện Thoại Di Động Minh Hiếu, 88/79, Đường Cách Mạng Tháng 8, Quận Ninh Kiều, Tp Cần Thơ, Cái Khế, Ninh Kiều, Cần Thơ, Việt Nam","Cái Khế, Ninh Kiều","88/79, Đường Cách Mạng Tháng 8, Quận Ninh Kiều, Tp Cần Thơ",Cần Thơ,,"Ninh Kiều, Cần Thơ",VN
985,ChIJE7jNlOOHoDER0i4ivXuWJ0M,Cửa Hàng Điện Thoại Chí Hiêu,Cửa hàng điện thoại di động,,"Cửa Hàng Điện Thoại Chí Hiêu, An Thới, Bình Thủy, Cần Thơ, Việt Nam","An Thới, Bình Thủy",,Cần Thơ,,"Bình Thủy, Cần Thơ",VN
986,ChIJlZHbny-JoDER-r-eNTCldcQ,Cửa hàng điện thoại di động Toàn Táo,Cửa hàng điện thoại di động,,"Cửa hàng điện thoại di động Toàn Táo, 14 Đ. Phạm Ngũ Lão, Thới Bình, Ninh Kiều, Cần Thơ, Việt Nam","Thới Bình, Ninh Kiều",14 Đ. Phạm Ngũ Lão,Cần Thơ,,"Ninh Kiều, Cần Thơ",VN
987,ChIJiXGcWahioDERhm-SSocteBM,Cửa Hàng Điện Thoại Di Động Ngọc Ngân,Cửa hàng điện thoại di động,+84 907 145 558,"Cửa Hàng Điện Thoại Di Động Ngọc Ngân, 15, Trần Văn Khéo, Quận Ninh Kiều, Cái Khế, Ninh Kiều, Cần Thơ, Việt Nam","Cái Khế, Ninh Kiều","15, Trần Văn Khéo, Quận Ninh Kiều",Cần Thơ,,"Ninh Kiều, Cần Thơ",VN
988,ChIJee83YfGJoDERpUBkDXPgazE,Lê Giang Store,Cửa hàng điện thoại di động,+84 975 024 639,"Lê Giang Store, 194/10c Đ. Cách Mạng Tháng 8, Cái Khế, Bình Thủy, Cần Thơ, Việt Nam","Cái Khế, Bình Thủy",194/10c Đ. Cách Mạng Tháng 8,Cần Thơ,,"Bình Thủy, Cần Thơ",VN
989,ChIJqWJ3XQaIoDERrMcfmbImZns,Cửa Hàng Điện Thoại Di Động Tây Đô,Cửa hàng điện thoại di động,+84 292 3766 006,"Cửa Hàng Điện Thoại Di Động Tây Đô, 24/4C, Trần Việt Châu, phường An Hòa, quận Ninh Kiều, Tp. Cần Thơ, Việt Nam","Thới Bình, Ninh Kiều","24/4C, Trần Việt Châu, phường An Hòa, quận Ninh Kiều, Tp. Cần Thơ",Cần Thơ,,"Ninh Kiều, Cần Thơ",VN
990,ChIJUYNKaRyIoDERNL3mEF2fDpw,Minh Huy Mobile Store,Cửa hàng,+84 292 3833 618,"Minh Huy Mobile Store, An Nghiệp, Ninh Kiều, Cần Thơ, Việt Nam","An Nghiệp, Ninh Kiều",,Cần Thơ,,"Ninh Kiều, Cần Thơ",VN
991,ChIJ-bEfxVKJoDERtu5jZFe4f08,Điện Thoại Cần Thơ - BT Smartphone,Cửa hàng điện thoại di động,+84 939 598 016,"Điện Thoại Cần Thơ - BT Smartphone, 132/42/125 Hùng Vương, An Cư, Ninh Kiều, Cần Thơ 94106, Việt Nam","An Cư, Ninh Kiều",132/42/125 Hùng Vương,Cần Thơ,94106.0,"Ninh Kiều, Cần Thơ",VN
992,ChIJ5xfuoXKIoDERq9AAFbhAgEQ,Cửa Hàng Điện Thoại Thế Lực,Cửa hàng điện thoại di động,+84 939 884 188,"Cửa Hàng Điện Thoại Thế Lực, 32, Vành Đai Phi Trường, Quận Bình Thủy, Thành Phố Cần Thơ, Phường An Khánh, Ninh Kiều, Cần Thơ, Việt Nam","Phường An Khánh, Ninh Kiều","32, Vành Đai Phi Trường, Quận Bình Thủy, Thành Phố Cần Thơ",Cần Thơ,,"Ninh Kiều, Cần Thơ",VN
993,ChIJOR0UAKFioDERfrNXzPvNOi4,Cửa Hàng Điện Thoại Di Động Gertralo,Cửa hàng điện thoại di động,+84 7103815113,"Cửa Hàng Điện Thoại Di Động Gertralo, 49 Đ. Ngô Quyền, Tân An, Ninh Kiều, Cần Thơ 94112, Việt Nam","Tân An, Ninh Kiều",49 Đ. Ngô Quyền,Cần Thơ,94112.0,"Ninh Kiều, Cần Thơ",VN
994,ChIJT1Zle5CJoDERuKf5ZjakJYU,Điện thoại Minh Thuận,Cửa hàng điện thoại di động,+84 988 855 599,"Điện thoại Minh Thuận, 01 Đ. Trần Hưng Đạo, An Cư, Ninh Kiều, Cần Thơ 920000, Việt Nam","An Cư, Ninh Kiều",01 Đ. Trần Hưng Đạo,Cần Thơ,920000.0,"Ninh Kiều, Cần Thơ",VN
995,ChIJ63jaxgOIoDERfVD2A4__Is0,Cửa Hàng Điện Thoại Di Động Đăng Khoa,Cửa hàng điện thoại di động,+84 292 3769 439,"Cửa Hàng Điện Thoại Di Động Đăng Khoa, 4B, Nguyễn Trãi, Phường Cái Khế, Quận Ninh Kiều, Tp Cần Thơ, Việt Nam","An Hội, Ninh Kiều","4B, Nguyễn Trãi, Phường Cái Khế, Quận Ninh Kiều, Tp Cần Thơ",Cần Thơ,,"Ninh Kiều, Cần Thơ",VN
996,ChIJaUy27oCJoDERhMll16wo-eY,ĐIỆN THOẠI THÁI ANH,Cửa hàng điện thoại di động,+84 939 959 545,"ĐIỆN THOẠI THÁI ANH, Hùng Vương, An Cư, Ninh Kiều, Cần Thơ 123456, Việt Nam","An Cư, Ninh Kiều",Hùng Vương,Cần Thơ,123456.0,"Ninh Kiều, Cần Thơ",VN
997,ChIJs1_4daBioDERmNehoPvWr7s,Cửa Hàng Điện Thoại Huê Viên,Cửa hàng điện thoại di động,+84 932 999 656,"Cửa Hàng Điện Thoại Huê Viên, 100A, Đề Thám, Phường An Cư, Quận Ninh Kiều, Thành Phố Cần Thơ, Tân An, Ninh Kiều, Cần Thơ, Việt Nam","Tân An, Ninh Kiều","100A, Đề Thám, Phường An Cư, Quận Ninh Kiều, Thành Phố Cần Thơ",Cần Thơ,,"Ninh Kiều, Cần Thơ",VN
998,ChIJs5wDFCKIoDERV2xijmw82Y8,Cửa Hàng Điện Thoại Di Động Tín Phong,Cửa hàng điện thoại di động,+84 7103833033,"Cửa Hàng Điện Thoại Di Động Tín Phong, C5 Đ. Mậu Thân, An Phú, Ninh Kiều, Cần Thơ, Việt Nam","An Phú, Ninh Kiều",C5 Đ. Mậu Thân,Cần Thơ,,"Ninh Kiều, Cần Thơ",VN
999,ChIJh48awY5joDERMWsGkguKvbk,ĐIỆN THOẠI CẦN THƠ,Cửa hàng bán đồ điện tử,+84 911 774 444,"ĐIỆN THOẠI CẦN THƠ, 42 Đại lộ Hoà Bình, Tân An, Ninh Kiều, Cần Thơ, Việt Nam","Tân An, Ninh Kiều",42 Đại lộ Hoà Bình,Cần Thơ,,"Ninh Kiều, Cần Thơ",VN
1000,ChIJMedkU6BioDER3tTaXNUp2vw,Cửa Hàng Điện Thoại Di Động Chuyên,Cửa hàng điện thoại di động,+84 7103815113,"Cửa Hàng Điện Thoại Di Động Chuyên, 49 Đ. Ngô Quyền, Tân An, Ninh Kiều, Cần Thơ 94112, Việt Nam","Tân An, Ninh Kiều",49 Đ. Ngô Quyền,Cần Thơ,94112.0,"Ninh Kiều, Cần Thơ",VN
1001,ChIJ9bryV6hioDERooU6eqTn2dM,Cửa Hàng Điện Thoại Di Động Hoàng Thông,Cửa hàng,+84 292 3763 813,"Cửa Hàng Điện Thoại Di Động Hoàng Thông, 1919, Trần Văn Khéo, Quận Ninh Kiều, Tp Cần Thơ, Cái Khế, Ninh Kiều, Cần Thơ, Việt Nam","Cái Khế, Ninh Kiều","1919, Trần Văn Khéo, Quận Ninh Kiều, Tp Cần Thơ",Cần Thơ,,"Ninh Kiều, Cần Thơ",VN
1002,ChIJR5UeS2uIoDERccHNn-QbVTM,Cửa Hàng Điện Thoại Di Động Quỳnh Liên,Cửa hàng điện thoại di động,+84 903 768 534,"Cửa Hàng Điện Thoại Di Động Quỳnh Liên, 161C Đ. Nguyễn Văn Cừ, Phường An Khánh, Ninh Kiều, Cần Thơ, Việt Nam","Phường An Khánh, Ninh Kiều",161C Đ. Nguyễn Văn Cừ,Cần Thơ,,"Ninh Kiều, Cần Thơ",VN
1003,ChIJq6qqBw-IoDERwzMIXcSQu4Q,Cửa Hàng Điện Thoại Tân Việt,Cửa hàng,+84 907 289 992,"Cửa Hàng Điện Thoại Tân Việt, 126A Đ. Nguyễn Văn Cừ, An Hoà, Ninh Kiều, Cần Thơ, Việt Nam","An Hoà, Ninh Kiều",126A Đ. Nguyễn Văn Cừ,Cần Thơ,,"Ninh Kiều, Cần Thơ",VN
1004,ChIJqZwdX0xjoDER43h9PfVgp70,Điện thoại di động Tuấn Kiệt,Cửa hàng điện thoại di động,+84 932 972 168,"Điện thoại di động Tuấn Kiệt, 38 Đ.Xô Viết Nghệ Tĩnh, An Hội, Ninh Kiều, Cần Thơ, Việt Nam","An Hội, Ninh Kiều",38 Đ.Xô Viết Nghệ Tĩnh,Cần Thơ,,"Ninh Kiều, Cần Thơ",VN
1005,ChIJ88WgtyaIoDERhQo4Jv38JgY,Tiệm Điện Thoại Công Cộng,Cửa hàng điện thoại di động,+84 292 3829 171,"Tiệm Điện Thoại Công Cộng, 171, Đường 30/04, Quận Ninh Kiều, Tp Cần Thơ, 192 Đ. 30 Tháng 4, Xuân Khánh, Ninh Kiều, Cần Thơ, Việt Nam","Xuân Khánh, Ninh Kiều","171, Đường 30/04, Quận Ninh Kiều, Tp Cần Thơ, 192 Đ. 30 Tháng 4",Cần Thơ,,"Ninh Kiều, Cần Thơ",VN
1006,ChIJdRnJCxaJoDERQZYhuFutsRo,Sửa chữa Mua Bán Điện Thoại-Phong Phát Mobile,Cửa hàng điện thoại di động,+84 941 114 118,"Sửa chữa Mua Bán Điện Thoại-Phong Phát Mobile, 42s12/7, Khu Vực 3, Phường An Khánh, Ninh Kiều, Cần Thơ, Việt Nam","Phường An Khánh, Ninh Kiều","42s12/7, Khu Vực 3",Cần Thơ,,"Ninh Kiều, Cần Thơ",VN
1007,ChIJD1qUSZ9ioDERoCsDGd9RYxU,Cửa Hàng Điện Thoại Di Động Nguyễn Hoàng Quốc Trung,Cửa hàng điện thoại di động,+84 345 204 278,"Cửa Hàng Điện Thoại Di Động Nguyễn Hoàng Quốc Trung, 66, Đường Hai Bà Trưng, Phường Tân An, Quận Ninh Kiều, Tân An, Ninh Kiều, Cần Thơ, Việt Nam","Tân An, Ninh Kiều","66, Đường Hai Bà Trưng, Phường Tân An, Quận Ninh Kiều",Cần Thơ,,"Ninh Kiều, Cần Thơ",VN
1008,ChIJGQgePwqJoDERwO_cSOhOJ1U,[30k/c] Ốp Lưng Điện Thoại Xinh - Có tất cả các hãng,Cửa hàng điện thoại di động,+84 789 667 678,"[30k/c] Ốp Lưng Điện Thoại Xinh - Có tất cả các hãng, 60 Đường số 6, Phường An Khánh, Ninh Kiều, Cần Thơ, Việt Nam","Phường An Khánh, Ninh Kiều",60 Đường số 6,Cần Thơ,,"Ninh Kiều, Cần Thơ",VN
1009,ChIJqfexs5qHoDERxV_Vj_6VPnA,Điện tử LÊ PHÚ,Cửa hàng sửa chữa đồ điện tử,+84 796 770 108,"Điện tử LÊ PHÚ, 51 Đường Đồng Ngọc Sứ, An Thới, Bình Thủy, Cần Thơ, Việt Nam","An Thới, Bình Thủy",51 Đường Đồng Ngọc Sứ,Cần Thơ,,"Bình Thủy, Cần Thơ",VN
1010,ChIJyco7zEOIoDERKxOobTQiZx8,Cửa Hàng Điện Thoại Di Động Thế Kỷ,Cửa hàng điện thoại di động,+84 292 3740 960,"Cửa Hàng Điện Thoại Di Động Thế Kỷ, 1L, Quốc Lộ 91B, phường Hưng Lợi, quận Ninh Kiều, Tp. Cần Thơ, Phường An Khánh, Ninh Kiều, Cần Thơ, Việt Nam","Phường An Khánh, Ninh Kiều","1L, Quốc Lộ 91B, phường Hưng Lợi, quận Ninh Kiều, Tp. Cần Thơ",Cần Thơ,,"Ninh Kiều, Cần Thơ",VN
1011,ChIJ7wZxwZ1ioDERIPzu8K3sgts,Cửa Hàng Điện Thoại Di Động Trần Tâm,Cửa hàng điện thoại di động,+84 292 3829 154,"Cửa Hàng Điện Thoại Di Động Trần Tâm, 11A1, Đường 30 Tháng 4, phường Xuân Khánh, quận Ninh Kiều, Tp. Cần Thơ, Xuân Khánh, Ninh Kiều, Cần Thơ, Việt Nam","Xuân Khánh, Ninh Kiều","11A1, Đường 30 Tháng 4, phường Xuân Khánh, quận Ninh Kiều, Tp. Cần Thơ",Cần Thơ,,"Ninh Kiều, Cần Thơ",VN
1012,ChIJc2pqGgKJoDERqN13dGm5xl0,Cửa hàng điện thoại Nguyễn Hóa,Cửa hàng điện thoại di động,+84 772 811 182,"Cửa hàng điện thoại Nguyễn Hóa, 262 Tầm Vu, Hưng Lợi, Ninh Kiều, Cần Thơ 94000, Việt Nam","Hưng Lợi, Ninh Kiều",262 Tầm Vu,Cần Thơ,94000.0,"Ninh Kiều, Cần Thơ",VN
1013,ChIJBa1KWzqIoDER0J-LgKhBwDc,Cửa Hàng Điện Thoại Di Động Đặng Huỳnh,Cửa hàng điện thoại di động,+84 292 3893 845,"Cửa Hàng Điện Thoại Di Động Đặng Huỳnh, 171C, Đường 3/2, Quận Ninh Kiều, TP Cần Thơ, Hưng Lợi, Ninh Kiều, Cần Thơ, Việt Nam","Hưng Lợi, Ninh Kiều","171C, Đường 3/2, Quận Ninh Kiều, TP Cần Thơ",Cần Thơ,,"Ninh Kiều, Cần Thơ",VN
1014,ChIJ--qsZqBioDERnPpiwNzhg9w,Mai Phat Mobile Store,Cửa hàng điện thoại di động,+84 292 3813 839,"Mai Phat Mobile Store, 16/47, Nguyen Khuyen Street, Ninh Kieu District, Can Tho City, Tân An, Ninh Kiều, Cần Thơ, Việt Nam","Tân An, Ninh Kiều","16/47, Nguyen Khuyen Street, Ninh Kieu District, Can Tho City",Cần Thơ,,"Ninh Kiều, Cần Thơ",VN
1015,ChIJrX2DriaIoDERX7xhTHzi36s,Cửa Hàng Điện Thoại Di Động Minh Nguyệt,Cửa hàng điện thoại di động,+84 292 2219 979,"Cửa Hàng Điện Thoại Di Động Minh Nguyệt, 34, 30/4, Quận Ninh Kiều, Xuân Khánh, Ninh Kiều, Cần Thơ, Việt Nam","Xuân Khánh, Ninh Kiều","34, 30/4, Quận Ninh Kiều",Cần Thơ,,"Ninh Kiều, Cần Thơ",VN
1016,ChIJJ7dBui5joDERyWsBXxbh2zc,Cửa Hàng Điện Thoại Di Động Minh Hoàng,Cửa hàng điện thoại di động,,"Cửa Hàng Điện Thoại Di Động Minh Hoàng, Đông Bình, Tx. Bình Minh, Vĩnh Long, Việt Nam","Đông Bình, Thị xã Bình Minh",,Vĩnh Long,,Vĩnh Long,VN
1017,ChIJz0oRBGiIoDERNxLPSY90M9M,Điện Thoại Di Động Quốc Tuấn,Cửa hàng,,"Điện Thoại Di Động Quốc Tuấn, An Khánh, Ninh Kiều, Cần Thơ, Việt Nam","An Khánh, Ninh Kiều",,Cần Thơ,,"Ninh Kiều, Cần Thơ",VN
1018,ChIJ9TUpXUGIoDERuRdosweUp6Q,Cửa Hàng Điện Thoại Di Dộng V&D,Cửa hàng điện thoại di động,+84 988 721 464,"Cửa Hàng Điện Thoại Di Dộng V&D, 337A, Quốc Lộ 91B, Quận Ninh Kiều, Thành Phố Cần Thơ, Phường An Khánh, Ninh Kiều, Cần Thơ, Việt Nam","Phường An Khánh, Ninh Kiều","337A, Quốc Lộ 91B, Quận Ninh Kiều, Thành Phố Cần Thơ",Cần Thơ,,"Ninh Kiều, Cần Thơ",VN
1019,ChIJgzoXywmJoDERym9Umz3puzA,Điện Thoại Di Động Nghĩa Trần Mobile,Cửa hàng điện thoại di động,+84 769 666 665,"Điện Thoại Di Động Nghĩa Trần Mobile, 337b Đ. Nguyễn Văn Linh, Phường An Khánh, Ninh Kiều, Cần Thơ, Việt Nam","Phường An Khánh, Ninh Kiều",337b Đ. Nguyễn Văn Linh,Cần Thơ,,"Ninh Kiều, Cần Thơ",VN
1020,ChIJ-3IzakGIoDERGUY1HTNtg90,Cửa Hàng Điện Di Động Thoại Tùng,Cửa hàng điện thoại di động,+84 933 570 570,"Cửa Hàng Điện Di Động Thoại Tùng, 337B3, Đường Nguyễn Văn Linh, Quận Ninh Kiều, Thành Phố Cần Thơ, Phường An Khánh, Ninh Kiều, Cần Thơ, Việt Nam","Phường An Khánh, Ninh Kiều","337B3, Đường Nguyễn Văn Linh, Quận Ninh Kiều, Thành Phố Cần Thơ",Cần Thơ,,"Ninh Kiều, Cần Thơ",VN
1021,ChIJ3y0WaDGIoDERrTxgO9P1EcE,Cửa Hàng Điện Thoại Nguyễn Minh Tâm,Cửa hàng điện thoại di động,+84 774 395 606,"Cửa Hàng Điện Thoại Nguyễn Minh Tâm, 156, Đường 30 Tháng 4, Phường Hưng Lợi, Quận Ninh Kiều, Hưng Lợi, Ninh Kiều, Cần Thơ, Việt Nam","Hưng Lợi, Ninh Kiều","156, Đường 30 Tháng 4, Phường Hưng Lợi, Quận Ninh Kiều",Cần Thơ,,"Ninh Kiều, Cần Thơ",VN
1022,ChIJRzTd-7BjoDERZF1E6PK-Hs0,Sim số đẹp Sửa chữa điện thoại Tài Nam Tài Phát,Cửa hàng điện thoại di động,,"Sim số đẹp Sửa chữa điện thoại Tài Nam Tài Phát, 1A Nguyễn Trãi, Tân An, Ninh Kiều, Cần Thơ 900000, Việt Nam","Tân An, Ninh Kiều",1A Nguyễn Trãi,Cần Thơ,900000.0,"Ninh Kiều, Cần Thơ",VN
1023,ChIJbVIWoZ5ioDERjyo7er8nOZ8,Cửa Hàng Điện Thoại Nguyễn Thu Sương,Cửa hàng điện thoại di động,+84 854 721 120,"Cửa Hàng Điện Thoại Nguyễn Thu Sương, Đường Đường Hai Bà Trưng, Tân An, Ninh Kiều, Cần Thơ, Việt Nam","Tân An, Ninh Kiều",Đường Đường Hai Bà Trưng,Cần Thơ,,"Ninh Kiều, Cần Thơ",VN
1024,ChIJt2bf1EOIoDERxBTC2lBUAyY,cửa hàng điện thoại di động CSM,Cửa hàng điện thoại di động,,"cửa hàng điện thoại di động CSM, 380 Đ. Nguyễn Văn Cừ, Phường An Khánh, Ninh Kiều, Cần Thơ, Việt Nam","Phường An Khánh, Ninh Kiều",380 Đ. Nguyễn Văn Cừ,Cần Thơ,,"Ninh Kiều, Cần Thơ",VN
1025,ChIJiVai_MyJoDERL4BbKhSTXFI,Anh Kieu Mobile Phone Store,Cửa hàng điện thoại di động,+84 939 089 288,"Anh Kieu Mobile Phone Store, 144B Tầm Vu, Hưng Lợi, Ninh Kiều, Cần Thơ, Việt Nam","Hưng Lợi, Ninh Kiều",144B Tầm Vu,Cần Thơ,,"Ninh Kiều, Cần Thơ",VN
1026,ChIJfwVGDSKIoDERJOwcDxiT0Ew,Cửa Hàng Điện Thoại Di Động Lạc Việt,Cửa hàng,,"Cửa Hàng Điện Thoại Di Động Lạc Việt, 123 Đ. Mậu Thân, An Phú, Ninh Kiều, Cần Thơ, Việt Nam","An Phú, Ninh Kiều",123 Đ. Mậu Thân,Cần Thơ,,"Ninh Kiều, Cần Thơ",VN
1027,ChIJR9d2r-WJoDERJnGmc_hKJB0,CỬA HÀNG ĐIỆN THOẠI DI ĐỘNG THIÊN VŨ MOBILE,Cửa hàng bán đồ điện tử,+84 914 415 795,"CỬA HÀNG ĐIỆN THOẠI DI ĐỘNG THIÊN VŨ MOBILE, 86 Ngô Sĩ Liên, kdc metro, Ninh Kiều, Cần Thơ, Việt Nam","kdc metro, Ninh Kiều",86 Ngô Sĩ Liên,Cần Thơ,,"Ninh Kiều, Cần Thơ",VN
1028,ChIJhSxNT7WJoDERY34-SVLzuvM,Cửa Hàng Điện Thoại Di Động Trung Nguyên,Cửa hàng điện thoại di động,+84 292 3911 679,"Cửa Hàng Điện Thoại Di Động Trung Nguyên, 422, Quốc Lộ 1A, Quận Cái Răng, Hưng Lợi, Ninh Kiều, Cần Thơ, Việt Nam","Hưng Lợi, Ninh Kiều","422, Quốc Lộ 1A, Quận Cái Răng",Cần Thơ,,"Ninh Kiều, Cần Thơ",VN
1029,ChIJvaqkrKJjoDERE7TY7Q2RzIQ,Nguyễn Sơn - Điện Thoại Di Động,Cửa hàng bán đồ điện tử,+84 919 423 113,"2Q4J+7RW Nguyễn Sơn - Điện Thoại Di Động, Hưng Phú, Cái Răng, Cần Thơ, Việt Nam","Hưng Phú, Cái Răng",2Q4J+7RW,Cần Thơ,,"Cái Răng, Cần Thơ",VN
1030,ChIJhf1MRbOJoDERYRLWpqICwhk,Cửa Hàng Điện Thoại Di Động Hiền,Cửa hàng điện thoại di động,+84 292 2463 378,"Cửa Hàng Điện Thoại Di Động Hiền, 85/5, Quốc Lộ 1A, TP Cần Thơ, Quận Cái Răng, An Bình, Ninh Kiều, Cần Thơ, Việt Nam","An Bình, Ninh Kiều","85/5, Quốc Lộ 1A, TP Cần Thơ, Quận Cái Răng",Cần Thơ,,"Ninh Kiều, Cần Thơ",VN
1031,ChIJT729vhSIoDERavlKJycZO48,Cửa Hàng Phụ Kiện Điện Thoại Tiến Đạt,Cửa hàng,,"Cửa Hàng Phụ Kiện Điện Thoại Tiến Đạt, An Khánh, Ninh Kiều, Cần Thơ, Việt Nam","An Khánh, Ninh Kiều",,Cần Thơ,,"Ninh Kiều, Cần Thơ",VN
1032,ChIJv0oRJgCJoDERtJDWdb19teg,Cửa hàng điện thoại di động Nguyễn Trung,Cửa hàng điện thoại di động,,"Cửa hàng điện thoại di động Nguyễn Trung, 274 Đ. Bùi Hữu Nghĩa, Long Tuyền, Bình Thủy, Cần Thơ, Việt Nam","Long Tuyền, Bình Thủy",274 Đ. Bùi Hữu Nghĩa,Cần Thơ,,"Bình Thủy, Cần Thơ",VN
1033,ChIJnRTEZX1ioDERxtyf0Y4ob0c,Cửa Hàng Điện Thoại Di Động Chăm,Cửa hàng điện thoại di động,+84 939 144 144,"Cửa Hàng Điện Thoại Di Động Chăm, DD 20Khu Dân Cư Hưng Phú, Quận Cái Răng, Tp Cần Thơ, Hưng Phú, Cái Răng, Cần Thơ, Việt Nam","Hưng Phú, Cái Răng","DD 20Khu Dân Cư Hưng Phú, Quận Cái Răng, Tp Cần Thơ",Cần Thơ,,"Cái Răng, Cần Thơ",VN
1034,ChIJ3dKqerOJoDERrZpqDbI1oV8,Cửa Hàng Điện Thoại Di Động Bích Trân,Cửa hàng điện thoại di động,+84 977 988 667,"Cửa Hàng Điện Thoại Di Động Bích Trân, 108A, Quốc Lộ 1A, P. An Bình, Quận Ninh Kiều, An Bình, Ninh Kiều, Cần Thơ, Việt Nam","An Bình, Ninh Kiều","108A, Quốc Lộ 1A, P. An Bình, Quận Ninh Kiều",Cần Thơ,,"Ninh Kiều, Cần Thơ",VN
1035,ChIJSVAZ-TSJoDERt9TaSfXN2To,Điện Thoại Di Động Thành Lợi,Cửa hàng bán đồ điện tử,+84 845 165 165,"2Q96+PF6 Điện Thoại Di Động Thành Lợi, Hưng Lợi, Ninh Kiều, Cần Thơ, Việt Nam","Hưng Lợi, Ninh Kiều",2Q96+PF6,Cần Thơ,,"Ninh Kiều, Cần Thơ",VN
1038,ChIJs0zydaFioDERPTVNrtgPVQE,Nguyen Chan Hung Old Mobile Phone Store,Cửa hàng điện thoại di động,+84 933 983 560,"Nguyen Chan Hung Old Mobile Phone Store, 27, Tran Quoc Toan Street, Tan An Ward, Ninh Kieu District, Tân An, Ninh Kiều, Cần Thơ, Việt Nam","Tân An, Ninh Kiều","27, Tran Quoc Toan Street, Tan An Ward, Ninh Kieu District",Cần Thơ,,"Ninh Kiều, Cần Thơ",VN
1051,ChIJ-UbDX6BioDERrmjC3A-kVPs,Cửa Hàng Khánh Iphone,Cửa hàng điện thoại di động,+84 974 024 024,"Cửa Hàng Khánh Iphone, 9 Đ. Nguyễn Khuyến, Tân An, Ninh Kiều, Cần Thơ, Việt Nam","Tân An, Ninh Kiều",9 Đ. Nguyễn Khuyến,Cần Thơ,,"Ninh Kiều, Cần Thơ",VN
1068,ChIJC_tTBDuIoDERSzfGCYO3qQQ,Cửa Hàng Điện Thoại Di Động Hương Lan,Cửa hàng,+84 918 579 697,"Cửa Hàng Điện Thoại Di Động Hương Lan, 51A2, Đường 3/2, Quận Ninh Kiều, Tp Cần Thơ, Xuân Khánh, Ninh Kiều, Cần Thơ, Việt Nam","Xuân Khánh, Ninh Kiều","51A2, Đường 3/2, Quận Ninh Kiều, Tp Cần Thơ",Cần Thơ,,"Ninh Kiều, Cần Thơ",VN
1083,ChIJxXIAnp5ioDERmac-Okh0H9c,Minh Khoa Mobile Store,Cửa hàng,+84 292 3752 712,"Minh Khoa Mobile Store, 142 Đường Hai Bà Trưng, Tân An, Ninh Kiều, Cần Thơ, Việt Nam","Tân An, Ninh Kiều",142 Đường Hai Bà Trưng,Cần Thơ,,"Ninh Kiều, Cần Thơ",VN
1135,ChIJMSArDKhioDERjCD-8utzVuE,Cửa Hàng Sim Số Simsomayman.Com,Cửa hàng điện thoại di động,+84 939 339 339,"Cửa Hàng Sim Số Simsomayman.Com, 47 Trần Văn Khéo, An Hội, Ninh Kiều, Cần Thơ, Việt Nam","An Hội, Ninh Kiều",47 Trần Văn Khéo,Cần Thơ,,"Ninh Kiều, Cần Thơ",VN
1214,ChIJJ73hHfSJoDEROlffAYNui_Q,Đức Huy 365 store,Cửa hàng điện thoại di động,+84 886 333 365,"Đức Huy 365 store, 121 Đ. Lý Tự Trọng, P, Ninh Kiều, Cần Thơ 94000, Việt Nam","P, Ninh Kiều",121 Đ. Lý Tự Trọng,Cần Thơ,94000.0,"Ninh Kiều, Cần Thơ",VN
1223,ChIJJdXE2jmJoDER75FmGR2u344,Hoàng store,Cửa hàng điện thoại di động,+84 938 211 041,"Hoàng store, 40 Đ. Nguyễn Đệ, An Hoà, Ninh Kiều, Cần Thơ, Việt Nam","An Hoà, Ninh Kiều",40 Đ. Nguyễn Đệ,Cần Thơ,,"Ninh Kiều, Cần Thơ",VN
1224,ChIJq6qqBw-IoDERTdFv7a8MiA0,Cửa Hàng Đại Lý Viễn Thông Số 0183,Cửa hàng điện thoại di động,+84 292 3389 181,"Cửa Hàng Đại Lý Viễn Thông Số 0183, 380B/14B, Đường Nguyễn Văn Cừ, Quận Ninh Kiều, Tp Cần Thơ, An Hoà, Ninh Kiều, Cần Thơ, Việt Nam","An Hoà, Ninh Kiều","380B/14B, Đường Nguyễn Văn Cừ, Quận Ninh Kiều, Tp Cần Thơ",Cần Thơ,,"Ninh Kiều, Cần Thơ",VN
1227,ChIJTTd5tROIoDERzf4DBG_LOIk,Cửa Hàng Đtdđ Quốc Cường,Cửa hàng điện thoại di động,+84 292 3892 605,"Cửa Hàng Đtdđ Quốc Cường, 138h Đ. Nguyễn Văn Cừ, Phường An Khánh, Ninh Kiều, Cần Thơ, Việt Nam","Phường An Khánh, Ninh Kiều",138h Đ. Nguyễn Văn Cừ,Cần Thơ,,"Ninh Kiều, Cần Thơ",VN
1230,ChIJc1M5duuJoDERko4EOGnwzk0,Dtdd Thái Nguyễn,Cửa hàng điện thoại di động,+84 901 035 468,"Dtdd Thái Nguyễn, 158d/6 khu vực 1.phường an khánh.quận ninh kiều .tp, Cần Thơ 700000, Việt Nam","Phường An Khánh, Ninh Kiều",158d/6 khu vực 1.phường an khánh.quận ninh kiều .tp,Cần Thơ,700000.0,"Ninh Kiều, Cần Thơ",VN
1271,ChIJ0adodHSIoDERGvb78vKGN60,Điện Tử Hữu Phước,Cửa hàng bán đồ điện tử,,"Điện Tử Hữu Phước, An Thới, Bình Thủy, Cần Thơ, Việt Nam","An Thới, Bình Thủy",,Cần Thơ,,"Bình Thủy, Cần Thơ",VN
1275,ChIJl2EtwV6JoDERxCZT0PsrHdQ,Sửa chữa điện thoại TP,Cửa hàng phụ kiện máy tính,+84 939 544 809,"Sửa chữa điện thoại TP, 26/2, Cần Thơ 000000, Việt Nam","Phường An Khánh, Ninh Kiều",26/2,Cần Thơ,0.0,"Ninh Kiều, Cần Thơ",VN
1289,ChIJpSFao9iJoDERWbgJrEcKY14,Shop Phụ Kiện Hoài,Cửa hàng bán đồ điện tử,,"2QV6+96G Shop Phụ Kiện Hoài, Phường An Khánh, Ninh Kiều, Cần Thơ, Việt Nam","Phường An Khánh, Ninh Kiều",2QV6+96G,Cần Thơ,,"Ninh Kiều, Cần Thơ",VN
1300,ChIJpyk7FQKJoDERUGReDuiSTP4,Shop Phụ Kiện Hoqif,Cửa hàng bán đồ điện tử,+84 335 162 751,"2QV6+84Q Shop Phụ Kiện Hoqif, Hẻm liên tổ 12-13-14-15-16-17-18-19-20, Phường An Khánh, Ninh Kiều, Cần Thơ, Việt Nam","Phường An Khánh, Ninh Kiều","2QV6+84Q, Hẻm liên tổ 12-13-14-15-16-17-18-19-20",Cần Thơ,,"Ninh Kiều, Cần Thơ",VN
1308,ChIJSfrVtrSJoDERlMVALFP2zZg,Cửa Hàng Điện Thoại Di Động Thịnh,Cửa hàng điện thoại di động,+84 292 3832 873,"Cửa Hàng Điện Thoại Di Động Thịnh, 166/4, Quốc Lộ 1A, P. Lê Bình, Quận Cái Răng, Hưng Lợi, Ninh Kiều, Cần Thơ, Việt Nam","Hưng Lợi, Ninh Kiều","166/4, Quốc Lộ 1A, P. Lê Bình, Quận Cái Răng",Cần Thơ,,"Ninh Kiều, Cần Thơ",VN
1326,ChIJO4oeyruJoDERRNp0BaLY3ps,Phụ Kiện Điện Thoại Tâm Đan Shop,Cửa hàng,,"Phụ Kiện Điện Thoại Tâm Đan Shop, 42E5/5, Khu Vực 3, P, Ninh Kiều, Cần Thơ, Việt Nam","P, Ninh Kiều","42E5/5, Khu Vực 3",Cần Thơ,,"Ninh Kiều, Cần Thơ",VN
1330,ChIJpdUUiKKJoDERW6tKkVmyO18,Điện máy Nguyễn - Cần Thơ (phụ kiện DT),Cửa hàng điện thoại di động,,"Điện máy Nguyễn - Cần Thơ (phụ kiện DT), đối diện bệnh viện Nhi, Đường Số 3, An Bình, Ninh Kiều, Cần Thơ, Việt Nam","An Bình, Ninh Kiều","đối diện bệnh viện Nhi, Đường Số 3",Cần Thơ,,"Ninh Kiều, Cần Thơ",VN
1331,ChIJT2D5sOmJoDER2sG4ESfJ968,ĐTDĐ NGUYỄN ĐĂNG,Cửa hàng bán đồ điện tử,+84 842 707 777,"ĐTDĐ NGUYỄN ĐĂNG, 261 Nguyễn Văn Cừ Nối Dài, An Bình, Ninh Kiều, Cần Thơ, Việt Nam","An Bình, Ninh Kiều",261 Nguyễn Văn Cừ Nối Dài,Cần Thơ,,"Ninh Kiều, Cần Thơ",VN
1333,ChIJpWqm2kSIoDEReUt86WGCy5M,Cửa Hàng Thanh Mobile,Cửa hàng điện thoại di động,+84 939 382 638,"2PGX+P3C Cửa Hàng Thanh Mobile, Nguyễn Văn Cừ Nối Dài, Phường An Khánh, Quận Ninh Kiều, Thành Phố Cần Thơ, An Bình, Ninh Kiều, Cần Thơ, Việt Nam","An Bình, Ninh Kiều","2PGX+P3C, Nguyễn Văn Cừ Nối Dài, Phường An Khánh, Quận Ninh Kiều, Thành Phố Cần Thơ",Cần Thơ,,"Ninh Kiều, Cần Thơ",VN
1334,ChIJG3k3q7SJoDERnOgw5OTpz6g,Cửa Hàng Điện Thoại Di Động Minh Hòa,Cửa hàng điện thoại di động,+84 292 3846 447,"Cửa Hàng Điện Thoại Di Động Minh Hòa, 121A, Đường 3/2 Nối Dài, p. An Bình, Quận Ninh Kiều, Hưng Lợi, Ninh Kiều, Cần Thơ, Việt Nam","Hưng Lợi, Ninh Kiều","121A, Đường 3/2 Nối Dài, p. An Bình, Quận Ninh Kiều",Cần Thơ,,"Ninh Kiều, Cần Thơ",VN
1336,ChIJQ76D2uWIoDERDA1koiIRyMM,Điện Thoại Di Động Minh Điền,Cửa hàng điện thoại di động,+84 907 300 060,"Điện Thoại Di Động Minh Điền, Long Tuyền, Bình Thủy, Cần Thơ, Việt Nam","Long Tuyền, Bình Thủy",,Cần Thơ,,"Bình Thủy, Cần Thơ",VN
1338,ChIJ9QRlEtqJoDERkaN_K2ZvbgM,Kenro Store,Cửa hàng điện thoại di động,+84 942 282 379,"Kenro Store, 70 Đường số 3, Khu Đô Thị Đại Ngân, Ninh Kiều, Cần Thơ 900003, Việt Nam","Khu Đô Thị Đại Ngân, Ninh Kiều",70 Đường số 3,Cần Thơ,900003.0,"Ninh Kiều, Cần Thơ",VN
1339,ChIJF_kpTbKJoDERqiVlRmFumAM,Điện Thoại Di Động VI Phúc,Cửa hàng điện thoại di động,,"2P5X+HVQ Điện Thoại Di Động VI Phúc, ĐT923, An Bình, Ninh Kiều, Cần Thơ, Việt Nam","An Bình, Ninh Kiều","2P5X+HVQ, ĐT923",Cần Thơ,,"Ninh Kiều, Cần Thơ",VN
1342,ChIJ2a3LbrKJoDERQXv8tjUtHww,Cửa Hàng Điện Thoại Quang Thái,Cửa hàng điện thoại di động,+84 939 154 968,"Cửa Hàng Điện Thoại Quang Thái, 221F Đ. Hoàng Quốc Việt, An Bình, Ninh Kiều, Cần Thơ, Việt Nam","An Bình, Ninh Kiều",221F Đ. Hoàng Quốc Việt,Cần Thơ,,"Ninh Kiều, Cần Thơ",VN
1349,ChIJSaFodPSJoDERb8aF9jvAnRo,Phụ Kiện Sinh Viên,Cửa hàng điện thoại di động,+84 939 939 259,"Phụ Kiện Sinh Viên, 78 Nguyễn Văn Cừ Nối Dài, KV4, Ninh Kiều, Cần Thơ, Việt Nam","KV4, Ninh Kiều",78 Nguyễn Văn Cừ Nối Dài,Cần Thơ,,"Ninh Kiều, Cần Thơ",VN
1355,ChIJXTW4ILqJoDERgsLLJkaZjSo,Cửa Hàng Điện Thoại Di Động Cô Minh,Cửa hàng điện thoại di động,+84 292 3915 339,"Cửa Hàng Điện Thoại Di Động Cô Minh, 266E, Đường Trần Hưng Đạo, Quận Cái Răng, Lê Bình, Cái Răng, Cần Thơ, Việt Nam","Lê Bình, Cái Răng","266E, Đường Trần Hưng Đạo, Quận Cái Răng",Cần Thơ,,"Cái Răng, Cần Thơ",VN
1356,ChIJh9iCdyGJoDER8Ry1oNyOlA0,Điện Thoại Cần Thơ,Cửa hàng bán đồ điện tử,+84 981 864 864,"Điện Thoại Cần Thơ, 5 Lộ Vòng Cung, An Bình, Ninh Kiều, Cần Thơ, Việt Nam","An Bình, Ninh Kiều",5 Lộ Vòng Cung,Cần Thơ,,"Ninh Kiều, Cần Thơ",VN
1358,ChIJ_d-pHryJoDER8jphtmq037s,Cửa Hàng Điện Thoại Di Động Lâm,Cửa hàng điện thoại di động,+84 292 3848 589,"Cửa Hàng Điện Thoại Di Động Lâm, 69/2, Đường Trần Hưng Đạo, Quận Cái Răng, Lê Bình, Cái Răng, Cần Thơ, Việt Nam","Lê Bình, Cái Răng","69/2, Đường Trần Hưng Đạo, Quận Cái Răng",Cần Thơ,,"Cái Răng, Cần Thơ",VN
1360,ChIJdVVdy8eJoDERH_50LQNEt94,Phụ Kiện 102,Cửa hàng điện thoại di động,+84 939 977 285,"Phụ Kiện 102, 102 Đ. Trần Hoàng Na, Khu dân cư 91B, Ninh Kiều, Cần Thơ, Việt Nam","Khu dân cư 91B, Ninh Kiều",102 Đ. Trần Hoàng Na,Cần Thơ,,"Ninh Kiều, Cần Thơ",VN
1362,ChIJI2iqGraJoDERzfAmHErMRao,Cửa Hàng Điện Thoại Phát Tiến 2,Cửa hàng bán đồ điện tử,,"Cửa Hàng Điện Thoại Phát Tiến 2, 55a Hẻm 132 Đ. 3 Tháng 2, Hưng Lợi, Ninh Kiều, Cần Thơ, Việt Nam","Hưng Lợi, Ninh Kiều",55a Hẻm 132 Đ. 3 Tháng 2,Cần Thơ,,"Ninh Kiều, Cần Thơ",VN
1364,ChIJ52Cb9zOIoDERyuzlhcqsrEU,Cửa Hàng Đtdđ - Cầm Đồ Hoàng Châu,Cửa hàng điện thoại di động,+84 292 6290 186,"Cửa Hàng Đtdđ - Cầm Đồ Hoàng Châu, 566 Đ. 30 Tháng 4, Hưng Lợi, Ninh Kiều, Cần Thơ, Việt Nam","Hưng Lợi, Ninh Kiều",566 Đ. 30 Tháng 4,Cần Thơ,,"Ninh Kiều, Cần Thơ",VN
1367,ChIJGUSym0qIoDERU585Gy3MNOI,Dung Nga Mobile Store,Cửa hàng,+84 292 3739 197,"Dung Nga Mobile Store, 56A, Street 3/2, Hung Loi Ward, Ninh Kieu District, Can Tho City, Hưng Lợi, Ninh Kiều, Cần Thơ, Việt Nam","Hưng Lợi, Ninh Kiều","56A, Street 3/2, Hung Loi Ward, Ninh Kieu District, Can Tho City",Cần Thơ,,"Ninh Kiều, Cần Thơ",VN
1369,ChIJv7N5OBSJoDERKgXc0t9o4Zw,Cửa Hàng Điện Thoại Tuấn Vũ 2,Cửa hàng điện thoại di động,+84 949 515 115,"XPW8+J5G Cửa Hàng Điện Thoại Tuấn Vũ 2, Chợ Mỹ Khánh, Phong Điền, Cần Thơ, Việt Nam","Chợ Mỹ Khánh, Phong Điền",XPW8+J5G,Cần Thơ,,"Phong Điền, Cần Thơ",VN
1374,ChIJJdoXeBSJoDERNgbMdNHgcMg,Duy Tân Dán Xe Điện Thoại,Cửa hàng,,"Duy Tân Dán Xe Điện Thoại, Mỹ Khánh, Phong Điền, Cần Thơ, Việt Nam","Mỹ Khánh, Phong Điền",,Cần Thơ,,"Phong Điền, Cần Thơ",VN
1377,ChIJdbM7WcqLoDERKy5lQ47uL9I,Nguyen Trang Siêu Thị Điện Thoại Di Động,Cửa hàng điện thoại di động,,"Nguyen Trang Siêu Thị Điện Thoại Di Động, Tân Phú Thạnh, Châu Thành A, Hậu Giang, Việt Nam","Tân Phú Thạnh, Châu Thành A",,Hậu Giang,,Hậu Giang,VN
1378,ChIJL1SO37CJoDERc5_mSg_6cdU,Tiệm Sửa Chữa Điện Thoại Hiền,Cửa hàng,+84 932 699 990,"Tiệm Sửa Chữa Điện Thoại Hiền, 27 Trưng Nữ Vương, Lê Bình, Cái Răng, Cần Thơ, Việt Nam","Lê Bình, Cái Răng",27 Trưng Nữ Vương,Cần Thơ,,"Cái Răng, Cần Thơ",VN
1389,ChIJOeTbH3aJoDERCy1GyZqoGKE,BN Phone,Cửa hàng điện thoại di động,+84 397 955 553,"BN Phone, 213 6, Kv8, Ninh Kiều, Cần Thơ, Việt Nam","Kv8, Ninh Kiều",213 6,Cần Thơ,,"Ninh Kiều, Cần Thơ",VN
1398,ChIJnXTsODmJoDERRTFfFvT6Ku0,Cửa Hàng Điện Thoại Phong Vũ,Cửa hàng điện thoại di động,+84 939 309 709,"Cửa Hàng Điện Thoại Phong Vũ, 231 Lộ Vòng Cung, Ấp Mỹ Phước, Phong Điền, Cần Thơ, Việt Nam","Ấp Mỹ Phước, Phong Điền",231 Lộ Vòng Cung,Cần Thơ,,"Phong Điền, Cần Thơ",VN
1401,ChIJiy89Gk2JoDER4Y_bGcyPK4k,Điện Thoại Ngọc Phụng,Cửa hàng điện thoại di động,+84 932 800 838,"XMPR+227 Điện Thoại Ngọc Phụng, Nhơn Nghĩa, Phong Điền, Cần Thơ, Việt Nam","Nhơn Nghĩa, Phong Điền",XMPR+227,Cần Thơ,,"Phong Điền, Cần Thơ",VN
1411,ChIJGcIMdU2JoDERbuxei4_vVWE,Cửa Hàng Điện Thoại Di Động Tâm Như,Cửa hàng điện thoại di động,+84 292 3850 559,"Cửa Hàng Điện Thoại Di Động Tâm Như, 15 Ấp Thị Tứ, Đường Tỉnh Lộ 923, Thị Trấn Phong Điền, Huyện Phong Điền, Nhơn Nghĩa, Phong Điền, Cần Thơ, Việt Nam","Nhơn Nghĩa, Phong Điền","15 Ấp Thị Tứ, Đường Tỉnh Lộ 923, Thị Trấn Phong Điền, Huyện Phong Điền",Cần Thơ,,"Phong Điền, Cần Thơ",VN
1412,ChIJETyriLSOoDERIwRkgtfUvL4,Cửa Hàng Điện Thoại Di Động Phúc Thịnh,Cửa hàng điện thoại di động,+84 939 386 677,"Cửa Hàng Điện Thoại Di Động Phúc Thịnh, 30 Ấp Thị Tứ, Đường Tỉnh Lộ 923, Thị Trấn Phong Điền, Huyện Phong Điền, Thị trấn Phong Điền, Phong Điền, Cần Thơ, Việt Nam","Thị trấn Phong Điền, Phong Điền","30 Ấp Thị Tứ, Đường Tỉnh Lộ 923, Thị Trấn Phong Điền, Huyện Phong Điền",Cần Thơ,,"Phong Điền, Cần Thơ",VN
1416,ChIJ0f6PjMCJoDERvxskMjBu5wQ,Cửa Hàng Điện Thoại Duy Linh,Cửa hàng điện thoại di động,+84 939 767 995,"XMMQ+QV8 Cửa Hàng Điện Thoại Duy Linh, Chợ Vàm Xáng, ĐT932, Nhơn Nghĩa, Phong Điền, Cần Thơ, Việt Nam","Nhơn Nghĩa, Phong Điền","XMMQ+QV8, Chợ Vàm Xáng, ĐT932",Cần Thơ,,"Phong Điền, Cần Thơ",VN
1418,ChIJYxX15cCOoDERmPGloAyIag0,Cửa Hàng Điện Thoại Tám Quang,Cửa hàng điện thoại di động,+84 939 033 428,"Cửa Hàng Điện Thoại Tám Quang, 174, Ấp Thị Tứ, Thị Trấn Phong Điền, Huyện Phong Điền, Thành Phố Cần Thơ, Nhơn ái, Phong Điền, Cần Thơ, Việt Nam","Nhơn ái, Phong Điền","174, Ấp Thị Tứ, Thị Trấn Phong Điền, Huyện Phong Điền, Thành Phố Cần Thơ",Cần Thơ,,"Phong Điền, Cần Thơ",VN
1424,ChIJcerYM8eOoDERhl7JBjPXRkQ,Cửa Hàng Điện Thoại Di Động Trần Quốc Dũng,Cửa hàng điện thoại di động,+84 917 133 339,"Cửa Hàng Điện Thoại Di Động Trần Quốc Dũng, 112, Ấp Thị Tứ, Thị Trấn Phong Điền, Huyện Phong Điền, Nhơn ái, Phong Điền, Cần Thơ, Việt Nam","Nhơn ái, Phong Điền","112, Ấp Thị Tứ, Thị Trấn Phong Điền, Huyện Phong Điền",Cần Thơ,,"Phong Điền, Cần Thơ",VN
1437,ChIJCf_IlXiJoDER14DNKK5g6Po,Điện máy Thanh Phong,Cửa hàng bán đồ điện tử,+84 908 209 379,"Điện máy Thanh Phong, Bông Vang, Mỹ Khánh, Phong Điền, Cần Thơ, Việt Nam","Mỹ Khánh, Phong Điền",Bông Vang,Cần Thơ,,"Phong Điền, Cần Thơ",VN
1438,ChIJn4Ss3ymPoDERGYIDaoHOcGA,Máy Tính - Điện Thoại - Camera Minh Sang,Cửa hàng điện thoại di động,+84 939 790 467,"Máy Tính - Điện Thoại - Camera Minh Sang, 7 Đ. Bùi Hữu Nghĩa, Giai Xuân, Phong Điền, Cần Thơ, Việt Nam","Giai Xuân, Phong Điền",7 Đ. Bùi Hữu Nghĩa,Cần Thơ,,"Phong Điền, Cần Thơ",VN
1445,ChIJ_4ZP7aiLoDERzt6qQRahIIg,Phuc Trieu Mobile Phone Store,Cửa hàng điện thoại di động,+84 907 056 078,"Phuc Trieu Mobile Phone Store, 455 QL1A, Thị trấn Cái Tắc, Châu Thành A, Hậu Giang, Việt Nam","Thị trấn Cái Tắc, Châu Thành A",455 QL1A,Hậu Giang,,"Châu Thành A, Hậu Giang",VN
1447,ChIJwU9wjK6JoDERejb6JHyHYrg,Nam Cường Mobile,Cửa hàng điện thoại di động,+84 981 864 864,"Nam Cường Mobile, 5 Lộ Vòng Cung, An Bình, Ninh Kiều, Cần Thơ, Việt Nam","An Bình, Ninh Kiều",5 Lộ Vòng Cung,Cần Thơ,,"Ninh Kiều, Cần Thơ",VN
1454,ChIJVWRDd7qJoDERVGeN9XdmHs0,Cửa Hàng Đtdđ Hoàng Khanh,Cửa hàng điện thoại di động,+84 292 3911 244,"Cửa Hàng Đtdđ Hoàng Khanh, 423 QL1A, Lê Bình, Cái Răng, Cần Thơ, Việt Nam","Lê Bình, Cái Răng",423 QL1A,Cần Thơ,,"Cái Răng, Cần Thơ",VN
1458,ChIJhzLSabKJoDERp71y-ZvugcY,Cửa Hàng ĐTDĐ Nhật Anh,Cửa hàng điện thoại di động,+84 292 6254 897,"Cửa Hàng ĐTDĐ Nhật Anh, 201, Đường Cái Sơn Hàng Bàng, Quận Cái Răng, An Bình, Ninh Kiều, Cần Thơ, Việt Nam","An Bình, Ninh Kiều","201, Đường Cái Sơn Hàng Bàng, Quận Cái Răng",Cần Thơ,,"Ninh Kiều, Cần Thơ",VN
1485,ChIJWSbPYrCJoDERWePq3ZJ9ilk,Đại Lý Mobifone Quốc Tuấn,Cửa hàng điện thoại di động,+84 292 3844 554,"Đại Lý Mobifone Quốc Tuấn, 75/12, Nguyễn Trãi, Quận Cái Răng, Thành Phố Cần Thơ, Lê Bình, Cái Răng, Cần Thơ, Việt Nam","Lê Bình, Cái Răng","75/12, Nguyễn Trãi, Quận Cái Răng, Thành Phố Cần Thơ",Cần Thơ,,"Cái Răng, Cần Thơ",VN
1505,ChIJr8lBtcaJoDERfmX6xwWBIGs,Tín Phát Mobile,Cửa hàng điện thoại di động,+84 939 955 656,"Tín Phát Mobile, 100/3 Khu Vực 3, An Bình, Ninh Kiều, Cần Thơ 900000, Việt Nam","An Bình, Ninh Kiều",100/3 Khu Vực 3,Cần Thơ,900000.0,"Ninh Kiều, Cần Thơ",VN
1506,ChIJ5UeKYa2JoDERJ2C9rWVFsuo,Cửa Hàng ĐTDĐ Quang Thái,Cửa hàng điện thoại di động,+84 987 808 628,"Cửa Hàng ĐTDĐ Quang Thái, 221, Đường Cái Sơn Hàng Bàng, Quận Cái Răng, An Bình, Ninh Kiều, Cần Thơ, Việt Nam","An Bình, Ninh Kiều","221, Đường Cái Sơn Hàng Bàng, Quận Cái Răng",Cần Thơ,,"Ninh Kiều, Cần Thơ",VN
1516,ChIJI2yoAbeJoDERhg63rh5vMdc,Ngoc Bich Mobile Shop,Cửa hàng điện thoại di động,+84 909 363 650,"Ngoc Bich Mobile Shop, 80, Hau Thanh My Street, Cai Rang District, Can Tho City, Lê Bình, Cái Răng, Cần Thơ, Việt Nam","Lê Bình, Cái Răng","80, Hau Thanh My Street, Cai Rang District, Can Tho City",Cần Thơ,,"Cái Răng, Cần Thơ",VN
1518,ChIJiRvms7aJoDERltTvZeYOJhs,Điểm Bán Sim Số - Thẻ Cào Nhật Anh,Cửa hàng điện thoại di động,,"Điểm Bán Sim Số - Thẻ Cào Nhật Anh, 18 Ngô Quyền, Lê Bình, Cái Răng, Cần Thơ, Việt Nam","Lê Bình, Cái Răng",18 Ngô Quyền,Cần Thơ,,"Cái Răng, Cần Thơ",VN
1562,ChIJR9UrGTWIoDEROIF7JyURu_A,Tiệm Dịch Vụ Sửa Chữa Điện Tử @ Tin Học Tuấn Cường,Cửa hàng bán đồ điện tử,+84 7103838095,"Tiệm Dịch Vụ Sửa Chữa Điện Tử @ Tin Học Tuấn Cường, 86 Hẻm 553, Hưng Lợi, Ninh Kiều, Cần Thơ, Việt Nam","Hưng Lợi, Ninh Kiều",86 Hẻm 553,Cần Thơ,,"Ninh Kiều, Cần Thơ",VN
1570,ChIJ7ZAVnzaIoDERKvuE2gVHGqM,Cửa Hàng ĐTDĐ Sang Iphone,Cửa hàng điện thoại di động,+84 708 547 777,"Cửa Hàng ĐTDĐ Sang Iphone, 26 Hẻm 132 Đ. 3 Tháng 2, Hưng Lợi, Ninh Kiều, Cần Thơ, Việt Nam","Hưng Lợi, Ninh Kiều",26 Hẻm 132 Đ. 3 Tháng 2,Cần Thơ,,"Ninh Kiều, Cần Thơ",VN
1571,ChIJdQclcEeIoDERTtZo-ht0EIQ,Cửa Hàng ĐTDĐ Phong Phát,Cửa hàng điện thoại di động,+84 916 467 764,"Cửa Hàng ĐTDĐ Phong Phát, 303A Đ. Nguyễn Văn Linh, Phường An Khánh, Ninh Kiều, Cần Thơ, Việt Nam","Phường An Khánh, Ninh Kiều",303A Đ. Nguyễn Văn Linh,Cần Thơ,,"Ninh Kiều, Cần Thơ",VN
1585,ChIJZRVWjV2JoDERWjLjw9pJ5B0,Phụ kiện Út Sữa,Cửa hàng điện thoại di động,+84 909 983 565,"Phụ kiện Út Sữa, 58 Hẻm 112 Đ. 3 Tháng 2, Hưng Lợi, Ninh Kiều, Cần Thơ, Việt Nam","Hưng Lợi, Ninh Kiều",58 Hẻm 112 Đ. 3 Tháng 2,Cần Thơ,,"Ninh Kiều, Cần Thơ",VN
1592,ChIJu1hbhziIoDER6MSgzZcS7uU,Điểm Bán Thẻ Cào 404,Cửa hàng điện thoại di động,,"Điểm Bán Thẻ Cào 404, An Khánh, Ninh Kiều, Cần Thơ, Việt Nam","An Khánh, Ninh Kiều",,Cần Thơ,,"Ninh Kiều, Cần Thơ",VN
1619,ChIJuzWiAjWIoDERhcElrScstFI,Cửa Hàng ĐTDĐ Hoàng Tài Mobile,Cửa hàng điện thoại di động,+84 7106281336,"Cửa Hàng ĐTDĐ Hoàng Tài Mobile, 91/19 Hẻm 553, Hưng Lợi, Ninh Kiều, Cần Thơ, Việt Nam","Hưng Lợi, Ninh Kiều",91/19 Hẻm 553,Cần Thơ,,"Ninh Kiều, Cần Thơ",VN
1622,ChIJRS09NJhjoDERiLITpoPvD8E,Hào Mobile,Cửa hàng điện thoại di động,+84 943 225 499,"Hào Mobile, 22/1 Đ. Trần Hoàng Na, Hưng Lợi, Ninh Kiều, Cần Thơ 900000, Việt Nam","Hưng Lợi, Ninh Kiều",22/1 Đ. Trần Hoàng Na,Cần Thơ,900000.0,"Ninh Kiều, Cần Thơ",VN
1628,ChIJeTtZnEqIoDERlpesIuf0E9I,Cửa Hàng Đtdđ Pq,Cửa hàng điện thoại di động,+84 292 3839 164,"Cửa Hàng Đtdđ Pq, 59 Đ. 3 Tháng 2, Hưng Lợi, Ninh Kiều, Cần Thơ, Việt Nam","Hưng Lợi, Ninh Kiều",59 Đ. 3 Tháng 2,Cần Thơ,,"Ninh Kiều, Cần Thơ",VN
1631,ChIJgcWY_O2JoDERf5eWnwIUvOc,Gia Bảo Mobifone,Cửa hàng điện thoại di động,,"Gia Bảo Mobifone, 191 Đ. 30 Tháng 4, Hưng Lợi, Ninh Kiều, Cần Thơ, Việt Nam","Hưng Lợi, Ninh Kiều",191 Đ. 30 Tháng 4,Cần Thơ,,"Ninh Kiều, Cần Thơ",VN
1635,ChIJM__HSaKJoDERNZBzbQnlxu4,DUY KHANG MOBILE,Cửa hàng điện thoại di động,+84 339 750 636,"DUY KHANG MOBILE, 190/13 Hẻm 534 Hẻm 553, Hưng Lợi, Ninh Kiều, Cần Thơ 90000, Việt Nam","Hưng Lợi, Ninh Kiều",190/13 Hẻm 534 Hẻm 553,Cần Thơ,90000.0,"Ninh Kiều, Cần Thơ",VN
1664,ChIJKYx768yJoDERayASQHX00N0,Duy Thái Linh Kiện Điện Tử & Vật Phẩm Trang Trí,Cửa hàng bán đồ điện tử,,"2Q68+2C3 Duy Thái Linh Kiện Điện Tử & Vật Phẩm Trang Trí, Đ. Trần Hoàng Na, Hưng Lợi, Ninh Kiều, Cần Thơ, Việt Nam","Hưng Lợi, Ninh Kiều","2Q68+2C3, Đ. Trần Hoàng Na",Cần Thơ,,"Ninh Kiều, Cần Thơ",VN
1692,ChIJuRtjZiKIoDERxs7Jrnvhfew,Ngọc An Mobile,Cửa hàng điện thoại di động,+84 919 751 975,"Ngọc An Mobile, 21 Đ. 3 Tháng 2, Hưng Lợi, Ninh Kiều, Cần Thơ, Việt Nam","Hưng Lợi, Ninh Kiều",21 Đ. 3 Tháng 2,Cần Thơ,,"Ninh Kiều, Cần Thơ",VN
1711,ChIJi9CXQiKIoDERLf0UcIO5JuU,Trung Tâm Viễn Thông 1,Cửa hàng điện thoại di động,+84 292 3833 333,"Trung Tâm Viễn Thông 1, 1, Đường 3/2, Phường Xuân Khánh, Quận Ninh Kiều, Thành Phố Cần Thơ, An Phú, Ninh Kiều, Cần Thơ, Việt Nam","An Phú, Ninh Kiều","1, Đường 3/2, Phường Xuân Khánh, Quận Ninh Kiều, Thành Phố Cần Thơ",Cần Thơ,,"Ninh Kiều, Cần Thơ",VN
1732,ChIJmaHa3B-IoDERK8998vRvj5E,Cửa Hàng Điện Thoại Di Động Minh Đăng,Cửa hàng bán buôn,+84 292 2223 750,"Cửa Hàng Điện Thoại Di Động Minh Đăng, 86/30, Lý Tự Trọng, phường An Cư, quận Ninh Kiều, Tân An, Ninh Kiều, Cần Thơ, Việt Nam","Tân An, Ninh Kiều","86/30, Lý Tự Trọng, phường An Cư, quận Ninh Kiều",Cần Thơ,,"Ninh Kiều, Cần Thơ",VN
1762,ChIJY_wl9yCIoDERBR2Bt6WmVYU,DNTN Điện Tử Thanh Sơn,Cửa hàng bán đồ điện tử,,"DNTN Điện Tử Thanh Sơn, 43B Đ. 30 Tháng 4, An Lạc, Ninh Kiều, Cần Thơ, Việt Nam","An Lạc, Ninh Kiều",43B Đ. 30 Tháng 4,Cần Thơ,,"Ninh Kiều, Cần Thơ",VN
