,place_id,name,main_category,phone,address,address_ward,address_street,address_city,address_postal_code,address_state,address_country_code
0,ChIJ1zgaajWTpzERAwdFNM7oyxM,Sailing Club Phú Quốc,Nhà hàng,0931 031 035,"Sailing Club Phú Quốc, Next to Intercontinental, Lô B7 Khu phức, Dương Tơ, Tp. Phú Quốc, Kiên Giang 920000","Dương Tơ, Thành phố Phú Quốc","Next to Intercontinental, Lô B7 Khu phức",Kiên Giang,920000.0,"Tp. Phú Quốc, Kiên Giang",VN
16,ChIJzcWlVKlioDER8x5DgJZRmzc,Karaoke Paradise 1,Karaoke,0292 3797 797,"Karaoke Paradise 1, 18 Lê Lợi, Cái Khế, Ninh Kiều, Cần Thơ","Cái Khế, Ninh Kiều",18 Lê Lợi,Cần Thơ,,"Ninh Kiều, Cần Thơ",VN
32,ChIJd3KrYa0odTER_3IUi3FL3s8,Birdy,Quán bar,0938 818 156,"Birdy, 80 Phạm Viết Chánh, Phường 19, Bình Thạnh, Thành phố Hồ Chí Minh","Phường 19, Bình Thạnh",80 Phạm Viết Chánh,Thành phố Hồ Chí Minh,,"Bình Thạnh, Thành phố Hồ Chí Minh",VN
48,ChIJcx38zHmJoDERHUu5SybjbXk,QUÁN NGON CẦN THƠ HÒA TUỘC,Nhà hàng,1900 866808,"QUÁN NGON CẦN THƠ HÒA TUỘC, 333 Đ. Nguyễn Văn Linh, Phường An Khánh, Ninh Kiều, Cần Thơ 94000","Phường An Khánh, Ninh Kiều",333 Đ. Nguyễn Văn Linh,Cần Thơ,94000.0,"Ninh Kiều, Cần Thơ",VN
49,ChIJ4-uslaNioDERJcQkA493bD4,Ninh Kieu Sky Bar,Quán bar,0939 786 123,"Ninh Kieu Sky Bar, 02 Hai Ba Trung Stress District City, Tân An, Ninh Kiều, Cần Thơ","Tân An, Ninh Kiều",02 Hai Ba Trung Stress District City,Cần Thơ,,"Ninh Kiều, Cần Thơ",VN
65,ChIJBfQLtuNjoDERDg4kA6AKgmw,Helios' Cocktail,Quán bar cocktail,0866 565 513,"Helios' Cocktail, 14 Đ. Nam Kỳ Khởi Nghĩa, Tân An, Ninh Kiều, Cần Thơ 900000","Tân An, Ninh Kiều",14 Đ. Nam Kỳ Khởi Nghĩa,Cần Thơ,900000.0,"Ninh Kiều, Cần Thơ",VN
79,ChIJb7P93kOIoDER1wjuTtuPK4U,Quán nhậu 34K,Quán ăn nhỏ,0963 549 265,"Quán nhậu 34K, Đ. Nguyễn Văn Linh, Phường An Khánh, Ninh Kiều, Cần Thơ","Phường An Khánh, Ninh Kiều",Đ. Nguyễn Văn Linh,Cần Thơ,,"Ninh Kiều, Cần Thơ",VN
80,ChIJox-59sSJoDERWDaj00Zt9bk,Dreibar Craftbeer & Cocktail,Quán bar cocktail,0902 302 666,"Dreibar Craftbeer & Cocktail, 110 Đ. Đinh Tiên Hoàng, An Hội, Ninh Kiều, Cần Thơ","An Hội, Ninh Kiều",110 Đ. Đinh Tiên Hoàng,Cần Thơ,,"Ninh Kiều, Cần Thơ",VN
92,ChIJfxQTUjspdTERTPSzMgsXbMk,Tủ Bar,Quán bar,0795 042 511,"Tủ Bar, 160 Ng. Tất Tố, Phường 22, Bình Thạnh, Thành phố Hồ Chí Minh 70000","Phường 22, Bình Thạnh",160 Ng. Tất Tố,Thành phố Hồ Chí Minh,70000.0,"Bình Thạnh, Thành phố Hồ Chí Minh",VN
108,ChIJ13IRhW2JoDERZJlZNG43Wes,LEGI Cocktails & Dining,Quán bar,0939 011 696,"LEGI Cocktails & Dining, 160 Đ. Đồng Văn Cống, P, Bình Thủy, Cần Thơ 94000","P, Bình Thủy",160 Đ. Đồng Văn Cống,Cần Thơ,94000.0,"Bình Thủy, Cần Thơ",VN
124,ChIJcTxa8A9joDERk_PI1odaM_4,Beer & Wine Restaurant,Nhà hàng Pháp,0939 678 222,"Beer & Wine Restaurant, 55a Đ. Nam Kỳ Khởi Nghĩa, Tân An, Ninh Kiều, Cần Thơ 94000","Tân An, Ninh Kiều",55a Đ. Nam Kỳ Khởi Nghĩa,Cần Thơ,94000.0,"Ninh Kiều, Cần Thơ",VN
125,ChIJMyPy4YSJoDERs3CM9_7tp50,Déjà Vu Cocktail Bar,Quán bar cocktail,0979 279 055,"Déjà Vu Cocktail Bar, 142 Huỳnh Cương, An Cư, Ninh Kiều, Cần Thơ","An Cư, Ninh Kiều",142 Huỳnh Cương,Cần Thơ,,"Ninh Kiều, Cần Thơ",VN
126,ChIJIc5Cc7WJoDERPqBZ_2ZwA3o,The Zone - Beer & Food,Quán bia,0939 048 689,"The Zone - Beer & Food, 55 Đ. Hồ Bún Xáng, Phường An Khánh, Ninh Kiều, Cần Thơ 94117","Phường An Khánh, Ninh Kiều",55 Đ. Hồ Bún Xáng,Cần Thơ,94117.0,"Ninh Kiều, Cần Thơ",VN
151,ChIJw55WighjoDERtbJDN5YTaEM,Hiraeth Cocktail Bar & Kitchen,Quán bar cocktail,0942 377 388,"Hiraeth Cocktail Bar & Kitchen, 199 Nguyễn Thị Minh Khai, An Lạc, Ninh Kiều, Cần Thơ 900000","An Lạc, Ninh Kiều",199 Nguyễn Thị Minh Khai,Cần Thơ,900000.0,"Ninh Kiều, Cần Thơ",VN
164,ChIJScrFOq2JoDERwcxuAngu2UQ,HoDoor - The Bar In Town,Quán bar,,"HoDoor - The Bar In Town, 98 Huỳnh Cương, An Cư, Ninh Kiều, Cần Thơ 900000","An Cư, Ninh Kiều",98 Huỳnh Cương,Cần Thơ,900000.0,"Ninh Kiều, Cần Thơ",VN
180,ChIJ-1BSQcaJoDERxs7viJwvoAU,Bia Đức Thầy Tu EIBAUER - BALOSCA,Quán bia,,"Bia Đức Thầy Tu EIBAUER - BALOSCA, 105 Đ. Nguyễn Đệ, An Hoà, Ninh Kiều, Cần Thơ","An Hoà, Ninh Kiều",105 Đ. Nguyễn Đệ,Cần Thơ,,"Ninh Kiều, Cần Thơ",VN
181,ChIJlbyLHSSIoDERK2eQRGE8B4o,Iris Sky Bar,Quán bar,,"Iris Sky Bar, 224 Đ. 30 Tháng 4, Xuân Khánh, Ninh Kiều, Cần Thơ","Xuân Khánh, Ninh Kiều",224 Đ. 30 Tháng 4,Cần Thơ,,"Ninh Kiều, Cần Thơ",VN
194,ChIJGecIOEGJoDER5C2e1lKV9so,Quán Bar Của Tiếp Thực,Quán bar,,"XPQ4+HJ8 Quán Bar Của Tiếp Thực, Mỹ Khánh, Phong Điền, Cần Thơ","Mỹ Khánh, Phong Điền",XPQ4+HJ8,Cần Thơ,,"Phong Điền, Cần Thơ",VN
210,ChIJZSUrtr6JoDERivclGdvXpuA,Food & Beer Bụi Phố 24h,Quán bar,0939 946 732,"Food & Beer Bụi Phố 24h, Đ. Trần Hoàng Na, Hưng Lợi, Ninh Kiều, Cần Thơ","Hưng Lợi, Ninh Kiều",Đ. Trần Hoàng Na,Cần Thơ,,"Ninh Kiều, Cần Thơ",VN
211,ChIJ9eL4oCGJoDERr5LOZRHZB-g,Quán Hải Mèo,Quán bar,0939 946 732,"2Q76+WV6 Quán Hải Mèo, Đ. Trần Hoàng Na, Hưng Lợi, Ninh Kiều, Cần Thơ","Hưng Lợi, Ninh Kiều","2Q76+WV6, Đ. Trần Hoàng Na",Cần Thơ,,"Ninh Kiều, Cần Thơ",VN
212,ChIJlc3Ua3-JoDERRs_X-MqMejc,Dalton's,Quán bar,,"Dalton's, 6v Hẻm 51, Hưng Lợi, Ninh Kiều, Cần Thơ","Hưng Lợi, Ninh Kiều",6v Hẻm 51,Cần Thơ,,"Ninh Kiều, Cần Thơ",VN
214,ChIJTTcenh-IoDERotzqxLda1Rk,KARAOKE KHOA,Quán bar karaoke,0292 3834 524,"KARAOKE KHOA, 1/36A Đ. Lý Tự Trọng, An Phú, Ninh Kiều, Cần Thơ","An Phú, Ninh Kiều",1/36A Đ. Lý Tự Trọng,Cần Thơ,,"Ninh Kiều, Cần Thơ",VN
220,ChIJiRp8OE2JoDERdx7YWkrwRn8,Thực Phẩm Đông Lạnh - Quán ĐẠI PHÁT,Quán bia,0907 454 079,"Thực Phẩm Đông Lạnh - Quán ĐẠI PHÁT, 23 Huỳnh Cương, An Cư, Ninh Kiều, Cần Thơ","An Cư, Ninh Kiều",23 Huỳnh Cương,Cần Thơ,,"Ninh Kiều, Cần Thơ",VN
231,ChIJG4H3njBjoDERBfLRIr8UAqQ,Oyster Bar Cần Thơ,Quán bar,0914 781 313,"Oyster Bar Cần Thơ, 9 Đ. Nam Kỳ Khởi Nghĩa, Tân An, Ninh Kiều, Cần Thơ","Tân An, Ninh Kiều",9 Đ. Nam Kỳ Khởi Nghĩa,Cần Thơ,,"Ninh Kiều, Cần Thơ",VN
237,ChIJN3gWC7BioDERzol38acggyg,Mini beach,Quán bar,0939 438 799,"Mini beach, 2 Sông Hậu, khu Bãi bồi, Ninh Kiều, Cần Thơ 94107","khu Bãi bồi, Ninh Kiều",2 Sông Hậu,Cần Thơ,94107.0,"Ninh Kiều, Cần Thơ",VN
238,ChIJQf1eVzCIoDERTLP9NMmgx_0,Quán Nhậu Lá,Quán bia,0292 3817 125,"Quán Nhậu Lá, 268, Đường Nguyễn Văn Linh, Quận Ninh Kiều, Tp Cần Thơ, Hưng Lợi, Ninh Kiều, Cần Thơ","Hưng Lợi, Ninh Kiều","268, Đường Nguyễn Văn Linh, Quận Ninh Kiều, Tp Cần Thơ",Cần Thơ,,"Ninh Kiều, Cần Thơ",VN
240,ChIJtbNHC0mJoDERkBplLFRM9_g,Tiệm Bia Nhà An,Khu ăn uống,0888 803 724,"Tiệm Bia Nhà An, 82C/4 tổ 13, KV 2, P, Cần Thơ, 94000","P, Cần Thơ","82C/4 tổ 13, KV 2",Cần Thơ,94000.0,Cần Thơ,VN
242,ChIJV9AiiDaIoDERVWG-CmIyUmk,Quán Nhậu Cúc 132,Quán bia,,"Quán Nhậu Cúc 132, 132, Đường 3/2, Quận Ninh Kiều, Tp Cần Thơ, Hưng Lợi, Ninh Kiều, Cần Thơ","Hưng Lợi, Ninh Kiều","132, Đường 3/2, Quận Ninh Kiều, Tp Cần Thơ",Cần Thơ,,"Ninh Kiều, Cần Thơ",VN
243,ChIJh4LUHzWIoDERJ7faLhMRYq8,Quán Bia Hơi Sinh Viên,Quán bia,0939 550 155,"Quán Bia Hơi Sinh Viên, 493 Đ. 30 Tháng 4, Hưng Lợi, Ninh Kiều, Cần Thơ","Hưng Lợi, Ninh Kiều",493 Đ. 30 Tháng 4,Cần Thơ,,"Ninh Kiều, Cần Thơ",VN
244,ChIJCc0asHmJoDERFQJSwxmxV0A,QUÁN DÊ SỐ DZÁCH,Quán bia,,"2Q95+F27 QUÁN DÊ SỐ DZÁCH, Đ. Trần Hoàng Na, Hưng Lợi, Ninh Kiều, Cần Thơ","Hưng Lợi, Ninh Kiều","2Q95+F27, Đ. Trần Hoàng Na",Cần Thơ,,"Ninh Kiều, Cần Thơ",VN
246,ChIJwd9Q7nuJoDERo4BW5U_b4Bo,The Heo Bistro - Hidden Cocktail Bar & Kitchen,Quán bar cocktail,0987 953 396,"The Heo Bistro - Hidden Cocktail Bar & Kitchen, 46 Hẻm 11 Mậu Thân, An Phú, Ninh Kiều, Cần Thơ","An Phú, Ninh Kiều",46 Hẻm 11 Mậu Thân,Cần Thơ,,"Ninh Kiều, Cần Thơ",VN
254,ChIJ69rp6DqIoDERbnbW22lcmew,Quán Hương Giang,Quán bia,0292 3839 185,"Quán Hương Giang, 164 Đ. Trần Ngọc Quế, Xuân Khánh, Ninh Kiều, Cần Thơ","Xuân Khánh, Ninh Kiều",164 Đ. Trần Ngọc Quế,Cần Thơ,,"Ninh Kiều, Cần Thơ",VN
257,ChIJ8Qkgo55joDERGapOXdk44b8,QUÁN VỊT LÚA,Quán bia,,"QUÁN VỊT LÚA, TP, 192 Lê Lợi, Cái Khế, Ninh Kiều, Cần Thơ 94107","Cái Khế, Ninh Kiều","TP, 192 Lê Lợi",Cần Thơ,94107.0,"Ninh Kiều, Cần Thơ",VN
261,ChIJIZXs-hljoDER36iCJWwS4DY,Spirito Restaurant & Bar,Nhà hàng,0292 3633 377,"2QVM+28F Spirito Restaurant & Bar, 2 Nguyễn Trãi, Cái Khế, Ninh Kiều, Cần Thơ","Cái Khế, Ninh Kiều","2QVM+28F, 2 Nguyễn Trãi",Cần Thơ,,"Ninh Kiều, Cần Thơ",VN
270,ChIJxX9wPv6JoDERBMpDvv_61Ko,Cáo & Cừu - Beer Garden,Quán bar,0363 460 174,"Cáo & Cừu - Beer Garden, 88 Võ Văn Kiệt, An Hoà, Ninh Kiều, Cần Thơ 90000","An Hoà, Ninh Kiều",88 Võ Văn Kiệt,Cần Thơ,90000.0,"Ninh Kiều, Cần Thơ",VN
282,ChIJF17pJWNioDERc8e-DOBqrYA,KARAOKE OPERA CẦN THƠ,Quán bar karaoke,0292 3914 668,"KARAOKE OPERA CẦN THƠ, 06 Võ Nguyên Giáp, Hưng Phú, Cái Răng, Cần Thơ","Hưng Phú, Cái Răng",06 Võ Nguyên Giáp,Cần Thơ,,"Cái Răng, Cần Thơ",VN
296,ChIJ8-OdjDpdoDERPtyS3VkVdHA,Quán Thủy Chi,Quán bar karaoke,,"RXR4+XMQ Quán Thủy Chi, Ấp 10, Kế Sách, Sóc Trăng","Ấp 10, Kế Sách",RXR4+XMQ,Sóc Trăng,,"Kế Sách, Sóc Trăng",VN
306,ChIJD6pfI0eIoDERfyc5-ru2J5A,Quán Hương Lúa,Quán rượu,0292 3890 785,"Quán Hương Lúa, 329 QL91B, Phường An Khánh, Ninh Kiều, Cần Thơ","Phường An Khánh, Ninh Kiều",329 QL91B,Cần Thơ,,"Ninh Kiều, Cần Thơ",VN
307,ChIJ47ryOCBjoDEResQOEASgUtU,BeerGarden 165,Quán bar,0986 165 165,"BeerGarden 165, 1 Đ. Lý Thái Tổ, Hưng Phú, Cái Răng, Cần Thơ","Hưng Phú, Cái Răng",1 Đ. Lý Thái Tổ,Cần Thơ,,"Cái Răng, Cần Thơ",VN
323,ChIJNQnKgzuJoDERQMT_g1zRxTI,CHÁO ĐỒNG QUÁN,Quán bia,,"2QJ6+MXC CHÁO ĐỒNG QUÁN, Phường An Khánh, Ninh Kiều, Cần Thơ","Phường An Khánh, Ninh Kiều",2QJ6+MXC,Cần Thơ,,"Ninh Kiều, Cần Thơ",VN
324,ChIJMcPVotadoDERa0AT1FFXx68,Karaoke Trạng Vĩ 2,Quán bar karaoke,0949 999 775,"Karaoke Trạng Vĩ 2, Trung Thạnh, Cờ Đỏ, Cần Thơ","Trung Thạnh, Cờ Đỏ",,Cần Thơ,,"Cờ Đỏ, Cần Thơ",VN
325,ChIJg0Vp-DdhoDERbxtYdiJrdRg,Karaoke SOHA,Quán bar karaoke,,"WVR7+HP8 Karaoke SOHA, Phú Hữu A, Châu Thành, Hậu Giang","Phú Hữu A, Châu Thành",WVR7+HP8,Hậu Giang,,"Châu Thành, Hậu Giang",VN
331,ChIJ8ZP3f8OJoDERjg4Mt6EMxrs,Dê Tươi Tây Sơn,Nhà hàng quán rượu dành cho người sành ăn,0899 678 778,"2PCV+QCM Dê Tươi Tây Sơn, Nguyễn Văn Cừ Nối Dài, An Bình, Ninh Kiều, Cần Thơ","An Bình, Ninh Kiều","2PCV+QCM, Nguyễn Văn Cừ Nối Dài",Cần Thơ,,"Ninh Kiều, Cần Thơ",VN
339,ChIJszwQqmeJoDERX1Zu1Ihp20w,N-NICE' Cocktails,Quán bar,0901 227 337,"N-NICE' Cocktails, 68 Võ Văn Kiệt, An Hoà, Ninh Kiều, Cần Thơ 94000","An Hoà, Ninh Kiều",68 Võ Văn Kiệt,Cần Thơ,94000.0,"Ninh Kiều, Cần Thơ",VN
340,ChIJq5DYgyiJoDERcKyyQriJIf8,Dusk Till Dawn Cocktail Bar,Quán bar cocktail,0336 711 917,"Dusk Till Dawn Cocktail Bar, 124A Huỳnh Cương, An Cư, Ninh Kiều, Cần Thơ 94000","An Cư, Ninh Kiều",124A Huỳnh Cương,Cần Thơ,94000.0,"Ninh Kiều, Cần Thơ",VN
370,ChIJTR1RrDSJoDER1ibNIhfGajo,Divergent Cocktail,Quán bar cocktail,0859 158 899,"Divergent Cocktail, 51 Đ. Bà Huyện Thanh Quan, Thới Bình, Ninh Kiều, Cần Thơ","Thới Bình, Ninh Kiều",51 Đ. Bà Huyện Thanh Quan,Cần Thơ,,"Ninh Kiều, Cần Thơ",VN
386,ChIJHxqqFjCIoDERvZXru438G7M,Karaoke 174,Quán bar karaoke,0292 3819 639,"Karaoke 174, 174 Đ. Lê Bình, Hưng Lợi, Ninh Kiều, Cần Thơ","Hưng Lợi, Ninh Kiều",174 Đ. Lê Bình,Cần Thơ,,"Ninh Kiều, Cần Thơ",VN
388,ChIJTUtJE1xjoDERvQnrPgZUgpw,Karaoke - Massage Tokyo,Quán bar karaoke,0292 3767 000,"Karaoke - Massage Tokyo, 76 Đ. Lương Định Của, Cái Khế, Ninh Kiều, Cần Thơ","Cái Khế, Ninh Kiều",76 Đ. Lương Định Của,Cần Thơ,,"Ninh Kiều, Cần Thơ",VN
405,ChIJVcEXpv-JoDERwDc2nKqCPcI,Mé Sông Bistro,Quán bia,0766 985 919,"Mé Sông Bistro, 79/57/3 Hùng Vương, An Cư, Ninh Kiều, Cần Thơ 900000","An Cư, Ninh Kiều",79/57/3 Hùng Vương,Cần Thơ,900000.0,"Ninh Kiều, Cần Thơ",VN
406,ChIJ_ccE1NOJoDER3slMRCBWjFk,SÀNH BEER,Nhà hàng món nướng,0768 081 091,"SÀNH BEER, 57A3, Kv2, Bờ hồ Búng Xáng, Phường An Khánh, Ninh Kiều, Cần Thơ","Phường An Khánh, Ninh Kiều","57A3, Kv2, Bờ hồ Búng Xáng",Cần Thơ,,"Ninh Kiều, Cần Thơ",VN
436,ChIJ25zrz6yJoDERhExllZwbDfY,BIA ĐÊM 33K,Quán bia,0938 313 397,"BIA ĐÊM 33K, Đối diện, KDC Hồng Phát, Đường số 14, An Bình, Ninh Kiều, Cần Thơ","An Bình, Ninh Kiều","Đối diện, KDC Hồng Phát, Đường số 14",Cần Thơ,,"Ninh Kiều, Cần Thơ",VN
437,ChIJ_ydU_l6JoDER2MYZCmZI5wM,Quán bia sệt 63,Quán ăn nhỏ,0839 385 685,"Quán bia sệt 63, 1/1C Đ. Mậu Thân, An Nghiệp, Ninh Kiều, Cần Thơ","An Nghiệp, Ninh Kiều",1/1C Đ. Mậu Thân,Cần Thơ,,"Ninh Kiều, Cần Thơ",VN
445,ChIJbebGIRGJoDERwQcds7CIr-Y,Quán nhậu bình dân Phố Đêm 35K,Quán bia,,"2Q76+XQH Quán nhậu bình dân Phố Đêm 35K, Hưng Lợi, Ninh Kiều, Cần Thơ","Hưng Lợi, Ninh Kiều",2Q76+XQH,Cần Thơ,,"Ninh Kiều, Cần Thơ",VN
448,ChIJ4aGwSU-IoDERMX7MlWx4u4U,Quán Cây Khế Cá Lóc Nướng,Quán bia,0907 862 357,"Quán Cây Khế Cá Lóc Nướng, 261 Đ. Trần Vĩnh Kiết, Phường An Khánh, Ninh Kiều, Cần Thơ","Phường An Khánh, Ninh Kiều",261 Đ. Trần Vĩnh Kiết,Cần Thơ,,"Ninh Kiều, Cần Thơ",VN
451,ChIJgxrG7ztjoDERMfmip50wWJM,INDIE Beer & Cocktail,Quán bar cocktail,0896 887 767,"INDIE Beer & Cocktail, 35 Đ. Trần Đại Nghĩa, Cái Khế, Ninh Kiều, Cần Thơ 94152","Cái Khế, Ninh Kiều",35 Đ. Trần Đại Nghĩa,Cần Thơ,94152.0,"Ninh Kiều, Cần Thơ",VN
452,ChIJ8QE_7rBjoDER-1fEZkbeK0I,Giải khát 151,Quầy giải khát,0939 592 246,"Giải khát 151, 151 Phan Đình Phùng, Tân An, Ninh Kiều, Cần Thơ 02923","Tân An, Ninh Kiều",151 Phan Đình Phùng,Cần Thơ,2923.0,"Ninh Kiều, Cần Thơ",VN
466,ChIJYQmV53WJoDERDu4D_KKDLho,HQ Coffee and Beer,Quán bar,0907 365 297,"HQ Coffee and Beer, Hẻm 51, Xuân Khánh, Ninh Kiều, Cần Thơ","Xuân Khánh, Ninh Kiều",Hẻm 51,Cần Thơ,,"Ninh Kiều, Cần Thơ",VN
469,ChIJZ6tV4duJoDER-MeO9kzRVWQ,Hisoka Bar,Quán bar,,"Hisoka Bar, H9a Đ. Cao Thắng, Xuân Khánh, Ninh Kiều, Cần Thơ","Xuân Khánh, Ninh Kiều",H9a Đ. Cao Thắng,Cần Thơ,,"Ninh Kiều, Cần Thơ",VN
485,ChIJA-dDC0hjoDERSXsbdix_QEo,Shooga Base - Eatery & Bar,Quán bar,,"Shooga Base - Eatery & Bar, 47 Đ. Phan Chu Trinh, Tân An, Ninh Kiều, Cần Thơ","Tân An, Ninh Kiều",47 Đ. Phan Chu Trinh,Cần Thơ,,"Ninh Kiều, Cần Thơ",VN
487,ChIJo723pqNjoDERIBiEyB_0_js,ZBEER CẦN THƠ,Nhà hàng thịt bò Hàn Quốc,0924 318 888,"ZBEER CẦN THƠ, 1 Sông Hậu, Cái Khế, Ninh Kiều, Cần Thơ 94000","Cái Khế, Ninh Kiều",1 Sông Hậu,Cần Thơ,94000.0,"Ninh Kiều, Cần Thơ",VN
502,ChIJo1RFW0CIoDERt8tV-alEC94,Nha Hang Karaoke,Nhà hàng,,"2QJ4+PM4 Nha Hang Karaoke, Phường An Khánh, Ninh Kiều, Cần Thơ","Phường An Khánh, Ninh Kiều",2QJ4+PM4,Cần Thơ,,"Ninh Kiều, Cần Thơ",VN
518,ChIJEQywQT-JoDERKFGUsgR1QOA,Painkiller’s Pub,Quán rượu,0901 228 639,"Painkiller’s Pub, 66/9, CMT8, Cai Khe Ninh Kieu Can Tho City, 90000","Thới Bình, Ninh Kiều","66/9, CMT8, Cai Khe Ninh Kieu Can Tho City",Cần Thơ,90000.0,"Ninh Kiều, Cần Thơ",VN
519,ChIJtVamnn2GoDERKDTl31DDQYI,Karaoke Trần Ngọc,Quán bar karaoke,,"Karaoke Trần Ngọc, 124 Lê Hồng Phong, Phước Thới, Ô Môn, Cần Thơ","Phước Thới, Ô Môn",124 Lê Hồng Phong,Cần Thơ,,"Ô Môn, Cần Thơ",VN
520,ChIJW7E2YzqIoDER0gUOI0sisYI,Quán Karaoke Trần Thị Thêm,Quán bar karaoke,0937 104 362,"Quán Karaoke Trần Thị Thêm, 174/A1, Đ. Lê Bình, Hưng Lợi, Ninh Kiều, Cần Thơ","Hưng Lợi, Ninh Kiều","174/A1, Đ. Lê Bình",Cần Thơ,,"Ninh Kiều, Cần Thơ",VN
521,ChIJw32aYjqIoDERbtuNjLGkEGs,Karaoke Sao Đêm,Quán bar,0939 000 090,"Karaoke Sao Đêm, 174 Đ. Lê Bình, Hưng Lợi, Ninh Kiều, Cần Thơ","Hưng Lợi, Ninh Kiều",174 Đ. Lê Bình,Cần Thơ,,"Ninh Kiều, Cần Thơ",VN
522,ChIJqYW_kO2hoDER8nG91sQXb1o,Karaoke Tươi Cười,Quán bar karaoke,0942 116 338,"Karaoke Tươi Cười, Khu dân cư, Láng Sen, Cần Thơ 94000","Láng Sen, Vĩnh Thạnh",Khu dân cư,Cần Thơ,94000.0,"Vĩnh Thạnh, Cần Thơ",VN
529,ChIJ9TSKnKVioDER4BstapD79Rw,Quán Karaoke Cây Bưởi,Quán bar karaoke,0292 3731 287,"2QRR+G78 Quán Karaoke Cây Bưởi, Vòng Xoay Công Viên Nước, Đường Lê Lợi, Phường Cái Khế, Quận Ninh Kiều, Tp Cần Thơ, Cái Khế, Ninh Kiều, Cần Thơ","Cái Khế, Ninh Kiều","2QRR+G78, Vòng Xoay Công Viên Nước, Đường Lê Lợi, Phường Cái Khế, Quận Ninh Kiều, Tp Cần Thơ",Cần Thơ,,"Ninh Kiều, Cần Thơ",VN
530,ChIJ10JFiK9ioDERRihczGIvwXc,Nynkasi World of Beer,Quán bar,,"2QVR+6MX Nynkasi World of Beer, Lê Lợi, Cái Khế, Ninh Kiều, Cần Thơ","Cái Khế, Ninh Kiều","2QVR+6MX, Lê Lợi",Cần Thơ,,"Ninh Kiều, Cần Thơ",VN
541,ChIJBW_0EcWJoDERf4a7GAZa6y0,De Elite Speakeasy,Quán bar,,"De Elite Speakeasy, 51 Đ. Bà Huyện Thanh Quan, Thới Bình, Ninh Kiều, Cần Thơ","Thới Bình, Ninh Kiều",51 Đ. Bà Huyện Thanh Quan,Cần Thơ,,"Ninh Kiều, Cần Thơ",VN
575,ChIJ9ZCiaTqIoDER8TtJfsxhEDk,Quán Karaoke Ngô Hữu Phước,Quán bar karaoke,0937 109 749,"Quán Karaoke Ngô Hữu Phước, 174/A1, Đường 3 Tháng 2, Phường Hưng Lợi, Quận Ninh Kiều, Hưng Lợi, Ninh Kiều, Cần Thơ","Hưng Lợi, Ninh Kiều","174/A1, Đường 3 Tháng 2, Phường Hưng Lợi, Quận Ninh Kiều",Cần Thơ,,"Ninh Kiều, Cần Thơ",VN
591,ChIJ43gzdjh9oDERb8FQuqmfKe4,Karaoke Đức Đào 2,Quán bar karaoke,0270 3890 062,"Karaoke Đức Đào 2, 3995 Quốc Lộ 1A, Cái Vồn, Bình Minh, Vĩnh Long","Cái Vồn, Bình Minh",3995 Quốc Lộ 1A,Vĩnh Long,,"Bình Minh, Vĩnh Long",VN
600,ChIJO8g6VSWIoDERbYcwGxO6Ce0,Karaoke Bida Vip,Quán bar karaoke,,"Karaoke Bida Vip, 320 Đ. Trần Ngọc Quế, Xuân Khánh, Ninh Kiều, Cần Thơ","Xuân Khánh, Ninh Kiều",320 Đ. Trần Ngọc Quế,Cần Thơ,,"Ninh Kiều, Cần Thơ",VN
601,ChIJPzxV_dRloDERnennLkG-ILM,Quán Karaoke,Quán bar,,"XW7G+83W Quán Karaoke, Đường 19/5, Trà Ôn, Vĩnh Long",Trà Ôn,"XW7G+83W, Đường 19/5",Vĩnh Long,,"Trà Ôn, Vĩnh Long",VN
615,ChIJs_yzGeGEoDER8ovtpE-zK-Y,Dong Xanh Karaoke,Quán bar karaoke,0292 3662 821,"Dong Xanh Karaoke, 162, Huynh Thi Giang Street, O Mon District, Can Tho City, Châu Văn Liêm, Ô Môn, Cần Thơ","Châu Văn Liêm, Ô Môn","162, Huynh Thi Giang Street, O Mon District, Can Tho City",Cần Thơ,,"Ô Môn, Cần Thơ",VN
630,ChIJyfGf1MdhoDERwl53yw1ZbcM,Quán Nhậu 49,Quán rượu,0939 339 828,"WVR7+V3C Quán Nhậu 49, Phú Hữu A, Châu Thành, Hậu Giang","Phú Hữu A, Châu Thành",WVR7+V3C,Hậu Giang,,"Châu Thành, Hậu Giang",VN
631,ChIJHUyDu4t2CjER46nGyWIOXZw,Thuy 2 Karaoke Store,Quán bar karaoke,0292 3852 657,"Thuy 2 Karaoke Store, 1728, Highway 91, Thot Not District, Can Tho City, Thuận An, Thốt Nốt, Cần Thơ","Thuận An, Thốt Nốt","1728, Highway 91, Thot Not District, Can Tho City",Cần Thơ,,"Thốt Nốt, Cần Thơ",VN
633,ChIJIcJS86FioDER_X1foyAGvrM,Quán Trà-Cafe Hưng Thạnh,Quán cà phê,0292 3810 104,"Quán Trà-Cafe Hưng Thạnh, 31 Đ. Ngô Quyền, Tân An, Ninh Kiều, Cần Thơ","Tân An, Ninh Kiều",31 Đ. Ngô Quyền,Cần Thơ,,"Ninh Kiều, Cần Thơ",VN
635,ChIJkR5eXmxmoDERmtjRlqCAMf4,Quán Karaoke,Quán bar,0906 678 794,"WWWV+28J Quán Karaoke, Ấp Giồng Thanh Bạch, Xã Thiện Mỹ, Huyện Trà Ôn, Tỉnh Vĩnh Long, Thiện Mỹ, Trà Ôn, Vĩnh Long","Thiện Mỹ, Trà Ôn","WWWV+28J, Ấp Giồng Thanh Bạch, Xã Thiện Mỹ, Huyện Trà Ôn, Tỉnh Vĩnh Long",Vĩnh Long,,"Trà Ôn, Vĩnh Long",VN
636,ChIJva-aaGhjoDERWSg7IixPG9g,SKY CLUB CẦN THƠ,Quán bar,0972 276 845,"SKY CLUB CẦN THƠ, 35-37 Phạm Ngọc Thạch, Cái Khế, Ninh Kiều, Cần Thơ 900000","Cái Khế, Ninh Kiều",35-37 Phạm Ngọc Thạch,Cần Thơ,900000.0,"Ninh Kiều, Cần Thơ",VN
637,ChIJyQy_bMiJoDER2HHFWhq9TRU,Karaoke Dũng,Quán bar karaoke,0898 808 219,"Karaoke Dũng, 9B Đ. Trần Ngọc Quế, Xuân Khánh, Ninh Kiều, Cần Thơ","Xuân Khánh, Ninh Kiều",9B Đ. Trần Ngọc Quế,Cần Thơ,,"Ninh Kiều, Cần Thơ",VN
638,ChIJyz3etrCJoDERdel1RB7TmXo,Mimosa Karaoke Club,Quán bar karaoke,0292 3848 987,"Mimosa Karaoke Club, 511, Tran Hung Dao Street, Cai Rang District, Can Tho City, Lê Bình, Cái Răng, Cần Thơ","Lê Bình, Cái Răng","511, Tran Hung Dao Street, Cai Rang District, Can Tho City",Cần Thơ,,"Cái Răng, Cần Thơ",VN
640,ChIJ44v3gH1joDER_qOKOCwmi3k,Bạch Đàn Quán - Bia tươi,Quán rượu,0919 282 463,"XRF7+7VJ Bạch Đàn Quán - Bia tươi, Chí Sinh, kv Phú Thuận, Cái Răng, Cần Thơ","kv Phú Thuận, Cái Răng","XRF7+7VJ, Chí Sinh",Cần Thơ,,"Cái Răng, Cần Thơ",VN
643,ChIJ1z_AYA1joDERW5ew52NnT5o,Skybar - West Hotel,Nhà hàng,0919 978 941,"Skybar - West Hotel, 135 Phan Đình Phùng, Tân An, Ninh Kiều, Cần Thơ","Tân An, Ninh Kiều",135 Phan Đình Phùng,Cần Thơ,,"Ninh Kiều, Cần Thơ",VN
666,ChIJ4ZxORhhfoDERbzUH8xuDctU,Gia Dinh Karaoke Store,Quán bar karaoke,0293 6511 448,"Gia Dinh Karaoke Store, 17 Đường Châu Văn Liêm, Ngã Bảy, Hậu Giang",Ngã Bảy,17 Đường Châu Văn Liêm,Hậu Giang,,"Ngã Bảy, Hậu Giang",VN
669,ChIJa6ilDQCJoDERI1xeYVrK4dM,The rum bar Ctrl + Alt + Del,Quán bar,,"The rum bar Ctrl + Alt + Del, 170 Võ Văn Kiệt, An Hoà, Ninh Kiều, Cần Thơ","An Hoà, Ninh Kiều",170 Võ Văn Kiệt,Cần Thơ,,"Ninh Kiều, Cần Thơ",VN
700,ChIJ1TRKGIVjoDER3b349n9SjsE,Đào Hoa Đảo Trương định,Quán bia,0939 745 990,"Đào Hoa Đảo Trương định, 8 Đ. Trương Định, Tân An, Ninh Kiều, Cần Thơ","Tân An, Ninh Kiều",8 Đ. Trương Định,Cần Thơ,,"Ninh Kiều, Cần Thơ",VN
702,ChIJTUdlGzKJoDERAzWVZnsspn4,Ẩm Thực Sân Vườn quán Chọi Chim,Quán bia sân vườn,,"Ẩm Thực Sân Vườn quán Chọi Chim, 39 Đ. Trần Hưng Đạo, An Phú, Ninh Kiều, Cần Thơ","An Phú, Ninh Kiều",39 Đ. Trần Hưng Đạo,Cần Thơ,,"Ninh Kiều, Cần Thơ",VN
704,ChIJvzwPeuSJoDERPM-mdad4XxI,Nhà Mát - Trà và Cà Phê,Quầy giải khát,0923 355 177,"Nhà Mát - Trà và Cà Phê, 320/2A Đ. Trần Ngọc Quế, P, Ninh Kiều, Cần Thơ 90000","P, Ninh Kiều",320/2A Đ. Trần Ngọc Quế,Cần Thơ,90000.0,"Ninh Kiều, Cần Thơ",VN
705,ChIJg38NZtKJoDERiCFuieEGp0o,Bia xô lino,Quán bar,,"Bia xô lino, 138 Đ. Nguyễn Văn Cừ, Phường An Khánh, Ninh Kiều, Cần Thơ","Phường An Khánh, Ninh Kiều",138 Đ. Nguyễn Văn Cừ,Cần Thơ,,"Ninh Kiều, Cần Thơ",VN
706,ChIJYx1Z7EWHoDERkJZ2IAAoBhA,Labana Gastrobar,Quầy giải khát,0931 000 168,"Labana Gastrobar, City, 38 Nguyễn Hữu Trí, Cái Khế, Ninh Kiều, Cần Thơ","Cái Khế, Ninh Kiều","City, 38 Nguyễn Hữu Trí",Cần Thơ,,"Ninh Kiều, Cần Thơ",VN
707,ChIJYTaBWaVjoDERRV7X619lxzM,GOLF CLUB,Quán bar,0939 085 000,"GOLF CLUB, 16a Lê Lợi, Cái Khế, Ninh Kiều, Cần Thơ","Cái Khế, Ninh Kiều",16a Lê Lợi,Cần Thơ,,"Ninh Kiều, Cần Thơ",VN
708,ChIJq6qqBw-IoDERmYgpoRmzeDE,Quán Karaoke Anh Đào Quán 2,Quán bar karaoke,0939 585 552,"Quán Karaoke Anh Đào Quán 2, 199E Đ. Nguyễn Văn Cừ, An Hoà, Ninh Kiều, Cần Thơ","An Hoà, Ninh Kiều",199E Đ. Nguyễn Văn Cừ,Cần Thơ,,"Ninh Kiều, Cần Thơ",VN
709,ChIJTwgMFmWJoDERvANnlSMSuyY,Karaoke For You,Quán bar karaoke,,"Karaoke For You, 109 Đ. Nguyễn Tri Phương, Phường An Khánh, Ninh Kiều, Cần Thơ","Phường An Khánh, Ninh Kiều",109 Đ. Nguyễn Tri Phương,Cần Thơ,,"Ninh Kiều, Cần Thơ",VN
710,ChIJp-3Gu7NjoDERJrsT118VvPY,Red Ruby Club,Quán bar,,"XRV6+R2X Red Ruby Club, Phú Thứ, Cái Răng, Cần Thơ","Phú Thứ, Cái Răng",XRV6+R2X,Cần Thơ,,"Cái Răng, Cần Thơ",VN
711,ChIJnzBvqb-rNTERGZVDqon10rU,Quán bar,Quán bar,,"Quán bar, Phố cổ Hà Nội, Hàng Đào, Hoàn Kiếm, Hà Nội","Phố cổ Hà Nội, Hàng Đào, Hoàn Kiếm",,Hà Nội,,"Hoàn Kiếm, Hà Nội",VN
728,ChIJGzGlbhFjoDERWkmpey82xS8,Quoan cơm phân cat tuong,Quán bar,,"Quoan cơm phân cat tuong, 1 Trần Quang Khải, Cái Khế, Ninh Kiều, Cần Thơ","Cái Khế, Ninh Kiều",1 Trần Quang Khải,Cần Thơ,,"Ninh Kiều, Cần Thơ",VN
766,ChIJa8cIz0mIoDERxmXO9Z78T0U,Karaoke Thúy Kiều,Quán bar karaoke,,"Karaoke Thúy Kiều, 92B Hẻm 132 Đ. 3 Tháng 2, Hưng Lợi, Ninh Kiều, Cần Thơ","Hưng Lợi, Ninh Kiều",92B Hẻm 132 Đ. 3 Tháng 2,Cần Thơ,,"Ninh Kiều, Cần Thơ",VN
799,ChIJsyuXcgSJoDERFN4PQ8FtbOs,Quán a.lùn,Nhà hàng quán rượu dành cho người sành ăn,0939 337 342,"Quán a.lùn, 16 Khu Vực 3, Phường An Khánh, Ninh Kiều, Cần Thơ","Phường An Khánh, Ninh Kiều",16 Khu Vực 3,Cần Thơ,,"Ninh Kiều, Cần Thơ",VN
810,ChIJ_8SgPDWIoDERAAPTpiyZJeo,Quán Nhậu Kiều Oanh,Quán bia,,"Quán Nhậu Kiều Oanh, 678 Đ. 30 Tháng 4, Hưng Lợi, Ninh Kiều, Cần Thơ","Hưng Lợi, Ninh Kiều",678 Đ. 30 Tháng 4,Cần Thơ,,"Ninh Kiều, Cần Thơ",VN
832,ChIJ3eQFXCqJoDERfa0GGIR7D8Q,Nhà hàng Ca Cổ Trọng Hữu,Quán rượu,0909 055 888,"Nhà hàng Ca Cổ Trọng Hữu, 184D Đ. 3 Tháng 2, Hưng Lợi, Ninh Kiều, Cần Thơ 02923","Hưng Lợi, Ninh Kiều",184D Đ. 3 Tháng 2,Cần Thơ,2923.0,"Ninh Kiều, Cần Thơ",VN
833,ChIJi8ORHimHoDER-VOZlNRZL7o,Quán Nhậu Bình Dân Anh Chín,Quán bia,,"Quán Nhậu Bình Dân Anh Chín, 340/2 Đ. Cách Mạng Tháng 8, Bùi Hữu Nghĩa, Bình Thủy, Cần Thơ","Bùi Hữu Nghĩa, Bình Thủy",340/2 Đ. Cách Mạng Tháng 8,Cần Thơ,,"Bình Thủy, Cần Thơ",VN
834,ChIJs_iJ5MOJoDER3ccrcxohOxc,Quan nhau A TOAN 35K,Quán bar,,"Quan nhau A TOAN 35K, 111-113 Huỳnh Cương, An Cư, Ninh Kiều, Cần Thơ","An Cư, Ninh Kiều",111-113 Huỳnh Cương,Cần Thơ,,"Ninh Kiều, Cần Thơ",VN
835,ChIJvV0teE-JoDERVsn3p5BpqTU,Chiron Hidden Bar,Quán bar,0846 858 788,"Chiron Hidden Bar, 162c Đ. Trần Ngọc Quế, Xuân Khánh, Ninh Kiều, Cần Thơ 94000","Xuân Khánh, Ninh Kiều",162c Đ. Trần Ngọc Quế,Cần Thơ,94000.0,"Ninh Kiều, Cần Thơ",VN
836,ChIJ8_NsC5aJoDERS3-k1FxzSD0,Quán nhậu,Quán bar,,"2Q8C+777 Quán nhậu, Hẻm 278 Tầm Vu, Hưng Lợi, Ninh Kiều, Cần Thơ","Hưng Lợi, Ninh Kiều","2Q8C+777, Hẻm 278 Tầm Vu",Cần Thơ,,"Ninh Kiều, Cần Thơ",VN
837,ChIJwxptRiSKoDERFm-itGLDEwY,Quán Nhậu Karaoke Thái Ngân,Quán bar,,"XQ62+R6P Quán Nhậu Karaoke Thái Ngân, ĐT925, Đông Thạnh, Cái Răng, Cần Thơ","Đông Thạnh, Cái Răng","XQ62+R6P, ĐT925",Cần Thơ,,"Cái Răng, Cần Thơ",VN
838,ChIJBaykPEZjoDERcV6dtwJIl_I,QUÁN CÓC 35K - FOOD & BEER,Quán bia,0703 966 662,"QUÁN CÓC 35K - FOOD & BEER, 3A Sông Hậu, P, Ninh Kiều, Cần Thơ 94107","P, Ninh Kiều",3A Sông Hậu,Cần Thơ,94107.0,"Ninh Kiều, Cần Thơ",VN
839,ChIJ-TCm-l6HoDERLRHO5a49vhU,Càfe 41,Quầy giải khát,0329 580 158,"Càfe 41, q, 41nguywn thông, p, Bình Thủy, Cần Thơ","p, Bình Thủy","q, 41nguywn thông",Cần Thơ,,"Bình Thủy, Cần Thơ",VN
840,ChIJ6USJPCKIoDERK289VovaRCk,Quán Karaoke Ninety One,Quán bar,7103688788,"Quán Karaoke Ninety One, 91 Đ. Mậu Thân, An Hoà, Ninh Kiều, Cần Thơ","An Hoà, Ninh Kiều",91 Đ. Mậu Thân,Cần Thơ,,"Ninh Kiều, Cần Thơ",VN
841,ChIJ60VHnzdhoDERute-D6_KuiQ,Karaoke Vip,Quán bar,,"WVQ8+R72 Karaoke Vip, ĐT925B, Phú Hữu A, Châu Thành, Hậu Giang","Phú Hữu A, Châu Thành","WVQ8+R72, ĐT925B",Hậu Giang,,"Châu Thành, Hậu Giang",VN
842,ChIJv7NA6DqIoDERlkA_le2wiTM,Karaoke Gia Đình Hải Lý,Quán bar karaoke,0292 3838 930,"Karaoke Gia Đình Hải Lý, 162 Đ. Trần Ngọc Quế, Xuân Khánh, Ninh Kiều, Cần Thơ 900000","Xuân Khánh, Ninh Kiều",162 Đ. Trần Ngọc Quế,Cần Thơ,900000.0,"Ninh Kiều, Cần Thơ",VN
843,ChIJEUk3wDqIoDERCIEcwUgKQjc,Karaoke Gia Đình Út Dương,Quán bar karaoke,0292 3738 662,"Karaoke Gia Đình Út Dương, 164 Đ. Trần Ngọc Quế, Xuân Khánh, Ninh Kiều, Cần Thơ","Xuân Khánh, Ninh Kiều",164 Đ. Trần Ngọc Quế,Cần Thơ,,"Ninh Kiều, Cần Thơ",VN
844,ChIJvcqx-y-IoDERsuwzU4ZoPkk,Vip 1 Karaoke Cafe,Karaoke theo video,0292 3739 616,"Vip 1 Karaoke Cafe, 3/7A, Street 30/4, Xuan Khanh Ward, Ninh Kieu District, Can Tho City, Xuân Khánh, Ninh Kiều, Cần Thơ","Xuân Khánh, Ninh Kiều","3/7A, Street 30/4, Xuan Khanh Ward, Ninh Kieu District, Can Tho City",Cần Thơ,,"Ninh Kiều, Cần Thơ",VN
845,ChIJ-01EdtFnoDERtMHEqOJRiKI,Karaoke68,Karaoke theo video,,"WVMP+J55 Karaoke68, Phú Hữu A, Châu Thành, Hậu Giang","Phú Hữu A, Châu Thành",WVMP+J55,Hậu Giang,,"Châu Thành, Hậu Giang",VN
852,ChIJS9fkn6FjoDEREKqBKoM2l_0,New Phương Đông Xclub,Quán bar,0263 3666 774,"2QXQ+C5M New Phương Đông Xclub, vòng xoay, Cái Khế, Ninh Kiều, Cần Thơ","Cái Khế, Ninh Kiều","2QXQ+C5M, vòng xoay",Cần Thơ,,"Ninh Kiều, Cần Thơ",VN
858,ChIJEY-KR_qFoDER1bGvHYZXFTk,Cà phê minh Thư (3 Ni),Quầy giải khát,0774 048 446,"Cà phê minh Thư (3 Ni), 142 Đ. Trần Kiết Tường, Châu Văn Liêm, Ninh Kiều, Cần Thơ","Châu Văn Liêm, Ninh Kiều",142 Đ. Trần Kiết Tường,Cần Thơ,,"Ninh Kiều, Cần Thơ",VN
860,ChIJQfKZLQGJoDER83_1V_UIm5k,PHỞ Tỷ Muội,Câu lạc bộ phục vụ ăn uống kèm biểu diễn,,"3Q46+288 PHỞ Tỷ Muội, Phạm Hữu Lầu, An Thới, Bình Thủy, Cần Thơ","An Thới, Bình Thủy","3Q46+288, Phạm Hữu Lầu",Cần Thơ,,"Bình Thủy, Cần Thơ",VN
869,ChIJEf-Fg6VioDERn7kbUkykXIY,Công Ty Trách Nhiệm Hữu Hạn Karaoke Đô Rê Mi,Quán bar karaoke,0915 168 267,"Công Ty Trách Nhiệm Hữu Hạn Karaoke Đô Rê Mi, 118/9/43A, Đường Lê Lợi, Phường Cái Khế, Quận Ninh Kiều, Cái Khế, Ninh Kiều, Cần Thơ","Cái Khế, Ninh Kiều","118/9/43A, Đường Lê Lợi, Phường Cái Khế, Quận Ninh Kiều",Cần Thơ,,"Ninh Kiều, Cần Thơ",VN
885,ChIJq6qqqq5ioDERmIx-ApnQ8U0,Shop Ngọc Liên,Quán rượu,0292 3762 775,"Shop Ngọc Liên, Lô 12, Nhà Lồng 1, Trung Tâm Thương Mại Cái Khế, Phường Cái Khế, Quận Ninh Kiều, Thành Phố Cần Thơ, Cái Khế, Ninh Kiều, Cần Thơ","Cái Khế, Ninh Kiều","Lô 12, Nhà Lồng 1, Trung Tâm Thương Mại Cái Khế, Phường Cái Khế, Quận Ninh Kiều, Thành Phố Cần Thơ",Cần Thơ,,"Ninh Kiều, Cần Thơ",VN
914,ChIJOe_QHHOJoDER3K-d_3C3yqc,Nước Mía Khổng Lồ,Quán bar,,"Nước Mía Khổng Lồ, 34 Đ. Mậu Thân, Xuân Khánh, Ninh Kiều, Cần Thơ","Xuân Khánh, Ninh Kiều",34 Đ. Mậu Thân,Cần Thơ,,"Ninh Kiều, Cần Thơ",VN
922,ChIJd8ybHqJioDERgsPG6z1hBFY,Tiệm Trà Tập Thạnh,Quán rượu,7103822692,"Tiệm Trà Tập Thạnh, 56 Đường Hai Bà Trưng, Tân An, Ninh Kiều, Cần Thơ","Tân An, Ninh Kiều",56 Đường Hai Bà Trưng,Cần Thơ,,"Ninh Kiều, Cần Thơ",VN
924,ChIJL55RijqJoDER68L6b4wmJ7c,Tiệm trà Mùa Hạ,Quầy giải khát,0763 898 526,"Tiệm trà Mùa Hạ, 352c đường 30/4, Xuân Khánh, Ninh Kiều, Cần Thơ 900000","Xuân Khánh, Ninh Kiều",352c đường 30/4,Cần Thơ,900000.0,"Ninh Kiều, Cần Thơ",VN
926,ChIJBQ4atdaJoDER38UPBGWkkgI,Quán ăn gia đình Nàng Út,Quán bia,0939 802 777,"Quán ăn gia đình Nàng Út, Bờ Hồ Bún Xáng, Hẻm 51 Đ. Nguyễn Văn Cừ, Phường An Khánh, Ninh Kiều, Cần Thơ 90000","Phường An Khánh, Ninh Kiều","Bờ Hồ Bún Xáng, Hẻm 51 Đ. Nguyễn Văn Cừ",Cần Thơ,90000.0,"Ninh Kiều, Cần Thơ",VN
927,ChIJJRROug6IoDERkXAJxzSSHgY,Đại Lý Trà Bắc Thái,Quán rượu,0292 3891 023,"Đại Lý Trà Bắc Thái, 74 Đ. Võ Trường Toản, An Hoà, Ninh Kiều, Cần Thơ","An Hoà, Ninh Kiều",74 Đ. Võ Trường Toản,Cần Thơ,,"Ninh Kiều, Cần Thơ",VN
947,ChIJhZiL1hSIoDERx2IEbwlGh5U,Lu Gia Pub,Quán bar,0918 724 502,"Lu Gia Pub, 380S, Nguyen Van Cu Street, Ninh Kieu District, Can Tho City, Phường An Khánh, Ninh Kiều, Cần Thơ","Phường An Khánh, Ninh Kiều","380S, Nguyen Van Cu Street, Ninh Kieu District, Can Tho City",Cần Thơ,,"Ninh Kiều, Cần Thơ",VN
978,ChIJ_T_Zv7OJoDERRGg73oN2Taw,Billiards club 39,Câu lạc bộ giải trí dành cho người lớn,0868 279 989,"Billiards club 39, Trần Chiên, Thường Thạnh, Cần Thơ","Thường Thạnh, Cần Thơ",Trần Chiên,Cần Thơ,,Cần Thơ,VN
1020,ChIJ_xWXQjiIoDERDuZMEuoc9_U,Karaoke Chiến,Quán bar,0706 667 999,"Karaoke Chiến, 211, Nguyễn Văn Linh, Phường Hưng Lợi, Quận Ninh Kiều, Thành Phố Cần Thơ, Hưng Lợi, Ninh Kiều, Cần Thơ","Hưng Lợi, Ninh Kiều","211, Nguyễn Văn Linh, Phường Hưng Lợi, Quận Ninh Kiều, Thành Phố Cần Thơ",Cần Thơ,,"Ninh Kiều, Cần Thơ",VN
1037,ChIJP58EJISJoDERNBaJaD25F3o,Quán Ăn Gia Đình KIM PHÁT,Khu vực phục vụ bia,0857 269 412,"Quán Ăn Gia Đình KIM PHÁT, 15-17 Ngô Sĩ Liên, kdc metro, Ninh Kiều, Cần Thơ","kdc metro, Ninh Kiều",15-17 Ngô Sĩ Liên,Cần Thơ,,"Ninh Kiều, Cần Thơ",VN
1051,ChIJTa7Old6JoDERU8QtGAlZNmE,Karaoke sắc màu,Karaoke theo video,,"Karaoke sắc màu, 306 Đ. Nguyễn Văn Linh, Phường An Khánh, Ninh Kiều, Cần Thơ","Phường An Khánh, Ninh Kiều",306 Đ. Nguyễn Văn Linh,Cần Thơ,,"Ninh Kiều, Cần Thơ",VN
1052,ChIJWcQ5A6mJoDEROpHFAJExuTI,Karaoke lữ gia,Karaoke theo video,,"Karaoke lữ gia, 410p QL91B, Hưng Lợi, Ninh Kiều, Cần Thơ","Hưng Lợi, Ninh Kiều",410p QL91B,Cần Thơ,,"Ninh Kiều, Cần Thơ",VN
1058,ChIJDyejKjyJoDERIsDJ0jPaB0s,Phương Ngọc,Quán bar,,"Phương Ngọc, 153 Đ. 30 Tháng 4, Hưng Lợi, Ninh Kiều, Cần Thơ","Hưng Lợi, Ninh Kiều",153 Đ. 30 Tháng 4,Cần Thơ,,"Ninh Kiều, Cần Thơ",VN
1059,ChIJO1kM0aWJoDERnbkCB9YQMhY,Quán 3 ĐỨC TÀI CÁI NƯỚC,Quán bar,0868 785 802,"Quán 3 ĐỨC TÀI CÁI NƯỚC, 413 Đ. 30 Tháng 4, Hưng Lợi, Ninh Kiều, Cần Thơ 92000","Hưng Lợi, Ninh Kiều",413 Đ. 30 Tháng 4,Cần Thơ,92000.0,"Ninh Kiều, Cần Thơ",VN
1075,ChIJhULI8VSJoDERu9mUo4zh3os,Quán sữa đậu nành Mậu Thân,Quầy giải khát,,"Quán sữa đậu nành Mậu Thân, 99B Đ. Mậu Thân, An Phú, Ninh Kiều, Cần Thơ","An Phú, Ninh Kiều",99B Đ. Mậu Thân,Cần Thơ,,"Ninh Kiều, Cần Thơ",VN
1090,ChIJT3unGKJioDERtmqJNE5xsWo,Windy Sky Bar,Quán bar,,"Windy Sky Bar, 1 Đ. Ngô Quyền, Tân An, Ninh Kiều, Cần Thơ","Tân An, Ninh Kiều",1 Đ. Ngô Quyền,Cần Thơ,,"Ninh Kiều, Cần Thơ",VN
