,place_id,name,main_category,phone,address,address_ward,address_street,address_city,address_postal_code,address_state,address_country_code
0,ChIJ_yOW_TMvdTERHnUzesy5uFM,Bida Bảo Bình - Bảo Bình Billiards Club,Câu lạc bộ bi da lỗ,+84 902 340 029,"Bida Bảo Bình - Bảo Bình Billiards Club, 35 Phạm Ngọc Thạch, Phường 6, Quận 3, Thành phố Hồ Chí Minh 700000, Việt Nam","Phường 6, Quận 3",35 Phạm Ngọc Thạch,Thành phố Hồ Chí Minh,700000.0,"Quận 3, Thành phố Hồ Chí Minh",VN
16,ChIJ14Yc09kodTERmON9NMnNiM0,Câu Lạc Bộ Bida LYP - Nguyễn Kiệm Phú Nhuận,Câu lạc bộ bi da lỗ,+84 823 453 030,"Câu Lạc Bộ Bida LYP - Nguyễn Kiệm Phú Nhuận, 436 Nguyễn Kiệm, Phường 3, Phú Nhuận, Thành phố Hồ Chí Minh 700000, Việt Nam","Phường 3, Phú Nhuận",436 Nguyễn Kiệm,Thành phố Hồ Chí Minh,700000.0,"Phú Nhuận, Thành phố Hồ Chí Minh",VN
32,ChIJfcun0MAodTERtPRegRtWVOg,CLB Bida TOP,Câu lạc bộ thể thao,+84 834 707 777,"CLB Bida TOP, 4A Đ. Phan Văn Trị, Phường 14, Bình Thạnh, Thành phố Hồ Chí Minh 700000, Việt Nam","Phường 14, Bình Thạnh",4A Đ. Phan Văn Trị,Thành phố Hồ Chí Minh,700000.0,"Bình Thạnh, Thành phố Hồ Chí Minh",VN
48,ChIJx4JUjk4pdTERnjhlj5Mmvd4,Bida LYP - Âu Cơ Tân Bình,Câu lạc bộ bi da lỗ,+84 839 393 030,"Bida LYP - Âu Cơ Tân Bình, 622 Âu Cơ, Phường 10, Tân Bình, Thành phố Hồ Chí Minh 700000, Việt Nam","Phường 10, Tân Bình",622 Âu Cơ,Thành phố Hồ Chí Minh,700000.0,"Tân Bình, Thành phố Hồ Chí Minh",VN
64,ChIJzbY9wOkpdTERr-mDCj1KbzY,Hỏa Billiards Club - CLB Bida Hỏa,Câu lạc bộ bi da lỗ,+84 937 272 194,"Hỏa Billiards Club - CLB Bida Hỏa, 46 Đ. Nguyễn Cửu Vân, Phường 17, Bình Thạnh, Thành phố Hồ Chí Minh 760000, Việt Nam","Phường 17, Bình Thạnh",46 Đ. Nguyễn Cửu Vân,Thành phố Hồ Chí Minh,760000.0,"Bình Thạnh, Thành phố Hồ Chí Minh",VN
80,ChIJz25NujqIoDERa0LwOQxX_So,BILLARD MAXX,Câu lạc bộ bi da lỗ,+84 292 6516 777,"BILLARD MAXX, 31 P. Q., 320/27 Đ. Trần Ngọc Quế, Xuân Khánh, Ninh Kiều, Cần Thơ, Việt Nam","Xuân Khánh, Ninh Kiều","31 P. Q., 320/27 Đ. Trần Ngọc Quế",Cần Thơ,,"Ninh Kiều, Cần Thơ",VN
96,ChIJY1Tp038vdTERbhCeW8oeq_8,Bida Linh Cát,Câu lạc bộ giải trí tư nhân,+84 918 803 333,"Bida Linh Cát, 385E Đ. Nguyễn Trãi, Phường Nguyễn Cư Trinh, Quận 1, Thành phố Hồ Chí Minh, Việt Nam","Phường Nguyễn Cư Trinh, Quận 1",385E Đ. Nguyễn Trãi,Thành phố Hồ Chí Minh,,"Quận 1, Thành phố Hồ Chí Minh",VN
112,ChIJC5ds-TQpdTERtBfZYdMQEV8,CLB Bida Phúc An Khang,Câu lạc bộ bi da lỗ,+84 919 194 554,"CLB Bida Phúc An Khang, 263 Bùi Hữu Nghĩa, Phường 1, Bình Thạnh, Thành phố Hồ Chí Minh, Việt Nam","Phường 1, Bình Thạnh",263 Bùi Hữu Nghĩa,Thành phố Hồ Chí Minh,,"Bình Thạnh, Thành phố Hồ Chí Minh",VN
120,ChIJFxicCCyIoDERTlCKzhTbp_0,Cơ sở sản xuất Bida Minh Nguyễn,Cửa hàng bán dụng cụ Bi-a,+84 938 689 841,"Cơ sở sản xuất Bida Minh Nguyễn, 5 Tổ 5, KV 1, Cái Răng, Cần Thơ, Việt Nam","KV 1, Cái Răng",5 Tổ 5,Cần Thơ,,"Cái Răng, Cần Thơ",VN
132,ChIJhQE8tuIZoDER71fR8yu-o48,CLB bida Tiny Bear,Câu lạc bộ bi da lỗ,+84 976 088 209,"CLB bida Tiny Bear, Đường D5, Khóm 4, Trà Vinh, 87100, Việt Nam","Khóm 4, Trà Vinh",Đường D5,Trà Vinh,87100.0,Trà Vinh,VN
133,ChIJQTtXjyAldTERk6Ay6Q8toCM,Tiệm Bida H,Câu lạc bộ bi da lỗ,+84 988 839 746,"Tiệm Bida H, Block S2, Chung Cư Sài Gòn Riverside Complex, 04 Đ. Đào Trí, Quận 7, Thành phố Hồ Chí Minh 700000, Việt Nam","Phú Mỹ, Quận 7","Block S2, Chung Cư Sài Gòn Riverside Complex, 04 Đ. Đào Trí",Thành phố Hồ Chí Minh,700000.0,"Quận 7, Thành phố Hồ Chí Minh",VN
156,ChIJsazLkhqJoDER3wH5Gf_bZZc,BIDA ÔNG PHỔ,Câu lạc bộ thể thao,+84 917 111 555,"BIDA ÔNG PHỔ, 199 Đ. Phạm Hùng, Lê Bình, Cái Răng, Cần Thơ 94952, Việt Nam","Lê Bình, Cái Răng",199 Đ. Phạm Hùng,Cần Thơ,94952.0,"Cái Răng, Cần Thơ",VN
172,ChIJNwkW9MErdTERE3ySJ_oapMk,CLB Bida Máy Lạnh T2 Quận Tân Phú,Câu lạc bộ,+84 935 233 521,"CLB Bida Máy Lạnh T2 Quận Tân Phú, 347 Tân Kỳ Tân Quý, Tân Quý, Tân Phú, Thành phố Hồ Chí Minh, Việt Nam","Tân Quý, Tân Phú",347 Tân Kỳ Tân Quý,Thành phố Hồ Chí Minh,,"Tân Phú, Thành phố Hồ Chí Minh",VN
188,ChIJOdFhCfuJoDER09E4EI5wzcM,Cafe bida hoa hồng 3,Câu lạc bộ giải trí tư nhân,+84 982 735 154,"Cafe bida hoa hồng 3, 81-83 Đ. Trần Hoàng Na, Phường An Khánh, Ninh Kiều, Cần Thơ, Việt Nam","Phường An Khánh, Ninh Kiều",81-83 Đ. Trần Hoàng Na,Cần Thơ,,"Ninh Kiều, Cần Thơ",VN
204,ChIJq4Wm3VZ9oDER1BFT0TOXFqU,Cafe Vườn nhiệt đới & BiDa,Quán cà phê,+84 978 194 204,"Cafe Vườn nhiệt đới & BiDa, Cái Vồn, Bình Minh, Vĩnh Long, Việt Nam","Cái Vồn, Bình Minh",,Vĩnh Long,,"Bình Minh, Vĩnh Long",VN
212,ChIJGRjHnJuJoDERiJEodhJM9QU,Quán cà phê Bida Guitar,Quán cà phê,+84 939 822 338,"Quán cà phê Bida Guitar, 16 Bông Vang, Đối diện công an xã, Phong Điền, Cần Thơ 000000, Việt Nam","Đối diện công an xã, Phong Điền",16 Bông Vang,Cần Thơ,0.0,"Phong Điền, Cần Thơ",VN
217,ChIJ5aiijk-JoDEREOEKoXDbu9E,The Wind 1 - Billiards & Coffee,Câu lạc bộ thể thao,+84 943 965 779,"The Wind 1 - Billiards & Coffee, 41 Đ. A4, Phường An Khánh, Ninh Kiều, Cần Thơ, Việt Nam","Phường An Khánh, Ninh Kiều",41 Đ. A4,Cần Thơ,,"Ninh Kiều, Cần Thơ",VN
233,ChIJhxpQBOaJoDERFjFQVVuD1Fw,CSSX BÀN BIDA SƠN NGUYỄN - CẦN THƠ,Cửa hàng bán dụng cụ Bi-a,+84 913 705 515,"CSSX BÀN BIDA SƠN NGUYỄN - CẦN THƠ, 46 Ngô Thì Nhậm, Phường An Khánh, Ninh Kiều, Cần Thơ, Việt Nam","Phường An Khánh, Ninh Kiều",46 Ngô Thì Nhậm,Cần Thơ,,"Ninh Kiều, Cần Thơ",VN
249,ChIJnxIBabBfoDERlOV4vMRkg6w,Clb bida Bi Nguyễn,Cửa hàng bán dụng cụ Bi-a,+84 938 809 909,"Clb bida Bi Nguyễn, 15 Đường Đ. Phan Đình Phùng, Ngã Bảy, Hậu Giang, Việt Nam",Ngã Bảy,15 Đường Đ. Phan Đình Phùng,Hậu Giang,,"Ngã Bảy, Hậu Giang",VN
252,ChIJMa5WvWKHoDERPC0_QlvRBz4,Bida Cafe 1989,Câu lạc bộ bi da lỗ,+84 903 361 088,"Bida Cafe 1989, Lê Hồng Phong, Bình Thuỷ, Bình Thủy, Cần Thơ, Việt Nam","Bình Thuỷ, Bình Thủy",Lê Hồng Phong,Cần Thơ,,"Bình Thủy, Cần Thơ",VN
253,ChIJj90sQwctdTERsxK11ek-nWY,Quán Bida Sule Quận 7,Câu lạc bộ giải trí tư nhân,+84 878 599 799,"Quán Bida Sule Quận 7, Chung Cư Đức Khải, Sule Billiards Club 01-01A, Tầng G, Block A1, Quận 7, Thành phố Hồ Chí Minh 72900, Việt Nam","Phú Mỹ, Quận 7","Chung Cư Đức Khải, Sule Billiards Club 01-01A, Tầng G, Block A1",Thành phố Hồ Chí Minh,72900.0,"Quận 7, Thành phố Hồ Chí Minh",VN
281,ChIJzRxjwCSIoDERMIblYHsVDkE,Coffee Bida Hoàng Phát Pro 2,Quán cà phê,,"Coffee Bida Hoàng Phát Pro 2, 21 Đ. Trần Văn Hoài, Xuân Khánh, Ninh Kiều, Cần Thơ, Việt Nam","Xuân Khánh, Ninh Kiều",21 Đ. Trần Văn Hoài,Cần Thơ,,"Ninh Kiều, Cần Thơ",VN
293,ChIJ4-XgsTqIoDERWuJcgTujnrk,MiLano Billiards Clb,Công viên xe dã ngoại,+84 292 6283 939,"MiLano Billiards Clb, 230/22b Đ. Trần Ngọc Quế, Xuân Khánh, Ninh Kiều, Cần Thơ, Việt Nam","Xuân Khánh, Ninh Kiều",230/22b Đ. Trần Ngọc Quế,Cần Thơ,,"Ninh Kiều, Cần Thơ",VN
305,ChIJfdWX6IkvdTERicm2JXY01M8,Bida Sao - Thành Thái,Câu lạc bộ bi da lỗ,+84 28 2213 1562,"Bida Sao - Thành Thái, 22-24 Đ. Thành Thái, Phường 12, Quận 10, Thành phố Hồ Chí Minh, Việt Nam","Phường 12, Quận 10",22-24 Đ. Thành Thái,Thành phố Hồ Chí Minh,,"Quận 10, Thành phố Hồ Chí Minh",VN
321,ChIJq0YuocUudTERPIL7YB_wpDg,Clb Bida Thành Thái,Câu lạc bộ bi da lỗ,,"QMH6+9FR Clb Bida Thành Thái, Đ. Thành Thái, Phường 14, Quận 10, Thành phố Hồ Chí Minh, Việt Nam","Phường 14, Quận 10","QMH6+9FR, Đ. Thành Thái",Thành phố Hồ Chí Minh,,"Quận 10, Thành phố Hồ Chí Minh",VN
337,ChIJ9QuxmYEudTERmeXGg-WDI3s,Clb Bida Danton,Câu lạc bộ bi da lỗ,+84 28 2228 7289,"Clb Bida Danton, 154 Đ Đặng Nguyên Cẩn, Phường 13, Quận 6, Thành phố Hồ Chí Minh 700000, Việt Nam","Phường 13, Quận 6",154 Đ Đặng Nguyên Cẩn,Thành phố Hồ Chí Minh,700000.0,"Quận 6, Thành phố Hồ Chí Minh",VN
353,ChIJOVLeGS4pdTERHoWj52RW1Gk,CLB Bida 143,Câu lạc bộ bi da lỗ,,"CLB Bida 143, 9 Phạm Văn Hai, Phường 1, Tân Bình, Thành phố Hồ Chí Minh, Việt Nam","Phường 1, Tân Bình",9 Phạm Văn Hai,Thành phố Hồ Chí Minh,,"Tân Bình, Thành phố Hồ Chí Minh",VN
369,ChIJWcDqr9gudTERF4bGrJCAnyQ,Clb Bida Q1,Câu lạc bộ bi da lỗ,+84 28 6276 2298,"Clb Bida Q1, 175 Đ. Cao Thắng, Phường 12, Quận 10, Thành phố Hồ Chí Minh, Việt Nam","Phường 12, Quận 10",175 Đ. Cao Thắng,Thành phố Hồ Chí Minh,,"Quận 10, Thành phố Hồ Chí Minh",VN
385,ChIJuyvvE9YtdTERT_sQiL8btLw,Clb Bida Quốc Tế,Câu lạc bộ,+84 28 5406 1938,"Clb Bida Quốc Tế, 65 Đường Số 22, Phường 11, Quận 6, Thành phố Hồ Chí Minh, Việt Nam","Phường 11, Quận 6",65 Đường Số 22,Thành phố Hồ Chí Minh,,"Quận 6, Thành phố Hồ Chí Minh",VN
401,ChIJMc4JgzeIoDERAv5Jk_okwXA,Café - Bida Metro,Quán cà phê,+84 946 469 720,"2QC6+F52 Café - Bida Metro, Hưng Lợi, Ninh Kiều, Cần Thơ, Việt Nam","Hưng Lợi, Ninh Kiều",2QC6+F52,Cần Thơ,,"Ninh Kiều, Cần Thơ",VN
411,ChIJj11DhtUtdTER-_ws9MWUQuY,Clb Bida Đỉnh Cao,Câu lạc bộ bi da lỗ,+84 28 3900 4549,"Clb Bida Đỉnh Cao, 135 Đ. Trần Văn Kiểu, Phường 11, Quận 6, Thành phố Hồ Chí Minh, Việt Nam","Phường 11, Quận 6",135 Đ. Trần Văn Kiểu,Thành phố Hồ Chí Minh,,"Quận 6, Thành phố Hồ Chí Minh",VN
412,ChIJqV47JHcrdTER1doTS3N5k4k,CLB Bida Go On CN 429A Lê Trọng Tấn,Câu lạc bộ bi da lỗ,+84 937 473 008,"CLB Bida Go On CN 429A Lê Trọng Tấn, 429a Lê Trọng Tấn, Sơn Kỳ, Tân Phú, Thành phố Hồ Chí Minh, Việt Nam","Sơn Kỳ, Tân Phú",429a Lê Trọng Tấn,Thành phố Hồ Chí Minh,,"Tân Phú, Thành phố Hồ Chí Minh",VN
431,ChIJcQEQKfeJoDERpb70Tg550P0,Bida Longoni,Câu lạc bộ bi da lỗ,,"2QF9+GQP Bida Longoni, Đ. Trần Ngọc Quế, Xuân Khánh, Ninh Kiều, Cần Thơ, Việt Nam","Xuân Khánh, Ninh Kiều","2QF9+GQP, Đ. Trần Ngọc Quế",Cần Thơ,,"Ninh Kiều, Cần Thơ",VN
447,ChIJ-0ol6gQmdTERQKjX4yZoc2E,Clb Bida Boba,Câu lạc bộ bi da lỗ,+84 965 679 337,"Clb Bida Boba, 48 Đ. Trần Não, P. Bình An, Quận 2, Thành phố Hồ Chí Minh, Việt Nam","P. Bình An, Quận 2",48 Đ. Trần Não,Thành phố Hồ Chí Minh,,"Quận 2, Thành phố Hồ Chí Minh",VN
450,ChIJdVhtV0yIoDERk21VSO1aXKo,Cà Phê Bida Ngọc Loan,Quán cà phê,,"Cà Phê Bida Ngọc Loan, 66 Đ. Trần Vĩnh Kiết, An Bình, Ninh Kiều, Cần Thơ, Việt Nam","An Bình, Ninh Kiều",66 Đ. Trần Vĩnh Kiết,Cần Thơ,,"Ninh Kiều, Cần Thơ",VN
457,ChIJt4j1bgkndTERw4NJd1SpCq0,Quán Bida Quốc Nguyện & Coffee Passion,Câu lạc bộ bi da lỗ,,"Quán Bida Quốc Nguyện & Coffee Passion, 227 Đ. Hoàng Diệu 2, Phường Linh Trung, Thủ Đức, Thành phố Hồ Chí Minh, Việt Nam","Phường Linh Trung, Thủ Đức",227 Đ. Hoàng Diệu 2,Thành phố Hồ Chí Minh,,"Thủ Đức, Thành phố Hồ Chí Minh",VN
466,ChIJT_16E9SJoDERxhnBK2RudKA,Cafe - Bida - Game Hoàng tử,Quán cà phê,+84 913 979 899,"Cafe - Bida - Game Hoàng tử, 602 Hẻm 553, Hưng Lợi, Ninh Kiều, Cần Thơ 900000, Việt Nam","Hưng Lợi, Ninh Kiều",602 Hẻm 553,Cần Thơ,900000.0,"Ninh Kiều, Cần Thơ",VN
472,ChIJ-SeBt_4odTERpPtEB3_i1Fc,Clb Bida Sài Gòn,Câu lạc bộ bi da lỗ,,"Clb Bida Sài Gòn, 26 Đ. Phan Văn Trị, Phường 7, Gò Vấp, Thành phố Hồ Chí Minh, Việt Nam","Phường 7, Gò Vấp",26 Đ. Phan Văn Trị,Thành phố Hồ Chí Minh,,"Gò Vấp, Thành phố Hồ Chí Minh",VN
475,ChIJ50QO7VcpdTERMQ-hxMW29Gs,Clb Bida Tân Phú Quý,Câu lạc bộ bi da lỗ,+84 28 3810 0906,"Clb Bida Tân Phú Quý, 189 Tân Kỳ Tân Quý, Tân Sơn Nhì, Tân Phú, Thành phố Hồ Chí Minh, Việt Nam","Tân Sơn Nhì, Tân Phú",189 Tân Kỳ Tân Quý,Thành phố Hồ Chí Minh,,"Tân Phú, Thành phố Hồ Chí Minh",VN
476,ChIJk--6WGIvdTERZuBzkg8KFR8,CLB BIDA T&T,Câu lạc bộ,+84 982 588 732,"CLB BIDA T&T, 411b Lê Văn Lương, P. Phú Thuận, Quận 7, Thành phố Hồ Chí Minh, Việt Nam","P. Phú Thuận, Quận 7",411b Lê Văn Lương,Thành phố Hồ Chí Minh,,"Quận 7, Thành phố Hồ Chí Minh",VN
481,ChIJ0UaRO81JoTERU-CxHFuNBTc,CLB BIDA BA BĂNG STAR,Câu lạc bộ bi da lỗ,,"CLB BIDA BA BĂNG STAR, 30 Tôn Đức Thắng, Phường 5, Thành phố Cà Mau, Cà Mau, Việt Nam","Phường 5, Thành phố Cà Mau",30 Tôn Đức Thắng,Cà Mau,,"Thành phố Cà Mau, Cà Mau",VN
519,ChIJD2SaA84odTER63mNwwhNc2c,CLB Bida Rạch Miễu,Câu lạc bộ thể thao,+84 902 821 161,"CLB Bida Rạch Miễu, 01 Hoa Phượng, Phường 2, Phú Nhuận, Thành phố Hồ Chí Minh, Việt Nam","Phường 2, Phú Nhuận",01 Hoa Phượng,Thành phố Hồ Chí Minh,,"Phú Nhuận, Thành phố Hồ Chí Minh",VN
535,ChIJia7PCdiJoDERtP_H_LdXIL4,Bida cafe Tú Anh 2,Câu lạc bộ thể thao,+84 869 654 655,"Bida cafe Tú Anh 2, 138 Đ. Nguyễn Việt Hồng, An Lạc, Ninh Kiều, Cần Thơ 92000, Việt Nam","An Lạc, Ninh Kiều",138 Đ. Nguyễn Việt Hồng,Cần Thơ,92000.0,"Ninh Kiều, Cần Thơ",VN
549,ChIJh9py7ie2CjER3xQ1U7ZYL9Q,Clb Bida Thanh Sang,Câu lạc bộ bi da lỗ,+84 949 944 662,"Clb Bida Thanh Sang, 30 Hồ Văn Long, Phường 2, Tân An, Long An, Việt Nam","Phường 2, Tân An",30 Hồ Văn Long,Long An,,"Tân An, Long An",VN
565,ChIJ237crESJoDERTUbqif6thQk,Bida Thanh Long Cần Thơ,Câu lạc bộ thể thao,+84 387 353 535,"Bida Thanh Long Cần Thơ, 146S Đ. Trần Văn Hoài, Xuân Khánh, Ninh Kiều, Cần Thơ, Việt Nam","Xuân Khánh, Ninh Kiều",146S Đ. Trần Văn Hoài,Cần Thơ,,"Ninh Kiều, Cần Thơ",VN
566,ChIJDQ9_VcEodTER_9T7E6L3JDw,Câu Lạc Bộ Bida Đỗ Uyên,Câu lạc bộ bi da lỗ,+84 903 871 471,"Câu Lạc Bộ Bida Đỗ Uyên, 5/30 Nơ Trang Long, Phường 7, Bình Thạnh, Thành phố Hồ Chí Minh, Việt Nam","Phường 7, Bình Thạnh",5/30 Nơ Trang Long,Thành phố Hồ Chí Minh,,"Bình Thạnh, Thành phố Hồ Chí Minh",VN
584,ChIJV55FknIvdTERMVYFaGgH96o,Clb Bida 188,Câu lạc bộ,,"Clb Bida 188, 188 Đ. Khánh Hội, Phường 4, Quận 4, Thành phố Hồ Chí Minh, Việt Nam","Phường 4, Quận 4",188 Đ. Khánh Hội,Thành phố Hồ Chí Minh,,"Quận 4, Thành phố Hồ Chí Minh",VN
600,ChIJq6qqqn5hoDERHpM_yv0tdNM,Câu lạc bộ Bida Fantasy,Câu lạc bộ giải trí tư nhân,+84 982 233 303,"Câu lạc bộ Bida Fantasy, Nam Sông Hậu, Ấp Phú Xuân, Châu Thành, Hậu Giang, Việt Nam","Ấp Phú Xuân, Châu Thành",Nam Sông Hậu,Hậu Giang,,"Châu Thành, Hậu Giang",VN
601,ChIJ-0yXHld3CjER0VHNDTYYGCA,Câu lạc bộ Bida soha,Câu lạc bộ thể thao,+84 968 087 599,"Câu lạc bộ Bida soha, Ql 91 KV Phụng Thạnh 1, p. Thốt Nốt, Q, Thốt Nốt, Cần Thơ, Việt Nam","TT. Thốt Nốt, Thốt Nốt","Ql 91 KV Phụng Thạnh 1, p. Thốt Nốt, Q",Cần Thơ,,"Thốt Nốt, Cần Thơ",VN
602,ChIJNavRcuUodTERD6aOGn8tjlo,Clb Bida Victory,Câu lạc bộ bi da lỗ,,"Clb Bida Victory, 66 Lê Lợi, Phường 4, Gò Vấp, Thành phố Hồ Chí Minh 700000, Việt Nam","Phường 4, Gò Vấp",66 Lê Lợi,Thành phố Hồ Chí Minh,700000.0,"Gò Vấp, Thành phố Hồ Chí Minh",VN
645,ChIJfx2SnOiJoDERNB3Uwi7W5cA,H2 Billiards Club,Câu lạc bộ bi da lỗ,,"H2 Billiards Club, 89-91 Đ. Số 2, khu nhà ở CBGV ĐHCT, Ninh Kiều, Cần Thơ 94000, Việt Nam","khu nhà ở CBGV ĐHCT, Ninh Kiều",89-91 Đ. Số 2,Cần Thơ,94000.0,"Ninh Kiều, Cần Thơ",VN
646,ChIJV7MttqMvdTERZvVG04qNwzw,CLB BIDA Q1,Câu lạc bộ bi da lỗ,+84 969 529 524,"CLB BIDA Q1, 61/32, Hồ Chí Minh, Thành phố Hồ Chí Minh 70000, Việt Nam","Phường Cầu Ông Lãnh, Hồ Chí Minh",61/32,Thành phố Hồ Chí Minh,70000.0,"Hồ Chí Minh, Thành phố Hồ Chí Minh",VN
677,ChIJK1KsTZKJoDER3MJNBHg9gZI,Cafe Bida Minh Quân 79,Quán cà phê,,"Cafe Bida Minh Quân 79, 56 Nguyễn Văn Cừ Nối Dài, An Bình, Ninh Kiều, Cần Thơ, Việt Nam","An Bình, Ninh Kiều",56 Nguyễn Văn Cừ Nối Dài,Cần Thơ,,"Ninh Kiều, Cần Thơ",VN
678,ChIJiVBZWR5JoTERzuz60ocvQrc,CLB BiDa Di A,Câu lạc bộ bi da lỗ,+84 290 3777 768,"CLB BiDa Di A, Khóm 5, Thành phố Cà Mau, Cà Mau, Việt Nam","Khóm 5, Thành phố Cà Mau",,Cà Mau,,"Thành phố Cà Mau, Cà Mau",VN
690,ChIJRSB20UGIoDERqL3DWZhJjB4,Cà Phê Bida Hè Phố,Quán cà phê,,"Cà Phê Bida Hè Phố, 170 Đ. Nguyễn Văn Cừ, Phường An Khánh, Ninh Kiều, Cần Thơ, Việt Nam","Phường An Khánh, Ninh Kiều",170 Đ. Nguyễn Văn Cừ,Cần Thơ,,"Ninh Kiều, Cần Thơ",VN
709,ChIJ28Dw1G6JoDER9qOZy9K7tZg,Cà Phê & Bida Duy Khôi,Quán cà phê,+84 908 723 457,"Cà Phê & Bida Duy Khôi, 30/28 KDC 30, Hưng Lợi, Ninh Kiều, Cần Thơ, Việt Nam","Hưng Lợi, Ninh Kiều",30/28 KDC 30,Cần Thơ,,"Ninh Kiều, Cần Thơ",VN
712,ChIJ5837wTqIoDERPiI_a9gW8Jc,Clb Bida Joker,Câu lạc bộ,+84 292 6269 696,"Clb Bida Joker, 162 Đ. Trần Ngọc Quế, Xuân Khánh, Ninh Kiều, Cần Thơ, Việt Nam","Xuân Khánh, Ninh Kiều",162 Đ. Trần Ngọc Quế,Cần Thơ,,"Ninh Kiều, Cần Thơ",VN
713,ChIJCXJuttuGCjERYCC7WbnhzZY,Bida Bình Minh,Câu lạc bộ,,"8RGP+FH9 Bida Bình Minh, QL30, Tân Hưng, Cái Bè, Tiền Giang, Việt Nam","Tân Hưng, Cái Bè","8RGP+FH9, QL30",Tiền Giang,,"Cái Bè, Tiền Giang",VN
714,ChIJweFdxSO2CjERFdjgZPPRlmY,Câu Lạc Bộ Bida,Câu lạc bộ thể thao,+84 272 3822 032,"Câu Lạc Bộ Bida, 4 Nguyễn Trung Trực, Phường 1, Tp. Tân An, Long An, Việt Nam","Phường 1, Thành phố Tân An",4 Nguyễn Trung Trực,Long An,,"Tp. Tân An, Long An",VN
760,ChIJCfORz0NioDERb7F8ukDWgDk,Cà Phê Bida Phố Xa,Quán cà phê,,"XRV5+MPJ Cà Phê Bida Phố Xa, Quang Trung, Phú Thứ, Cái Răng, Cần Thơ, Việt Nam","Phú Thứ, Cái Răng","XRV5+MPJ, Quang Trung",Cần Thơ,,"Cái Răng, Cần Thơ",VN
761,ChIJwQEw2rWJoDER21LPR9brx8c,Coffee- Máy lạnh- Billard Toàn Phát 1,Quán cà phê,,"Coffee- Máy lạnh- Billard Toàn Phát 1, 390 QL91B, Hưng Lợi, Ninh Kiều, Cần Thơ, Việt Nam","Hưng Lợi, Ninh Kiều",390 QL91B,Cần Thơ,,"Ninh Kiều, Cần Thơ",VN
766,ChIJUzbt-eCHoDERHu7Yv4DOL_0,Câu Lạc Bộ Bida Tú Anh,Câu lạc bộ,+84 948 727 578,"Câu Lạc Bộ Bida Tú Anh, 154 Trần Quang Diệu, An Thới, Bình Thủy, Cần Thơ, Việt Nam","An Thới, Bình Thủy",154 Trần Quang Diệu,Cần Thơ,,"Bình Thủy, Cần Thơ",VN
767,ChIJXV-w1GqJoDERNllVUUbhDkw,Billard 24H,Câu lạc bộ bi da lỗ,,"Billard 24H, 151/9A Đ. Trần Hoàng Na, Hưng Lợi, Ninh Kiều, Cần Thơ 900000, Việt Nam","Hưng Lợi, Ninh Kiều",151/9A Đ. Trần Hoàng Na,Cần Thơ,900000.0,"Ninh Kiều, Cần Thơ",VN
768,ChIJUYvlt2qXCjERM67dHYo6wNY,CLB Bida 299,Câu lạc bộ thể thao,+84 353 829 664,"CLB Bida 299, Nhị Mỹ, Cai Lậy, Tiền Giang, Việt Nam","Nhị Mỹ, Cai Lậy",,Tiền Giang,,"Cai Lậy, Tiền Giang",VN
804,ChIJy2WiNsyJoDERJ6DSZ4rw2sM,BIDA ĐẠI THẾ GIỚI CẦN THƠ,Quán cà phê,+84 919 160 999,"BIDA ĐẠI THẾ GIỚI CẦN THƠ, 24 Nguyễn Văn Cừ Nối Dài, An Bình, Ninh Kiều, Cần Thơ, Việt Nam","An Bình, Ninh Kiều",24 Nguyễn Văn Cừ Nối Dài,Cần Thơ,,"Ninh Kiều, Cần Thơ",VN
805,ChIJk6-9JgWXCjERvZ7NIxeIgUA,SAO BILLIARDS CLUB ( CLB BIDA SAO),Câu lạc bộ thể thao,,"SAO BILLIARDS CLUB ( CLB BIDA SAO), 20 Thanh Tâm, TT. Cai Lậy, Cai Lậy, Tiền Giang, Việt Nam","TT. Cai Lậy, Cai Lậy",20 Thanh Tâm,Tiền Giang,,"Cai Lậy, Tiền Giang",VN
806,ChIJBX-i7DLboDER4KJYYZoAo_U,Clb Bida Vân Hưng,Câu lạc bộ,,"P7HH+RRV Clb Bida Vân Hưng, Nguyễn Thái Bình, TT. Gò Quao, Gò Quao, Kiên Giang, Việt Nam","TT. Gò Quao, Gò Quao","P7HH+RRV, Nguyễn Thái Bình",Kiên Giang,,"Gò Quao, Kiên Giang",VN
807,ChIJWWyumXMvdTER67wqP_HLl04,CLB bida,Câu lạc bộ thể thao,,"CLB bida, 72 Đ. Nguyễn Trãi, Phường 3, Quận 5, Thành phố Hồ Chí Minh, Việt Nam","Phường 3, Quận 5",72 Đ. Nguyễn Trãi,Thành phố Hồ Chí Minh,,"Quận 5, Thành phố Hồ Chí Minh",VN
825,ChIJR6H1h1aJoDER7BLyQZcDNE8,Cà Phê Võng - BIDA An Khánh ( cf hạt pha vợt bưu điện),Quán cà phê,+84 939 518 199,"Cà Phê Võng - BIDA An Khánh ( cf hạt pha vợt bưu điện), 171 Đ. Nguyễn Minh Quang, Phường An Khánh, Ninh Kiều, Cần Thơ, Việt Nam","Phường An Khánh, Ninh Kiều",171 Đ. Nguyễn Minh Quang,Cần Thơ,,"Ninh Kiều, Cần Thơ",VN
866,ChIJaQL9XbmJoDERc66LwDzMIiE,Clb Bida Boston,Sàn chơi bô-linh,+84 918 777 055,"Clb Bida Boston, 188/2 Trần Hưng Đạo nối dài, Lê Bình, Cái Răng, Cần Thơ, Việt Nam","Lê Bình, Cái Răng",188/2 Trần Hưng Đạo nối dài,Cần Thơ,,"Cái Răng, Cần Thơ",VN
867,ChIJT968jiR_CjER-uSjw_NDJ0M,Bida Thành Nam,Câu lạc bộ thể thao,,"Bida Thành Nam, 193 Đường Lý Thường Kiệt, Phường 1, Sa Đéc, Đồng Tháp, Việt Nam","Phường 1, Sa Đéc",193 Đường Lý Thường Kiệt,Đồng Tháp,,"Sa Đéc, Đồng Tháp",VN
868,ChIJFVAp1eYtdTERC0a0GMHkFus,Clb Bida 262,Câu lạc bộ bi da lỗ,+84 28 3701 0151,"Clb Bida 262, 262 Đường Hoàng Ngân, Phường 16, Quận 8, Thành phố Hồ Chí Minh, Việt Nam","Phường 16, Quận 8",262 Đường Hoàng Ngân,Thành phố Hồ Chí Minh,,"Quận 8, Thành phố Hồ Chí Minh",VN
906,ChIJr3unQziIoDERtjZPWVGCpXQ,Clb Bida Đông Dương 6,Câu lạc bộ,+84 292 3781 489,"Clb Bida Đông Dương 6, 27 Đ. Nguyễn Văn Linh, Hưng Lợi, Ninh Kiều, Cần Thơ, Việt Nam","Hưng Lợi, Ninh Kiều",27 Đ. Nguyễn Văn Linh,Cần Thơ,,"Ninh Kiều, Cần Thơ",VN
907,ChIJw9RWbEeJoDERUWHZRrvWsQ8,CLB Bida Trung Tâm,Quán cà phê,,"CLB Bida Trung Tâm, 93b Đ. Trần Hoàng Na, An Bình, Ninh Kiều, Cần Thơ, Việt Nam","An Bình, Ninh Kiều",93b Đ. Trần Hoàng Na,Cần Thơ,,"Ninh Kiều, Cần Thơ",VN
908,ChIJaRuXq9ljoDER0qK_UylHu1w,Quán Cafe Bida Nam Long,Quán cà phê,+84 703 333 539,"Quán Cafe Bida Nam Long, Đường số 5, Khu dân cư Vạn Phong, Cái Răng, Cần Thơ, Việt Nam","Khu dân cư Vạn Phong, Cái Răng",Đường số 5,Cần Thơ,,"Cái Răng, Cần Thơ",VN
909,ChIJWdDBKGVloDER8vz_l7AQbRU,Cafe Bida L&D,Câu lạc bộ thể thao,,"XW9H+R34 Cafe Bida L&D, QL54, Trà Ôn, Vĩnh Long, Việt Nam",Trà Ôn,"XW9H+R34, QL54",Vĩnh Long,,"Trà Ôn, Vĩnh Long",VN
910,ChIJFwLz078udTERufW_mM2ahYo,Clb Bida Anh Em,Câu lạc bộ bi da lỗ,,"Clb Bida Anh Em, 79 Âu Cơ, Phường 14, Quận 11, Thành phố Hồ Chí Minh, Việt Nam","Phường 14, Quận 11",79 Âu Cơ,Thành phố Hồ Chí Minh,,"Quận 11, Thành phố Hồ Chí Minh",VN
911,ChIJbe0CWqIudTERTv_SqPuMrwk,Câu Lạc Bộ Bida,Câu lạc bộ bi da lỗ,,"Câu Lạc Bộ Bida, 255 Khuông Việt, Phú Trung, Tân Phú, Thành phố Hồ Chí Minh 700000, Việt Nam","Phú Trung, Tân Phú",255 Khuông Việt,Thành phố Hồ Chí Minh,700000.0,"Tân Phú, Thành phố Hồ Chí Minh",VN
922,ChIJdRFgQyOIoDERKc65gZlhl7Y,"BIDA, CAFE BO'S",Quán cà phê,,"BIDA, CAFE BO'S, 124/8 Đ. 3 Tháng 2, Xuân Khánh, Ninh Kiều, Cần Thơ, Việt Nam","Xuân Khánh, Ninh Kiều",124/8 Đ. 3 Tháng 2,Cần Thơ,,"Ninh Kiều, Cần Thơ",VN
965,ChIJHcXZZ3OJoDERcTb5nH00I1o,CLB Cafe Bida Lan Anh,Quán cà phê,,"CLB Cafe Bida Lan Anh, 34 Bông Vang, Mỹ Khánh, Phong Điền, Cần Thơ, Việt Nam","Mỹ Khánh, Phong Điền",34 Bông Vang,Cần Thơ,,"Phong Điền, Cần Thơ",VN
990,ChIJO8g6VSWIoDERbYcwGxO6Ce0,Karaoke Bida Vip,Quán bar karaoke,,"Karaoke Bida Vip, 320 Đ. Trần Ngọc Quế, Xuân Khánh, Ninh Kiều, Cần Thơ, Việt Nam","Xuân Khánh, Ninh Kiều",320 Đ. Trần Ngọc Quế,Cần Thơ,,"Ninh Kiều, Cần Thơ",VN
1004,ChIJ04jVrzqIoDERqRIPs5Z7fL4,Clb Bida Central,Câu lạc bộ,,"Clb Bida Central, 230 Đ. Trần Ngọc Quế, Xuân Khánh, Ninh Kiều, Cần Thơ, Việt Nam","Xuân Khánh, Ninh Kiều",230 Đ. Trần Ngọc Quế,Cần Thơ,,"Ninh Kiều, Cần Thơ",VN
1005,ChIJ53Xe812HCjERntgKtBeOax0,Clb bida TiTi billiard club,Câu lạc bộ thể thao,+84 789 799 990,"9Q2M+93M Clb bida TiTi billiard club, Mỹ Long, Cao Lãnh, Đồng Tháp, Việt Nam","Mỹ Long, Cao Lãnh",9Q2M+93M,Đồng Tháp,,"Cao Lãnh, Đồng Tháp",VN
1006,ChIJm_MAC21xCjER9t_th1NSvdw,Clb Bida Tiến Phát,Câu lạc bộ,,"9G5C+HG6 Clb Bida Tiến Phát, Đường Võ Thị Hồng, TT. Lấp Vò, Lấp Vò, Đồng Tháp, Việt Nam","TT. Lấp Vò, Lấp Vò","9G5C+HG6, Đường Võ Thị Hồng",Đồng Tháp,,"Lấp Vò, Đồng Tháp",VN
1007,ChIJBb8IuXtNoDERF6vh6Mxg28M,CLB Bida Las Vegas,Câu lạc bộ thể thao,+84 947 133 333,"CLB Bida Las Vegas, 408 Đường Lê Hồng Phong, Phường 3, Sóc Trăng, Việt Nam","Phường 3, Sóc Trăng",408 Đường Lê Hồng Phong,Sóc Trăng,,Sóc Trăng,VN
1008,ChIJMSWntV4ToDERvkIIorXzzeM,CLB Bida Năm Dũng,Câu lạc bộ,+84 909 684 404,"CLB Bida Năm Dũng, QL53, khóm 3, Càng Long, Trà Vinh 87000, Việt Nam","khóm 3, Càng Long",QL53,Trà Vinh,87000.0,"Càng Long, Trà Vinh",VN
1009,ChIJU_M2-a5HoDER7lLG1d-M2SI,CLB BIDA MINH TÂN,Câu lạc bộ thể thao,+84 972 368 727,"P4G4+5H9 CLB BIDA MINH TÂN, An Thạnh 1, Cù Lao Dung, Sóc Trăng, Việt Nam","An Thạnh 1, Cù Lao Dung",P4G4+5H9,Sóc Trăng,,"Cù Lao Dung, Sóc Trăng",VN
1010,ChIJyZzRGwZSoDERB0CV7Do57MM,Clb Bida Chuyên Nghiệp Đồng Tâm,Câu lạc bộ,+84 918 666 370,"Clb Bida Chuyên Nghiệp Đồng Tâm, 117 Nguyễn Văn Linh, Phường 2, Sóc Trăng, Việt Nam","Phường 2, Sóc Trăng",117 Nguyễn Văn Linh,Sóc Trăng,,Sóc Trăng,VN
1011,ChIJNYfPVYktdTER0uXdhayKuyY,Clb Bida Trúc Mai,Câu lạc bộ,+84 28 6274 4152,"PH7X+3QP Clb Bida Trúc Mai, QL1A, Tân Kiên, Bình Chánh, Thành phố Hồ Chí Minh, Việt Nam","Tân Kiên, Bình Chánh","PH7X+3QP, QL1A",Thành phố Hồ Chí Minh,,"Bình Chánh, Thành phố Hồ Chí Minh",VN
1012,ChIJU39ToYfVdDERQZafO6lxdcU,CLB Bida 24h,Câu lạc bộ thể thao,+84 934 854 823,"CLB Bida 24h, 1 Bà Triệu, TT. Hóc Môn, Hóc Môn, Thành phố Hồ Chí Minh, Việt Nam","TT. Hóc Môn, Hóc Môn",1 Bà Triệu,Thành phố Hồ Chí Minh,,"Hóc Môn, Thành phố Hồ Chí Minh",VN
1083,ChIJtdgnnKCJoDERfJSKbI_uwPg,Quán Cà Phê K+ - Bida - Nhạc Sống Kiều Vy,Quán cà phê,+84 292 3844 928,"Quán Cà Phê K+ - Bida - Nhạc Sống Kiều Vy, 255 Ấp Mỹ Phước, Huyện Phong Điền, An Bình, Ninh Kiều, Cần Thơ, Việt Nam","An Bình, Ninh Kiều","255 Ấp Mỹ Phước, Huyện Phong Điền",Cần Thơ,,"Ninh Kiều, Cần Thơ",VN
1084,ChIJv1wP9DaJoDER3HJhHWaR_S0,CÀ PHÊ - BIDA TOM AND JERRY 2,Quán cà phê,+84 965 555 077,"CÀ PHÊ - BIDA TOM AND JERRY 2, 85 ĐH5, Mỹ Khánh, Phong Điền, Cần Thơ, Việt Nam","Mỹ Khánh, Phong Điền",85 ĐH5,Cần Thơ,,"Phong Điền, Cần Thơ",VN
1105,ChIJ5_-eBVCJoDER6IUlRmzrHyA,Cafe-Bida Thảo Điền,Quán cà phê,+84 903 361 088,"Cafe-Bida Thảo Điền, 1 3 Đ. Nguyễn Văn Linh, Hưng Lợi, Ninh Kiều, Cần Thơ, Việt Nam","Hưng Lợi, Ninh Kiều",1 3 Đ. Nguyễn Văn Linh,Cần Thơ,,"Ninh Kiều, Cần Thơ",VN
1145,ChIJvfDZHjWIoDER6IlKcY3o-ik,Clb Bida Phúc Long,Câu lạc bộ,,"Clb Bida Phúc Long, 96 Đ. 30 Tháng 4, Hưng Lợi, Ninh Kiều, Cần Thơ, Việt Nam","Hưng Lợi, Ninh Kiều",96 Đ. 30 Tháng 4,Cần Thơ,,"Ninh Kiều, Cần Thơ",VN
1146,ChIJgdeCoiGIoDER1LNwHBgy6yk,Cafe - Bida Ck Club,Quán cà phê,,"Cafe - Bida Ck Club, 138 Đ. Nguyễn Việt Hồng, An Lạc, Ninh Kiều, Cần Thơ 92000, Việt Nam","An Lạc, Ninh Kiều",138 Đ. Nguyễn Việt Hồng,Cần Thơ,92000.0,"Ninh Kiều, Cần Thơ",VN
1147,ChIJy8w_KKGJoDERJtlQhnYp5A4,Bida an khánh,Sân chơi,+84 834 351 368,"Bida an khánh, 171 Đ. Nguyễn Minh Quang, Phường An Khánh, Ninh Kiều, Cần Thơ, Việt Nam","Phường An Khánh, Ninh Kiều",171 Đ. Nguyễn Minh Quang,Cần Thơ,,"Ninh Kiều, Cần Thơ",VN
1148,ChIJV_BdFYFhoDERk3XSePLB9jA,Câu lạc bộ Bida Hoàng Quân,Câu lạc bộ thể thao,,"WRH3+32M Câu lạc bộ Bida Hoàng Quân, Ấp Thạnh Hưng, Xã Phú An, TT. Ngã Sáu, Châu Thành, Hậu Giang, Việt Nam","TT. Ngã Sáu, Châu Thành","WRH3+32M, Ấp Thạnh Hưng, Xã Phú An",Hậu Giang,,"Châu Thành, Hậu Giang",VN
1149,ChIJjQgUHX-DCjERPsSfy7DyHGg,Clb Bida Thanh Thiên,Câu lạc bộ thể thao,,"6WQR+43F Clb Bida Thanh Thiên, Tân Hạnh, Long Hồ, Vĩnh Long, Việt Nam","Tân Hạnh, Long Hồ",6WQR+43F,Vĩnh Long,,"Long Hồ, Vĩnh Long",VN
1150,ChIJFShRZEFioDERhp21Y1gM2Ms,Câu Lạc Bộ Bida Fantasy,Câu lạc bộ giải trí tư nhân,+84 982 233 303,"WVGW+JQG Câu Lạc Bộ Bida Fantasy, Nam Sông Hậu, An Lạc Thôn, Kế Sách, Sóc Trăng, Việt Nam","An Lạc Thôn, Kế Sách","WVGW+JQG, Nam Sông Hậu",Sóc Trăng,,"Kế Sách, Sóc Trăng",VN
1151,ChIJt8qZEBHvoDER1mARsVnLwow,Clb Bida Thanh Thúy,Câu lạc bộ,+84 909 452 995,"PGXJ+GP3 Clb Bida Thanh Thúy, Đường Nguyễn Tri Phương, Nàng Mau, Vị Thuỷ, Hậu Giang, Việt Nam","Nàng Mau, Vị Thuỷ","PGXJ+GP3, Đường Nguyễn Tri Phương",Hậu Giang,,"Vị Thuỷ, Hậu Giang",VN
1152,ChIJQxwds1ihoDERxFckNIjEMDM,Clb Bida Quỳnh Nhiên,Câu lạc bộ,+84 396 541 317,"Clb Bida Quỳnh Nhiên, 2733 QL80, Thị trấn Thanh An, Vĩnh Thạnh, Cần Thơ, Việt Nam","Thị trấn Thanh An, Vĩnh Thạnh",2733 QL80,Cần Thơ,,"Vĩnh Thạnh, Cần Thơ",VN
1153,ChIJLwo_8cZyCjERPnyXv_rt2vM,Clb Bida Hưng Phát,Câu lạc bộ,+84 917 225 040,"Clb Bida Hưng Phát, 22 Đề Thám, p. Bình Khánh, Thành phố Long Xuyên, An Giang, Việt Nam","p. Bình Khánh, Thành phố Long Xuyên",22 Đề Thám,An Giang,,"Thành phố Long Xuyên, An Giang",VN
1154,ChIJ_61A_Dq0oDERllbSxczrUz4,Clb Bida Thanh Min,Câu lạc bộ,+84 297 3868 379,"Clb Bida Thanh Min, 1110 Nguyễn Trung Trực, Phường An Bình, Rạch Giá, Kiên Giang, Việt Nam","Phường An Bình, Rạch Giá",1110 Nguyễn Trung Trực,Kiên Giang,,"Rạch Giá, Kiên Giang",VN
1155,ChIJ470V2s0tdTERvUh2LJKzjfA,Clb Bida Vành Đai,Câu lạc bộ bi da lỗ,+84 28 3877 9144,"Clb Bida Vành Đai, 110 Đ. Vành Đai Trong, An Lạc A, Bình Tân, Thành phố Hồ Chí Minh, Việt Nam","An Lạc A, Bình Tân",110 Đ. Vành Đai Trong,Thành phố Hồ Chí Minh,,"Bình Tân, Thành phố Hồ Chí Minh",VN
1213,ChIJaSgsVNCJoDERKZgMvtGfNOA,Caffe Bida 130,Quán cà phê,+84 939 664 408,"Caffe Bida 130, 130 Hẻm Lò Mổ, Phường An Khánh, Ninh Kiều, Cần Thơ, Việt Nam","Phường An Khánh, Ninh Kiều",130 Hẻm Lò Mổ,Cần Thơ,,"Ninh Kiều, Cần Thơ",VN
1215,ChIJd0lWo0iJoDERn_3Lfc3JXQQ,Coffee bida 179,Quán cà phê,,"2QJ2+Q3M Coffee bida 179, Phường An Khánh, Ninh Kiều, Cần Thơ, Việt Nam","Phường An Khánh, Ninh Kiều",2QJ2+Q3M,Cần Thơ,,"Ninh Kiều, Cần Thơ",VN
1238,ChIJjUarUWuJoDERCvwbRSzyr2Y,Cà Phê Bida Lan Anh,Quán cà phê,+84 932 840 006,"2P9Q+39C Cà Phê Bida Lan Anh, An Bình, Ninh Kiều, Cần Thơ, Việt Nam","An Bình, Ninh Kiều",2P9Q+39C,Cần Thơ,,"Ninh Kiều, Cần Thơ",VN
1251,ChIJ-X4eQxSJoDERNAO2hDCFzs4,Café Bi Bida,Quán cà phê,,"XPW8+99R Café Bi Bida, Bông Vang, Phong Điền, Cần Thơ, Việt Nam","Bông Vang, Phong Điền","XPW8+99R, Bông Vang",Cần Thơ,,"Phong Điền, Cần Thơ",VN
1260,ChIJTUlYhmUldTERWdWN2GTFXsI,Clb Bida Thanh Hồng,Câu lạc bộ bi da lỗ,,"Clb Bida Thanh Hồng, 93 Gò Ô Môi, Phú Thuận, Quận 7, Thành phố Hồ Chí Minh, Việt Nam","Phú Thuận, Quận 7",93 Gò Ô Môi,Thành phố Hồ Chí Minh,,"Quận 7, Thành phố Hồ Chí Minh",VN
1334,ChIJAfKzO96HoDER7nmbiT2Fdq0,Clb Bida Thủy Nguyên,Câu lạc bộ,+84 976 066 132,"3Q55+J39 Clb Bida Thủy Nguyên, Trần Quang Diệu, An Thới, Bình Thủy, Cần Thơ, Việt Nam","An Thới, Bình Thủy","3Q55+J39, Trần Quang Diệu",Cần Thơ,,"Bình Thủy, Cần Thơ",VN
1335,ChIJ9WxCPCCIoDERSpLBBjA3z7I,T & T Billiard Club,Câu lạc bộ,+84 919 149 259,"T & T Billiard Club, 108/95/18, Nguyen Viet Hong Street, An Phu Ward, Ninh Kieu District, Can Tho City, Xuân Khánh, Ninh Kiều, Cần Thơ, Việt Nam","Xuân Khánh, Ninh Kiều","108/95/18, Nguyen Viet Hong Street, An Phu Ward, Ninh Kieu District, Can Tho City",Cần Thơ,,"Ninh Kiều, Cần Thơ",VN
1336,ChIJzW1zVzqIoDERiHT_mvZSGeY,Câu Lạc Bộ Bida,Câu lạc bộ,+84 292 3830 560,"Câu Lạc Bộ Bida, 51/10, Đường 3/2, Quận Ninh Kiều, Tp Cần Thơ, Hưng Lợi, Ninh Kiều, Cần Thơ, Việt Nam","Hưng Lợi, Ninh Kiều","51/10, Đường 3/2, Quận Ninh Kiều, Tp Cần Thơ",Cần Thơ,,"Ninh Kiều, Cần Thơ",VN
1337,ChIJa9XH3kOIoDERNyXbsX0YEtA,Clb Bida Nguyên,Câu lạc bộ,+84 989 577 369,"Clb Bida Nguyên, 305 Đ. Nguyễn Văn Linh, Phường An Khánh, Ninh Kiều, Cần Thơ, Việt Nam","Phường An Khánh, Ninh Kiều",305 Đ. Nguyễn Văn Linh,Cần Thơ,,"Ninh Kiều, Cần Thơ",VN
1338,ChIJW-J6vySIoDERRIqP0XMDc_A,Câu Lạc Bộ Bida Phượng,Câu lạc bộ,+84 292 3840 967,"Câu Lạc Bộ Bida Phượng, 150B, Trần Văn Hoài, phường Xuân Khánh, quận Ninh Kiều, Tp. Cần Thơ, Xuân Khánh, Ninh Kiều, Cần Thơ, Việt Nam","Xuân Khánh, Ninh Kiều","150B, Trần Văn Hoài, phường Xuân Khánh, quận Ninh Kiều, Tp. Cần Thơ",Cần Thơ,,"Ninh Kiều, Cần Thơ",VN
1339,ChIJpVHSDGOJoDERpDh0WT0rsOM,Bida Tú Anh 3,Câu lạc bộ thể thao,,"Bida Tú Anh 3, 354 Hẻm 553, Xuân Khánh, Ninh Kiều, Cần Thơ, Việt Nam","Xuân Khánh, Ninh Kiều",354 Hẻm 553,Cần Thơ,,"Ninh Kiều, Cần Thơ",VN
1340,ChIJVzjsYGdioDERvxSF4dbMqF0,Clb Bida Quỳnh Khanh,Câu lạc bộ,,"2R34+54F Clb Bida Quỳnh Khanh, Đ. Bùi Quang Trinh, Phú Thứ, Cái Răng, Cần Thơ, Việt Nam","Phú Thứ, Cái Răng","2R34+54F, Đ. Bùi Quang Trinh",Cần Thơ,,"Cái Răng, Cần Thơ",VN
1341,ChIJZddW_biJoDER8P5v4s4dEMA,Clb Bida Hollywood,Câu lạc bộ,,"Clb Bida Hollywood, 290 1A Lê Bình, Cái Răng, Cần Thơ, Việt Nam","Lê Bình, Cái Răng",290 1A Lê Bình,Cần Thơ,,"Cái Răng, Cần Thơ",VN
1342,ChIJWz4yJ6lioDERWf8lFRhP8kw,Clb Bida,Câu lạc bộ,,"2QWP+9QR Clb Bida, Trần Văn Khéo, Cái Khế, Ninh Kiều, Cần Thơ, Việt Nam","Cái Khế, Ninh Kiều","2QWP+9QR, Trần Văn Khéo",Cần Thơ,,"Ninh Kiều, Cần Thơ",VN
1343,ChIJLa4BOF-GoDERiP_BSFf89WE,Câu Lạc Bộ Bida Thanh Minh,Câu lạc bộ,+84 292 3841 153,"Câu Lạc Bộ Bida Thanh Minh, 6A/8, Lê Hồng Phong, phường Trà Nóc, quận Bình Thủy, Tp. Cần Thơ, Trà Nóc, Bình Thủy, Cần Thơ, Việt Nam","Trà Nóc, Bình Thủy","6A/8, Lê Hồng Phong, phường Trà Nóc, quận Bình Thủy, Tp. Cần Thơ",Cần Thơ,,"Bình Thủy, Cần Thơ",VN
1344,ChIJz-nrBuSHoDER3u82esxRZFk,Quán Bida Hùng,Trung tâm vui chơi giải trí,+84 377 278 873,"Quán Bida Hùng, 32 Đ. Cách Mạng Tháng 8, Bùi Hữu Nghĩa, Bình Thủy, Cần Thơ, Việt Nam","Bùi Hữu Nghĩa, Bình Thủy",32 Đ. Cách Mạng Tháng 8,Cần Thơ,,"Bình Thủy, Cần Thơ",VN
1345,ChIJ048wGF-GoDERZ3I6AP5hEpM,Quán Bida Phương,,+84 292 3842 666,"Quán Bida Phương, 11 Nguyễn Chí Thanh, Trà Nóc, Bình Thủy, Cần Thơ, Việt Nam","Trà Nóc, Bình Thủy",11 Nguyễn Chí Thanh,Cần Thơ,,"Bình Thủy, Cần Thơ",VN
1346,ChIJJ-Ls4-aEoDERSsS9hWRI2Js,Clb Bida 629,Câu lạc bộ,+84 292 3861 329,"Clb Bida 629, 629 Đường 26 Tháng 3, Châu Văn Liêm, Ô Môn, Cần Thơ, Việt Nam","Châu Văn Liêm, Ô Môn",629 Đường 26 Tháng 3,Cần Thơ,,"Ô Môn, Cần Thơ",VN
1347,ChIJ4fiUGOeIoDEROiNYnqlUbs8,Bida Sinh Đôi,Câu lạc bộ,,"Bida Sinh Đôi, Long Tuyền, Bình Thủy, Cần Thơ, Việt Nam","Long Tuyền, Bình Thủy",,Cần Thơ,,"Bình Thủy, Cần Thơ",VN
1348,ChIJA38awmqIoDERiRFduQA5FP8,Quán Bida Star,Trung tâm vui chơi giải trí,+84 292 3890 169,"Quán Bida Star, 256/1, Nguyễn Văn Cừ, Quận Ninh Kiều, Thành Phố Cần Thơ, Phường An Khánh, Ninh Kiều, Cần Thơ, Việt Nam","Phường An Khánh, Ninh Kiều","256/1, Nguyễn Văn Cừ, Quận Ninh Kiều, Thành Phố Cần Thơ",Cần Thơ,,"Ninh Kiều, Cần Thơ",VN
1349,ChIJKeq_N36GoDERjtA4s9LKl7c,Cá Phê - Bida Quân Anh,Quán cà phê,,"Cá Phê - Bida Quân Anh, Phước Thới, Ô Môn, Cần Thơ, Việt Nam","Phước Thới, Ô Môn",,Cần Thơ,,"Ô Môn, Cần Thơ",VN
1350,ChIJMeUnhreMoDER74LTH6OPX5Y,Clb Bida Quế Phong,Câu lạc bộ,+84 293 3936 127,"Clb Bida Quế Phong, 289 QL61, Thạnh Hoà, Phụng Hiệp, Hậu Giang, Việt Nam","Thạnh Hoà, Phụng Hiệp",289 QL61,Hậu Giang,,"Phụng Hiệp, Hậu Giang",VN
1351,ChIJ1Ug6YeGEoDERaPwNczGdzRU,Câu Lạc Bộ Bida 116,Câu lạc bộ,+84 938 659 796,"Câu Lạc Bộ Bida 116, 260 QL91, Châu Văn Liêm, Ô Môn, Cần Thơ, Việt Nam","Châu Văn Liêm, Ô Môn",260 QL91,Cần Thơ,,"Ô Môn, Cần Thơ",VN
1352,ChIJgYItRUmJoDERrB2vrHjK9Ro,BILLIARDS THẾ HỆ MỚI,Câu lạc bộ bi da lỗ,,"BILLIARDS THẾ HỆ MỚI, 8 Đ. Trần Vĩnh Kiết, Phường An Khánh, Ninh Kiều, Cần Thơ, Việt Nam","Phường An Khánh, Ninh Kiều",8 Đ. Trần Vĩnh Kiết,Cần Thơ,,"Ninh Kiều, Cần Thơ",VN
1353,ChIJmV4efWH2oDERI6WjAPaH_04,Clb Bida 77,Câu lạc bộ,,"Clb Bida 77, 77 ĐT927, Cây Dương, Phụng Hiệp, Hậu Giang, Việt Nam","Cây Dương, Phụng Hiệp",77 ĐT927,Hậu Giang,,"Phụng Hiệp, Hậu Giang",VN
1354,ChIJgQ6Pv7abCjERLVK63WzrZpc,Clb Bida 413,Câu lạc bộ,,"82QP+G9P Clb Bida 413, Võ Văn Giáo, TT. Cái Bè, Cái Bè, Tiền Giang, Việt Nam","TT. Cái Bè, Cái Bè","82QP+G9P, Võ Văn Giáo",Tiền Giang,,"Cái Bè, Tiền Giang",VN
1355,ChIJv-mGNACJoDERaC6FVSRa8Xw,CLB bida HI!KEN,Quán cà phê internet,+84 924 609 079,"CLB bida HI!KEN, 63 Đ. Trần Hoàng Na, Hưng Lợi, Ninh Kiều, Cần Thơ, Việt Nam","Hưng Lợi, Ninh Kiều",63 Đ. Trần Hoàng Na,Cần Thơ,,"Ninh Kiều, Cần Thơ",VN
1356,ChIJYRPwpsPpoDERwZ-0gaOCfUE,CLB bida lý chiêu,Câu lạc bộ thể thao,+84 909 505 252,"CLB bida lý chiêu, 80 Đ. Ngô Hữu Hạnh, Phường 1, Vị Thanh, Hậu Giang, Việt Nam","Phường 1, Vị Thanh",80 Đ. Ngô Hữu Hạnh,Hậu Giang,,"Vị Thanh, Hậu Giang",VN
1357,ChIJAyBKPf1yCjERCwI_en8Tv2k,Clb Bida Hùng Vương,Câu lạc bộ,,"9CGV+V8G Clb Bida Hùng Vương, Hùng Vương, Mỹ Long, Thành phố Long Xuyên, An Giang, Việt Nam","Mỹ Long, Thành phố Long Xuyên","9CGV+V8G, Hùng Vương",An Giang,,"Thành phố Long Xuyên, An Giang",VN
1358,ChIJUz0Lpe9yCjERvOSyO1w_QDI,Clb Bida Phương Nam,Câu lạc bộ,+84 296 3956 555,"Clb Bida Phương Nam, 7 Hẻm Nguyễn Du, P. Mỹ Bình, Thành phố Long Xuyên, An Giang, Việt Nam","P. Mỹ Bình, Thành phố Long Xuyên",7 Hẻm Nguyễn Du,An Giang,,"Thành phố Long Xuyên, An Giang",VN
1359,ChIJy2iC-QlSoDERwSLMwlMQd-4,Clb Bida Nguyễn,Câu lạc bộ,+84 903 040 182,"Clb Bida Nguyễn, 42 Bùi Thị Xuân, Phường 2, Sóc Trăng, Việt Nam","Phường 2, Sóc Trăng",42 Bùi Thị Xuân,Sóc Trăng,,Sóc Trăng,VN
1360,ChIJlfRB_utrCjERN_HLaBlEVys,Quán bida,Câu lạc bộ,,"HF5Q+49C Quán bida, TT. Thanh Bình, Thanh Bình, Đồng Tháp, Việt Nam","TT. Thanh Bình, Thanh Bình",HF5Q+49C,Đồng Tháp,,"Thanh Bình, Đồng Tháp",VN
1361,ChIJ01IZomcH044RdEZc9SccSJc,CLB Bida Quang Phúc 071,Câu lạc bộ bi da lỗ,+84 868 633 033,"CLB Bida Quang Phúc 071, Nguyễn Huệ, P. Phú Khương, Bến Tre, 940000, Việt Nam","P. Phú Khương, Bến Tre",Nguyễn Huệ,Bến Tre,940000.0,Bến Tre,VN
1362,ChIJQbSfe3-0oDERAQUgdGuyILA,Clb Bida 79,Câu lạc bộ,,"232M+32V Clb Bida 79, Chi Lăng, Phường Vĩnh Bảo, Tp. Rạch Giá, Kiên Giang, Việt Nam","Phường Vĩnh Bảo, Thành phố Rạch Giá","232M+32V, Chi Lăng",Kiên Giang,,"Tp. Rạch Giá, Kiên Giang",VN
1363,ChIJCT4ZL-utCjERimnT8mbWh5I,Clb Bida Minh,Câu lạc bộ,,"Clb Bida Minh, 75 Đường Hồ Tấn Minh, TT. Chợ Gao, Chợ Gạo, Tiền Giang, Việt Nam","TT. Chợ Gao, Chợ Gạo",75 Đường Hồ Tấn Minh,Tiền Giang,,"Chợ Gạo, Tiền Giang",VN
1364,ChIJ1c8EUp6zoDER1LreFBORwrQ,Clb Bida Tấn Của,Câu lạc bộ,,"239J+PGQ Clb Bida Tấn Của, Nguyễn Tri Phương, Vĩnh Thanh, Rạch Giá, Kiên Giang, Việt Nam","Vĩnh Thanh, Rạch Giá","239J+PGQ, Nguyễn Tri Phương",Kiên Giang,,"Rạch Giá, Kiên Giang",VN
1365,ChIJvVl6ILMudTERfEChw-90VZI,Clb Bida Bảy Mập,Câu lạc bộ bi da lỗ,,"Clb Bida Bảy Mập, 164 Phạm Phú Thứ, Phường 11, Tân Bình, Thành phố Hồ Chí Minh 900000, Việt Nam","Phường 11, Tân Bình",164 Phạm Phú Thứ,Thành phố Hồ Chí Minh,900000.0,"Tân Bình, Thành phố Hồ Chí Minh",VN
1366,ChIJDwHH8M0JoDERzzUHosuFoZg,Quán bida,Công viên xe dã ngoại,,"Quán bida, 74 QL60, TT. Mỏ Cày, Mỏ Cày Nam, Bến Tre, Việt Nam","TT. Mỏ Cày, Mỏ Cày Nam",74 QL60,Bến Tre,,"Mỏ Cày Nam, Bến Tre",VN
1367,ChIJZdYNH-wudTER53QWMFjzSE0,Clb Bida 897,Câu lạc bộ bi da lỗ,,"Clb Bida 897, 897 Đ. 3 Tháng 2, Phường 7, Quận 11, Thành phố Hồ Chí Minh, Việt Nam","Phường 7, Quận 11",897 Đ. 3 Tháng 2,Thành phố Hồ Chí Minh,,"Quận 11, Thành phố Hồ Chí Minh",VN
1368,ChIJFwNXPNYtdTER70X60pxzefg,Clb Bida Danton,Câu lạc bộ,,"Clb Bida Danton, 251 Đ. Trần Văn Kiểu, Phường 11, Quận 6, Thành phố Hồ Chí Minh, Việt Nam","Phường 11, Quận 6",251 Đ. Trần Văn Kiểu,Thành phố Hồ Chí Minh,,"Quận 6, Thành phố Hồ Chí Minh",VN
1369,ChIJY2LaVxe2CjERpRp-KT6cThU,Clb Bida Khánh,Câu lạc bộ,+84 272 3553 032,"Clb Bida Khánh, 178 Nguyễn Thông, Phường 3, Tân An, Long An, Việt Nam","Phường 3, Tân An",178 Nguyễn Thông,Long An,,"Tân An, Long An",VN
1381,ChIJl2EUehOIoDERbH546dZr6pg,Clb Billiards Thanh Tâm,Khu bể bơi,+84 292 2222 984,"Clb Billiards Thanh Tâm, 129131 Đ. Nguyễn Văn Cừ, Phường An Khánh, Ninh Kiều, Cần Thơ, Việt Nam","Phường An Khánh, Ninh Kiều",129131 Đ. Nguyễn Văn Cừ,Cần Thơ,,"Ninh Kiều, Cần Thơ",VN
1399,ChIJq6qqBw-IoDER4-MDQ42f7E4,Tiệm Cà Phê Bida Ngọc,Quán cà phê,+84 292 2222 633,"Tiệm Cà Phê Bida Ngọc, 34 Đ. Nguyễn Văn Cừ, An Hoà, Ninh Kiều, Cần Thơ, Việt Nam","An Hoà, Ninh Kiều",34 Đ. Nguyễn Văn Cừ,Cần Thơ,,"Ninh Kiều, Cần Thơ",VN
1416,ChIJ9WxCPCCIoDERpJrlkJtkRb0,Câu Lạc Bộ Billards T & T,,+84 919 149 259,"Câu Lạc Bộ Billards T & T, 95/18 Đ. Nguyễn Việt Hồng, An Lạc, Ninh Kiều, Cần Thơ, Việt Nam","An Lạc, Ninh Kiều",95/18 Đ. Nguyễn Việt Hồng,Cần Thơ,,"Ninh Kiều, Cần Thơ",VN
1430,ChIJt0Fw0F1joDERFsAd4qGWXtQ,Cafe Bida T&T,Quán cà phê,,"2Q4P+MJ5 Cafe Bida T&T, Hưng Phú, Cái Răng, Cần Thơ, Việt Nam","Hưng Phú, Cái Răng",2Q4P+MJ5,Cần Thơ,,"Cái Răng, Cần Thơ",VN
1451,ChIJG1lVWhqIoDERFw6quiA5K68,Cà Phê Bida 89,Quán cà phê,,"2QRC+7WW Cà Phê Bida 89, Đ. Lê Anh Xuân, An Nghiệp, Ninh Kiều, Cần Thơ, Việt Nam","An Nghiệp, Ninh Kiều","2QRC+7WW, Đ. Lê Anh Xuân",Cần Thơ,,"Ninh Kiều, Cần Thơ",VN
1461,ChIJU7XiLAOIoDERB8JnrSoqJ5c,Cà Phê - Bida Hoàn Vũ,Quán cà phê,+84 292 3845 858,"Cà Phê - Bida Hoàn Vũ, 58 Hùng Vương, An Hội, Ninh Kiều, Cần Thơ 90000, Việt Nam","An Hội, Ninh Kiều",58 Hùng Vương,Cần Thơ,90000.0,"Ninh Kiều, Cần Thơ",VN
1601,ChIJtzXzENCJoDERJNQz8eps06w,Cafe Phương bida,Quán cà phê,,"Cafe Phương bida, 54 Đường số 9, Phường An Khánh, Ninh Kiều, Cần Thơ, Việt Nam","Phường An Khánh, Ninh Kiều",54 Đường số 9,Cần Thơ,,"Ninh Kiều, Cần Thơ",VN
1612,ChIJz6oEOhKJoDERVUpIRb-j7eQ,gần cầu đầu sấu trước bida New Trần Hoàng Na,Trà trân châu,,"gần cầu đầu sấu trước bida New Trần Hoàng Na, 115 Đ. Trần Hoàng Na, Phường An Khánh, Ninh Kiều, Cần Thơ, Việt Nam","Phường An Khánh, Ninh Kiều",115 Đ. Trần Hoàng Na,Cần Thơ,,"Ninh Kiều, Cần Thơ",VN
1636,ChIJQ31lVJiJoDER9KVsGYaChN4,Cafe- Bida Ruby,Quán cà phê,+84 907 429 117,"2P8M+QR Cafe- Bida Ruby, An Bình, Ninh Kiều, Cần Thơ, Việt Nam","An Bình, Ninh Kiều",2P8M+QR,Cần Thơ,,"Ninh Kiều, Cần Thơ",VN
1661,ChIJk16UNWkJoTERwVRtmBKbtac,Clb Bida Hội Ngộ,Câu lạc bộ,,"7PW8+2W2 Clb Bida Hội Ngộ, Nguyễn Đình Chiểu, Phường 7, Bạc Liêu, Việt Nam","Phường 7, Bạc Liêu","7PW8+2W2, Nguyễn Đình Chiểu",Bạc Liêu,,Bạc Liêu,VN
1673,ChIJBf5_voePoDER7cONWp94WbY,Bida,Quán cà phê,,"Bida, 7 Đ. Bùi Hữu Nghĩa, Giai Xuân, Phong Điền, Cần Thơ, Việt Nam","Giai Xuân, Phong Điền",7 Đ. Bùi Hữu Nghĩa,Cần Thơ,,"Phong Điền, Cần Thơ",VN
1789,ChIJl6ISwUOIoDERDqepqg9BRpQ,Cà Phê - Bida Kiss Me,Quán cà phê,,"Cà Phê - Bida Kiss Me, 299 Nguyễn Văn Cừ Nối Dài, Phường An Khánh, Ninh Kiều, Cần Thơ, Việt Nam","Phường An Khánh, Ninh Kiều",299 Nguyễn Văn Cừ Nối Dài,Cần Thơ,,"Ninh Kiều, Cần Thơ",VN
1812,ChIJhRmwrjqIoDERMc3YbkrfLWE,Clb Coffee - Bida 4Love,Quán cà phê,,"Clb Coffee - Bida 4Love, 320/12 Đ. Trần Ngọc Quế, Xuân Khánh, Ninh Kiều, Cần Thơ, Việt Nam","Xuân Khánh, Ninh Kiều",320/12 Đ. Trần Ngọc Quế,Cần Thơ,,"Ninh Kiều, Cần Thơ",VN
1820,ChIJQ8XpPKGJoDER0xa-0b3an-o,"Cà phê võng, bida, cơm phần Ngọc Ngân",Quán cà phê,+84 918 200 264,"2Q8H+34V Cà phê võng, bida, cơm phần Ngọc Ngân, Nam Sông Hậu, Hưng Phú, Cái Răng, Cần Thơ, Việt Nam","Hưng Phú, Cái Răng","2Q8H+34V, Nam Sông Hậu",Cần Thơ,,"Cái Răng, Cần Thơ",VN
