,place_id,name,main_category,phone,address,address_ward,address_street,address_city,address_postal_code,address_state,address_country_code
0,ChIJQQayiLuJoDERpziwg0bCQvU,Phúc Long Coffee & Tea,Quán cà phê,0949 579 759,"Phúc Long Coffee & Tea, 384 Đ. 30 Tháng 4, Xuân Khánh, Ninh Kiều, Cần Thơ","Xuân Khánh, Ninh Kiều",384 Đ. 30 Tháng 4,Cần Thơ,,"Ninh Kiều, Cần Thơ",VN
3,ChIJtdMTz6JjoDERuwhioFmU8GE,The Coffee House - Hòa Bình (Cần Thơ),Quán cà phê,028 7303 9079,"The Coffee House - Hòa Bình (Cần Thơ), 8 Đại lộ Hoà Bình, P, Ninh Kiều, Cần Thơ","P, Ninh Kiều",8 Đại lộ Hoà Bình,Cần Thơ,,"Ninh Kiều, Cần Thơ",VN
4,ChIJUWgrCqZioDERlNGHIYEhr60,Nhà Gỗ Cafe - Wood House Coffee Cần Thơ,Quán cà phê,0899 503 919,"Nhà Gỗ Cafe - Wood House Coffee Cần Thơ, 40 Đ. Phạm Ngọc Thạch, Cái Khế, Ninh Kiều, Cần Thơ 900000","Cái Khế, Ninh Kiều",40 Đ. Phạm Ngọc Thạch,Cần Thơ,900000.0,"Ninh Kiều, Cần Thơ",VN
8,ChIJA0_kWJ9ioDERqzRYHqHMA5c,Bánh mì và café A.T,Quán cà phê,0292 3815 161,"Bánh mì và café A.T, 51 Võ Văn Tần, Tân An, Ninh Kiều, Cần Thơ","Tân An, Ninh Kiều",51 Võ Văn Tần,Cần Thơ,,"Ninh Kiều, Cần Thơ",VN
9,ChIJC_oZDB-IoDERC8xobAKur6c,Cafe Khoảnh Khắc,Quán cà phê,0292 3732 454,"Cafe Khoảnh Khắc, 51/19 Đ. Lý Tự Trọng, An Phú, Ninh Kiều, Cần Thơ","An Phú, Ninh Kiều",51/19 Đ. Lý Tự Trọng,Cần Thơ,,"Ninh Kiều, Cần Thơ",VN
11,ChIJ0SZVbdiJoDERV5z8DsRe45E,Tiệm Trà Cỏ Ngọt,Quán cà phê,0939 544 881,"Tiệm Trà Cỏ Ngọt, 102/16 Đ. Lê Lai, An Lạc, Ninh Kiều, Cần Thơ","An Lạc, Ninh Kiều",102/16 Đ. Lê Lai,Cần Thơ,,"Ninh Kiều, Cần Thơ",VN
12,ChIJfZcj_qFioDERsJh3TR7iLvM,Amavo caffè,Quán cà phê,0292 6261 616,"Amavo caffè, 16 Nguyễn Thái Học, Tân An, Ninh Kiều, Cần Thơ","Tân An, Ninh Kiều",16 Nguyễn Thái Học,Cần Thơ,,"Ninh Kiều, Cần Thơ",VN
15,ChIJR0Xl8MOJoDERr146o63uH30,Katinat Cần Thơ Kafe,Quán cà phê,,"Katinat Cần Thơ Kafe, 19a Đ. Mậu Thân, Xuân Khánh, Ninh Kiều, Cần Thơ","Xuân Khánh, Ninh Kiều",19a Đ. Mậu Thân,Cần Thơ,,"Ninh Kiều, Cần Thơ",VN
16,ChIJ72s1_bFjoDERUgSKI9kxCYE,VADO Canteen - Nhà Hàng Nhỏ Vui Vẻ,Nhà hàng món lẩu,0799 637 739,"VADO Canteen - Nhà Hàng Nhỏ Vui Vẻ, 42 Đ. Đề Thám, Tân An, Ninh Kiều, Cần Thơ","Tân An, Ninh Kiều",42 Đ. Đề Thám,Cần Thơ,,"Ninh Kiều, Cần Thơ",VN
17,ChIJV20keZ9ioDERh1YPJYmAi0c,Cà Phê Phương Vinh,Quán cà phê,0292 3760 789,"Cà Phê Phương Vinh, 30 Đ. Nam Kỳ Khởi Nghĩa, Tân An, Ninh Kiều, Cần Thơ","Tân An, Ninh Kiều",30 Đ. Nam Kỳ Khởi Nghĩa,Cần Thơ,,"Ninh Kiều, Cần Thơ",VN
18,ChIJM15XtJCJoDERKrjTOAi9PEY,Hoa Yên An Bình,Quán cà phê,0919 462 904,"Hoa Yên An Bình, A3 khu dân cư 923, An Bình, Ninh Kiều, Cần Thơ 27000","An Bình, Ninh Kiều",A3 khu dân cư 923,Cần Thơ,27000.0,"Ninh Kiều, Cần Thơ",VN
20,ChIJa8eWrGyIoDERJJdb_cEoSp8,Cafe Sành Điệu 2,Quán cà phê,0932 964 157,"Cafe Sành Điệu 2, Đ. Nguyễn Tri Phương, Phường An Khánh, Ninh Kiều, Cần Thơ","Phường An Khánh, Ninh Kiều",Đ. Nguyễn Tri Phương,Cần Thơ,,"Ninh Kiều, Cần Thơ",VN
21,ChIJz1_Q5lljoDERugYFVbXbnq4,GÓC KAFÉ,Quán cà phê,0907 121 316,"GÓC KAFÉ, 127 Nguyễn Trãi, Tân An, Ninh Kiều, Cần Thơ 900000","Tân An, Ninh Kiều",127 Nguyễn Trãi,Cần Thơ,900000.0,"Ninh Kiều, Cần Thơ",VN
22,ChIJwSu-PiKIoDERHctELnrj1FQ,Củi Coffee & Homestay,Quán cà phê,0898 001 807,"Củi Coffee & Homestay, hẻm 95 Đ. Mậu Thân, An Phú, Ninh Kiều, Cần Thơ","An Phú, Ninh Kiều",hẻm 95 Đ. Mậu Thân,Cần Thơ,,"Ninh Kiều, Cần Thơ",VN
23,ChIJ-4t8WfiJoDERQCjS2A_fu7w,Mộc Nhiên Coffee,Quán cà phê,0939 967 888,"2QM7+PVF Mộc Nhiên Coffee, Hẻm 51, Phường An Khánh, Ninh Kiều, Cần Thơ","Phường An Khánh, Ninh Kiều","2QM7+PVF, Hẻm 51",Cần Thơ,,"Ninh Kiều, Cần Thơ",VN
24,ChIJw3D-6A-JoDERbEgBFsjHz3w,Mộng Coffee,Quán cà phê,0907 695 073,"Mộng Coffee, 57A4 Đ. Hồ Bún Xáng, Xuân Khánh, Ninh Kiều, Cần Thơ","Xuân Khánh, Ninh Kiều",57A4 Đ. Hồ Bún Xáng,Cần Thơ,,"Ninh Kiều, Cần Thơ",VN
25,ChIJ92g2xnSJoDERK_XtYtgT7L8,A Coffee and Flower Garden,Quán cà phê,0911 678 910,"A Coffee and Flower Garden, 132 Nguyễn Văn Cừ Nối Dài, Phường An Khánh, Ninh Kiều, Cần Thơ","Phường An Khánh, Ninh Kiều",132 Nguyễn Văn Cừ Nối Dài,Cần Thơ,,"Ninh Kiều, Cần Thơ",VN
26,ChIJFSU86Z2JoDERBJQbtmbsy6g,Prince Koi Coffee,Quán cà phê,0979 007 795,"Prince Koi Coffee, 467 Đ. 30 Tháng 4, Hưng Lợi, Ninh Kiều, Cần Thơ 90000","Hưng Lợi, Ninh Kiều",467 Đ. 30 Tháng 4,Cần Thơ,90000.0,"Ninh Kiều, Cần Thơ",VN
27,ChIJF4ZpWdyJoDERzRN84j08ma8,Cà phê Sữa Đá,Quán cà phê,0859 995 359,"Cà phê Sữa Đá, 79/21 Hùng Vương, An Cư, Ninh Kiều, Cần Thơ","An Cư, Ninh Kiều",79/21 Hùng Vương,Cần Thơ,,"Ninh Kiều, Cần Thơ",VN
28,ChIJk1LveNCJoDER4WZ1A0h67GA,Cũ café,Quán cà phê,0965 319 594,"Cũ café, 9 Quang Trung, Xuân Khánh, Ninh Kiều, Cần Thơ 920000","Xuân Khánh, Ninh Kiều",9 Quang Trung,Cần Thơ,920000.0,"Ninh Kiều, Cần Thơ",VN
29,ChIJGRkPfaFjoDERE8R9Uq2XIOo,Bla Land - Chill & Milk Tea,Quán cà phê,0789 992 711,"Bla Land - Chill & Milk Tea, 35 Đ. Trần Đại Nghĩa, Cái Khế, Ninh Kiều, Cần Thơ 900000","Cái Khế, Ninh Kiều",35 Đ. Trần Đại Nghĩa,Cần Thơ,900000.0,"Ninh Kiều, Cần Thơ",VN
30,ChIJ6aQxBkCJoDER6HdlntNqEoA,Cafe & Sách Không Thời Gian,Quán cà phê,0706 862 168,"Cafe & Sách Không Thời Gian, 94 Đường số 3, KDC ĐHCT, Ninh Kiều, Cần Thơ 94117","KDC ĐHCT, Ninh Kiều",94 Đường số 3,Cần Thơ,94117.0,"Ninh Kiều, Cần Thơ",VN
35,ChIJxWSvk5CJoDER4Q-k02JGans,TRUNG NGUYÊN E COFFEE 24 VÕ VĂN KIỆT,Quán cà phê,0943 253 275,"TRUNG NGUYÊN E COFFEE 24 VÕ VĂN KIỆT, 24 Võ Văn Kiệt, An Hoà, Ninh Kiều, Cần Thơ","An Hoà, Ninh Kiều",24 Võ Văn Kiệt,Cần Thơ,,"Ninh Kiều, Cần Thơ",VN
37,ChIJE0FvsHOJoDERZc6qvnV0fLQ,WIMI Coffee and Tea NVC,Quán cà phê,0824 895 024,"WIMI Coffee and Tea NVC, 123 Đ. Nguyễn Văn Cừ, KDC, Ninh Kiều, Cần Thơ","KDC, Ninh Kiều",123 Đ. Nguyễn Văn Cừ,Cần Thơ,,"Ninh Kiều, Cần Thơ",VN
39,ChIJAweY6-KJoDERoGU7T45AjJU,Mộc Lan Trà Quán,Quán cà phê,0903 122 383,"Mộc Lan Trà Quán, 54 tổ 7 , Đường Bờ Hồ Bún Xáng, Cần Thơ 900000","Xuân Khánh, Ninh Kiều","54 tổ 7 , Đường Bờ Hồ Bún Xáng",Cần Thơ,900000.0,"Ninh Kiều, Cần Thơ",VN
40,ChIJVbKAz3mJoDER2JSiNYHNmCs,GOLD COFFEE - HỒ BÚN XÁNG CẦN THƠ,Quán cà phê,0348 761 664,"GOLD COFFEE - HỒ BÚN XÁNG CẦN THƠ, 38/2 Hẻm 51, Phường An Khánh, Ninh Kiều, Cần Thơ","Phường An Khánh, Ninh Kiều",38/2 Hẻm 51,Cần Thơ,,"Ninh Kiều, Cần Thơ",VN
45,ChIJSy1BuqFioDERu4ZlbRPORVo,Trà Sữa ToCoToCo Sense City Cần Thơ,Quán cà phê,0292 2485 858,"Trà Sữa ToCoToCo Sense City Cần Thơ, TTTM Sense City, 1 Đại lộ Hoà Bình, Tân An, Ninh Kiều, Cần Thơ","Tân An, Ninh Kiều","TTTM Sense City, 1 Đại lộ Hoà Bình",Cần Thơ,,"Ninh Kiều, Cần Thơ",VN
46,ChIJ37vstxSJoDERCIu2NXrRmOM,Hạt Specialty Coffee - Roastery,Quán cà phê,0362 164 429,"Hạt Specialty Coffee - Roastery, 67-69 Đường B25, Khu dân cư 91B, Ninh Kiều, Cần Thơ 90000","Khu dân cư 91B, Ninh Kiều",67-69 Đường B25,Cần Thơ,90000.0,"Ninh Kiều, Cần Thơ",VN
47,ChIJ-6I1hZmJoDERXIaXaV4hgiI,Coffee & Food Tiếng Xưa - TTTM Cái Khế - Trần Phú,Quán cà phê,0866 719 799,"Coffee & Food Tiếng Xưa - TTTM Cái Khế - Trần Phú, Lô H Trần Phú, Thới Bình, Ninh Kiều, Cần Thơ 94000","Thới Bình, Ninh Kiều",Lô H Trần Phú,Cần Thơ,94000.0,"Ninh Kiều, Cần Thơ",VN
50,ChIJecnD4D2JoDERXpnttF_lD3c,Tojime cafe,Quán cà phê,0902 754 777,"Tojime cafe, 12A Đ. Lê Anh Xuân, An Cư, Ninh Kiều, Cần Thơ","An Cư, Ninh Kiều",12A Đ. Lê Anh Xuân,Cần Thơ,,"Ninh Kiều, Cần Thơ",VN
51,ChIJ6Q4h7UqJoDERC42Rvn9dESI,TRẦM COFFEE & TEA,Quán cà phê,0767 578 708,"TRẦM COFFEE & TEA, 321 - 323 Nguyễn Văn Cừ Nối Dài, An Bình, Ninh Kiều, Cần Thơ","An Bình, Ninh Kiều",321 - 323 Nguyễn Văn Cừ Nối Dài,Cần Thơ,,"Ninh Kiều, Cần Thơ",VN
52,ChIJSZJDJgOIoDERraFeDjWz1ao,Tasa Coffee Hùng Vương,Quán cà phê,0932 838 588,"Tasa Coffee Hùng Vương, 55 Hùng Vương, An Hội, Ninh Kiều, Cần Thơ","An Hội, Ninh Kiều",55 Hùng Vương,Cần Thơ,,"Ninh Kiều, Cần Thơ",VN
53,ChIJq908XF1joDERX3CvUrXXalU,Victoria Garden Cafe,Quán cà phê,0378 676 330,"Victoria Garden Cafe, Sông Hậu, Cái Khế, Ninh Kiều, Cần Thơ","Cái Khế, Ninh Kiều",Sông Hậu,Cần Thơ,,"Ninh Kiều, Cần Thơ",VN
54,ChIJO3m4raOJoDERP9dXdKJl8Fg,RICH MILANO COFFEE,Quán cà phê,0909 133 953,"RICH MILANO COFFEE, 177aa Nguyễn Văn Cừ Nối Dài, An Bình, Ninh Kiều, Cần Thơ","An Bình, Ninh Kiều",177aa Nguyễn Văn Cừ Nối Dài,Cần Thơ,,"Ninh Kiều, Cần Thơ",VN
55,ChIJWUJYJvSJoDERbGel3eYTEN4,Tiệm cà phê Nhà Có Khách,Quán cà phê,0363 618 128,"Tiệm cà phê Nhà Có Khách, 359/19b Đ. Nguyễn Văn Cừ, An Hoà, Ninh Kiều, Cần Thơ","An Hoà, Ninh Kiều",359/19b Đ. Nguyễn Văn Cừ,Cần Thơ,,"Ninh Kiều, Cần Thơ",VN
56,ChIJwXd262CJoDER8kXweetbpOQ,Trung Nguyên Legend,Quán cà phê,,"Trung Nguyên Legend, City, 108A Street 3/2, Hưng Lợi, Ninh Kiều, Cần Thơ","Hưng Lợi, Ninh Kiều","City, 108A Street 3/2",Cần Thơ,,"Ninh Kiều, Cần Thơ",VN
57,ChIJIY49UnFjoDERuiyJb5kerdI,Highlands Coffee Trần Văn Khéo - Cần Thơ,Quán cà phê,0292 7302 324,"Highlands Coffee Trần Văn Khéo - Cần Thơ, 66-68 Trần Văn Khéo, An Hội, Ninh Kiều, Cần Thơ 94000","An Hội, Ninh Kiều",66-68 Trần Văn Khéo,Cần Thơ,94000.0,"Ninh Kiều, Cần Thơ",VN
59,ChIJWXZkd7eJoDERoEHdRRaylLo,LÁ Coffee & Tea,Quán cà phê,0939 149 899,"LÁ Coffee & Tea, 29 Trần Chiên, Lê Bình, Cái Răng, Cần Thơ","Lê Bình, Cái Răng",29 Trần Chiên,Cần Thơ,,"Cái Răng, Cần Thơ",VN
60,ChIJaUksgVWJoDERmCqy8te6vKo,Highlands Coffee Huỳnh Cương - Cần Thơ,Quán cà phê,0292 7302 627,"Highlands Coffee Huỳnh Cương - Cần Thơ, TP, 198–200 Huỳnh Cương, An Cư, Ninh Kiều, Cần Thơ 94000","An Cư, Ninh Kiều","TP, 198–200 Huỳnh Cương",Cần Thơ,94000.0,"Ninh Kiều, Cần Thơ",VN
61,ChIJ8aSTJZ-JoDER773DhOQYbEI,NÂU Coffee & Tea,Quán cà phê,0939 483 366,"NÂU Coffee & Tea, 103A, kv2, bờ kè rạch ngỗng, Phường An Khánh, Ninh Kiều, Cần Thơ","Phường An Khánh, Ninh Kiều","103A, kv2, bờ kè rạch ngỗng",Cần Thơ,,"Ninh Kiều, Cần Thơ",VN
63,ChIJV4___0yJoDERNLnp88_A0C4,MIDOO Coffee & Tea,Quán cà phê,0969 941 131,"MIDOO Coffee & Tea, 25 Đinh Công Tráng, Xuân Khánh, Ninh Kiều, Cần Thơ 92000","Xuân Khánh, Ninh Kiều",25 Đinh Công Tráng,Cần Thơ,92000.0,"Ninh Kiều, Cần Thơ",VN
64,ChIJG_uCjsyJoDERfyhsD4v5rrw,Uyên Nhi Coffee,Quán cà phê,,"Uyên Nhi Coffee, 654 Đ. 30 Tháng 4, Hưng Lợi, Ninh Kiều, Cần Thơ","Hưng Lợi, Ninh Kiều",654 Đ. 30 Tháng 4,Cần Thơ,,"Ninh Kiều, Cần Thơ",VN
65,ChIJpx0CL5SJoDER98MWnvj1Gmw,Cafe Nhà anh Đỗ,Quán cà phê,0967 904 249,"Cafe Nhà anh Đỗ, 25C Đ. Nguyễn Văn Cừ, An Phú, Ninh Kiều, Cần Thơ","An Phú, Ninh Kiều",25C Đ. Nguyễn Văn Cừ,Cần Thơ,,"Ninh Kiều, Cần Thơ",VN
66,ChIJr7JyMJGJoDERwvsVHNTPlOQ,Co-Coffee,Quán cà phê,0939 154 202,"Co-Coffee, 202 Đ. Nguyễn Đệ, An Hoà, Ninh Kiều, Cần Thơ","An Hoà, Ninh Kiều",202 Đ. Nguyễn Đệ,Cần Thơ,,"Ninh Kiều, Cần Thơ",VN
67,ChIJK_0EZgZjoDER4IZvKHy-h-w,Huy Anh Coffee.Tea.Juice,Quán cà phê,0787 979 989,"Huy Anh Coffee.Tea.Juice, 6 Đ. Đề Thám, Tân An, Ninh Kiều, Cần Thơ","Tân An, Ninh Kiều",6 Đ. Đề Thám,Cần Thơ,,"Ninh Kiều, Cần Thơ",VN
68,ChIJ1fVYMPeJoDERkYxrVpK83Rk,LENTIL Coffee - Tea - Cơm nhà làm,Quán cà phê,0973 931 876,"LENTIL Coffee - Tea - Cơm nhà làm, 238 Đ. Nguyễn Hiền, Phường An Khánh, Ninh Kiều, Cần Thơ 900000","Phường An Khánh, Ninh Kiều",238 Đ. Nguyễn Hiền,Cần Thơ,900000.0,"Ninh Kiều, Cần Thơ",VN
69,ChIJL7MTsoCJoDERv8Ncr_7MvrA,TSH - The Seventh House,Quán cà phê,0929 019 070,"TSH - The Seventh House, 179A Đ. 3 Tháng 2, Hưng Lợi, Ninh Kiều, Cần Thơ","Hưng Lợi, Ninh Kiều",179A Đ. 3 Tháng 2,Cần Thơ,,"Ninh Kiều, Cần Thơ",VN
70,ChIJe3Y7aTWJoDERUaMWq7iURFg,Tiệm Trà Dâu The Wings,Quán cà phê,0362 861 695,"2Q95+C3H Tiệm Trà Dâu The Wings, Đ. Trần Hoàng Na, Hưng Lợi, Ninh Kiều, Cần Thơ","Hưng Lợi, Ninh Kiều","2Q95+C3H, Đ. Trần Hoàng Na",Cần Thơ,,"Ninh Kiều, Cần Thơ",VN
72,ChIJ2SjHI65joDERnqDMVplwEpw,Cà phê tình nhân Bi Coffee 2,Quán cà phê,0292 2468 879,"Cà phê tình nhân Bi Coffee 2, 30-32 Đ. Phạm Ngọc Thạch, P, Ninh Kiều, Cần Thơ","P, Ninh Kiều",30-32 Đ. Phạm Ngọc Thạch,Cần Thơ,,"Ninh Kiều, Cần Thơ",VN
73,ChIJ7-U23NxjoDERBFhvVBHj5dw,Cả Nhà Mình Coffee,Quán cà phê,0913 973 360,"Cả Nhà Mình Coffee, 48 Xô Viết Nghệ Tĩnh, An Hội, Ninh Kiều, Cần Thơ","An Hội, Ninh Kiều",48 Xô Viết Nghệ Tĩnh,Cần Thơ,,"Ninh Kiều, Cần Thơ",VN
77,ChIJ3YEf2B2HoDERRnJDk6s7DPI,Thảo Coffee,Quán cà phê,0939 666 452,"3Q5H+R4P Thảo Coffee, Nguyễn Hữu Trí, Cái Khế, Ninh Kiều, Cần Thơ","Cái Khế, Ninh Kiều","3Q5H+R4P, Nguyễn Hữu Trí",Cần Thơ,,"Ninh Kiều, Cần Thơ",VN
78,ChIJzwRRyQyJoDERWS3ER_S6W1E,FWB Tea & Snack,Quán cà phê,0868 981 197,"FWB Tea & Snack, 118/12A, Đ. Trần Hoàng Na, Hưng Lợi, Ninh Kiều, Cần Thơ 90000","Hưng Lợi, Ninh Kiều","118/12A, Đ. Trần Hoàng Na",Cần Thơ,90000.0,"Ninh Kiều, Cần Thơ",VN
79,ChIJm3nVtDJjoDERCQbfmligwOw,GENZ coffee,Quán cà phê,0939 773 562,"GENZ coffee, 56 Nguyễn Thái Học, Tân An, Ninh Kiều, Cần Thơ","Tân An, Ninh Kiều",56 Nguyễn Thái Học,Cần Thơ,,"Ninh Kiều, Cần Thơ",VN
80,ChIJVwO4LZ-JoDERB05bkyMDqNM,Chill Ecke,Quán cà phê,0839 839 931,"Chill Ecke, 3 Hẻm 51, Phường An Khánh, Ninh Kiều, Cần Thơ","Phường An Khánh, Ninh Kiều",3 Hẻm 51,Cần Thơ,,"Ninh Kiều, Cần Thơ",VN
81,ChIJORZL7myJoDERki4dvAEfp2M,Cafe CTU,Quán cà phê,0292 3501 999,"Cafe CTU, 411 Hẻm 553, Khu 1, Ninh Kiều, Cần Thơ","Khu 1, Ninh Kiều",411 Hẻm 553,Cần Thơ,,"Ninh Kiều, Cần Thơ",VN
82,ChIJQ_IkVwOIoDERuxC6aDMOHQM,Tiệm nước Mangdimangve,Quán cà phê,,"2QVG+PH9 Tiệm nước Mangdimangve, Hẻm 132/42, Thới Bình, Ninh Kiều, Cần Thơ","Thới Bình, Ninh Kiều","2QVG+PH9, Hẻm 132/42",Cần Thơ,,"Ninh Kiều, Cần Thơ",VN
83,ChIJOd5yzSiJoDER5U1gWUi3uw4,DOMITI - Cao Ký,Quán ăn nhỏ,0827 977 778,"DOMITI - Cao Ký, 403AA Đ. Nguyễn Văn Cừ, KV4, Bình, NK, Cần Thơ 94118","KV4, Bình, NK",403AA Đ. Nguyễn Văn Cừ,Cần Thơ,94118.0,"Bình, NK, Cần Thơ",VN
84,ChIJ33JDPhOJoDERJ2SmP9lHdS0,Cafe cá KOI,Quán cà phê,0939 961 728,"Cafe cá KOI, 163e Nguyễn Văn Cừ Nối Dài, Phường An Khánh, Ninh Kiều, Cần Thơ","Phường An Khánh, Ninh Kiều",163e Nguyễn Văn Cừ Nối Dài,Cần Thơ,,"Ninh Kiều, Cần Thơ",VN
86,ChIJi5_AsDCIoDER2JGKFivNYBw,Quán Cafe Gala,Quán cà phê,,"Quán Cafe Gala, 222 Đ. 3 Tháng 2, Hưng Lợi, Ninh Kiều, Cần Thơ","Hưng Lợi, Ninh Kiều",222 Đ. 3 Tháng 2,Cần Thơ,,"Ninh Kiều, Cần Thơ",VN
94,ChIJSwzxdMOJoDERFD3n1eV2LDY,Cafe PHỐ 24H,Quán cà phê,0989 900 077,"Cafe PHỐ 24H, 124 Đ. 30 Tháng 4, Hưng Lợi, Ninh Kiều, Cần Thơ","Hưng Lợi, Ninh Kiều",124 Đ. 30 Tháng 4,Cần Thơ,,"Ninh Kiều, Cần Thơ",VN
95,ChIJn7RJk7yJoDEReCOEcgUe7hs,NHÀ DÁT VÀNG CẦN THƠ,Quán cà phê,0913 824 742,"NHÀ DÁT VÀNG CẦN THƠ, Số18 Đường số 6, Kdc Thới Nhựt 2, Ninh Kiều, Cần Thơ","Kdc Thới Nhựt 2, Ninh Kiều",Số18 Đường số 6,Cần Thơ,,"Ninh Kiều, Cần Thơ",VN
96,ChIJiTr5bzSIoDER_7DJCUzeyDg,Aurora Cafe,Quán cà phê,,"Aurora Cafe, 169B Đ. 30 Tháng 4, Hưng Lợi, Ninh Kiều, Cần Thơ","Hưng Lợi, Ninh Kiều",169B Đ. 30 Tháng 4,Cần Thơ,,"Ninh Kiều, Cần Thơ",VN
97,ChIJfZ7K6zqIoDERr_IzgMQbv7A,Hoa Đô Coffee,Quán cà phê,0939 659 059,"Hoa Đô Coffee, 164/7A Đ. Trần Ngọc Quế, Xuân Khánh, Ninh Kiều, Cần Thơ","Xuân Khánh, Ninh Kiều",164/7A Đ. Trần Ngọc Quế,Cần Thơ,,"Ninh Kiều, Cần Thơ",VN
99,ChIJp7ErsKdioDERvXNzqlN12qE,Quán Cà Phê Đoàn 30,Quán cà phê,0292 3832 574,"Quán Cà Phê Đoàn 30, 80 Nguyễn Trãi, An Hội, Ninh Kiều, Cần Thơ","An Hội, Ninh Kiều",80 Nguyễn Trãi,Cần Thơ,,"Ninh Kiều, Cần Thơ",VN
104,ChIJ5VqtGaBioDER3NQLlbGoQyA,Quán Cà Phê Phương Mai,Quán cà phê,0949 111 223,"Quán Cà Phê Phương Mai, 42-44 Đại lộ Hoà Bình, Tân An, Ninh Kiều, Cần Thơ","Tân An, Ninh Kiều",42-44 Đại lộ Hoà Bình,Cần Thơ,,"Ninh Kiều, Cần Thơ",VN
105,ChIJkfSqn1qIoDER80ttQS5RxqQ,Cafe Nhà Gỗ,Quán cà phê,0902 097 245,"Cafe Nhà Gỗ, 231 Nguyễn Văn Cừ Nối Dài, An Bình, Tp, Cần Thơ","An Bình, Tp",231 Nguyễn Văn Cừ Nối Dài,Cần Thơ,,"Tp, Cần Thơ",VN
106,ChIJD0vcIKBioDERf3Uvau8DP5c,Cafe Tâm,Quán cà phê,0292 3823 722,"Cafe Tâm, 99 Võ Văn Tần, Tân An, Ninh Kiều, Cần Thơ","Tân An, Ninh Kiều",99 Võ Văn Tần,Cần Thơ,,"Ninh Kiều, Cần Thơ",VN
107,ChIJeWIJ2keIoDERN8HETfZTh24,Cafe Hoa Hồng,Quán cà phê,0917 130 999,"2QF4+9HF Cafe Hoa Hồng, Phường An Khánh, Ninh Kiều, Cần Thơ","Phường An Khánh, Ninh Kiều",2QF4+9HF,Cần Thơ,,"Ninh Kiều, Cần Thơ",VN
113,ChIJIaSUB56JoDERh8hRV-Xk7cc,Quán nước Hoa Yên,Quán cà phê,0963 181 416,"Quán nước Hoa Yên, 131 Đ. Lý Tự Trọng, An Phú, Ninh Kiều, Cần Thơ 290000","An Phú, Ninh Kiều",131 Đ. Lý Tự Trọng,Cần Thơ,290000.0,"Ninh Kiều, Cần Thơ",VN
128,ChIJJzfHmqNioDERyLShjoG18NQ,LOTUS COFFEE CẦN THƠ,Quán cà phê,0878 007 007,"LOTUS COFFEE CẦN THƠ, Số 02 Đường Hai Bà Trưng, Tân An, Ninh Kiều, Cần Thơ 94000","Tân An, Ninh Kiều",Số 02 Đường Hai Bà Trưng,Cần Thơ,94000.0,"Ninh Kiều, Cần Thơ",VN
133,ChIJ78GcTDJjoDERsnbGDpEmGgs,Yên Garden Coffee & Tea,Quán cà phê,0939 141 177,"Yên Garden Coffee & Tea, 70-72 Lê Lợi, Cái Khế, Ninh Kiều, Cần Thơ 94000","Cái Khế, Ninh Kiều",70-72 Lê Lợi,Cần Thơ,94000.0,"Ninh Kiều, Cần Thơ",VN
136,ChIJid_tjESIoDER6a6pRgDP7V8,Cà Phê 338,Quán cà phê,,"Cà Phê 338, 28 Nguyễn Văn Cừ Nối Dài, Phường An Khánh, Ninh Kiều, Cần Thơ","Phường An Khánh, Ninh Kiều",28 Nguyễn Văn Cừ Nối Dài,Cần Thơ,,"Ninh Kiều, Cần Thơ",VN
137,ChIJq5S4g59ioDER19P2gVRnet0,Cafe Thủy,Quán cà phê,0292 3829 779,"Cafe Thủy, Vietnam. Open: 5am Close: 10pm, 36 Đ. Nam Kỳ Khởi Nghĩa, Tân An, Ninh Kiều, Cần Thơ","Tân An, Ninh Kiều","Vietnam. Open: 5am Close: 10pm, 36 Đ. Nam Kỳ Khởi Nghĩa",Cần Thơ,,"Ninh Kiều, Cần Thơ",VN
138,ChIJlUQs3zWIoDERyp7XgqYVr7M,Café 112,Quán cà phê,,"Café 112, 112 Đ. 3 Tháng 2, Hưng Lợi, Ninh Kiều, Cần Thơ","Hưng Lợi, Ninh Kiều",112 Đ. 3 Tháng 2,Cần Thơ,,"Ninh Kiều, Cần Thơ",VN
139,ChIJj24YLp6JoDERgGWtK5eMzYk,King Koi Coffee,Quán cà phê,0929 828 384,"King Koi Coffee, 41 Đ. Mậu Thân, An Hoà, Ninh Kiều, Cần Thơ","An Hoà, Ninh Kiều",41 Đ. Mậu Thân,Cần Thơ,,"Ninh Kiều, Cần Thơ",VN
141,ChIJ1SisSWaJoDERDWWyFSWXXzc,Cafe cỏ ngọt của tháng 5,Quán cà phê,,"Cafe cỏ ngọt của tháng 5, 11B Trần Bạch Đằng, Phường An Khánh, Ninh Kiều, Cần Thơ","Phường An Khánh, Ninh Kiều",11B Trần Bạch Đằng,Cần Thơ,,"Ninh Kiều, Cần Thơ",VN
143,ChIJH1gePhaJoDERxELx-DJEXsI,Cafe 369,Quán cà phê,,"Cafe 369, 152 Đ. Nguyễn Tri Phương, Phường An Khánh, Ninh Kiều, Cần Thơ","Phường An Khánh, Ninh Kiều",152 Đ. Nguyễn Tri Phương,Cần Thơ,,"Ninh Kiều, Cần Thơ",VN
145,ChIJQTuWCjeIoDERaAdGM6tOOPs,Ngọc Yến 4,Quán cà phê,0989 828 885,"Ngọc Yến 4, 148/119 Đ. 3 Tháng 2, Hưng Lợi, Ninh Kiều, Cần Thơ","Hưng Lợi, Ninh Kiều",148/119 Đ. 3 Tháng 2,Cần Thơ,,"Ninh Kiều, Cần Thơ",VN
147,ChIJYxLXLc-JoDEREtxz9U9XZ4c,Hoàng Phát Pro 1,Quán cà phê,,"Hoàng Phát Pro 1, 108 Đ. Trần Hoàng Na, Hưng Lợi, Ninh Kiều, Cần Thơ","Hưng Lợi, Ninh Kiều",108 Đ. Trần Hoàng Na,Cần Thơ,,"Ninh Kiều, Cần Thơ",VN
148,ChIJpWu3KaBioDERhoYKUtijfrE,Time Cafe,Quán cà phê,,"Time Cafe, 89a Võ Văn Tần, Tân An, Ninh Kiều, Cần Thơ","Tân An, Ninh Kiều",89a Võ Văn Tần,Cần Thơ,,"Ninh Kiều, Cần Thơ",VN
150,ChIJlSZXuVWIoDERjq_LbTOGYUU,Cafe Trúc Quỳnh,Quán cà phê,0796 363 600,"Cafe Trúc Quỳnh, An Bình, Ninh Kiều, Cần Thơ","An Bình, Ninh Kiều",,Cần Thơ,,"Ninh Kiều, Cần Thơ",VN
151,ChIJ4XY5zwmJoDERyJM9q23mhpc,WIMI Specialty Coffee and Tea,Quán cà phê,0865 084 744,"WIMI Specialty Coffee and Tea, 25G Đ. Mậu Thân, Xuân Khánh, Ninh Kiều, Cần Thơ","Xuân Khánh, Ninh Kiều",25G Đ. Mậu Thân,Cần Thơ,,"Ninh Kiều, Cần Thơ",VN
152,ChIJCSPlLl5joDERaCi3yhpLWG0,Cafe Six Garden,Quán cà phê,,"Cafe Six Garden, 6 Đại lộ Hoà Bình, Tân An, Ninh Kiều, Cần Thơ","Tân An, Ninh Kiều",6 Đại lộ Hoà Bình,Cần Thơ,,"Ninh Kiều, Cần Thơ",VN
157,ChIJ_wm6t0CHoDERGUYvvZPi-Rc,NAM Coffee,Quán cà phê,,"3Q4G+9WC NAM Coffee, Phạm Công Trứ, Cái Khế, Ninh Kiều, Cần Thơ","Cái Khế, Ninh Kiều","3Q4G+9WC, Phạm Công Trứ",Cần Thơ,,"Ninh Kiều, Cần Thơ",VN
158,ChIJ9bfG6XqJoDERA4zpB_UHJP8,Xóm Cà Phê,Quán cà phê,0292 3818 283,"Xóm Cà Phê, 290 Đường 3-2, An Bình, Ninh Kiều, Cần Thơ","An Bình, Ninh Kiều",290 Đường 3-2,Cần Thơ,,"Ninh Kiều, Cần Thơ",VN
159,ChIJvTSQdaBioDERxSgHheoEAGU,Cà Phê Cát Tường 1,Quán cà phê,,"Cà Phê Cát Tường 1, 39 Đ. Đề Thám, Tân An, Ninh Kiều, Cần Thơ","Tân An, Ninh Kiều",39 Đ. Đề Thám,Cần Thơ,,"Ninh Kiều, Cần Thơ",VN
160,ChIJ45cM6j6JoDER8QkD9a_4YMM,Thi Thơ - Coffee and Tea,Quán cà phê,0292 3899 988,"Thi Thơ - Coffee and Tea, 77-79 Võ Văn Kiệt, An Hoà, Ninh Kiều, Cần Thơ","An Hoà, Ninh Kiều",77-79 Võ Văn Kiệt,Cần Thơ,,"Ninh Kiều, Cần Thơ",VN
161,ChIJEYYihxCJoDERzpkGVOVQVpY,MAY COFFEE,Quán cà phê,0292 3939 000,"MAY COFFEE, 03 Đ. Trần Hoàng Na, Hưng Lợi, Ninh Kiều, Cần Thơ","Hưng Lợi, Ninh Kiều",03 Đ. Trần Hoàng Na,Cần Thơ,,"Ninh Kiều, Cần Thơ",VN
162,ChIJrwmWwlmJoDERlXp94MveBxg,Côti Ơi,Quán cà phê,,"Côti Ơi, 152 Đ. Trần Hưng Đạo, An Phú, Ninh Kiều, Cần Thơ","An Phú, Ninh Kiều",152 Đ. Trần Hưng Đạo,Cần Thơ,,"Ninh Kiều, Cần Thơ",VN
170,ChIJ02nyRZGJoDERH7Zx1_Uqfds,Cafe F,Quán cà phê,0939 347 789,"Cafe F, mới, Đ. Trần Hoàng Na, Hưng Lợi, Ninh Kiều, Cần Thơ","Hưng Lợi, Ninh Kiều","mới, Đ. Trần Hoàng Na",Cần Thơ,,"Ninh Kiều, Cần Thơ",VN
171,ChIJKXVolsKJoDERNjAlUsgo99A,Bocora Coffee Garden,Quán cà phê,0896 616 268,"Bocora Coffee Garden, Hẻm 51, Xuân Khánh, Ninh Kiều, Cần Thơ","Xuân Khánh, Ninh Kiều",Hẻm 51,Cần Thơ,,"Ninh Kiều, Cần Thơ",VN
172,ChIJCf5bf0uJoDERTK64OSO-CZw,Lego Coffee,Quán cà phê,,"Lego Coffee, 04 Đ. Chu Văn An, Phường An Khánh, Ninh Kiều, Cần Thơ","Phường An Khánh, Ninh Kiều",04 Đ. Chu Văn An,Cần Thơ,,"Ninh Kiều, Cần Thơ",VN
173,ChIJR2--wUeIoDERm2HqUSKCo4Y,Cafe Mê Trang 91b,Quán cà phê,0939 144 002,"Cafe Mê Trang 91b, Phường An Khánh, Ninh Kiều, Cần Thơ","Phường An Khánh, Ninh Kiều",,Cần Thơ,,"Ninh Kiều, Cần Thơ",VN
174,ChIJ7bP-JSSIoDERP05Xr_wjdGM,G-Master Boardgames Coffee,Quán cà phê,0829 990 399,"G-Master Boardgames Coffee, 19/27 Đ. Trương Định, Tân An, Ninh Kiều, Cần Thơ","Tân An, Ninh Kiều",19/27 Đ. Trương Định,Cần Thơ,,"Ninh Kiều, Cần Thơ",VN
175,ChIJZdC56MuJoDERvKcx7T_4suQ,PHÚC COFFEE,Quán cà phê,0947 703 456,"PHÚC COFFEE, 207 Đ. Nguyễn Hiền, Khu dân cư 91B, Ninh Kiều, Cần Thơ 94000","Khu dân cư 91B, Ninh Kiều",207 Đ. Nguyễn Hiền,Cần Thơ,94000.0,"Ninh Kiều, Cần Thơ",VN
176,ChIJyQ3Xh55joDERr5NqBG3dE-c,Rex Coffee - Bến Ninh Kiều,Quán cà phê,,"Rex Coffee - Bến Ninh Kiều, 6 Đường Hai Bà Trưng, Tân An, Ninh Kiều, Cần Thơ","Tân An, Ninh Kiều",6 Đường Hai Bà Trưng,Cần Thơ,,"Ninh Kiều, Cần Thơ",VN
178,ChIJWRFajTqIoDERaWxGvO5Diyk,Cà Phê Cố Đô,Quán cà phê,0913 312 259,"Cà Phê Cố Đô, 170 Đ. Quản Trọng Hoàng, Xuân Khánh, Ninh Kiều, Cần Thơ","Xuân Khánh, Ninh Kiều",170 Đ. Quản Trọng Hoàng,Cần Thơ,,"Ninh Kiều, Cần Thơ",VN
179,ChIJ920-41yJoDERWXGajR57rl4,LêLa Coffee & Tea,Quán cà phê,0949 756 754,"LêLa Coffee & Tea, 118 Đ. Trần Hoàng Na, Hưng Lợi, Ninh Kiều, Cần Thơ","Hưng Lợi, Ninh Kiều",118 Đ. Trần Hoàng Na,Cần Thơ,,"Ninh Kiều, Cần Thơ",VN
185,ChIJzaUZo69joDERWa0oeoL7Lgg,Yên Coffee,Quán cà phê,0917 223 305,"Yên Coffee, 12R Hẻm 22 Đ. Mạc Đĩnh Chi, Tân An, Ninh Kiều, Cần Thơ","Tân An, Ninh Kiều",12R Hẻm 22 Đ. Mạc Đĩnh Chi,Cần Thơ,,"Ninh Kiều, Cần Thơ",VN
186,ChIJy1EwWymHoDERRW2ksUC7hqE,Coffee Trung Đông,Quán cà phê,0292 3832 852,"Coffee Trung Đông, 38 Đ. Nguyễn Văn Cừ, Cái Khế, Ninh Kiều, Cần Thơ","Cái Khế, Ninh Kiều",38 Đ. Nguyễn Văn Cừ,Cần Thơ,,"Ninh Kiều, Cần Thơ",VN
187,ChIJB0Uhy5iJoDERwZZT6UXWnpc,Cafe Koi- Sanh Lộc,Quán cà phê,0903 363 700,"Cafe Koi- Sanh Lộc, 287 Đường Số 4, An Bình, Ninh Kiều, Cần Thơ","An Bình, Ninh Kiều",287 Đường Số 4,Cần Thơ,,"Ninh Kiều, Cần Thơ",VN
188,ChIJP8Wj9nmJoDERfMeoOvSp5W4,Bee Art & Coffee 2,Quán cà phê,0913 303 780,"2QP8+HGM Bee Art & Coffee 2, Hẻm 51, Xuân Khánh, Ninh Kiều, Cần Thơ","Xuân Khánh, Ninh Kiều","2QP8+HGM, Hẻm 51",Cần Thơ,,"Ninh Kiều, Cần Thơ",VN
189,ChIJUREWRqiJoDERBhUQLMTi4h8,Eden Coffee & Tea,Quán cà phê,0292 6551 818,"Eden Coffee & Tea, 120 Đ. 3 Tháng 2, Xuân Khánh, Ninh Kiều, Cần Thơ","Xuân Khánh, Ninh Kiều",120 Đ. 3 Tháng 2,Cần Thơ,,"Ninh Kiều, Cần Thơ",VN
190,ChIJUVYgkPCJoDERsJPk0ubc1KY,VOI Coffee,Quán cà phê,0946 144 244,"VOI Coffee, 250 Đ. Nguyễn Hiền, Hưng Lợi, Ninh Kiều, Cần Thơ 94000","Hưng Lợi, Ninh Kiều",250 Đ. Nguyễn Hiền,Cần Thơ,94000.0,"Ninh Kiều, Cần Thơ",VN
191,ChIJL--wOMSJoDERMkfWTEl7chQ,The Fox Coffee Working Space,Quán cà phê,,"2QR7+C4H The Fox Coffee Working Space, 131 Đ. Nguyễn Văn Cừ, Phường An Khánh, Ninh Kiều, Cần Thơ","Phường An Khánh, Ninh Kiều","2QR7+C4H, 131 Đ. Nguyễn Văn Cừ",Cần Thơ,,"Ninh Kiều, Cần Thơ",VN
193,ChIJyWUGIV2JoDERdu1pVJHIOgY,REX COFFEE,Quán cà phê,0904 165 165,"REX COFFEE, Hẻm 51, Xuân Khánh, Ninh Kiều, Cần Thơ","Xuân Khánh, Ninh Kiều",Hẻm 51,Cần Thơ,,"Ninh Kiều, Cần Thơ",VN
194,ChIJJ3AHUX-JoDER9L6VS5pZSHg,Coffee tình nhân Mimosa,Quán cà phê,,"Coffee tình nhân Mimosa, A5 Cao Thắng, An Phú, Ninh Kiều, Cần Thơ","An Phú, Ninh Kiều",A5 Cao Thắng,Cần Thơ,,"Ninh Kiều, Cần Thơ",VN
195,ChIJBTCpbhGJoDERcdOdMHKPqis,Gu22 Coffee,Quán cà phê,0762 178 929,"Gu22 Coffee, Đ. Nguyễn Văn Cừ, Phường An Khánh, Ninh Kiều, Cần Thơ","Phường An Khánh, Ninh Kiều",Đ. Nguyễn Văn Cừ,Cần Thơ,,"Ninh Kiều, Cần Thơ",VN
196,ChIJLYyaS5uJoDERuI8eL7k7d3c,Cà phê Cổ Ngoạn,Quán cà phê,0997 307 979,"Cà phê Cổ Ngoạn, Cà phê Cổ ngoạn, Long Tuyền, Bình Thủy, Cần Thơ","Long Tuyền, Bình Thủy",Cà phê Cổ ngoạn,Cần Thơ,,"Bình Thủy, Cần Thơ",VN
198,ChIJS3Mn4th9oDERiyWynuWd0UA,Cà phê QUYÊN (Cồn Khương),Quán cà phê,,"3Q6M+HP7 Cà phê QUYÊN (Cồn Khương), Đ. Nguyễn Văn Cừ, Cái Khế, Ninh Kiều, Cần Thơ","Cái Khế, Ninh Kiều","3Q6M+HP7, Đ. Nguyễn Văn Cừ",Cần Thơ,,"Ninh Kiều, Cần Thơ",VN
200,ChIJo4h67oCJoDERJbZCcefOS0Q,Milano Mr Bảo Trần Hoàng Na,Quán cà phê,,"Milano Mr Bảo Trần Hoàng Na, 151 Đ. Trần Hoàng Na, Hưng Lợi, Ninh Kiều, Cần Thơ","Hưng Lợi, Ninh Kiều",151 Đ. Trần Hoàng Na,Cần Thơ,,"Ninh Kiều, Cần Thơ",VN
201,ChIJtZkzIXiJoDERLYoquJNEcis,Thi Thơ Coffee,Quán cà phê,,"Thi Thơ Coffee, 20 Đ. Trần Hoàng Na, Hưng Lợi, Ninh Kiều, Cần Thơ","Hưng Lợi, Ninh Kiều",20 Đ. Trần Hoàng Na,Cần Thơ,,"Ninh Kiều, Cần Thơ",VN
202,ChIJLYNmES-JoDERt1rCQxe_lKY,Cafe 1985,Quán cà phê,0292 3892 626,"Cafe 1985, 138a Huỳnh Cương, An Cư, Ninh Kiều, Cần Thơ","An Cư, Ninh Kiều",138a Huỳnh Cương,Cần Thơ,,"Ninh Kiều, Cần Thơ",VN
203,ChIJe2FMbCeJoDER9Im_s0N76F8,Quán Cà Phê PHÙ SA,Quán cà phê,,"2QC4+V2G Quán Cà Phê PHÙ SA, Khu dân cư 91B, Ninh Kiều, Cần Thơ","Khu dân cư 91B, Ninh Kiều",2QC4+V2G,Cần Thơ,,"Ninh Kiều, Cần Thơ",VN
206,ChIJSd-S-KBioDERPUdzD3Lmmlc,Cafe Mai Hoa,Quán cà phê,0908 888 777,"Cafe Mai Hoa, 71 Đ. Ngô Quyền, Tân An, Ninh Kiều, Cần Thơ","Tân An, Ninh Kiều",71 Đ. Ngô Quyền,Cần Thơ,,"Ninh Kiều, Cần Thơ",VN
207,ChIJJzCZOzyJoDERy2uFsAGBpJg,Dạ lý,Quán cà phê,,"Dạ lý, 118 Đ. Trần Hoàng Na, Hưng Lợi, Ninh Kiều, Cần Thơ","Hưng Lợi, Ninh Kiều",118 Đ. Trần Hoàng Na,Cần Thơ,,"Ninh Kiều, Cần Thơ",VN
208,ChIJx6PbZz-JoDERAbkW0c4ZNvI,Tiệm trà Dreamer's Land,Quán cà phê,0778 441 663,"Tiệm trà Dreamer's Land, khu cán bộ giảng viên, Đ. Số 2/96-98-100 Đại học, Phường An Khánh, Ninh Kiều, Cần Thơ","Phường An Khánh, Ninh Kiều","khu cán bộ giảng viên, Đ. Số 2/96-98-100 Đại học",Cần Thơ,,"Ninh Kiều, Cần Thơ",VN
210,ChIJHcCdGOqJoDERy7S9HK6sYLM,Tiệm cà phê Ông Quan,Quán cà phê,0937 296 565,"Tiệm cà phê Ông Quan, 78 Đ. 30 Tháng 4, Hưng Lợi, Ninh Kiều, Cần Thơ","Hưng Lợi, Ninh Kiều",78 Đ. 30 Tháng 4,Cần Thơ,,"Ninh Kiều, Cần Thơ",VN
212,ChIJwwKJTPyJoDERh1c7eBfQUBM,Sonder Tea & Coffee Nguyễn Văn Cừ,Quán cà phê,0292 3943 259,"Sonder Tea & Coffee Nguyễn Văn Cừ, 877 Nguyễn Văn Cừ Nối Dài, Phường An Khánh, Ninh Kiều, Cần Thơ","Phường An Khánh, Ninh Kiều",877 Nguyễn Văn Cừ Nối Dài,Cần Thơ,,"Ninh Kiều, Cần Thơ",VN
213,ChIJw80txoJioDERREIFKcvRhRE,Quán Cafe Ngân Hàng,Quán cà phê,,"2QCM+9FX Quán Cafe Ngân Hàng, KDC Hưng Phú 1, Cái Răng, Cần Thơ","KDC Hưng Phú 1, Cái Răng",2QCM+9FX,Cần Thơ,,"Cái Răng, Cần Thơ",VN
219,ChIJt0WHiWOJoDERX9oEElJJjSI,Cafe Kiều My,Quán cà phê,,"2PCV+VFQ Cafe Kiều My, An Bình, Ninh Kiều, Cần Thơ","An Bình, Ninh Kiều",2PCV+VFQ,Cần Thơ,,"Ninh Kiều, Cần Thơ",VN
220,ChIJV9UG12qIoDER1vJSBD8qli0,Quán Cafe 24/7,Quán cà phê,,"2QP5+F5P Quán Cafe 24/7, Nguyễn Văn Cừ Nối Dài, Phường An Khánh, Ninh Kiều, Cần Thơ","Phường An Khánh, Ninh Kiều","2QP5+F5P, Nguyễn Văn Cừ Nối Dài",Cần Thơ,,"Ninh Kiều, Cần Thơ",VN
231,ChIJg6QHPayJoDERq2Y9OxR-pU8,HIGHLANDS COFFEE - VinCom Hùng Vương,Quán cà phê,,"HIGHLANDS COFFEE - VinCom Hùng Vương, 02 Hùng Vương, Thới Bình, Ninh Kiều, Cần Thơ","Thới Bình, Ninh Kiều",02 Hùng Vương,Cần Thơ,,"Ninh Kiều, Cần Thơ",VN
232,ChIJnc0aZKyJoDERWxOYJroFbkI,Dream Coffee & Tea,Quán cà phê,,"Dream Coffee & Tea, 345, QL91B, Hưng Lợi, Ninh Kiều, Cần Thơ","Hưng Lợi, Ninh Kiều","345, QL91B",Cần Thơ,,"Ninh Kiều, Cần Thơ",VN
233,ChIJ1SNv57-JoDERtiBPAOc8sUU,Cafe Cát Tường 3,Quán cà phê,,"Cafe Cát Tường 3, Hưng Lợi, Ninh Kiều, Cần Thơ","Hưng Lợi, Ninh Kiều",,Cần Thơ,,"Ninh Kiều, Cần Thơ",VN
234,ChIJSxS9A9uJoDERI6PxKOX5mLo,Here - Fruit Drinks & More,Quán cà phê,0932 813 723,"Here - Fruit Drinks & More, 99c Đ. 30 Tháng 4, An Lạc, Ninh Kiều, Cần Thơ","An Lạc, Ninh Kiều",99c Đ. 30 Tháng 4,Cần Thơ,,"Ninh Kiều, Cần Thơ",VN
236,ChIJk2CCSdWJoDER9j2xRv_Vvbo,Cafe Ngọt,Quán cà phê,0906 822 169,"Cafe Ngọt, 112/58, Cần Thơ","Hưng Lợi, Ninh Kiều",112/58,Cần Thơ,,"Ninh Kiều, Cần Thơ",VN
237,ChIJi5tBOQCJoDERMF8iP5eeZXY,Coffee & MILK TEA HOA GIẤY,Quán cà phê,0973 793 335,"Coffee & MILK TEA HOA GIẤY, 151/39C Đ. Trần Hoàng Na, Hưng Lợi, Ninh Kiều, Cần Thơ","Hưng Lợi, Ninh Kiều",151/39C Đ. Trần Hoàng Na,Cần Thơ,,"Ninh Kiều, Cần Thơ",VN
238,ChIJteomA5SJoDERYIt9H0UTkKk,Coffee 389 - Không Gian Làm Việc Lý Tưởng,Quán cà phê,0787 861 622,"2QM7+QW4 Coffee 389 - Không Gian Làm Việc Lý Tưởng, Hẻm 51, Xuân Khánh, Ninh Kiều, Cần Thơ","Xuân Khánh, Ninh Kiều","2QM7+QW4, Hẻm 51",Cần Thơ,,"Ninh Kiều, Cần Thơ",VN
239,ChIJmw3qZ59ioDERhaa28NDoGoM,Hưng Coffee,Quán cà phê,0937 733 799,"Hưng Coffee, 6 Đ. Nam Kỳ Khởi Nghĩa, Tân An, Ninh Kiều, Cần Thơ","Tân An, Ninh Kiều",6 Đ. Nam Kỳ Khởi Nghĩa,Cần Thơ,,"Ninh Kiều, Cần Thơ",VN
241,ChIJy_GGSoKJoDERI4FQr6chnio,Rexcoffee,Quán cà phê,0989 900 077,"Rexcoffee, 86 Đ. 3 Tháng 2, Hưng Lợi, Ninh Kiều, Cần Thơ","Hưng Lợi, Ninh Kiều",86 Đ. 3 Tháng 2,Cần Thơ,,"Ninh Kiều, Cần Thơ",VN
242,ChIJq0TAtIOJoDER40nrRHE8yfg,Đắng 2 Coffee,Quán cà phê,0376 167 391,"Đắng 2 Coffee, 59/3 đường Bờ Hồ Bún Xáng, Hẻm 51 Đường 3/2, Phường An Khánh, Ninh Kiều, Cần Thơ","Phường An Khánh, Ninh Kiều","59/3 đường Bờ Hồ Bún Xáng, Hẻm 51 Đường 3/2",Cần Thơ,,"Ninh Kiều, Cần Thơ",VN
243,ChIJcfrerWtjoDERwVYfV5SAOc8,Yên,Quán cà phê,,"Yên, 12r Hẻm 22 Đ. Mạc Đĩnh Chi, Tân An, Ninh Kiều, Cần Thơ","Tân An, Ninh Kiều",12r Hẻm 22 Đ. Mạc Đĩnh Chi,Cần Thơ,,"Ninh Kiều, Cần Thơ",VN
244,ChIJl1gqOCJjoDERgGWVbuTxOKE,Beeart & coffee,Quán cà phê,0913 303 780,"Beeart & coffee, 07 Hoàng Văn Thụ, An Hội, Ninh Kiều, Cần Thơ","An Hội, Ninh Kiều",07 Hoàng Văn Thụ,Cần Thơ,,"Ninh Kiều, Cần Thơ",VN
245,ChIJpd0DAuGJoDERM-26suJyapU,OVERNIGHT COFFEE,Quán cà phê,0911 505 888,"OVERNIGHT COFFEE, 32A Đ. Hồ Bún Xáng, Phường An Khánh, Ninh Kiều, Cần Thơ","Phường An Khánh, Ninh Kiều",32A Đ. Hồ Bún Xáng,Cần Thơ,,"Ninh Kiều, Cần Thơ",VN
247,ChIJ2Rzyp8GJoDERfXlKynZF_Ao,Coffee & Tea Sắc Màu Chợ Nổi,Quán cà phê,0907 832 894,"Coffee & Tea Sắc Màu Chợ Nổi, 24/3 Võ Tánh, Lê Bình, Cái Răng, Cần Thơ","Lê Bình, Cái Răng",24/3 Võ Tánh,Cần Thơ,,"Cái Răng, Cần Thơ",VN
248,ChIJAYwLlHBjoDER95BXYlSanPg,CHỢ CỔ BẾN PHÀ,Quán cà phê,,"CHỢ CỔ BẾN PHÀ, 156 Đường Hai Bà Trưng, Tân An, Ninh Kiều, Cần Thơ","Tân An, Ninh Kiều",156 Đường Hai Bà Trưng,Cần Thơ,,"Ninh Kiều, Cần Thơ",VN
249,ChIJYfy6xPKJoDERzNhbXWEcLDs,Góc Coffee 24H,Quán cà phê,0763 393 464,"Góc Coffee 24H, 91b Hẻm 132 Đ. 3 Tháng 2, Hưng Lợi, Ninh Kiều, Cần Thơ","Hưng Lợi, Ninh Kiều",91b Hẻm 132 Đ. 3 Tháng 2,Cần Thơ,,"Ninh Kiều, Cần Thơ",VN
250,ChIJddezOzuJoDERVLOM2UMAPak,Coffee GocGo,Quán cà phê,0924 697 174,"Coffee GocGo, Đ. Trần Việt Châu, Thới Bình, Ninh Kiều, Cần Thơ","Thới Bình, Ninh Kiều",Đ. Trần Việt Châu,Cần Thơ,,"Ninh Kiều, Cần Thơ",VN
251,ChIJG9MX6LWJoDER-4gsHRwBaYs,cafe YÊN BÌNH,Quán cà phê,,"2Q94+RC3 cafe YÊN BÌNH, Đ. Trần Hoàng Na, Khu dân cư 91B, Ninh Kiều, Cần Thơ","Khu dân cư 91B, Ninh Kiều","2Q94+RC3, Đ. Trần Hoàng Na",Cần Thơ,,"Ninh Kiều, Cần Thơ",VN
252,ChIJaT9rxJSJoDERo7QTAZneZX8,Cà Phê Nhà Tôi,Quán cà phê,0779 633 247,"Cà Phê Nhà Tôi, 3A dãy B, 17 Đ. Trần Hoàng Na, Hưng Lợi, Ninh Kiều, Cần Thơ","Hưng Lợi, Ninh Kiều","3A dãy B, 17 Đ. Trần Hoàng Na",Cần Thơ,,"Ninh Kiều, Cần Thơ",VN
253,ChIJRyxpQImJoDERyfFSsPoviVA,Hoa Đô Coffee & Tea,Quán cà phê,0292 3508 878,"2P29+G5H Hoa Đô Coffee & Tea, Đường Số 22, Mỹ Khánh, Phong Điền, Cần Thơ","Mỹ Khánh, Phong Điền","2P29+G5H, Đường Số 22",Cần Thơ,,"Phong Điền, Cần Thơ",VN
254,ChIJTa3dHqJioDERjJ-mp2k3sKg,Chè - cà phê - kem - sinh tố Mỹ Hoá,Quán cà phê,0292 3820 841,"Chè - cà phê - kem - sinh tố Mỹ Hoá, 62 Đường Hai Bà Trưng, Tân An, Ninh Kiều, Cần Thơ","Tân An, Ninh Kiều",62 Đường Hai Bà Trưng,Cần Thơ,,"Ninh Kiều, Cần Thơ",VN
255,ChIJx0Xl1cWJoDERrR71rAKAgjA,Forest Coffee,Quán cà phê,,"Forest Coffee, 133 Nguyễn Ngọc Trai, Xuân Khánh, Ninh Kiều, Cần Thơ","Xuân Khánh, Ninh Kiều",133 Nguyễn Ngọc Trai,Cần Thơ,,"Ninh Kiều, Cần Thơ",VN
257,ChIJqwp-LjFjoDERz6vJzB_tuH0,Phúc Long coffee & tea,Quán cà phê,,"Phúc Long coffee & tea, 1 Đại lộ Hoà Bình, Tân An, Ninh Kiều, Cần Thơ","Tân An, Ninh Kiều",1 Đại lộ Hoà Bình,Cần Thơ,,"Ninh Kiều, Cần Thơ",VN
258,ChIJAf_mNKBioDERt2_3RBXipko,F25 Cafe,Quán cà phê,,"F25 Cafe, 59 Đ. Ngô Văn Sở, Tân An, Ninh Kiều, Cần Thơ","Tân An, Ninh Kiều",59 Đ. Ngô Văn Sở,Cần Thơ,,"Ninh Kiều, Cần Thơ",VN
260,ChIJ5b973TWJoDERUduiwmxq2w4,Quán cà phê võng cánh buồm,Quán cà phê,0777 892 606,"2QRC+4Q5 Quán cà phê võng cánh buồm, Đ. Lê Anh Xuân, An Nghiệp, Ninh Kiều, Cần Thơ","An Nghiệp, Ninh Kiều","2QRC+4Q5, Đ. Lê Anh Xuân",Cần Thơ,,"Ninh Kiều, Cần Thơ",VN
262,ChIJr1oXH7uJoDERSYmkKLfPNwk,Phin Garden Coffee,Quán cà phê,0965 736 567,"Phin Garden Coffee, LK2, 9 Nguyễn Văn Cừ Nối Dài, An Bình, Ninh Kiều, Cần Thơ","An Bình, Ninh Kiều","LK2, 9 Nguyễn Văn Cừ Nối Dài",Cần Thơ,,"Ninh Kiều, Cần Thơ",VN
265,ChIJU2OOwnSJoDERKC2yK1t4Lag,T:SHARK Motorcycle & Coffee,Quán cà phê,0843 438 384,"T:SHARK Motorcycle & Coffee, 82-84-86, đường số 02, Khu Thới Nhựt 1, Ninh Kiều, Cần Thơ 900000","Khu Thới Nhựt 1, Ninh Kiều","82-84-86, đường số 02",Cần Thơ,900000.0,"Ninh Kiều, Cần Thơ",VN
266,ChIJT_16E9SJoDERxhnBK2RudKA,Cafe - Bida - Game Hoàng tử,Quán cà phê,0913 979 899,"Cafe - Bida - Game Hoàng tử, 602 Hẻm 553, Hưng Lợi, Ninh Kiều, Cần Thơ 900000","Hưng Lợi, Ninh Kiều",602 Hẻm 553,Cần Thơ,900000.0,"Ninh Kiều, Cần Thơ",VN
267,ChIJ9WqLmjeIoDERzBpFEVeQ_3M,CàPhê Điểm Hẹn,Quán cà phê,0901 036 626,"2QC6+Q9J CàPhê Điểm Hẹn, Ngô Sĩ Liên, Hưng Lợi, Ninh Kiều, Cần Thơ","Hưng Lợi, Ninh Kiều","2QC6+Q9J, Ngô Sĩ Liên",Cần Thơ,,"Ninh Kiều, Cần Thơ",VN
268,ChIJIflDnEljoDER7kIJsJZLJ2M,TD Coffee,Quán cà phê,,"TD Coffee, 05 Đ. Nguyễn Khuyến, P, Ninh Kiều, Cần Thơ","P, Ninh Kiều",05 Đ. Nguyễn Khuyến,Cần Thơ,,"Ninh Kiều, Cần Thơ",VN
269,ChIJy9ikVDuIoDERHYLRHBXRWfE,Quán Cà Phê - Trà Sữa V2,Quán cà phê,0292 6506 777,"Quán Cà Phê - Trà Sữa V2, 144B Đ. 3 Tháng 2, Xuân Khánh, Ninh Kiều, Cần Thơ","Xuân Khánh, Ninh Kiều",144B Đ. 3 Tháng 2,Cần Thơ,,"Ninh Kiều, Cần Thơ",VN
270,ChIJH0TIls9joDERiAQBDdNvRU0,She's Tea,Quán cà phê,,"She's Tea, 51 Đ. Ngô Văn Sở, Tân An, Ninh Kiều, Cần Thơ","Tân An, Ninh Kiều",51 Đ. Ngô Văn Sở,Cần Thơ,,"Ninh Kiều, Cần Thơ",VN
271,ChIJ092viEeIoDERmVovcQivVcw,Quán Cà Phê Chiếu Phim - Bóng Đá K+ Kim Ngân,Quán cà phê,0292 3508 797,"Quán Cà Phê Chiếu Phim - Bóng Đá K+ Kim Ngân, 91B QL91B, Phường An Khánh, Ninh Kiều, Cần Thơ","Phường An Khánh, Ninh Kiều",91B QL91B,Cần Thơ,,"Ninh Kiều, Cần Thơ",VN
272,ChIJG1BmX2-JoDER2j6OIlRY9bQ,Bún Quậy Mai Lộc,Quán cà phê,0972 550 093,"Bún Quậy Mai Lộc, 211 Huỳnh Cương, An Cư, Ninh Kiều, Cần Thơ","An Cư, Ninh Kiều",211 Huỳnh Cương,Cần Thơ,,"Ninh Kiều, Cần Thơ",VN
273,ChIJT3GvNApjoDERgkYrb1kbKH0,FAIRY GARDEN,Quán cà phê,,"FAIRY GARDEN, 45 Lê Lợi, Cái Khế, Ninh Kiều, Cần Thơ","Cái Khế, Ninh Kiều",45 Lê Lợi,Cần Thơ,,"Ninh Kiều, Cần Thơ",VN
274,ChIJT9W7nZtioDERCOaHV0izfPo,Quán Cafe Ngân Thanh,Quán cà phê,,"2QFQ+FHM Quán Cafe Ngân Thanh, KDC Hưng Phú 1, Cái Răng, Cần Thơ","KDC Hưng Phú 1, Cái Răng",2QFQ+FHM,Cần Thơ,,"Cái Răng, Cần Thơ",VN
278,ChIJY6nIPguJoDERfsP5pADMs1I,Cafe Ngọc Yến 7,Quán cà phê,,"2P9V+V7W Cafe Ngọc Yến 7, An Bình, Ninh Kiều, Cần Thơ","An Bình, Ninh Kiều",2P9V+V7W,Cần Thơ,,"Ninh Kiều, Cần Thơ",VN
279,ChIJn2wO3WqJoDERa8qBj2afEcY,Cafe' Station,Quán cà phê,0918 426 259,"Cafe' Station, 148/15 Đ. 3 Tháng 2, Hưng Lợi, Ninh Kiều, Cần Thơ","Hưng Lợi, Ninh Kiều",148/15 Đ. 3 Tháng 2,Cần Thơ,,"Ninh Kiều, Cần Thơ",VN
285,ChIJ14QwdZtioDERX7mDQU6fK0c,Quán Cafe Hoa Sữa,Quán cà phê,,"2QFQ+JQJ Quán Cafe Hoa Sữa, Đ. A9, KDC Hưng Phú 1, Cái Răng, Cần Thơ","KDC Hưng Phú 1, Cái Răng","2QFQ+JQJ, Đ. A9",Cần Thơ,,"Cái Răng, Cần Thơ",VN
286,ChIJja7mLrqJoDERf20DzwMwihg,Tâm An Trà Quán,Phòng trà,0907 433 871,"Tâm An Trà Quán, 39 Đ. Đinh Tiên Hoàng, An Hội, Ninh Kiều, Cần Thơ","An Hội, Ninh Kiều",39 Đ. Đinh Tiên Hoàng,Cần Thơ,,"Ninh Kiều, Cần Thơ",VN
289,ChIJB7XkcZmJoDERZDAudTx1G_A,Milano LEO Coffee,Quán cà phê,,"Milano LEO Coffee, 152 Đ. Nguyễn Văn Cừ, Phường An Khánh, Ninh Kiều, Cần Thơ","Phường An Khánh, Ninh Kiều",152 Đ. Nguyễn Văn Cừ,Cần Thơ,,"Ninh Kiều, Cần Thơ",VN
290,ChIJzSqqcgaJoDERm20rDcWjPQk,Cafe Nhà Gỗ 91B,Quán cà phê,0914 844 799,"Cafe Nhà Gỗ 91B, 10 Đ. B23, Khu dân cư 91B, Ninh Kiều, Cần Thơ","Khu dân cư 91B, Ninh Kiều",10 Đ. B23,Cần Thơ,,"Ninh Kiều, Cần Thơ",VN
291,ChIJf4jsh8aJoDERyNet_jT4YJ8,Tiệm Trà Đốm,Quán cà phê,,"Tiệm Trà Đốm, 54 Đ. Trần Hoàng Na, Hưng Lợi, Ninh Kiều, Cần Thơ","Hưng Lợi, Ninh Kiều",54 Đ. Trần Hoàng Na,Cần Thơ,,"Ninh Kiều, Cần Thơ",VN
295,ChIJh9MQcd-JoDERB4-JMm2hAss,COFEE Thuỳ Dương,Quán cà phê,0702 552 666,"COFEE Thuỳ Dương, 15 Ngô Sĩ Liên, Hưng Lợi, Ninh Kiều, Cần Thơ","Hưng Lợi, Ninh Kiều",15 Ngô Sĩ Liên,Cần Thơ,,"Ninh Kiều, Cần Thơ",VN
296,ChIJBZEppjGJoDERSLSCcfhv4DA,Ai Cà Phê,Quán cà phê,,"Ai Cà Phê, 57a Hẻm 51, Phường An Khánh, Ninh Kiều, Cần Thơ","Phường An Khánh, Ninh Kiều",57a Hẻm 51,Cần Thơ,,"Ninh Kiều, Cần Thơ",VN
297,ChIJ0w7glTSIoDERRcX9KPzSYPo,Cafe Hoàng Hải,Quán cà phê,,"Cafe Hoàng Hải, 151 Đ. Trần Hoàng Na, Hưng Lợi, Ninh Kiều, Cần Thơ","Hưng Lợi, Ninh Kiều",151 Đ. Trần Hoàng Na,Cần Thơ,,"Ninh Kiều, Cần Thơ",VN
298,ChIJM_Vk4jSIoDERyS4vAweexIE,Trà sữa Lắng,Quán cà phê,0982 808 870,"Trà sữa Lắng, 108 Đ. 30 Tháng 4, Hưng Lợi, Ninh Kiều, Cần Thơ","Hưng Lợi, Ninh Kiều",108 Đ. 30 Tháng 4,Cần Thơ,,"Ninh Kiều, Cần Thơ",VN
300,ChIJ35tLtnZjoDERmFaoRK4eeCY,Mag Coffee & Tea,Quán cà phê,0292 3680 066,"Mag Coffee & Tea, 79 Đường Châu Văn Liêm, Tân An, Ninh Kiều, Cần Thơ","Tân An, Ninh Kiều",79 Đường Châu Văn Liêm,Cần Thơ,,"Ninh Kiều, Cần Thơ",VN
301,ChIJBc5dI0pjoDER_YN53Ks_E8M,Quán cafe - sinh tố Thùy Dương 28,Quán cà phê,,"Quán cafe - sinh tố Thùy Dương 28, 198 Đ. 3A, Hưng Phú, Cái Răng, Cần Thơ","Hưng Phú, Cái Răng",198 Đ. 3A,Cần Thơ,,"Cái Răng, Cần Thơ",VN
302,ChIJL5RwrZhioDERTq4JW_3xFQU,Bonjour Cafe,Quán cà phê,0292 2215 579,"Bonjour Cafe, 136 Đường Hai Bà Trưng, Tân An, Ninh Kiều, Cần Thơ","Tân An, Ninh Kiều",136 Đường Hai Bà Trưng,Cần Thơ,,"Ninh Kiều, Cần Thơ",VN
303,ChIJh2YkzMCJoDERT2DTmXQgAMA,Coffee Phố 79,Quán cà phê,0907 537 579,"Coffee Phố 79, 102/4d Đ. 3 Tháng 2, Hưng Lợi, Ninh Kiều, Cần Thơ","Hưng Lợi, Ninh Kiều",102/4d Đ. 3 Tháng 2,Cần Thơ,,"Ninh Kiều, Cần Thơ",VN
305,ChIJz9ZQveOJoDERuS3ntaOo7Is,Tiệm nước Người Thương,Quán cà phê,,"Tiệm nước Người Thương, Đ. Phan Văn Trị, An Lạc, Ninh Kiều, Cần Thơ","An Lạc, Ninh Kiều",Đ. Phan Văn Trị,Cần Thơ,,"Ninh Kiều, Cần Thơ",VN
306,ChIJX_pMSRVjoDERoLthLFezej8,Sunrise Coffee,Quán cà phê,,"Sunrise Coffee, 79 Trần Phú, Cái Khế, Ninh Kiều, Cần Thơ","Cái Khế, Ninh Kiều",79 Trần Phú,Cần Thơ,,"Ninh Kiều, Cần Thơ",VN
307,ChIJBRy4KH2JoDERq88H2Xaal7g,La Ân beer & tea,Quán cà phê,0911 219 589,"La Ân beer & tea, 131 Đ. Nguyễn Văn Cừ, Phường An Khánh, Ninh Kiều, Cần Thơ","Phường An Khánh, Ninh Kiều",131 Đ. Nguyễn Văn Cừ,Cần Thơ,,"Ninh Kiều, Cần Thơ",VN
308,ChIJr9V2QmyJoDERuEH-PV1W__o,Quán Coffee Đa Phúc Lộc,Quán cà phê,0946 866 269,"2PFW+VR9 Quán Coffee Đa Phúc Lộc, Đường số 3, An Bình, Ninh Kiều, Cần Thơ","An Bình, Ninh Kiều","2PFW+VR9, Đường số 3",Cần Thơ,,"Ninh Kiều, Cần Thơ",VN
309,ChIJ2U1F-LeJoDERqXlE22LvKHQ,Cafe Minh Phúc,Quán cà phê,,"2QC3+V75 Cafe Minh Phúc, Đ. Trần Hoàng Na, Phường An Khánh, Ninh Kiều, Cần Thơ","Phường An Khánh, Ninh Kiều","2QC3+V75, Đ. Trần Hoàng Na",Cần Thơ,,"Ninh Kiều, Cần Thơ",VN
312,ChIJP2IHp_BjoDERtcXxrfl3XDg,Cà Phê Chất,Quán cà phê,0939 828 929,"Cà Phê Chất, 6B Đ. Ng. Hữu Hạnh, Tân An, Ninh Kiều, Cần Thơ","Tân An, Ninh Kiều",6B Đ. Ng. Hữu Hạnh,Cần Thơ,,"Ninh Kiều, Cần Thơ",VN
313,ChIJ6bdlOUOJoDERHKOfFqh7HI8,The Kantho Coffee ( Trần Hưng Đạo ),Quán cà phê,0795 983 838,"The Kantho Coffee ( Trần Hưng Đạo ), 228A Đ. Trần Hưng Đạo, An Phú, Ninh Kiều, Cần Thơ","An Phú, Ninh Kiều",228A Đ. Trần Hưng Đạo,Cần Thơ,,"Ninh Kiều, Cần Thơ",VN
314,ChIJvdnuPteJoDERQwUHDFLW8iw,Chunky chunks,Quán cà phê,0292 2247 989,"Chunky chunks, 84 Đ. Mậu Thân, An Hoà, Ninh Kiều, Cần Thơ","An Hoà, Ninh Kiều",84 Đ. Mậu Thân,Cần Thơ,,"Ninh Kiều, Cần Thơ",VN
316,ChIJR92qNxiJoDERadrYACcJlY0,ARYO - Teapresso & Expresso,Quán cà phê,,"ARYO - Teapresso & Expresso, 232 Đ. 3 Tháng 2, Hưng Lợi, Ninh Kiều, Cần Thơ 900000","Hưng Lợi, Ninh Kiều",232 Đ. 3 Tháng 2,Cần Thơ,900000.0,"Ninh Kiều, Cần Thơ",VN
322,ChIJTXcHmiGJoDERR45sgnV9Hl8,TRUNG VY COFFEE - Chuỗi Quán Cung Cấp Cafe Hạt ÁI XUÂN.,Quán cà phê,,"TRUNG VY COFFEE - Chuỗi Quán Cung Cấp Cafe Hạt ÁI XUÂN., 277 Đ. Nguyễn Văn Cừ, An Hoà, Ninh Kiều, Cần Thơ","An Hoà, Ninh Kiều",277 Đ. Nguyễn Văn Cừ,Cần Thơ,,"Ninh Kiều, Cần Thơ",VN
323,ChIJJ-ciLtOJoDERW0yBImnqkIs,FUJI - Coffee & Tea,Quán cà phê,0987 609 308,"FUJI - Coffee & Tea, 164 Đ. Trần Ngọc Quế, Xuân Khánh, Ninh Kiều, Cần Thơ 94000","Xuân Khánh, Ninh Kiều",164 Đ. Trần Ngọc Quế,Cần Thơ,94000.0,"Ninh Kiều, Cần Thơ",VN
326,ChIJtw5C12CJoDERKstElRlcH9M,Phúc Long Coffee & Tea (Vincom Hùng Vương),Phòng trà,,"Phúc Long Coffee & Tea (Vincom Hùng Vương), 2 Hùng Vương, Thới Bình, Ninh Kiều, Cần Thơ","Thới Bình, Ninh Kiều",2 Hùng Vương,Cần Thơ,,"Ninh Kiều, Cần Thơ",VN
327,ChIJnZxKhCWJoDERX6XhBT4VxCE,Tiệm Tụi Mình,Quán cà phê,,"Tiệm Tụi Mình, 11 Bế Văn Đàn, An Hoà, Ninh Kiều, Cần Thơ","An Hoà, Ninh Kiều",11 Bế Văn Đàn,Cần Thơ,,"Ninh Kiều, Cần Thơ",VN
328,ChIJT_OvwfKJoDERI-2mum2hKLM,SOHA coffee & tea,Quán cà phê,0368 505 789,"SOHA coffee & tea, 120 Nguyễn Văn Cừ Nối Dài, An Bình, Ninh Kiều, Cần Thơ","An Bình, Ninh Kiều",120 Nguyễn Văn Cừ Nối Dài,Cần Thơ,,"Ninh Kiều, Cần Thơ",VN
329,ChIJVzm_ob-JoDERwOvwf05UZic,Phyto Cafe-Cafe Dinh Dưỡng,Quán cà phê,,"Phyto Cafe-Cafe Dinh Dưỡng, 449 Đ. 30 Tháng 4, Hưng Lợi, Ninh Kiều, Cần Thơ","Hưng Lợi, Ninh Kiều",449 Đ. 30 Tháng 4,Cần Thơ,,"Ninh Kiều, Cần Thơ",VN
330,ChIJgdTn71uJoDERFmwhLf3W_M0,Ngõ MilkTea & Fruit Tea,Quán cà phê,0836 475 386,"Ngõ MilkTea & Fruit Tea, 77 Hùng Vương, An Cư, Ninh Kiều, Cần Thơ","An Cư, Ninh Kiều",77 Hùng Vương,Cần Thơ,,"Ninh Kiều, Cần Thơ",VN
331,ChIJV4X_MwyJoDER2c5qnSGDreo,La’ANh cofffee shop,Quán cà phê,,"2QV5+8RJ La’ANh cofffee shop, Phường An Khánh, Ninh Kiều, Cần Thơ","Phường An Khánh, Ninh Kiều",2QV5+8RJ,Cần Thơ,,"Ninh Kiều, Cần Thơ",VN
332,ChIJb97He_KJoDERkESg-nTX0qU,Cafe Nguyên chất Trí Hiếu - Vua Cafe Sạch,Quán cà phê,,"2Q72+W63 Cafe Nguyên chất Trí Hiếu - Vua Cafe Sạch, Đ. Trần Vĩnh Kiết, An Bình, Ninh Kiều, Cần Thơ","An Bình, Ninh Kiều","2Q72+W63, Đ. Trần Vĩnh Kiết",Cần Thơ,,"Ninh Kiều, Cần Thơ",VN
333,ChIJt0CsbzqIoDERLeFKl3uo5p8,Pha Lê Cafe,Quán cà phê,,"Pha Lê Cafe, 232 Đ. 3 Tháng 2, An Bình, Ninh Kiều, Cần Thơ","An Bình, Ninh Kiều",232 Đ. 3 Tháng 2,Cần Thơ,,"Ninh Kiều, Cần Thơ",VN
334,ChIJa1RCkPaJoDERiXcb7QSYA_A,Nâu Coffee,Quán cà phê,0933 719 109,"Nâu Coffee, 65 Đ. A3, Khu dân cư 91B, Ninh Kiều, Cần Thơ","Khu dân cư 91B, Ninh Kiều",65 Đ. A3,Cần Thơ,,"Ninh Kiều, Cần Thơ",VN
335,ChIJH7tj-ICJoDERBDbL1EmOPHc,BeeCoffee,Quán cà phê,0347 225 464,"BeeCoffee, 79 Đ. A4, Khu dân cư 91B, Ninh Kiều, Cần Thơ","Khu dân cư 91B, Ninh Kiều",79 Đ. A4,Cần Thơ,,"Ninh Kiều, Cần Thơ",VN
336,ChIJ30OR7zmJoDERo86c1n_uFpo,QUÁN CAFE VÕNG ALASKA,Quán cà phê,0948 108 829,"QUÁN CAFE VÕNG ALASKA, 189 Đ. Trần Vĩnh Kiết, Hưng Lợi, Ninh Kiều, Cần Thơ","Hưng Lợi, Ninh Kiều",189 Đ. Trần Vĩnh Kiết,Cần Thơ,,"Ninh Kiều, Cần Thơ",VN
340,ChIJqWPanOOJoDERCrcfKwYKp_Y,Cafe Like,Quán cà phê,,"Cafe Like, 16-18 Đ. Phan Văn Trị, An Lạc, Ninh Kiều, Cần Thơ","An Lạc, Ninh Kiều",16-18 Đ. Phan Văn Trị,Cần Thơ,,"Ninh Kiều, Cần Thơ",VN
341,ChIJF6EmwFJjoDERlgH9VNrZww4,Lad's Coffee,Quán cà phê,,"Lad's Coffee, 3c Sông Hậu, Cái Khế, Ninh Kiều, Cần Thơ","Cái Khế, Ninh Kiều",3c Sông Hậu,Cần Thơ,,"Ninh Kiều, Cần Thơ",VN
342,ChIJ6ewbWTRjoDERkTRoOor1cCk,Golden Coffee,Quán cà phê,,"Golden Coffee, 13 Nguyễn Trãi, An Hội, Ninh Kiều, Cần Thơ","An Hội, Ninh Kiều",13 Nguyễn Trãi,Cần Thơ,,"Ninh Kiều, Cần Thơ",VN
343,ChIJFQUvWAWHoDERUj1FT2kt9G8,Cà Phê Thềm Xưa,Quán cà phê,,"Cà Phê Thềm Xưa, 323 Đ. Đồng Văn Cống, An Thới, Bình Thủy, Cần Thơ","An Thới, Bình Thủy",323 Đ. Đồng Văn Cống,Cần Thơ,,"Bình Thủy, Cần Thơ",VN
344,ChIJ9XpuudyJoDERWpLUqF_5_ps,Cafe An Nhiên,Quán cà phê,,"Cafe An Nhiên, 111 Võ Văn Kiệt, An Hoà, Ninh Kiều, Cần Thơ","An Hoà, Ninh Kiều",111 Võ Văn Kiệt,Cần Thơ,,"Ninh Kiều, Cần Thơ",VN
345,ChIJZcMBIVGIoDEREbgf_hbd_nw,Café Soccer,Quán cà phê,,"Café Soccer, 413 Nguyễn Văn Cừ Nối Dài, An Bình, Ninh Kiều, Cần Thơ","An Bình, Ninh Kiều",413 Nguyễn Văn Cừ Nối Dài,Cần Thơ,,"Ninh Kiều, Cần Thơ",VN
346,ChIJna61B26JoDERbdtkPXL1w1U,CF Võ 19 tuổi,Quán cà phê,0856 576 797,"CF Võ 19 tuổi, 15A, Quốc Lộ 1A, Quận Cái Răng, An Bình, Ninh Kiều, Cần Thơ","An Bình, Ninh Kiều","15A, Quốc Lộ 1A, Quận Cái Răng",Cần Thơ,,"Ninh Kiều, Cần Thơ",VN
347,ChIJ7XhicgGJoDERmwJMZOxD-lA,A Coffee,Quán cà phê,0971 189 518,"A Coffee, 6 Đường B39, Khu dân cư 91B, Ninh Kiều, Cần Thơ 90000","Khu dân cư 91B, Ninh Kiều",6 Đường B39,Cần Thơ,90000.0,"Ninh Kiều, Cần Thơ",VN
348,ChIJy7REZNyJoDERxHS4azmNwrQ,Quán ăn 79 ( cơ sở 2 ),Quán cà phê,0939 021 186,"2Q94+RC3 Quán ăn 79 ( cơ sở 2 ), Đ. Trần Hoàng Na, Khu dân cư 91B, Ninh Kiều, Cần Thơ","Khu dân cư 91B, Ninh Kiều","2Q94+RC3, Đ. Trần Hoàng Na",Cần Thơ,,"Ninh Kiều, Cần Thơ",VN
349,ChIJiTOF8geJoDER1vGRdZe2cK8,Ô Coffee & Tea,Quán cà phê,0933 645 811,"Ô Coffee & Tea, Hưng Lợi, Ninh Kiều, Cần Thơ","Hưng Lợi, Ninh Kiều",,Cần Thơ,,"Ninh Kiều, Cần Thơ",VN
350,ChIJDUzuOouJoDERVSKMAIVttS8,Sinh tố nước ép cafe FULL HD,Quán cà phê,0913 543 149,"Sinh tố nước ép cafe FULL HD, 539 Đ. 30 Tháng 4, Hưng Lợi, Ninh Kiều, Cần Thơ","Hưng Lợi, Ninh Kiều",539 Đ. 30 Tháng 4,Cần Thơ,,"Ninh Kiều, Cần Thơ",VN
351,ChIJZ-cXqTaJoDERTONFOKkEj_Y,Home Coffee,Quán cà phê,0916 777 386,"Home Coffee, 178 Đ. 3 Tháng 2, Hưng Lợi, Ninh Kiều, Cần Thơ 90000","Hưng Lợi, Ninh Kiều",178 Đ. 3 Tháng 2,Cần Thơ,90000.0,"Ninh Kiều, Cần Thơ",VN
352,ChIJkbSxEgWJoDER0YSBR1k9bkg,212 Coffee,Quán cà phê,,"212 Coffee, 169 Đ. 3 Tháng 2, Hưng Lợi, Ninh Kiều, Cần Thơ","Hưng Lợi, Ninh Kiều",169 Đ. 3 Tháng 2,Cần Thơ,,"Ninh Kiều, Cần Thơ",VN
353,ChIJifu5SjWIoDERR3i5AEf35jo,Mode Coffee Dj Lounge,Quán cà phê,0949 944 348,"Mode Coffee Dj Lounge, 354 Hẻm 553, Xuân Khánh, Ninh Kiều, Cần Thơ","Xuân Khánh, Ninh Kiều",354 Hẻm 553,Cần Thơ,,"Ninh Kiều, Cần Thơ",VN
354,ChIJO2hzAWJjoDERgKfeJ4LF_Qk,Tiệm Trà Mr.P,Quán cà phê,0763 212 636,"Tiệm Trà Mr.P, số 63 Đ. Nam Kỳ Khởi Nghĩa, An Lạc, Ninh Kiều, Cần Thơ 90000","An Lạc, Ninh Kiều",số 63 Đ. Nam Kỳ Khởi Nghĩa,Cần Thơ,90000.0,"Ninh Kiều, Cần Thơ",VN
355,ChIJHYDj3_CJoDER6TAdHInCVPw,TIỆM CAFÉ THÁNG 11,Quán cà phê,,"2QRG+832 TIỆM CAFÉ THÁNG 11, Đ. Lê Anh Xuân, An Cư, Ninh Kiều, Cần Thơ","An Cư, Ninh Kiều","2QRG+832, Đ. Lê Anh Xuân",Cần Thơ,,"Ninh Kiều, Cần Thơ",VN
356,ChIJEWq5BJeJoDERuxBsp4sxsxY,Sữa Dừa 1991,Trà trân châu,0907 080 891,"Sữa Dừa 1991, Hẻm liên tổ 12-20, đường, Nguyễn Văn Cừ Nối Dài, Phường An Khánh, Ninh Kiều, Cần Thơ","Phường An Khánh, Ninh Kiều","Hẻm liên tổ 12-20, đường, Nguyễn Văn Cừ Nối Dài",Cần Thơ,,"Ninh Kiều, Cần Thơ",VN
357,ChIJD1k1zOeJoDERAyHazrg1vQ8,BẠC XỈU ĐÁ,Quán cà phê,0789 470 479,"BẠC XỈU ĐÁ, 102 Nguyễn Văn Cừ Nối Dài, An Bình, Ninh Kiều, Cần Thơ","An Bình, Ninh Kiều",102 Nguyễn Văn Cừ Nối Dài,Cần Thơ,,"Ninh Kiều, Cần Thơ",VN
358,ChIJxzGrKWSJoDERCuEV9Yf2Tfo,Cafe Ngọc Nhi,Quán cà phê,,"2P6W+2RW Cafe Ngọc Nhi, An Bình, Ninh Kiều, Cần Thơ","An Bình, Ninh Kiều",2P6W+2RW,Cần Thơ,,"Ninh Kiều, Cần Thơ",VN
359,ChIJO0OhTjSIoDERQdQMe72eGOk,Quán Nước Mía - Hột Vịt Lộn Nước Dừa Hiền Hậu,Cửa hàng bán đồ ăn nấu sẵn,0292 3780 523,"Quán Nước Mía - Hột Vịt Lộn Nước Dừa Hiền Hậu, 118/5, Đường 30/4, Phường Hưng Lợi, Quận Ninh Kiều, Thành Phố Cần Thơ, Hưng Lợi, Ninh Kiều, Cần Thơ","Hưng Lợi, Ninh Kiều","118/5, Đường 30/4, Phường Hưng Lợi, Quận Ninh Kiều, Thành Phố Cần Thơ",Cần Thơ,,"Ninh Kiều, Cần Thơ",VN
360,ChIJKy7R2UxjoDERC6lrxnp9u4U,CaFe Cô Liễu,Quán cà phê,0777 070 254,"CaFe Cô Liễu, 11 Hoàng Văn Thụ, An Hội, Ninh Kiều, Cần Thơ","An Hội, Ninh Kiều",11 Hoàng Văn Thụ,Cần Thơ,,"Ninh Kiều, Cần Thơ",VN
361,ChIJceDLD6qJoDER4FbtDi3vHlI,Sâm Tiên,Quán cà phê,0907 524 365,"Sâm Tiên, 17 Đ. Đinh Tiên Hoàng, An Hội, Ninh Kiều, Cần Thơ","An Hội, Ninh Kiều",17 Đ. Đinh Tiên Hoàng,Cần Thơ,,"Ninh Kiều, Cần Thơ",VN
363,ChIJHbalfw2JoDERL3ooktZtCfE,Cafe Loan,Quán cà phê,,"2Q42+455 Cafe Loan, Unnamed Road, Cái Răng, Cần Thơ","Lê Bình, Cái Răng","2Q42+455, Unnamed Road",Cần Thơ,,"Cái Răng, Cần Thơ",VN
364,ChIJVVXErTSIoDERYaSLI6WiSL4,Ấm Coffee,Quán cà phê,,"Ấm Coffee, 11 Đ. Trần Hoàng Na, Hưng Lợi, Ninh Kiều, Cần Thơ","Hưng Lợi, Ninh Kiều",11 Đ. Trần Hoàng Na,Cần Thơ,,"Ninh Kiều, Cần Thơ",VN
365,ChIJj0cWRTWJoDERxKw3cRUxUhk,216 COFFEE,Quán cà phê,,"216 COFFEE, 216/40e Hẻm 216, Hưng Lợi, Ninh Kiều, Cần Thơ","Hưng Lợi, Ninh Kiều",216/40e Hẻm 216,Cần Thơ,,"Ninh Kiều, Cần Thơ",VN
366,ChIJk4yXWTSIoDERqDyqJl62meE,Quán Cà Phê Timon,Quán cà phê,0292 3508 673,"Quán Cà Phê Timon, 120A, Đường 30/4, Quận Ninh Kiều, Hưng Lợi, Ninh Kiều, Cần Thơ","Hưng Lợi, Ninh Kiều","120A, Đường 30/4, Quận Ninh Kiều",Cần Thơ,,"Ninh Kiều, Cần Thơ",VN
367,ChIJV6z0T9RjoDER1VxTXqnJgZY,Quán Cf - Sinh Tố Ngọc Hằng,Quán cà phê,0919 823 042,"Quán Cf - Sinh Tố Ngọc Hằng, 180 Đường Nguyễn An Ninh, Tân An, Ninh Kiều, Cần Thơ","Tân An, Ninh Kiều",180 Đường Nguyễn An Ninh,Cần Thơ,,"Ninh Kiều, Cần Thơ",VN
368,ChIJ8bu2c2JjoDERJB6QmglZkfk,Cà phê võng Bờ Kè,Quán cà phê,,"2QWR+VP6 Cà phê võng Bờ Kè, Cái Khế, Ninh Kiều, Cần Thơ","Cái Khế, Ninh Kiều",2QWR+VP6,Cần Thơ,,"Ninh Kiều, Cần Thơ",VN
369,ChIJXbQNhNaJoDERUIo12FTuXGk,Quán cà phê Anh Tài,Quán cà phê,,"Quán cà phê Anh Tài, 49 Đ. Nguyễn Đệ, An Hoà, Ninh Kiều, Cần Thơ","An Hoà, Ninh Kiều",49 Đ. Nguyễn Đệ,Cần Thơ,,"Ninh Kiều, Cần Thơ",VN
370,ChIJ9y8HvfyJoDERaVnQpG22dGo,Cà Phê Và Giặt Sấy Nhà Tâm,Quán cà phê,0706 824 824,"Cà Phê Và Giặt Sấy Nhà Tâm, 11 Đ. Xuân Hồng, An Bình, Bình Thủy, Cần Thơ","An Bình, Bình Thủy",11 Đ. Xuân Hồng,Cần Thơ,,"Bình Thủy, Cần Thơ",VN
371,ChIJX3jeLX-JoDERwmPWpfCGGaw,Quán Cafe Phượng Hồng,Quán cà phê,,"2Q3C+XMR Quán Cafe Phượng Hồng, Hưng Thành, Cái Răng, Cần Thơ","Hưng Thành, Cái Răng",2Q3C+XMR,Cần Thơ,,"Cái Răng, Cần Thơ",VN
372,ChIJcV2ek4mJoDERWh2PmRtRjs0,Cafe PHƯỢNG LOAN,Quán cà phê,,"Cafe PHƯỢNG LOAN, 23a Đ. Nguyễn Hiền, Khu dân cư 91B, Ninh Kiều, Cần Thơ 900000","Khu dân cư 91B, Ninh Kiều",23a Đ. Nguyễn Hiền,Cần Thơ,900000.0,"Ninh Kiều, Cần Thơ",VN
374,ChIJe-QpvMmJoDERCqIg9UTjQgY,Nhà 102 Coffee,Quán cà phê,0939 258 384,"2Q85+RMV Nhà 102 Coffee, Đ. Trần Hoàng Na, Hưng Lợi, Ninh Kiều, Cần Thơ","Hưng Lợi, Ninh Kiều","2Q85+RMV, Đ. Trần Hoàng Na",Cần Thơ,,"Ninh Kiều, Cần Thơ",VN
376,ChIJ5aC8KQaJoDER3l9JUkeDQeY,Tiệm Cà Phê,Quán cà phê,0907 946 094,"Tiệm Cà Phê, tp, 27 Đ. Trần Hoàng Na, mới p, Ninh Kiều, Cần Thơ 700000","mới p, Ninh Kiều","tp, 27 Đ. Trần Hoàng Na",Cần Thơ,700000.0,"Ninh Kiều, Cần Thơ",VN
378,ChIJx1uruCOJoDERp_c-u3zhjHQ,Slow Tea,Trà trân châu,0359 877 939,"Slow Tea, Hẻm 51, Xuân Khánh, Cần Thơ, 90000","Xuân Khánh, Cần Thơ",Hẻm 51,Cần Thơ,90000.0,Cần Thơ,VN
379,ChIJvWNXcwaHoDERkTB-H5ILuMY,Cà Phê & Nước Ép 30/20,Quán cà phê,0393 475 065,"Cà Phê & Nước Ép 30/20, 30/20 Hẻm Số Đỏ, Cái Khế, Ninh Kiều, Cần Thơ","Cái Khế, Ninh Kiều",30/20 Hẻm Số Đỏ,Cần Thơ,,"Ninh Kiều, Cần Thơ",VN
380,ChIJp2vwCBJjoDERHnwBJ-QtvFg,916 Coffee,Quán cà phê,0799 662 772,"916 Coffee, 45 Lê Lợi, Cái Khế, Ninh Kiều, Cần Thơ","Cái Khế, Ninh Kiều",45 Lê Lợi,Cần Thơ,,"Ninh Kiều, Cần Thơ",VN
381,ChIJyyt3HXyJoDERuc4wy_A_UjQ,Copha coffee,Quán cà phê,,"Copha coffee, 63 Đ. Phan Đăng Lưu, Thới Bình, Ninh Kiều, Cần Thơ 900000","Thới Bình, Ninh Kiều",63 Đ. Phan Đăng Lưu,Cần Thơ,900000.0,"Ninh Kiều, Cần Thơ",VN
382,ChIJt7I-u0GJoDERkz9bE3gw2zk,Cafe Xưa,Quán cà phê,,"Cafe Xưa, 18 Đ. Võ Trường Toản, An Hoà, Ninh Kiều, Cần Thơ","An Hoà, Ninh Kiều",18 Đ. Võ Trường Toản,Cần Thơ,,"Ninh Kiều, Cần Thơ",VN
383,ChIJy2WJFnqJoDERugnghymCdvk,Ăn vặt Hai Trí,Quán cà phê,0794 956 195,"Ăn vặt Hai Trí, 188 Đ. Nguyễn Văn Cừ, An Hoà, Ninh Kiều, Cần Thơ","An Hoà, Ninh Kiều",188 Đ. Nguyễn Văn Cừ,Cần Thơ,,"Ninh Kiều, Cần Thơ",VN
384,ChIJxwm2R1iJoDEREMQ8lSZ5okg,Nước Mát Nhà TuTi,Quán cà phê,0939 898 256,"Nước Mát Nhà TuTi, 10 Đ. Hoàng Quốc Việt, An Bình, Ninh Kiều, Cần Thơ","An Bình, Ninh Kiều",10 Đ. Hoàng Quốc Việt,Cần Thơ,,"Ninh Kiều, Cần Thơ",VN
385,ChIJM213ugeJoDERHfoi3Tp5ZIY,Gấc cafe - Bánh Canh Mọc Cần Thơ,Quán cà phê,,"2P8W+735 Gấc cafe - Bánh Canh Mọc Cần Thơ, Hẻm 170, An Bình, Ninh Kiều, Cần Thơ","An Bình, Ninh Kiều","2P8W+735, Hẻm 170",Cần Thơ,,"Ninh Kiều, Cần Thơ",VN
386,ChIJGd5mqfGJoDERawJZNpA9_38,Cafe Tường Vy,Quán cà phê,,"Cafe Tường Vy, 39-25 Đ. Nguyễn Hiền, Hưng Lợi, Ninh Kiều, Cần Thơ","Hưng Lợi, Ninh Kiều",39-25 Đ. Nguyễn Hiền,Cần Thơ,,"Ninh Kiều, Cần Thơ",VN
387,ChIJ-Z8z4E-JoDER_NXTcd8-XGQ,Cafe Nguyên Trang,Quán cà phê,,"Cafe Nguyên Trang, 14 Đường Trần Hoàng Na, Hưng Lợi, Ninh Kiều, Cần Thơ","Hưng Lợi, Ninh Kiều",14 Đường Trần Hoàng Na,Cần Thơ,,"Ninh Kiều, Cần Thơ",VN
388,ChIJ9QV-XKeJoDER91SS7ZjUyx4,The Sun Cafe,Quán cà phê,,"The Sun Cafe, trước cửa hàng xe Suzuki Thiên Phúc, 94 Hẻm 132 Đ. 3 Tháng 2, Hưng Lợi, Ninh Kiều, Cần Thơ","Hưng Lợi, Ninh Kiều","trước cửa hàng xe Suzuki Thiên Phúc, 94 Hẻm 132 Đ. 3 Tháng 2",Cần Thơ,,"Ninh Kiều, Cần Thơ",VN
389,ChIJR0ZY1MVjoDERuV97wB8SZEg,Infini T coffe,Quán cà phê,,"Infini T coffe, 25-5 Đ.Xô Viết Nghệ Tĩnh, An Hội, Ninh Kiều, Cần Thơ","An Hội, Ninh Kiều",25-5 Đ.Xô Viết Nghệ Tĩnh,Cần Thơ,,"Ninh Kiều, Cần Thơ",VN
390,ChIJCwkYuKFioDERPrJL7vySyGc,Nước mía khổng lồ,Quán cà phê,,"Nước mía khổng lồ, 27 Đ. Ngô Văn Sở, Tân An, Ninh Kiều, Cần Thơ","Tân An, Ninh Kiều",27 Đ. Ngô Văn Sở,Cần Thơ,,"Ninh Kiều, Cần Thơ",VN
391,ChIJDbTpdFSJoDER1y2F3dAJvv0,Cà phê Phượng lê,Quán cà phê,,"Cà phê Phượng lê, 171A Huỳnh Cương, An Cư, Ninh Kiều, Cần Thơ","An Cư, Ninh Kiều",171A Huỳnh Cương,Cần Thơ,,"Ninh Kiều, Cần Thơ",VN
392,ChIJkfNHAK6JoDERa2g6-SaQAC4,QUÁN NƯỚC ÉP TRÁI CÂY NGUYÊN CHẤT,Quán cà phê,0908 633 722,"QUÁN NƯỚC ÉP TRÁI CÂY NGUYÊN CHẤT, 168 Đ. 30 Tháng 4, Xuân Khánh, Ninh Kiều, Cần Thơ","Xuân Khánh, Ninh Kiều",168 Đ. 30 Tháng 4,Cần Thơ,,"Ninh Kiều, Cần Thơ",VN
394,ChIJ74DQZCGJoDERzM04yCKx07Q,Quán nước Mía dì Huệ,Quán cà phê,,"2QHC+4R9 Quán nước Mía dì Huệ, Xuân Khánh, Ninh Kiều, Cần Thơ","Xuân Khánh, Ninh Kiều",2QHC+4R9,Cần Thơ,,"Ninh Kiều, Cần Thơ",VN
396,ChIJqXf5LoRjoDERTKEkUfhZvt4,Quán Cà Phê Ga Cần Thơ,Quán cà phê,,"Quán Cà Phê Ga Cần Thơ, 10 Đ. Trần Đại Nghĩa, Cái Khế, Ninh Kiều, Cần Thơ","Cái Khế, Ninh Kiều",10 Đ. Trần Đại Nghĩa,Cần Thơ,,"Ninh Kiều, Cần Thơ",VN
398,ChIJMUm3PiGIoDEREC56MYnjY10,Quán Café Yến,Quán cà phê,,"Quán Café Yến, 99A, Đường 30/04, Quận Ninh Kiều, Tp Cần Thơ, Xuân Khánh, Ninh Kiều, Cần Thơ","Xuân Khánh, Ninh Kiều","99A, Đường 30/04, Quận Ninh Kiều, Tp Cần Thơ",Cần Thơ,,"Ninh Kiều, Cần Thơ",VN
403,ChIJDTwNVROJoDERa6qUPbInpUY,Cic nước dừa nhai,Quán cà phê,,"Cic nước dừa nhai, 28 Đ. Bùi Thị Xuân, An Hội, Ninh Kiều, Cần Thơ","An Hội, Ninh Kiều",28 Đ. Bùi Thị Xuân,Cần Thơ,,"Ninh Kiều, Cần Thơ",VN
407,ChIJdfa8tA6IoDEREBE9bWjyLNE,Đại Lý Bia Nước Ngọt Phúc Thảo,Quán cà phê,0292 6513 130,"Đại Lý Bia Nước Ngọt Phúc Thảo, 255 Đ. Nguyễn Đệ, Phường An Khánh, Ninh Kiều, Cần Thơ","Phường An Khánh, Ninh Kiều",255 Đ. Nguyễn Đệ,Cần Thơ,,"Ninh Kiều, Cần Thơ",VN
412,ChIJH2DZL6iJoDERxG7puEGXgZs,Nước mía Dì Năm,Quán cà phê,,"Nước mía Dì Năm, 62 Đ. Phan Huy Chú, Phường An Khánh, Ninh Kiều, Cần Thơ","Phường An Khánh, Ninh Kiều",62 Đ. Phan Huy Chú,Cần Thơ,,"Ninh Kiều, Cần Thơ",VN
417,ChIJZ99XvfWJoDERRPMWWVOefg4,Nước Ép - Sinh Tố XMT,Quán cà phê,0896 638 878,"Nước Ép - Sinh Tố XMT, ĐT923, An Bình, Ninh Kiều, Cần Thơ","An Bình, Ninh Kiều",ĐT923,Cần Thơ,,"Ninh Kiều, Cần Thơ",VN
423,ChIJZ5UzZ_OJoDER16x1KLOv5Jg,TRÀ SỮA TRÂM ĐÀO,Trà trân châu,,"TRÀ SỮA TRÂM ĐÀO, 91 Hẻm 132 Đ. 3 Tháng 2, Hưng Lợi, Ninh Kiều, Cần Thơ","Hưng Lợi, Ninh Kiều",91 Hẻm 132 Đ. 3 Tháng 2,Cần Thơ,,"Ninh Kiều, Cần Thơ",VN
424,ChIJuYvUJdSJoDERxoRVBC2jhIM,Nhà Phân Phối,Quán cà phê,,"Nhà Phân Phối, 22/bi, Đường B10, Hưng Lợi, Ninh Kiều, Cần Thơ","Hưng Lợi, Ninh Kiều","22/bi, Đường B10",Cần Thơ,,"Ninh Kiều, Cần Thơ",VN
425,ChIJxxAY4yiJoDERqIq7YLPwxK0,Sinh tố & nước ép 610,Quán cà phê,0777 667 795,"Sinh tố & nước ép 610, 610 Đ. 30 Tháng 4, Hưng Lợi, Ninh Kiều, Cần Thơ","Hưng Lợi, Ninh Kiều",610 Đ. 30 Tháng 4,Cần Thơ,,"Ninh Kiều, Cần Thơ",VN
426,ChIJ6-aUtemJoDERo2VK6zGvYqM,Sinh Tố Nước Ép Chenny,Quán cà phê,0786 678 336,"Sinh Tố Nước Ép Chenny, 117/3a, Hẻm 132 Đ. 3 Tháng 2, Hưng Lợi, Ninh Kiều, Cần Thơ","Hưng Lợi, Ninh Kiều","117/3a, Hẻm 132 Đ. 3 Tháng 2",Cần Thơ,,"Ninh Kiều, Cần Thơ",VN
430,ChIJ21wnpzGIoDERTrlJZ9nXxhE,Cà Phê Phi Yến,Quán cà phê,0292 6529 779,"Cà Phê Phi Yến, 226 Đ. 30 Tháng 4, Hưng Lợi, Ninh Kiều, Cần Thơ","Hưng Lợi, Ninh Kiều",226 Đ. 30 Tháng 4,Cần Thơ,,"Ninh Kiều, Cần Thơ",VN
434,ChIJNbRmli9joDERKgrRs00Y5l0,F-HOUSE Nước Ép Nguyên Chất,Quán cà phê,0901 016 565,"F-HOUSE Nước Ép Nguyên Chất, 54A Đ. Ngô Quyền, Tân An, Ninh Kiều, Cần Thơ","Tân An, Ninh Kiều",54A Đ. Ngô Quyền,Cần Thơ,,"Ninh Kiều, Cần Thơ",VN
437,ChIJHRrgTKBioDERVzL-EPlI3WA,Trà Sữa Two Ti,Quán cà phê,,"Trà Sữa Two Ti, 14A Đại lộ Hoà Bình, Tân An, Ninh Kiều, Cần Thơ","Tân An, Ninh Kiều",14A Đại lộ Hoà Bình,Cần Thơ,,"Ninh Kiều, Cần Thơ",VN
