,place_id,name,main_category,categories,phone,address,address_ward,address_street,address_city,address_postal_code,address_state,address_country_code
0,ChIJLTbDq69ioDERm2YShtUfRic,Nhà Hàng Lúa Nếp,Nhà hàng,Nhà hàng,+84 292 3676 979,"2QVV+WM5 Nhà Hàng Lúa Nếp, Khu bãi bồi, p. Cái Khế, Lê Lợi, Cái Khế, Ninh Kiều, Cần Thơ, Việt Nam","Cái Khế, Ninh Kiều","2QVV+WM5, Khu bãi bồi, p. Cái Khế, Lê Lợi",Cần Thơ,,"Ninh Kiều, Cần Thơ",VN
3,ChIJ2ZJaF12IoDERnzIHDfrFnb8,Quán Bánh xèo 7 Tới,Quán ăn nhỏ,Quán ăn nhỏ,+84 947 699 743,"Quán Bánh xèo 7 Tới, 45 Đ. Hoàng Quốc Việt, An Bình, Ninh Kiều, Cần Thơ, Việt Nam","An Bình, Ninh Kiều",45 Đ. Hoàng Quốc Việt,Cần Thơ,,"Ninh Kiều, Cần Thơ",VN
7,ChIJJcVmoh-IoDEREXEUXrzGpbU,Quán Lẩu Vịt Nấu Chao Thành Giao,Nhà hàng,"Nhà hàng, Quán ăn nhỏ",+84 939 933 949,"Quán Lẩu Vịt Nấu Chao Thành Giao, hẻm 1 Đ. Lý Tự Trọng, An Phú, Ninh Kiều, Cần Thơ, Việt Nam","An Phú, Ninh Kiều",hẻm 1 Đ. Lý Tự Trọng,Cần Thơ,,"Ninh Kiều, Cần Thơ",VN
10,ChIJk0ML7KRioDERxaR-kkPZEBw,Nhà hàng Hoa Sứ,Nhà hàng,Nhà hàng,+84 292 3820 717,"2QQR+4JV Nhà hàng Hoa Sứ, KDL, Ninh Kiều, Cần Thơ, Việt Nam","Cái Khế, Ninh Kiều","2QQR+4JV, KDL",Cần Thơ,,"Ninh Kiều, Cần Thơ",VN
13,ChIJy8wPWKhioDER2w3ad4TlCCQ,Cơm Gà 6 Quận,Quán ăn nhỏ,Quán ăn nhỏ,+84 908 816 188,"Cơm Gà 6 Quận, 109 Trần Văn Khéo, Cái Khế, Ninh Kiều, Cần Thơ, Việt Nam","Cái Khế, Ninh Kiều",109 Trần Văn Khéo,Cần Thơ,,"Ninh Kiều, Cần Thơ",VN
17,ChIJBxAuWOKJoDERsPWrqr0chJ4,Khu Sinh Thái Ẩm Thực QUÊ MÌNH,Nhà hàng,Nhà hàng,+84 888 888 639,"Khu Sinh Thái Ẩm Thực QUÊ MÌNH, 36 Đường số 3, Hưng Lợi, Ninh Kiều, Cần Thơ, Việt Nam","Hưng Lợi, Ninh Kiều",36 Đường số 3,Cần Thơ,,"Ninh Kiều, Cần Thơ",VN
19,ChIJA6HSzJhioDERwCOQZiuyZ80,Restaurant & Café Lotus Ninh Kiều,Nhà hàng,Nhà hàng,+84 292 3767 868,"Restaurant & Café Lotus Ninh Kiều, 2 Đường Hai Bà Trưng, Tân An, Ninh Kiều, Cần Thơ, Việt Nam","Tân An, Ninh Kiều",2 Đường Hai Bà Trưng,Cần Thơ,,"Ninh Kiều, Cần Thơ",VN
20,ChIJn8A_WIOJoDERNd1Qyd5AA0Y,ĐỒNG XANH 2,Quán ăn nhỏ,Quán ăn nhỏ,+84 988 626 600,"ĐỒNG XANH 2, 211 Đ. Nguyễn Văn Linh, P, Ninh Kiều, Cần Thơ 90000, Việt Nam","P, Ninh Kiều",211 Đ. Nguyễn Văn Linh,Cần Thơ,90000.0,"Ninh Kiều, Cần Thơ",VN
21,ChIJWeRg1LpioDERbFPJDEapK48,Nhà hàng Cây Bưởi 2,Nhà hàng,Nhà hàng,+84 292 3768 433,"Nhà hàng Cây Bưởi 2, Sông Hậu, Cái Khế, Ninh Kiều, Cần Thơ, Việt Nam","Cái Khế, Ninh Kiều",Sông Hậu,Cần Thơ,,"Ninh Kiều, Cần Thơ",VN
24,ChIJp2qo3bGJoDERJ0kdo5lDdgw,Quán Cháo Cối MT.68,Nhà hàng,Nhà hàng,+84 869 656 817,"Quán Cháo Cối MT.68, 109 Đ. Đồng Văn Cống, An Thới, Bình Thủy, Cần Thơ, Việt Nam","An Thới, Bình Thủy",109 Đ. Đồng Văn Cống,Cần Thơ,,"Bình Thủy, Cần Thơ",VN
26,ChIJt7IubzSIoDERpETZbvPUYcA,Quán Bún Mắm 173,Quán ăn nhỏ,Quán ăn nhỏ,+84 914 063 042,"Quán Bún Mắm 173, 594 Đ. 30 Tháng 4, Hưng Lợi, Ninh Kiều, Cần Thơ, Việt Nam","Hưng Lợi, Ninh Kiều",594 Đ. 30 Tháng 4,Cần Thơ,,"Ninh Kiều, Cần Thơ",VN
27,ChIJG0HvUP6HoDER3eW-3CIIeFs,Vườn nướng Hàn Quốc Cần Thơ,Nhà hàng,Nhà hàng,,"Vườn nướng Hàn Quốc Cần Thơ, 54 Đ. Nguyễn Văn Cừ, An Hoà, Ninh Kiều, Cần Thơ, Việt Nam","An Hoà, Ninh Kiều",54 Đ. Nguyễn Văn Cừ,Cần Thơ,,"Ninh Kiều, Cần Thơ",VN
30,ChIJQ_IhDaBioDERjtEwZ340UOE,Quán Ăn Cẩm Ký,Quán ăn nhỏ,"Quán ăn nhỏ, Nhà hàng",+84 292 6292 128,"Quán Ăn Cẩm Ký, 37 Đ. Đề Thám, Tân An, Ninh Kiều, Cần Thơ 900000, Việt Nam","Tân An, Ninh Kiều",37 Đ. Đề Thám,Cần Thơ,900000.0,"Ninh Kiều, Cần Thơ",VN
40,ChIJo7zbaDSIoDERhnzs7jDXTyg,Nhà Hàng Ngói đỏ,Nhà hàng,Nhà hàng,+84 939 709 579,"Nhà Hàng Ngói đỏ, 596 30 thang 4 Str, Cần Thơ, Việt Nam","Hưng Lợi, Ninh Kiều",596 30 thang 4 Str,Cần Thơ,,"Ninh Kiều, Cần Thơ",VN
41,ChIJtabSTJ9ioDEROCLqgNULGQA,Nhà Hàng Sao Hôm,Nhà hàng Việt Nam,"Nhà hàng Việt Nam, Nhà hàng châu Á, Nhà hàng Châu Âu",+84 292 3815 616,"Nhà Hàng Sao Hôm, Đường Hai Bà Trưng, Tân An, Ninh Kiều, Cần Thơ, Việt Nam","Tân An, Ninh Kiều",Đường Hai Bà Trưng,Cần Thơ,,"Ninh Kiều, Cần Thơ",VN
42,ChIJQX9vWiGJoDERvTR3pR_1V4Q,Mì Cay ITADA - Nguyễn Văn Cừ,Nhà hàng,Nhà hàng,,"Mì Cay ITADA - Nguyễn Văn Cừ, 287 Đ. Nguyễn Văn Cừ, An Hoà, Ninh Kiều, Cần Thơ, Việt Nam","An Hoà, Ninh Kiều",287 Đ. Nguyễn Văn Cừ,Cần Thơ,,"Ninh Kiều, Cần Thơ",VN
43,ChIJGwJSaaBioDER2IbjjN7H_mw,Hủ Tiếu Nam Vang Ngọc Ngân,Quán mì,Quán mì,+84 292 3886 677,"Hủ Tiếu Nam Vang Ngọc Ngân, 50 Đ. Nguyễn Khuyến, Tân An, Ninh Kiều, Cần Thơ, Việt Nam","Tân An, Ninh Kiều",50 Đ. Nguyễn Khuyến,Cần Thơ,,"Ninh Kiều, Cần Thơ",VN
44,ChIJq8LbJJ9ioDERqPYMt5KSBJo,Quán Lẩu Bò Sìl Mỳ,Quán ăn nhỏ,Quán ăn nhỏ,+84 292 3811 467,"Quán Lẩu Bò Sìl Mỳ, 13 Đ. Hải Thượng Lãn Ông, Tân An, Ninh Kiều, Cần Thơ, Việt Nam","Tân An, Ninh Kiều",13 Đ. Hải Thượng Lãn Ông,Cần Thơ,,"Ninh Kiều, Cần Thơ",VN
45,ChIJT05NI96JoDERAWm5LOmStBY,Lẩu Thái Chay Tư Đậu 2,Nhà hàng món chay,Nhà hàng món chay,+84 782 986 783,"Lẩu Thái Chay Tư Đậu 2, 82-84 Ngô Sĩ Liên, Kdc mêtro .P, Ninh Kiều, Cần Thơ, Việt Nam","Kdc mêtro .P, Ninh Kiều",82-84 Ngô Sĩ Liên,Cần Thơ,,"Ninh Kiều, Cần Thơ",VN
47,ChIJUYUsozeIoDER5CicuEDs46Q,Quán ăn Tuấn Phát,Quán ăn nhỏ,"Quán ăn nhỏ, Nhà hàng",+84 983 747 445,"Quán ăn Tuấn Phát, 56 Ngô Sĩ Liên, Hưng Lợi, Ninh Kiều, Cần Thơ, Việt Nam","Hưng Lợi, Ninh Kiều",56 Ngô Sĩ Liên,Cần Thơ,,"Ninh Kiều, Cần Thơ",VN
55,ChIJoQzNMh6IoDERWJ3n3htJyDg,Cơm Chay Oanh,Nhà hàng món chay,"Nhà hàng món chay, Nhà hàng chuyên phục vụ bữa sáng",+84 292 3830 820,"Cơm Chay Oanh, 102 Đ. Đề Thám, Tân An, Ninh Kiều, Cần Thơ, Việt Nam","Tân An, Ninh Kiều",102 Đ. Đề Thám,Cần Thơ,,"Ninh Kiều, Cần Thơ",VN
56,ChIJbcq5DKBioDERJWzzl9w48oQ,Quán Cơm Chay Sen Vàng 2,Nhà hàng món chay,Nhà hàng món chay,+84 816 734 039,"Quán Cơm Chay Sen Vàng 2, 41 Đ. Đề Thám, Tân An, Ninh Kiều, Cần Thơ, Việt Nam","Tân An, Ninh Kiều",41 Đ. Đề Thám,Cần Thơ,,"Ninh Kiều, Cần Thơ",VN
57,ChIJ9TEXZQiDCjERhWL-xMXZcOE,Quán ăn truyền thống Hàn Quốc - Heri,Nhà hàng Hàn Quốc,Nhà hàng Hàn Quốc,+84 292 6262 200,"Quán ăn truyền thống Hàn Quốc - Heri, 43 Đ. Mậu Thân, Xuân Khánh, Ninh Kiều, Cần Thơ, Việt Nam","Xuân Khánh, Ninh Kiều",43 Đ. Mậu Thân,Cần Thơ,,"Ninh Kiều, Cần Thơ",VN
67,ChIJ5enKAiGIoDERtnOH5aqiQAE,Cù Lần - Bò Nướng Ngói,Quán ăn nhỏ,Quán ăn nhỏ,+84 939 033 693,"Cù Lần - Bò Nướng Ngói, 88/19a Đ. Đề Thám, Tân An, Ninh Kiều, Cần Thơ, Việt Nam","Tân An, Ninh Kiều",88/19a Đ. Đề Thám,Cần Thơ,,"Ninh Kiều, Cần Thơ",VN
68,ChIJVdMi1AKJoDERXun1oMygC_M,Tú Tú Seafood,Nhà hàng,Nhà hàng,+84 939 101 838,"Tú Tú Seafood, 59Đ Hẻm 51, Phường An Khánh, Ninh Kiều, Cần Thơ 94000, Việt Nam","Phường An Khánh, Ninh Kiều",59Đ Hẻm 51,Cần Thơ,94000.0,"Ninh Kiều, Cần Thơ",VN
69,ChIJ_RFG7tRjoDERxLNP_-JO_Vc,Lẩu mắm miền tây,Nhà hàng,Nhà hàng,+84 769 991 919,"Lẩu mắm miền tây, 36 Đ. Trần Đại Nghĩa, p, Ninh Kiều, Cần Thơ 94000, Việt Nam","p, Ninh Kiều",36 Đ. Trần Đại Nghĩa,Cần Thơ,94000.0,"Ninh Kiều, Cần Thơ",VN
72,ChIJTcQ_VDeJoDERbB3A_YSiLTA,Lẩu Mắm 75,Quán ăn nhỏ,Quán ăn nhỏ,+84 292 3764 051,"Lẩu Mắm 75, 75/1 vào, Hẻm 54 Trần Viết Châu, Ninh Kiều, Cần Thơ 94000, Việt Nam","Thới Bình, Ninh Kiều","75/1 vào, Hẻm 54 Trần Viết Châu",Cần Thơ,94000.0,"Ninh Kiều, Cần Thơ",VN
76,ChIJ11cghcGJoDERYJDlxM5-UME,Lẩu Chay Organic,Nhà hàng,Nhà hàng,+84 905 959 675,"Lẩu Chay Organic, Hẻm liên tổ 4-5, Đ. Nguyễn Văn Linh, Hưng Lợi, Ninh Kiều, Cần Thơ, Việt Nam","Hưng Lợi, Ninh Kiều","Hẻm liên tổ 4-5, Đ. Nguyễn Văn Linh",Cần Thơ,,"Ninh Kiều, Cần Thơ",VN
77,ChIJlx3WkP2JoDER2YBYzfMPCxo,MONACO coffee & restaurant,Nhà hàng,Nhà hàng,+84 847 427 056,"MONACO coffee & restaurant, 33 Đ. Nguyễn Bình, Cái Khế, Ninh Kiều, Cần Thơ, Việt Nam","Cái Khế, Ninh Kiều",33 Đ. Nguyễn Bình,Cần Thơ,,"Ninh Kiều, Cần Thơ",VN
79,ChIJ_QO54SWJoDERe3LmeDFCib0,Cơm Nhà Cáo,Nhà hàng gia đình,Nhà hàng gia đình,+84 826 552 929,"Cơm Nhà Cáo, 135C Đ. Mậu Thân, An Hoà, Ninh Kiều, Cần Thơ, Việt Nam","An Hoà, Ninh Kiều",135C Đ. Mậu Thân,Cần Thơ,,"Ninh Kiều, Cần Thơ",VN
81,ChIJxT16z-yJoDERtdPNe87IARA,Quán 51 | Quán Nhậu Hẻm 51 | Quán Ăn Gia Đình,Quán bia,"Quán bia, Nhà hàng gia đình, Nhà hàng",+84 969 697 506,"Quán 51 | Quán Nhậu Hẻm 51 | Quán Ăn Gia Đình, 10a2/1 Hẻm 51, Phường An Khánh, Ninh Kiều, Cần Thơ, Việt Nam","Phường An Khánh, Ninh Kiều",10a2/1 Hẻm 51,Cần Thơ,,"Ninh Kiều, Cần Thơ",VN
87,ChIJcwEl3r6JoDERXpk6HUn2l90,Quán CHOÉN LẨU & ỐC,Quán ăn nhỏ,Quán ăn nhỏ,+84 767 999 768,"Quán CHOÉN LẨU & ỐC, 162 Đ. Trần Ngọc Quế, Xuân Khánh, Ninh Kiều, Cần Thơ, Việt Nam","Xuân Khánh, Ninh Kiều",162 Đ. Trần Ngọc Quế,Cần Thơ,,"Ninh Kiều, Cần Thơ",VN
88,ChIJaRiVnk9joDER7id5CvYWo54,Quán Súp Mộc,Nhà hàng ăn nhanh,Nhà hàng ăn nhanh,+84 902 803 650,"Quán Súp Mộc, 105 Xô Viết Nghệ Tĩnh, An Hội, Ninh Kiều, Cần Thơ, Việt Nam","An Hội, Ninh Kiều",105 Xô Viết Nghệ Tĩnh,Cần Thơ,,"Ninh Kiều, Cần Thơ",VN
89,ChIJFWBQlyWJoDER38v5JN_3E0Y,Bếp Me Mien - Ẩm Thực Campuchia,Nhà hàng Campuchia,Nhà hàng Campuchia,+84 292 2221 503,"Bếp Me Mien - Ẩm Thực Campuchia, 294 Đ. Đồng Văn Cống, An Thới, Bình Thủy, Cần Thơ, Việt Nam","An Thới, Bình Thủy",294 Đ. Đồng Văn Cống,Cần Thơ,,"Bình Thủy, Cần Thơ",VN
91,ChIJo-MC71CIoDER5uTCCLgwSwQ,Bún Mắm Út Béo 1,Nhà hàng,Nhà hàng,+84 939 388 000,"Bún Mắm Út Béo 1, 793 - Đường Nguyễn Văn Cừ Nối Dài, Phường An Khánh, Ninh Kiều, Cần Thơ, Việt Nam","Phường An Khánh, Ninh Kiều",793 - Đường Nguyễn Văn Cừ Nối Dài,Cần Thơ,,"Ninh Kiều, Cần Thơ",VN
92,ChIJdaeaX_yHoDERfAQTj42g58A,Quán Hương Xưa,Nhà hàng,Nhà hàng,,"Quán Hương Xưa, 15 Trần Văn Giàu, Cái Khế, Ninh Kiều, Cần Thơ 840292, Việt Nam","Cái Khế, Ninh Kiều",15 Trần Văn Giàu,Cần Thơ,840292.0,"Ninh Kiều, Cần Thơ",VN
94,ChIJSRi9V9OJoDER-hi8LGnltgQ,Quán Bánh Xèo Đồng Xanh,Quán ăn nhỏ,Quán ăn nhỏ,+84 376 962 024,"Quán Bánh Xèo Đồng Xanh, 84 Nguyễn Văn Cừ Nối Dài, P, Ninh Kiều, Cần Thơ 90000, Việt Nam","P, Ninh Kiều",84 Nguyễn Văn Cừ Nối Dài,Cần Thơ,90000.0,"Ninh Kiều, Cần Thơ",VN
95,ChIJ98cUeKyJoDERN83-GMegxl0,Bếp Chay Mái Hiên,Nhà hàng cho người ăn chay,"Nhà hàng cho người ăn chay, Nhà hàng ăn chay",+84 969 339 070,"Bếp Chay Mái Hiên, 8 Đinh Tiên Hoàng/hẻm 8 Đ. Đinh Tiên Hoàng, An Hội, Ninh Kiều, Cần Thơ 94000, Việt Nam","An Hội, Ninh Kiều",8 Đinh Tiên Hoàng/hẻm 8 Đ. Đinh Tiên Hoàng,Cần Thơ,94000.0,"Ninh Kiều, Cần Thơ",VN
98,ChIJw0oxeuRjoDER959M1_nePoU,Bún đậu mắm tôm NHÀ CỦA ĐẬU,Quán ăn nhỏ,Quán ăn nhỏ,+84 969 782 742,"Bún đậu mắm tôm NHÀ CỦA ĐẬU, 12 Đ. Nguyễn Khuyến, Tân An, Ninh Kiều, Cần Thơ, Việt Nam","Tân An, Ninh Kiều",12 Đ. Nguyễn Khuyến,Cần Thơ,,"Ninh Kiều, Cần Thơ",VN
99,ChIJFfE36BBjoDERSYmtXgW4QeM,PHỞ Z586,Nhà hàng,Nhà hàng,+84 345 678 586,"PHỞ Z586, 49 Đ. Ngô Quyền, Tân An, Ninh Kiều, Cần Thơ, Việt Nam","Tân An, Ninh Kiều",49 Đ. Ngô Quyền,Cần Thơ,,"Ninh Kiều, Cần Thơ",VN
100,ChIJHyf3JWeJoDERcPjlMmgh6W8,Cơm Niêu Ngũ Vị,Nhà hàng gia đình,Nhà hàng gia đình,+84 939 051 113,"Cơm Niêu Ngũ Vị, 102/10 Đ. Trần Hoàng Na, mới, Ninh Kiều, Cần Thơ 900000, Việt Nam","mới, Ninh Kiều",102/10 Đ. Trần Hoàng Na,Cần Thơ,900000.0,"Ninh Kiều, Cần Thơ",VN
102,ChIJ2_K0Y_pjoDERNYvV3dhxlmU,Quán Ăn việt hoa 1,Quán ăn nhỏ,"Quán ăn nhỏ, Nhà hàng",+84 949 657 279,"Quán Ăn việt hoa 1, 17 Đ. Đề Thám, Tân An, Ninh Kiều, Cần Thơ 900000, Việt Nam","Tân An, Ninh Kiều",17 Đ. Đề Thám,Cần Thơ,900000.0,"Ninh Kiều, Cần Thơ",VN
111,ChIJo1nLQbGHoDERFHo8IguWw5Q,Phở Lý Quốc Sư,Nhà hàng châu Á,Nhà hàng châu Á,,"Phở Lý Quốc Sư, 38 Đ. Nguyễn Văn Cừ, Cái Khế, Ninh Kiều, Cần Thơ, Việt Nam","Cái Khế, Ninh Kiều",38 Đ. Nguyễn Văn Cừ,Cần Thơ,,"Ninh Kiều, Cần Thơ",VN
112,ChIJqV1K_8FjoDERKwp_hdseILM,Quán ăn BÒ 59 Hưng Phú/ Đồ đồng / Hải sản/ Bò,Quán ăn nhỏ,Quán ăn nhỏ,+84 917 359 975,"Quán ăn BÒ 59 Hưng Phú/ Đồ đồng / Hải sản/ Bò, 218 Đ. Lý Thái Tổ, Hưng Phú, Cái Răng, Cần Thơ, Việt Nam","Hưng Phú, Cái Răng",218 Đ. Lý Thái Tổ,Cần Thơ,,"Cái Răng, Cần Thơ",VN
113,ChIJz8sYljSIoDERACLMvaX1s3o,Quán Chè Bi Bo,Quán ăn nhỏ,Quán ăn nhỏ,+84 913 816 855,"Quán Chè Bi Bo, 13 Đ. Trần Hoàng Na, Hưng Lợi, Ninh Kiều, Cần Thơ, Việt Nam","Hưng Lợi, Ninh Kiều",13 Đ. Trần Hoàng Na,Cần Thơ,,"Ninh Kiều, Cần Thơ",VN
114,ChIJv-CxtUyIoDERH1IuxkkdWFw,Cơm Gà Xối Mỡ Bảo Phát,Quán ăn nhỏ,Quán ăn nhỏ,+84 907 863 123,"Cơm Gà Xối Mỡ Bảo Phát, 116G/3, Đ. Trần Vĩnh Kiết, An Bình, Ninh Kiều, Cần Thơ 92000, Việt Nam","An Bình, Ninh Kiều","116G/3, Đ. Trần Vĩnh Kiết",Cần Thơ,92000.0,"Ninh Kiều, Cần Thơ",VN
115,ChIJwzu_XeiJoDER378CBveefiA,NHÀ HÀNG HẢI SẢN - GÀ TRE NỒI ĐẤT,Nhà hàng gia đình,Nhà hàng gia đình,+84 292 6299 997,"NHÀ HÀNG HẢI SẢN - GÀ TRE NỒI ĐẤT, 127 Võ Văn Kiệt, An Hoà, Ninh Kiều, Cần Thơ, Việt Nam","An Hoà, Ninh Kiều",127 Võ Văn Kiệt,Cần Thơ,,"Ninh Kiều, Cần Thơ",VN
117,ChIJrWekMDWIoDER72OGRqLV_-Y,Phở Hương 529,Quán ăn nhỏ,Quán ăn nhỏ,+84 292 3840 470,"Phở Hương 529, 529 Đ. 30 Tháng 4, Hưng Lợi, Ninh Kiều, Cần Thơ, Việt Nam","Hưng Lợi, Ninh Kiều",529 Đ. 30 Tháng 4,Cần Thơ,,"Ninh Kiều, Cần Thơ",VN
118,ChIJvYRWKUhjoDERUEhEDnlONN8,Ja mi dang Quán Ăn Hàn Quốc,Nhà hàng,Nhà hàng,,"Ja mi dang Quán Ăn Hàn Quốc, TP, Sông Hậu, Cái Khế, Ninh Kiều, Cần Thơ 90000, Việt Nam","Cái Khế, Ninh Kiều","TP, Sông Hậu",Cần Thơ,90000.0,"Ninh Kiều, Cần Thơ",VN
123,ChIJYd2KbXCJoDERqziukxpKAw0,Nem nướng 98 Đề Thám (địa chỉ cũ Hai Vân),Quán ăn nhỏ,Quán ăn nhỏ,+84 918 190 190,"Nem nướng 98 Đề Thám (địa chỉ cũ Hai Vân), 98 Đ. Đề Thám, Tân An, Ninh Kiều, Cần Thơ 900000, Việt Nam","Tân An, Ninh Kiều",98 Đ. Đề Thám,Cần Thơ,900000.0,"Ninh Kiều, Cần Thơ",VN
125,ChIJ_9o1dXeJoDEREGeJJE-TAeg,Bún nước lèo An Tâm,Quán ăn nhỏ,Quán ăn nhỏ,+84 902 549 955,"Bún nước lèo An Tâm, 102 Hẻm 132 Đ. 3 Tháng 2, Hưng Lợi, Ninh Kiều, Cần Thơ, Việt Nam","Hưng Lợi, Ninh Kiều",102 Hẻm 132 Đ. 3 Tháng 2,Cần Thơ,,"Ninh Kiều, Cần Thơ",VN
126,ChIJR5BFUVyJoDERg8f9tonAL0M,Nướng- Lẩu Tomyum (Macsu Tea),Quán ăn nhỏ,Quán ăn nhỏ,+84 968 835 657,"Nướng- Lẩu Tomyum (Macsu Tea), Hẻm 160 tổ 13 An Khánh, Ninh Kiều, Cần thơ Hẻm 160 tổ 13 ( hẻm liên tô 12_20, Đ. Nguyễn Văn Cừ, Phường An Khánh, Ninh Kiều, Cần Thơ, Việt Nam","Phường An Khánh, Ninh Kiều","Hẻm 160 tổ 13 An Khánh, Ninh Kiều, Cần thơ Hẻm 160 tổ 13 ( hẻm liên tô 12_20, Đ. Nguyễn Văn Cừ",Cần Thơ,,"Ninh Kiều, Cần Thơ",VN
128,ChIJP2wcCRCJoDERX9DE8T0mQBA,Mẹt Quán - Ẩm Thực Hà Thành,Nhà hàng,Nhà hàng,+84 982 253 615,"Mẹt Quán - Ẩm Thực Hà Thành, 82 Đ. A3, Hưng Lợi, Ninh Kiều, Cần Thơ, Việt Nam","Hưng Lợi, Ninh Kiều",82 Đ. A3,Cần Thơ,,"Ninh Kiều, Cần Thơ",VN
129,ChIJMVUNOaaJoDER6HwUHNjLgj0,Cơm Phần ÚT TRINH,Nhà hàng,Nhà hàng,+84 939 709 020,"Cơm Phần ÚT TRINH, 10/16 Đ. Trần Vĩnh Kiết, An Bình, Ninh Kiều, Cần Thơ, Việt Nam","An Bình, Ninh Kiều",10/16 Đ. Trần Vĩnh Kiết,Cần Thơ,,"Ninh Kiều, Cần Thơ",VN
132,ChIJAz5WdchjoDERo6FefphDHYM,Quán ăn gia đình Ninh Kiều Quán,Khu ăn uống,"Khu ăn uống, Nhà hàng",,"Quán ăn gia đình Ninh Kiều Quán, 16 Đ. Tân Trào, Tân An, Ninh Kiều, Cần Thơ 900000, Việt Nam","Tân An, Ninh Kiều",16 Đ. Tân Trào,Cần Thơ,900000.0,"Ninh Kiều, Cần Thơ",VN
138,ChIJb2q7sqaJoDER2NJEypkZHWo,Quán Nhậu Thanh Vân (bé Mười),Nhà hàng,Nhà hàng,+84 973 903 942,"Quán Nhậu Thanh Vân (bé Mười), 75/2 kv 7, P, Ninh Kiều, Cần Thơ, Việt Nam","P, Ninh Kiều",75/2 kv 7,Cần Thơ,,"Ninh Kiều, Cần Thơ",VN
140,ChIJH8plB7FjoDERlmnKZRZAtos,Lốp Cốp Beer Station,Nhà hàng gia đình,Nhà hàng gia đình,+84 931 818 811,"Lốp Cốp Beer Station, 34 Lê Lợi, Cái Khế, Ninh Kiều, Cần Thơ, Việt Nam","Cái Khế, Ninh Kiều",34 Lê Lợi,Cần Thơ,,"Ninh Kiều, Cần Thơ",VN
141,ChIJtSamEteJoDERgj0wcnEgqBE,Cơm Thanh - Cần Thơ,Quán ăn nhỏ,Quán ăn nhỏ,+84 938 892 893,"Cơm Thanh - Cần Thơ, 1A Đ. Nguyễn Hiền, Khu dân cư 91B, Ninh Kiều, Cần Thơ 94117, Việt Nam","Khu dân cư 91B, Ninh Kiều",1A Đ. Nguyễn Hiền,Cần Thơ,94117.0,"Ninh Kiều, Cần Thơ",VN
142,ChIJi2V7ZjSIoDERSrFxumiSgqI,Quán Ăn Gia đình Cúc 91,Nhà hàng,Nhà hàng,+84 941 122 930,"Quán Ăn Gia đình Cúc 91, khu cán bộ giảng viên, Đ. Số 7 Hẻm51 An Khánh, Phường An Khánh, Ninh Kiều, Cần Thơ, Việt Nam","Phường An Khánh, Ninh Kiều","khu cán bộ giảng viên, Đ. Số 7 Hẻm51 An Khánh",Cần Thơ,,"Ninh Kiều, Cần Thơ",VN
143,ChIJS_tor-mJoDERNiqFz1iXDGM,Quán phở Hà Nội Bá Hùng,Nhà hàng phở,Nhà hàng phở,+84 867 565 472,"Quán phở Hà Nội Bá Hùng, 233 Đ. Nguyễn Đệ, An Hoà, Ninh Kiều, Cần Thơ 029203, Việt Nam","An Hoà, Ninh Kiều",233 Đ. Nguyễn Đệ,Cần Thơ,29203.0,"Ninh Kiều, Cần Thơ",VN
156,ChIJ349GTHqHoDERmtaskwsmSqg,Nhà Hàng Hoa Sen,Nhà hàng,Nhà hàng,+84 292 3939 955,"3Q8G+GVR Nhà Hàng Hoa Sen, Cồn Khương, Ninh Kiều, Cần Thơ, Việt Nam","Cồn Khương, Ninh Kiều",3Q8G+GVR,Cần Thơ,,"Ninh Kiều, Cần Thơ",VN
158,ChIJv9Pm37mJoDERNlk5qwPhSN0,Nhà hàng Hầm Rượu Cáo Nho,Nhà hàng gia đình,Nhà hàng gia đình,+84 763 883 839,"Nhà hàng Hầm Rượu Cáo Nho, 80 Võ Văn Kiệt, An Hoà, Ninh Kiều, Cần Thơ, Việt Nam","An Hoà, Ninh Kiều",80 Võ Văn Kiệt,Cần Thơ,,"Ninh Kiều, Cần Thơ",VN
160,ChIJA5u4k8eJoDERXAmSl3c8sQA,Bún đậu mắm tôm Quỳnh CN2,Quán ăn nhỏ,Quán ăn nhỏ,+84 854 119 777,"Bún đậu mắm tôm Quỳnh CN2, 138C1 Đ. Nguyễn Văn Cừ, Phường An Khánh, Ninh Kiều, Cần Thơ, Việt Nam","Phường An Khánh, Ninh Kiều",138C1 Đ. Nguyễn Văn Cừ,Cần Thơ,,"Ninh Kiều, Cần Thơ",VN
161,ChIJLfJZfxGJoDERgaQe9JXVoqQ,Quán Cơm Sinh Viên Thảo Trang,Quán ăn nhỏ,Quán ăn nhỏ,+84 788 878 287,"Quán Cơm Sinh Viên Thảo Trang, 320/15A Đ. Trần Ngọc Quế, Xuân Khánh, Ninh Kiều, Cần Thơ 900000, Việt Nam","Xuân Khánh, Ninh Kiều",320/15A Đ. Trần Ngọc Quế,Cần Thơ,900000.0,"Ninh Kiều, Cần Thơ",VN
162,ChIJLzKm3pmHoDERiMjO62ntnGY,Dịch vụ nấu ăn Hạnh Dung (Tám Be),Nhà hàng,Nhà hàng,+84 939 683 308,"Dịch vụ nấu ăn Hạnh Dung (Tám Be), Đ. Số 13, Cồn Khương, Ninh Kiều, Cần Thơ, Việt Nam","Cồn Khương, Ninh Kiều",Đ. Số 13,Cần Thơ,,"Ninh Kiều, Cần Thơ",VN
164,ChIJSdjaVCOJoDERihG3VZ-PGAI,Quán Cơm Cô Thu,Quán ăn nhỏ,Quán ăn nhỏ,+84 969 727 865,"Quán Cơm Cô Thu, 180/9 Đ. 30 Tháng 4, Hưng Lợi, Ninh Kiều, Cần Thơ, Việt Nam","Hưng Lợi, Ninh Kiều",180/9 Đ. 30 Tháng 4,Cần Thơ,,"Ninh Kiều, Cần Thơ",VN
167,ChIJBdfuTX6HoDERkriJB_KEwZw,Dịch Vụ nấu ăn PHONG NHÂN,Nhà hàng,Nhà hàng,+84 949 775 775,"Dịch Vụ nấu ăn PHONG NHÂN, 20 Đường Nguyễn Hữu Cầu, Cồn Khương, Ninh Kiều, Cần Thơ, Việt Nam","Cồn Khương, Ninh Kiều",20 Đường Nguyễn Hữu Cầu,Cần Thơ,,"Ninh Kiều, Cần Thơ",VN
169,ChIJ10PEgiOIoDER-KhtpdRisj0,Quán Bánh bèo chung cư (since 1976),Quán ăn nhỏ,Quán ăn nhỏ,+84 788 861 000,"Quán Bánh bèo chung cư (since 1976), 30 Đ. Trương Định, An Cư, Ninh Kiều, Cần Thơ, Việt Nam","An Cư, Ninh Kiều",30 Đ. Trương Định,Cần Thơ,,"Ninh Kiều, Cần Thơ",VN
173,ChIJB8XoE6Z9oDERdn3UEgcIqGQ,Quán Ẩm Thực Bốn Mùa,Nhà hàng gia đình,Nhà hàng gia đình,+84 924 993 686,"Quán Ẩm Thực Bốn Mùa, 77 Đ. Nguyễn Văn Cừ, Cái Khế, Ninh Kiều, Cần Thơ, Việt Nam","Cái Khế, Ninh Kiều",77 Đ. Nguyễn Văn Cừ,Cần Thơ,,"Ninh Kiều, Cần Thơ",VN
175,ChIJ40upIkiJoDER96NVNpxRPHs,Quán Ăn Miền Tây NGỌC ANH,Nhà hàng chuyên phục vụ bữa sáng,Nhà hàng chuyên phục vụ bữa sáng,+84 366 435 131,"Quán Ăn Miền Tây NGỌC ANH, 42/3 Võ Tánh, Lê Bình, Cái Răng, Cần Thơ, Việt Nam","Lê Bình, Cái Răng",42/3 Võ Tánh,Cần Thơ,,"Cái Răng, Cần Thơ",VN
179,ChIJe3KQYeuJoDERDd0o4byOgpo,Thư Quán DNC,Quán ăn nhỏ,Quán ăn nhỏ,+84 292 3798 668,"Thư Quán DNC, 168 Nguyễn Văn Cừ Nối Dài, An Bình, Ninh Kiều, Cần Thơ, Việt Nam","An Bình, Ninh Kiều",168 Nguyễn Văn Cừ Nối Dài,Cần Thơ,,"Ninh Kiều, Cần Thơ",VN
181,ChIJuyy7VrBjoDERxKMI0-ZnAA0,Quán Gà Đồng Quê,Quán ăn nhỏ,Quán ăn nhỏ,+84 963 977 753,"Quán Gà Đồng Quê, 3 Sông Hậu, Cái Khế, Ninh Kiều, Cần Thơ, Việt Nam","Cái Khế, Ninh Kiều",3 Sông Hậu,Cần Thơ,,"Ninh Kiều, Cần Thơ",VN
182,ChIJO6SWQumJoDERIhfce7Y4UgI,Quán Nướng Lẩu KUMAN,Quán ăn nhỏ,Quán ăn nhỏ,+84 706 886 099,"Quán Nướng Lẩu KUMAN, 91 Đ. Nguyễn Đệ, An Hoà, Ninh Kiều, Cần Thơ, Việt Nam","An Hoà, Ninh Kiều",91 Đ. Nguyễn Đệ,Cần Thơ,,"Ninh Kiều, Cần Thơ",VN
183,ChIJGbMHHsiJoDER1JF1LGIdixQ,Ăn Vặt 233,Quán ăn nhẹ,Quán ăn nhẹ,+84 902 530 545,"Ăn Vặt 233, 233/46/25, Cần Thơ, 90000, Việt Nam","An Hoà, Cần Thơ",233/46/25,Cần Thơ,90000.0,Cần Thơ,VN
185,ChIJ1c8358yJoDER9HzDeY7VY-Q,Quán Chè Ngon,Quán ăn nhỏ,Quán ăn nhỏ,+84 971 586 793,"Quán Chè Ngon, 40 Đường B5, Hưng Lợi, Ninh Kiều, Cần Thơ, Việt Nam","Hưng Lợi, Ninh Kiều",40 Đường B5,Cần Thơ,,"Ninh Kiều, Cần Thơ",VN
186,ChIJoXfQXy-HoDER9fFqv85O-X8,Quán ăn Viễn Lạc 2,Nhà hàng chuyên phục vụ bữa sáng,Nhà hàng chuyên phục vụ bữa sáng,+84 941 663 894,"Quán ăn Viễn Lạc 2, 133 Đ. Cách Mạng Tháng 8, An Thới, Bình Thủy, Cần Thơ, Việt Nam","An Thới, Bình Thủy",133 Đ. Cách Mạng Tháng 8,Cần Thơ,,"Bình Thủy, Cần Thơ",VN
188,ChIJc9gkzjhjoDERsiJqF2Wq7U0,Nhà hàng Hương Vị Nam Bộ,Nhà hàng,Nhà hàng,+84 343 727 680,"Nhà hàng Hương Vị Nam Bộ, 2 Sông Hậu, Cái Khế, Ninh Kiều, Cần Thơ, Việt Nam","Cái Khế, Ninh Kiều",2 Sông Hậu,Cần Thơ,,"Ninh Kiều, Cần Thơ",VN
189,ChIJ4dXaizaIoDERzE9WYxjfA4w,Nướng Tự Chọn Hẻm 132,Quán ăn nhỏ,Quán ăn nhỏ,+84 336 153 393,"Nướng Tự Chọn Hẻm 132, 132/27 Đ. 3 Tháng 2, Hưng Lợi, Ninh Kiều, Cần Thơ, Việt Nam","Hưng Lợi, Ninh Kiều",132/27 Đ. 3 Tháng 2,Cần Thơ,,"Ninh Kiều, Cần Thơ",VN
190,ChIJz9osHDWIoDER_Gxf7N8bgEw,Quán Tư Cò nhậu bình dân,Quán ăn nhỏ,Quán ăn nhỏ,+84 907 677 749,"Quán Tư Cò nhậu bình dân, 656 Đ. 30 Tháng 4, Hưng Lợi, Ninh Kiều, Cần Thơ, Việt Nam","Hưng Lợi, Ninh Kiều",656 Đ. 30 Tháng 4,Cần Thơ,,"Ninh Kiều, Cần Thơ",VN
192,ChIJfbsGfWSJoDERFsWLQtjFyXY,Mỹ Anh Food&Drink,Nhà hàng,Nhà hàng,+84 909 213 151,"Mỹ Anh Food&Drink, 122/7 Đ. 3 Tháng 2, Xuân Khánh, Ninh Kiều, Cần Thơ, Việt Nam","Xuân Khánh, Ninh Kiều",122/7 Đ. 3 Tháng 2,Cần Thơ,,"Ninh Kiều, Cần Thơ",VN
193,ChIJYegHLhR9oDERDkLDELj3DO4,Quán Cơm Ba Tòn,Quán ăn nhỏ,Quán ăn nhỏ,+84 888 863 119,"Quán Cơm Ba Tòn, Sông Hậu, Cái Khế, Ninh Kiều, Cần Thơ, Việt Nam","Cái Khế, Ninh Kiều",Sông Hậu,Cần Thơ,,"Ninh Kiều, Cần Thơ",VN
194,ChIJyxQGrUyHoDER_o3ULG-alBo,Quán Ăn Gia Đình Chiến,Nhà hàng gia đình,Nhà hàng gia đình,+84 706 667 999,"Quán Ăn Gia Đình Chiến, 59 Võ Văn Kiệt, Bình Thuỷ, Bình Thủy, Cần Thơ, Việt Nam","Bình Thuỷ, Bình Thủy",59 Võ Văn Kiệt,Cần Thơ,,"Bình Thủy, Cần Thơ",VN
196,ChIJpwaaaCGIoDERocle-QppeAA,Quán ăn Ti Ni,Quán ăn nhỏ,Quán ăn nhỏ,+84 358 999 037,"2QHG+HQR Quán ăn Ti Ni, Đ. Mạc Thiên Tích, Xuân Khánh, Ninh Kiều, Cần Thơ, Việt Nam","Xuân Khánh, Ninh Kiều","2QHG+HQR, Đ. Mạc Thiên Tích",Cần Thơ,,"Ninh Kiều, Cần Thơ",VN
200,ChIJ-y3kqZyJoDER-Sltqj12_qg,Cơm tấm đêm Phong,Quán ăn nhỏ,Quán ăn nhỏ,+84 707 472 252,"Cơm tấm đêm Phong, 28 Hùng Vương, An Cư, Ninh Kiều, Cần Thơ, Việt Nam","An Cư, Ninh Kiều",28 Hùng Vương,Cần Thơ,,"Ninh Kiều, Cần Thơ",VN
202,ChIJx-koloeJoDERG9x0J6a7SpQ,Quán Hủ Tiếu Mực Phúc - Bún Thái Chi Nhánh 3,Quán ăn nhỏ,Quán ăn nhỏ,+84 907 952 688,"Quán Hủ Tiếu Mực Phúc - Bún Thái Chi Nhánh 3, 39 Võ Văn Kiệt, An Hoà, Ninh Kiều, Cần Thơ, Việt Nam","An Hoà, Ninh Kiều",39 Võ Văn Kiệt,Cần Thơ,,"Ninh Kiều, Cần Thơ",VN
204,ChIJgXQ4rVyJoDERqfrNVfaGEbc,Quán Nhậu Vợ Thằng Bạn,Nhà hàng gia đình,Nhà hàng gia đình,+84 839 879 222,"Quán Nhậu Vợ Thằng Bạn, 127 Võ Văn Kiệt, Phường An Khánh, Ninh Kiều, Cần Thơ, Việt Nam","Phường An Khánh, Ninh Kiều",127 Võ Văn Kiệt,Cần Thơ,,"Ninh Kiều, Cần Thơ",VN
205,ChIJk_I0HO2JoDERd7WKbWRltp4,Ăn Uống CUỐN,Quán ăn nhẹ,Quán ăn nhẹ,+84 939 325 628,"Ăn Uống CUỐN, 691 Đ. 30 Tháng 4, Hưng Lợi, Ninh Kiều, Cần Thơ, Việt Nam","Hưng Lợi, Ninh Kiều",691 Đ. 30 Tháng 4,Cần Thơ,,"Ninh Kiều, Cần Thơ",VN
206,ChIJ8Yc5MLWJoDERQpvrdUYMyGk,Quán Ốc Metro,Quán ăn nhỏ,Quán ăn nhỏ,+84 909 596 234,"Quán Ốc Metro, 37 Ngô Sĩ Liên, Hưng Lợi, Ninh Kiều, Cần Thơ, Việt Nam","Hưng Lợi, Ninh Kiều",37 Ngô Sĩ Liên,Cần Thơ,,"Ninh Kiều, Cần Thơ",VN
209,ChIJN7rZ9HiHoDERuxK06sD5NmY,Quán ăn đặc sản CÁ LÓC TÂY ĐÔ,Nhà hàng,Nhà hàng,+84 785 555 858,"Quán ăn đặc sản CÁ LÓC TÂY ĐÔ, 91 Đ. Cách Mạng Tháng 8, An Thới, Bình Thủy, Cần Thơ 90000, Việt Nam","An Thới, Bình Thủy",91 Đ. Cách Mạng Tháng 8,Cần Thơ,90000.0,"Bình Thủy, Cần Thơ",VN
210,ChIJQ-3hQ6aJoDER4x0fBexhyCU,Quán Ăn Là Ghiền Online,Nhà hàng châu Á,Nhà hàng châu Á,+84 901 243 407,"Quán Ăn Là Ghiền Online, 333/22 Võ Văn Kiệt, Long Hoà, Bình Thủy, Cần Thơ, Việt Nam","Long Hoà, Bình Thủy",333/22 Võ Văn Kiệt,Cần Thơ,,"Bình Thủy, Cần Thơ",VN
212,ChIJk7fchT9joDERQp5O4gQog9s,Cơm bò tự nướng,Quán ăn nhỏ,Quán ăn nhỏ,,"Cơm bò tự nướng, Đ. Hồ Tùng Mậu, Cái Khế, Ninh Kiều, Cần Thơ, Việt Nam","Cái Khế, Ninh Kiều",Đ. Hồ Tùng Mậu,Cần Thơ,,"Ninh Kiều, Cần Thơ",VN
213,ChIJBePqZoaJoDERZlre_x7bYD4,Cơm mẹ nấu Phan Đăng Lưu,Quán ăn nhỏ,Quán ăn nhỏ,+84 939 664 790,"Cơm mẹ nấu Phan Đăng Lưu, 67/12 Đ. Phan Đăng Lưu, Thới Bình, Ninh Kiều, Cần Thơ, Việt Nam","Thới Bình, Ninh Kiều",67/12 Đ. Phan Đăng Lưu,Cần Thơ,,"Ninh Kiều, Cần Thơ",VN
214,ChIJ0yFrV_mJoDERL3QgNUTdQUQ,ĂN VẶT CUỐN FOODS & DRINKS,Quán ăn nhẹ,Quán ăn nhẹ,+84 939 325 628,"ĂN VẶT CUỐN FOODS & DRINKS, Tp, 691 Đ. 30 Tháng 4, Hưng Lợi, Ninh Kiều, Cần Thơ, Việt Nam","Hưng Lợi, Ninh Kiều","Tp, 691 Đ. 30 Tháng 4",Cần Thơ,,"Ninh Kiều, Cần Thơ",VN
215,ChIJD4Fg0KyHoDERB_a2HMCH1L4,Chuỗi Buffet Lẩu và Nướng Cô 3 Còi_ Cần Thơ,Nhà hàng,Nhà hàng,+84 903 922 311,"Chuỗi Buffet Lẩu và Nướng Cô 3 Còi_ Cần Thơ, 44-46 Đ. Nguyễn Văn Cừ, Cái Khế, Ninh Kiều, Cần Thơ, Việt Nam","Cái Khế, Ninh Kiều",44-46 Đ. Nguyễn Văn Cừ,Cần Thơ,,"Ninh Kiều, Cần Thơ",VN
218,ChIJE8fV0TGIoDERWKHNyD_bYFs,Nhà hàng Sáu Đời 5,Nhà hàng,Nhà hàng,+84 292 2224 868,"Nhà hàng Sáu Đời 5, 1 Đ. Nguyễn Văn Linh, Hưng Lợi, Ninh Kiều, Cần Thơ, Việt Nam","Hưng Lợi, Ninh Kiều",1 Đ. Nguyễn Văn Linh,Cần Thơ,,"Ninh Kiều, Cần Thơ",VN
219,ChIJGYzMCTSIoDERTQmHxdcmYhQ,Nhà hàng hải sản Biển Đông 2,Nhà hàng hải sản,Nhà hàng hải sản,+84 939 904 333,"Nhà hàng hải sản Biển Đông 2, 168 Đ. 30 Tháng 4, Hưng Lợi, Ninh Kiều, Cần Thơ, Việt Nam","Hưng Lợi, Ninh Kiều",168 Đ. 30 Tháng 4,Cần Thơ,,"Ninh Kiều, Cần Thơ",VN
220,ChIJ8TI0Yp9ioDERveFaxexPYSk,Quán Cơm 16,Nhà hàng Việt Nam,Nhà hàng Việt Nam,+84 292 3827 326,"Quán Cơm 16, 52 Nguyễn Thái Học, Tân An, Ninh Kiều, Cần Thơ, Việt Nam","Tân An, Ninh Kiều",52 Nguyễn Thái Học,Cần Thơ,,"Ninh Kiều, Cần Thơ",VN
227,ChIJw2tevDeIoDER_gErIfxfK7s,Quán Hủ Tiếu Mực Phúc - Bún Thái,Nhà hàng,Nhà hàng,+84 939 340 688,"Quán Hủ Tiếu Mực Phúc - Bún Thái, Ngô Sĩ Liên, Hưng Lợi, Ninh Kiều, Cần Thơ, Việt Nam","Hưng Lợi, Ninh Kiều",Ngô Sĩ Liên,Cần Thơ,,"Ninh Kiều, Cần Thơ",VN
229,ChIJYamsKx2IoDERY8MvE7qDH0U,Quán Cơm Chay Cường,Nhà hàng cho người ăn chay,Nhà hàng cho người ăn chay,+84 292 2246 313,"Quán Cơm Chay Cường, 9 Đ. Đề Thám, Tân An, Ninh Kiều, Cần Thơ, Việt Nam","Tân An, Ninh Kiều",9 Đ. Đề Thám,Cần Thơ,,"Ninh Kiều, Cần Thơ",VN
236,ChIJQ-PizB-IoDERToZqOtoQe1I,Quán Ăn Chay Bách Thảo,Nhà hàng món chay,Nhà hàng món chay,+84 918 174 071,"Quán Ăn Chay Bách Thảo, 86a Đ. Đề Thám, An Cư, Ninh Kiều, Cần Thơ, Việt Nam","An Cư, Ninh Kiều",86a Đ. Đề Thám,Cần Thơ,,"Ninh Kiều, Cần Thơ",VN
243,ChIJFXIhpjGIoDERvYd1FTXNdII,Quán Cơm Chay Thiện Duyên,Nhà hàng cho người ăn chay,Nhà hàng cho người ăn chay,,"Quán Cơm Chay Thiện Duyên, 262 Đ. 30 Tháng 4, Hưng Lợi, Ninh Kiều, Cần Thơ, Việt Nam","Hưng Lợi, Ninh Kiều",262 Đ. 30 Tháng 4,Cần Thơ,,"Ninh Kiều, Cần Thơ",VN
247,ChIJf87yUAeIoDERuqMrLAnDs3k,Bamboo Buffet,Nhà hàng,Nhà hàng,+84 902 255 116,"Bamboo Buffet, Cầu Cồn Khương, Cái Khế, Ninh Kiều, Cần Thơ, Việt Nam","Cái Khế, Ninh Kiều",Cầu Cồn Khương,Cần Thơ,,"Ninh Kiều, Cần Thơ",VN
248,ChIJRbMUoMGJoDERG_3HKczoGi4,Nhà Hàng Alô Dzô 100,Nhà hàng,Nhà hàng,+84 776 202 222,"Nhà Hàng Alô Dzô 100, 55B1B, Đ. Hồ Bún Xáng, Phường An Khánh, Ninh Kiều, Cần Thơ 94117, Việt Nam","Phường An Khánh, Ninh Kiều","55B1B, Đ. Hồ Bún Xáng",Cần Thơ,94117.0,"Ninh Kiều, Cần Thơ",VN
249,ChIJFxTQ1qBioDERo9CC7UwqyJ4,Bún bò Huế Vĩ Dạ,Nhà hàng,Nhà hàng,+84 292 3822 959,"Bún bò Huế Vĩ Dạ, 23 Xô Viết Nghệ Tĩnh, An Cư, Ninh Kiều, Cần Thơ, Việt Nam","An Cư, Ninh Kiều",23 Xô Viết Nghệ Tĩnh,Cần Thơ,,"Ninh Kiều, Cần Thơ",VN
253,ChIJhbpzXiWIoDEROlnlu1WPlNI,Quán ăn Gia Đình Đẹp Đời,Nhà hàng,Nhà hàng,+84 292 3739 066,"Quán ăn Gia Đình Đẹp Đời, 2 Đ. 30 Tháng 4, Xuân Khánh, Ninh Kiều, Cần Thơ, Việt Nam","Xuân Khánh, Ninh Kiều",2 Đ. 30 Tháng 4,Cần Thơ,,"Ninh Kiều, Cần Thơ",VN
262,ChIJialO7DCIoDERLQ-ooUqWrOU,Chả cá em Quán Lữ Gia,Nhà hàng,Nhà hàng,+84 903 760 777,"2QVP+3G3 Chả cá em Quán Lữ Gia, Bờ kè, Lý Hồng Thanh, Cái Khế, Ninh Kiều, Cần Thơ, Việt Nam","Cái Khế, Ninh Kiều","2QVP+3G3, Bờ kè, Lý Hồng Thanh",Cần Thơ,,"Ninh Kiều, Cần Thơ",VN
269,ChIJAzMxP4-JoDERt5nNTrElpoU,Quán Hồi Đó,Nhà hàng gia đình,Nhà hàng gia đình,+84 967 297 070,"Quán Hồi Đó, 54 Đ. Trần Bình Trọng, An Phú, Ninh Kiều, Cần Thơ, Việt Nam","An Phú, Ninh Kiều",54 Đ. Trần Bình Trọng,Cần Thơ,,"Ninh Kiều, Cần Thơ",VN
271,ChIJEfBxtqFioDERmIjAvkfeDd0,Bún Đậu Mắm Tôm 3 Hiền - Ngô Văn Sở Cần Thơ,Quán ăn nhỏ,"Quán ăn nhỏ, Nhà hàng Việt Nam",+84 292 3822 855,"Bún Đậu Mắm Tôm 3 Hiền - Ngô Văn Sở Cần Thơ, 25 Đ. Ngô Văn Sở, Tân An, Ninh Kiều, Cần Thơ, Việt Nam","Tân An, Ninh Kiều",25 Đ. Ngô Văn Sở,Cần Thơ,,"Ninh Kiều, Cần Thơ",VN
272,ChIJY861ya5ioDERG2EODGG2vrU,Bánh Xèo Ngọc Ngân,Nhà hàng bánh kếp,Nhà hàng bánh kếp,+84 292 3811 613,"Bánh Xèo Ngọc Ngân, 74 Lê Lợi, Cái Khế, Ninh Kiều, Cần Thơ, Việt Nam","Cái Khế, Ninh Kiều",74 Lê Lợi,Cần Thơ,,"Ninh Kiều, Cần Thơ",VN
273,ChIJtWEdDHuJoDERil5w9qUsmus,Gia Hảo the dimsum,Quán ăn nhỏ,Quán ăn nhỏ,+84 901 010 977,"Gia Hảo the dimsum, 95 Đ. Trần Văn Hoài, Xuân Khánh, Ninh Kiều, Cần Thơ 900000, Việt Nam","Xuân Khánh, Ninh Kiều",95 Đ. Trần Văn Hoài,Cần Thơ,900000.0,"Ninh Kiều, Cần Thơ",VN
281,ChIJOQUS6Z5ioDER9qnE30hDXJI,Quán Cơm Tấm Bà Tư Cần Thơ,Nhà hàng,Nhà hàng,+84 292 3827 357,"Quán Cơm Tấm Bà Tư Cần Thơ, 154/1 Phan Đình Phùng, Tân An, Ninh Kiều, Cần Thơ, Việt Nam","Tân An, Ninh Kiều",154/1 Phan Đình Phùng,Cần Thơ,,"Ninh Kiều, Cần Thơ",VN
282,ChIJZUcanbmJoDERIpOAR6PAB1w,Hẹn Hò Quán,Nhà hàng,Nhà hàng,,"Hẹn Hò Quán, 220 Trần Hưng Đạo, Lê Bình, Cái Răng, Cần Thơ, Việt Nam","Lê Bình, Cái Răng",220 Trần Hưng Đạo,Cần Thơ,,"Cái Răng, Cần Thơ",VN
283,ChIJDc5buTeIoDEREMmha0Mkqvw,PHƯƠNG TÂM - BÚN THÁI 68 CN1,Quán ăn nhỏ,Quán ăn nhỏ,+84 917 133 336,"PHƯƠNG TÂM - BÚN THÁI 68 CN1, 3 Ngô Sĩ Liên, Hưng Lợi, Ninh Kiều, Cần Thơ, Việt Nam","Hưng Lợi, Ninh Kiều",3 Ngô Sĩ Liên,Cần Thơ,,"Ninh Kiều, Cần Thơ",VN
284,ChIJkWOQMBKIoDERCyYcX2iE-hA,Quán Xưa,Nhà hàng,Nhà hàng,+84 986 239 137,"Quán Xưa, 137 Đ. Nguyễn Văn Cừ, Phường An Khánh, Ninh Kiều, Cần Thơ, Việt Nam","Phường An Khánh, Ninh Kiều",137 Đ. Nguyễn Văn Cừ,Cần Thơ,,"Ninh Kiều, Cần Thơ",VN
286,ChIJx2PlW5JjoDER_pJer7QSbnE,NHÀ HÀNG SÔNG HẬU,Nhà hàng,Nhà hàng,+84 939 217 939,"NHÀ HÀNG SÔNG HẬU, 27-29 Lê Lợi, Cái Khế, Ninh Kiều, Cần Thơ, Việt Nam","Cái Khế, Ninh Kiều",27-29 Lê Lợi,Cần Thơ,,"Ninh Kiều, Cần Thơ",VN
289,ChIJkdVTKkZjoDERUeLKCmrpqf4,Sủi cảo A Chảy,Quán ăn nhỏ,Quán ăn nhỏ,,"Sủi cảo A Chảy, 38 Đường Nguyễn An Ninh, Tân An, Ninh Kiều, Cần Thơ, Việt Nam","Tân An, Ninh Kiều",38 Đường Nguyễn An Ninh,Cần Thơ,,"Ninh Kiều, Cần Thơ",VN
291,ChIJMy4-oTCIoDERRgmqejeifbM,Quán Ăn 225-Lẩu baba,Nhà hàng,Nhà hàng,+84 292 3838 621,"Quán Ăn 225-Lẩu baba, 225B Đ. 3 Tháng 2, Hưng Lợi, Ninh Kiều, Cần Thơ, Việt Nam","Hưng Lợi, Ninh Kiều",225B Đ. 3 Tháng 2,Cần Thơ,,"Ninh Kiều, Cần Thơ",VN
300,ChIJ9UTS6SSIoDEREm0GKO32OgY,Quán Đệ nhất dê,Nhà hàng,Nhà hàng,+84 933 352 627,"Quán Đệ nhất dê, 2 Đ. Trần Văn Hoài, Xuân Khánh, Ninh Kiều, Cần Thơ, Việt Nam","Xuân Khánh, Ninh Kiều",2 Đ. Trần Văn Hoài,Cần Thơ,,"Ninh Kiều, Cần Thơ",VN
301,ChIJCdIJ50iIoDERs2UY2afbCIM,Hội Quán 91B,Nhà hàng,Nhà hàng,+84 292 3688 899,"2QC3+CQ6 Hội Quán 91B, Khu dân cư 91B, Ninh Kiều, Cần Thơ, Việt Nam","Khu dân cư 91B, Ninh Kiều",2QC3+CQ6,Cần Thơ,,"Ninh Kiều, Cần Thơ",VN
302,ChIJJ9tauVqIoDERt_jbi_xejUg,Quán ăn Gia Đình Đồng Quê,Nhà hàng,Nhà hàng,+84 706 762 429,"Quán ăn Gia Đình Đồng Quê, 82 Nguyễn Văn Cừ Nối Dài, An Bình, Ninh Kiều, Cần Thơ, Việt Nam","An Bình, Ninh Kiều",82 Nguyễn Văn Cừ Nối Dài,Cần Thơ,,"Ninh Kiều, Cần Thơ",VN
307,ChIJG0sbZx-IoDERl7PPXHMKm3Y,Quán Vịt Nấu Chao Cẩm Tú,Quán ăn nhỏ,Quán ăn nhỏ,+84 292 3733 013,"Quán Vịt Nấu Chao Cẩm Tú, 1 Đ. Lý Tự Trọng, An Phú, Ninh Kiều, Cần Thơ, Việt Nam","An Phú, Ninh Kiều",1 Đ. Lý Tự Trọng,Cần Thơ,,"Ninh Kiều, Cần Thơ",VN
310,ChIJL_nc8J9ioDERxaheTZubwY0,Cơm Gà Hùng Ký - Đại lộ Hoà Bình Cần Thơ,Nhà hàng,Nhà hàng,+84 292 3823 059,"Cơm Gà Hùng Ký - Đại lộ Hoà Bình Cần Thơ, 17A Đại lộ Hoà Bình, Tân An, Ninh Kiều, Cần Thơ, Việt Nam","Tân An, Ninh Kiều",17A Đại lộ Hoà Bình,Cần Thơ,,"Ninh Kiều, Cần Thơ",VN
311,ChIJTVGiv-CJoDERb3M6Jk0Ova4,Lẩu mắm Dạ lý,Nhà hàng gia đình,Nhà hàng gia đình,+84 917 766 671,"2Q86+347 Lẩu mắm Dạ lý, Hẻm 83 Đ. 3 Tháng 2, Hưng Lợi, Ninh Kiều, Cần Thơ, Việt Nam","Hưng Lợi, Ninh Kiều","2Q86+347, Hẻm 83 Đ. 3 Tháng 2",Cần Thơ,,"Ninh Kiều, Cần Thơ",VN
312,ChIJBd31AYFjoDERM1eQvspHg-8,Nhà Hàng Happy Crab Hải Sản Xô,Nhà hàng hải sản,"Nhà hàng hải sản, Nhà hàng Việt Nam",+84 292 2222 027,"Nhà Hàng Happy Crab Hải Sản Xô, 10-12 Đ. Nguyễn Hiền, Phường An Khánh, Ninh Kiều, Cần Thơ, Việt Nam","Phường An Khánh, Ninh Kiều",10-12 Đ. Nguyễn Hiền,Cần Thơ,,"Ninh Kiều, Cần Thơ",VN
313,ChIJlR7E0iOIoDERwDgKabWjhdA,Cơm Tấm Cây Khế,Nhà hàng,Nhà hàng,+84 913 214 533,"Cơm Tấm Cây Khế, 65 Đ. Mậu Thân, Xuân Khánh, Ninh Kiều, Cần Thơ, Việt Nam","Xuân Khánh, Ninh Kiều",65 Đ. Mậu Thân,Cần Thơ,,"Ninh Kiều, Cần Thơ",VN
314,ChIJG9K52AOJoDERpJh3cbpP0dE,Thế Giới Lẩu,Nhà hàng,Nhà hàng,+84 949 296 163,"Thế Giới Lẩu, 151/4 Đ. Trần Hoàng Na, Hưng Lợi, Ninh Kiều, Cần Thơ, Việt Nam","Hưng Lợi, Ninh Kiều",151/4 Đ. Trần Hoàng Na,Cần Thơ,,"Ninh Kiều, Cần Thơ",VN
315,ChIJVTTpFqBioDERrSWm9p29_ws,Tiệm Mì Tân Phát,Quán ăn nhỏ,Quán ăn nhỏ,+84 292 3822 441,"Tiệm Mì Tân Phát, 22 Đ. Đề Thám, Tân An, Ninh Kiều, Cần Thơ, Việt Nam","Tân An, Ninh Kiều",22 Đ. Đề Thám,Cần Thơ,,"Ninh Kiều, Cần Thơ",VN
317,ChIJD623-6tioDERtkcFqxnuRzE,Hải Sản Biển Đông,Nhà hàng hải sản,Nhà hàng hải sản,+84 939 940 333,"Hải Sản Biển Đông, 30 Lê Lợi, Cái Khế, Ninh Kiều, Cần Thơ, Việt Nam","Cái Khế, Ninh Kiều",30 Lê Lợi,Cần Thơ,,"Ninh Kiều, Cần Thơ",VN
320,ChIJDeOBkrCJoDERQLWzwTAsTSQ,Cơm Thu Vân,Quán ăn nhỏ,Quán ăn nhỏ,,"2Q32+46C Cơm Thu Vân, Lê Bình, Cái Răng, Cần Thơ, Việt Nam","Lê Bình, Cái Răng",2Q32+46C,Cần Thơ,,"Cái Răng, Cần Thơ",VN
322,ChIJv37Wt7uJoDERVaNgZQH64gM,Cơm Gà Lê Trang - Nguyễn Văn Linh,Nhà hàng bán đồ ăn mang về,Nhà hàng bán đồ ăn mang về,+84 944 015 012,"Cơm Gà Lê Trang - Nguyễn Văn Linh, 406 Đ. Nguyễn Văn Linh, Hưng Lợi, Ninh Kiều, Cần Thơ, Việt Nam","Hưng Lợi, Ninh Kiều",406 Đ. Nguyễn Văn Linh,Cần Thơ,,"Ninh Kiều, Cần Thơ",VN
323,ChIJt6eTN8SJoDERrgqzAAvDu0U,Nhà hàng bò tơ năm sánh,Nhà hàng gia đình,Nhà hàng gia đình,,"2QW6+R5J Nhà hàng bò tơ năm sánh, An Hoà, Ninh Kiều, Cần Thơ, Việt Nam","An Hoà, Ninh Kiều",2QW6+R5J,Cần Thơ,,"Ninh Kiều, Cần Thơ",VN
325,ChIJIcd3BBaJoDER1MwL32zdFEw,DÊ CHỈ 1102 CHI NHÁNH 2,Nhà hàng gia đình,Nhà hàng gia đình,+84 988 336 959,"DÊ CHỈ 1102 CHI NHÁNH 2, 39A Đ. Trần Hoàng Na, Khu dân cư 91B, Ninh Kiều, Cần Thơ, Việt Nam","Khu dân cư 91B, Ninh Kiều",39A Đ. Trần Hoàng Na,Cần Thơ,,"Ninh Kiều, Cần Thơ",VN
326,ChIJC06vD5aJoDER_l21fHvv3wc,Quán Cơm Tấm Hai Lúa 132 Ba Thang Hai Phương Xuân Khánh Quận Ninh Kiều Cần Thơ,Nhà hàng,Nhà hàng,+84 799 959 100,"Quán Cơm Tấm Hai Lúa 132 Ba Thang Hai Phương Xuân Khánh Quận Ninh Kiều Cần Thơ, 132 Đ. 3 Tháng 2, Xuân Khánh, Ninh Kiều, Cần Thơ, Việt Nam","Xuân Khánh, Ninh Kiều",132 Đ. 3 Tháng 2,Cần Thơ,,"Ninh Kiều, Cần Thơ",VN
328,ChIJy7ET0myJoDERtOlFBdy3eA8,Nhà hàng 6 Đời 1,Nhà hàng gia đình,"Nhà hàng gia đình, Nhà hàng",,"Nhà hàng 6 Đời 1, 136b Đ. Nguyễn Văn Cừ, Phường An Khánh, Ninh Kiều, Cần Thơ, Việt Nam","Phường An Khánh, Ninh Kiều",136b Đ. Nguyễn Văn Cừ,Cần Thơ,,"Ninh Kiều, Cần Thơ",VN
329,ChIJ7WHqC1CIoDEReJ32C4gakHg,Phở Thủy,Nhà hàng phở,"Nhà hàng phở, Nhà hàng chuyên phục vụ bữa sáng",+84 984 980 928,"Phở Thủy, 257 Đường Số 4, An Bình, Ninh Kiều, Cần Thơ, Việt Nam","An Bình, Ninh Kiều",257 Đường Số 4,Cần Thơ,,"Ninh Kiều, Cần Thơ",VN
330,ChIJ_6Eod8-JoDER4qrP9q_4vic,Quán Cơm Ếch - KDC Metro,Nhà hàng,Nhà hàng,+84 939 084 814,"Quán Cơm Ếch - KDC Metro, 21/5 Ngô Sĩ Liên, Hưng Lợi, Ninh Kiều, Cần Thơ, Việt Nam","Hưng Lợi, Ninh Kiều",21/5 Ngô Sĩ Liên,Cần Thơ,,"Ninh Kiều, Cần Thơ",VN
336,ChIJCeAX4yeIoDERadiuZ4DBfOA,Quán ăn gia đình 39&79,Nhà hàng,Nhà hàng,+84 292 3836 633,"2QFJ+2G5 Quán ăn gia đình 39&79, Hưng Phú, Cái Răng, Cần Thơ, Việt Nam","Hưng Phú, Cái Răng",2QFJ+2G5,Cần Thơ,,"Cái Răng, Cần Thơ",VN
345,ChIJQ5iq2SOIoDERiiaE5Nzeyhc,Ngộ Quán,Nhà hàng,Nhà hàng,+84 916 759 339,"Ngộ Quán, 42 Đ. Mạc Thiên Tích, Xuân Khánh, Ninh Kiều, Cần Thơ, Việt Nam","Xuân Khánh, Ninh Kiều",42 Đ. Mạc Thiên Tích,Cần Thơ,,"Ninh Kiều, Cần Thơ",VN
346,ChIJTycSc8iJoDERS9UIclZhIfc,Nem Nướng Thanh Vân,Quán ăn nhỏ,Quán ăn nhỏ,+84 292 3827 255,"Nem Nướng Thanh Vân, 17 Đại lộ Hoà Bình, Tân An, Ninh Kiều, Cần Thơ, Việt Nam","Tân An, Ninh Kiều",17 Đại lộ Hoà Bình,Cần Thơ,,"Ninh Kiều, Cần Thơ",VN
348,ChIJuzswLCKIoDERSoU8ghH0leE,Quán Bún Bò Huế,Quán ăn nhỏ,Quán ăn nhỏ,+84 292 3832 780,"Quán Bún Bò Huế, 69 Đ. Mậu Thân, Xuân Khánh, Ninh Kiều, Cần Thơ, Việt Nam","Xuân Khánh, Ninh Kiều",69 Đ. Mậu Thân,Cần Thơ,,"Ninh Kiều, Cần Thơ",VN
350,ChIJYXcq5TSIoDERTDxWS4oNJkI,Quán Cơm Tấm Đông Hồ,Quán ăn nhỏ,Quán ăn nhỏ,+84 839 086 363,"Quán Cơm Tấm Đông Hồ, 469 Đ. 30 Tháng 4, Hưng Lợi, Ninh Kiều, Cần Thơ, Việt Nam","Hưng Lợi, Ninh Kiều",469 Đ. 30 Tháng 4,Cần Thơ,,"Ninh Kiều, Cần Thơ",VN
352,ChIJMT6rfDWJoDER3ylCvjGhsSo,Bánh tầm cay 777 - Đặc sản Cà Mau,Quán ăn nhỏ,Quán ăn nhỏ,+84 942 696 746,"Bánh tầm cay 777 - Đặc sản Cà Mau, 02 Đ. Nguyễn Văn Cừ, Cái Khế, Ninh Kiều, Cần Thơ, Việt Nam","Cái Khế, Ninh Kiều",02 Đ. Nguyễn Văn Cừ,Cần Thơ,,"Ninh Kiều, Cần Thơ",VN
357,ChIJ-R11ab2JoDERPV83HYWf8ig,Quán Hải Sản Ba Cua 1,Nhà hàng hải sản,Nhà hàng hải sản,+84 933 968 173,"Quán Hải Sản Ba Cua 1, 168/, Hẻm 4, Lê Bình, Cái Răng, Cần Thơ, Việt Nam","Lê Bình, Cái Răng","168/, Hẻm 4",Cần Thơ,,"Cái Răng, Cần Thơ",VN
359,ChIJGxUeOh-IoDERCTCzbp7NTks,Quán Nhà Quê,Quán ăn nhỏ,Quán ăn nhỏ,+84 899 688 323,"2QMG+RQ5 Quán Nhà Quê, Đ. Trần Bình Trọng, An Phú, Ninh Kiều, Cần Thơ, Việt Nam","An Phú, Ninh Kiều","2QMG+RQ5, Đ. Trần Bình Trọng",Cần Thơ,,"Ninh Kiều, Cần Thơ",VN
360,ChIJK4mOZjSIoDERc1PAhAiKn2U,Quán Ăn Gia Đình Cò Bằng,Nhà hàng,Nhà hàng,+84 292 3739 938,"Quán Ăn Gia Đình Cò Bằng, 175 Đ. 30 Tháng 4, Hưng Lợi, Ninh Kiều, Cần Thơ, Việt Nam","Hưng Lợi, Ninh Kiều",175 Đ. 30 Tháng 4,Cần Thơ,,"Ninh Kiều, Cần Thơ",VN
366,ChIJ95IjZqBioDERQwQMV5F16uU,Mì Ý Chung Cư,Quán ăn nhỏ,Quán ăn nhỏ,+84 292 3819 965,"Mì Ý Chung Cư, 34 Đ. Nguyễn Khuyến, Tân An, Ninh Kiều, Cần Thơ, Việt Nam","Tân An, Ninh Kiều",34 Đ. Nguyễn Khuyến,Cần Thơ,,"Ninh Kiều, Cần Thơ",VN
367,ChIJcxNwTLWJoDERRdSePxh0pdI,Quán Ven Sông,Nhà hàng gia đình,Nhà hàng gia đình,+84 292 3825 242,"Quán Ven Sông, 88/79A Đ. Cách Mạng Tháng 8, Cái Khế, Ninh Kiều, Cần Thơ, Việt Nam","Cái Khế, Ninh Kiều",88/79A Đ. Cách Mạng Tháng 8,Cần Thơ,,"Ninh Kiều, Cần Thơ",VN
368,ChIJ74w25p5ioDERGX6ZGo5nPqw,Quán ăn 134 Phan Đình Phùng,Nhà hàng bít tết,"Nhà hàng bít tết, Quán ăn nhỏ, Nhà hàng chuyên phục vụ bữa sáng",+84 292 3821 243,"Quán ăn 134 Phan Đình Phùng, 134 Phan Đình Phùng, Tân An, Ninh Kiều, Cần Thơ 900000, Việt Nam","Tân An, Ninh Kiều",134 Phan Đình Phùng,Cần Thơ,900000.0,"Ninh Kiều, Cần Thơ",VN
383,ChIJh1zhEJaJoDERFvMFMG4ASi4,Ẩm Thực 88 - Bia Hơi Hà Nội (Cơ sở 1),Nhà hàng,Nhà hàng,+84 908 592 888,"Ẩm Thực 88 - Bia Hơi Hà Nội (Cơ sở 1), Đ. Trần Hoàng Na, Hưng Lợi, Ninh Kiều, Cần Thơ 90000, Việt Nam","Hưng Lợi, Ninh Kiều",Đ. Trần Hoàng Na,Cần Thơ,90000.0,"Ninh Kiều, Cần Thơ",VN
384,ChIJOSFBYRuJoDERHNBneKKPquc,Quán ăn Cây trứng cá (bò đùm),Nhà hàng,Nhà hàng,+84 978 018 011,"2P5X+J9C Quán ăn Cây trứng cá (bò đùm), An Bình, Ninh Kiều, Cần Thơ, Việt Nam","An Bình, Ninh Kiều",2P5X+J9C,Cần Thơ,,"Ninh Kiều, Cần Thơ",VN
390,ChIJRVeWb9WJoDER-Xlq8yM5Lfg,Quán ăn Dr. Dê,Nhà hàng,Nhà hàng,,"2QJ2+P89 Quán ăn Dr. Dê, Phường An Khánh, Ninh Kiều, Cần Thơ, Việt Nam","Phường An Khánh, Ninh Kiều",2QJ2+P89,Cần Thơ,,"Ninh Kiều, Cần Thơ",VN
397,ChIJe-RyVaSJoDERffvlYIaUaZQ,Tiệm Nướng Chí Phèo KanTho,Nhà hàng món nướng,Nhà hàng món nướng,+84 292 7303 979,"Tiệm Nướng Chí Phèo KanTho, Đường số 3 khu cán bộ gv dhct, Hẻm 51, Hưng Lợi, Ninh Kiều, Cần Thơ, Việt Nam","Hưng Lợi, Ninh Kiều","Đường số 3 khu cán bộ gv dhct, Hẻm 51",Cần Thơ,,"Ninh Kiều, Cần Thơ",VN
398,ChIJQSgtzAaJoDERKnuijb4FkNw,Dê đệ nhất,Nhà hàng gia đình,Nhà hàng gia đình,,"Dê đệ nhất, 147 Võ Văn Kiệt, An Hoà, Ninh Kiều, Cần Thơ, Việt Nam","An Hoà, Ninh Kiều",147 Võ Văn Kiệt,Cần Thơ,,"Ninh Kiều, Cần Thơ",VN
400,ChIJzy6AoemHoDERWryezCtvDM0,Tháp Mười Quán,Nhà hàng gia đình,Nhà hàng gia đình,+84 989 656 570,"Tháp Mười Quán, 416 Huỳnh Mẫn Đạt, Bùi Hữu Nghĩa, Bình Thủy, Cần Thơ, Việt Nam","Bùi Hữu Nghĩa, Bình Thủy",416 Huỳnh Mẫn Đạt,Cần Thơ,,"Bình Thủy, Cần Thơ",VN
401,ChIJz3BhFKBioDERftkFqKpcL0g,"Quán Bánh Xèo, Bánh Cống Huê Viên",Quán ăn nhỏ,Quán ăn nhỏ,+84 946 173 262,"Quán Bánh Xèo, Bánh Cống Huê Viên, 22 Đ. Đề Thám, An Cư, Ninh Kiều, Cần Thơ, Việt Nam","An Cư, Ninh Kiều",22 Đ. Đề Thám,Cần Thơ,,"Ninh Kiều, Cần Thơ",VN
402,ChIJOc3ZhSRjoDERFmulA32kOAU,Cơm Niêu Nhà Ngoại,Nhà hàng gia đình,Nhà hàng gia đình,,"2QXP+57R Cơm Niêu Nhà Ngoại, Trần Quang Khải, Cái Khế, Ninh Kiều, Cần Thơ, Việt Nam","Cái Khế, Ninh Kiều","2QXP+57R, Trần Quang Khải",Cần Thơ,,"Ninh Kiều, Cần Thơ",VN
406,ChIJGYeO6jaHoDERYcETK2D-bak,Quán ba cua 2,Nhà hàng hải sản,Nhà hàng hải sản,,"Quán ba cua 2, C2 Đ. Cách Mạng Tháng 8, Thới Bình, Ninh Kiều, Cần Thơ, Việt Nam","Thới Bình, Ninh Kiều",C2 Đ. Cách Mạng Tháng 8,Cần Thơ,,"Ninh Kiều, Cần Thơ",VN
409,ChIJWRnRqydjoDER9skkPlI7L9Q,Chân gà nướng Hoàng Vũ,Quán ăn nhỏ,Quán ăn nhỏ,,"Chân gà nướng Hoàng Vũ, 18 Hẻm 1 Đường Hoàng Văn Thụ, Tân An, Ninh Kiều, Cần Thơ, Việt Nam","Tân An, Ninh Kiều",18 Hẻm 1 Đường Hoàng Văn Thụ,Cần Thơ,,"Ninh Kiều, Cần Thơ",VN
411,ChIJ6WiP9eRjoDERo0KQeN10s40,Hủ tiếu Nam Vang A Đại,Quán ăn nhỏ,Quán ăn nhỏ,+84 777 702 797,"Hủ tiếu Nam Vang A Đại, 10 Đ. Nguyễn Khuyến, Tân An, Ninh Kiều, Cần Thơ, Việt Nam","Tân An, Ninh Kiều",10 Đ. Nguyễn Khuyến,Cần Thơ,,"Ninh Kiều, Cần Thơ",VN
412,ChIJZbra2paJoDERfRZ3WoXVpyQ,Trâu Mộc 139,Nhà hàng gia đình,Nhà hàng gia đình,+84 947 645 252,"Trâu Mộc 139, 139 Đ. Nguyễn Đệ, An Hoà, Ninh Kiều, Cần Thơ, Việt Nam","An Hoà, Ninh Kiều",139 Đ. Nguyễn Đệ,Cần Thơ,,"Ninh Kiều, Cần Thơ",VN
418,ChIJ7dQXyVp9oDERfIFsTFSqGKo,Thành Lợi Quán,Nhà hàng,Nhà hàng,+84 270 3890 552,"3Q8V+C6W Thành Lợi Quán, QL54, Thành Lợi, Bình Tân, Vĩnh Long, Việt Nam","Thành Lợi, Bình Tân","3Q8V+C6W, QL54",Vĩnh Long,,"Bình Tân, Vĩnh Long",VN
419,ChIJe_k9EWCJoDER_Tcocs7nyOE,Phở Nghi,Nhà hàng phở,Nhà hàng phở,+84 292 3943 620,"Phở Nghi, 118 Trần Hoàng Na Cần Thơ Can Tho City, 900000, Việt Nam","Hưng Lợi, Ninh Kiều",118 Trần Hoàng Na Cần Thơ Can Tho City,Cần Thơ,900000.0,"Ninh Kiều, Cần Thơ",VN
420,ChIJKTbh5Dh9oDERGLmiFxOyUlU,Quán Ăn Cô Ba,Quán ăn nhỏ,Quán ăn nhỏ,+84 270 3892 389,"Quán Ăn Cô Ba, 5565 Quốc Lộ 1A, Cái Vồn, Bình Minh, Vĩnh Long, Việt Nam","Cái Vồn, Bình Minh",5565 Quốc Lộ 1A,Vĩnh Long,,"Bình Minh, Vĩnh Long",VN
427,ChIJ60_uUJGJoDERPNINRooGeMc,Cơm tấm Bà Bảy,Quán ăn nhỏ,Quán ăn nhỏ,,"2P9Q+39Q Cơm tấm Bà Bảy, Nguyễn Văn Cừ Nối Dài, An Bình, Ninh Kiều, Cần Thơ, Việt Nam","An Bình, Ninh Kiều","2P9Q+39Q, Nguyễn Văn Cừ Nối Dài",Cần Thơ,,"Ninh Kiều, Cần Thơ",VN
428,ChIJBWeG_atioDER3Cj8lg_yN0w,Tân Đào Hoa Đảo Food & Beer,Nhà hàng hải sản,Nhà hàng hải sản,+84 922 090 979,"Tân Đào Hoa Đảo Food & Beer, 118/9/47B Trần Quang Khải, Cái Khế, Ninh Kiều, Cần Thơ, Việt Nam","Cái Khế, Ninh Kiều",118/9/47B Trần Quang Khải,Cần Thơ,,"Ninh Kiều, Cần Thơ",VN
431,ChIJQ9bIs65ioDERb-8EF7FFhxQ,Nhà Hàng - Karaoke Bến Cát,Nhà hàng,Nhà hàng,,"Nhà Hàng - Karaoke Bến Cát, 66 Lê Lợi, Cái Khế, Ninh Kiều, Cần Thơ, Việt Nam","Cái Khế, Ninh Kiều",66 Lê Lợi,Cần Thơ,,"Ninh Kiều, Cần Thơ",VN
432,ChIJFYDelxyJoDERZNi_557cAqU,Quán Ăn Gia Đình Hương Đồng,Nhà hàng gia đình,Nhà hàng gia đình,+84 939 152 456,"Quán Ăn Gia Đình Hương Đồng, 184 Đ. 3 Tháng 2, Hưng Lợi, Ninh Kiều, Cần Thơ, Việt Nam","Hưng Lợi, Ninh Kiều",184 Đ. 3 Tháng 2,Cần Thơ,,"Ninh Kiều, Cần Thơ",VN
439,ChIJ2YJtM3CJoDERWZ7YPgc90Vg,Cơm gà Lê Trang - 590 đường 30T4,Quán ăn nhỏ,Quán ăn nhỏ,+84 949 568 795,"Cơm gà Lê Trang - 590 đường 30T4, 590 Đ. 30 Tháng 4, Hưng Lợi, Ninh Kiều, Cần Thơ, Việt Nam","Hưng Lợi, Ninh Kiều",590 Đ. 30 Tháng 4,Cần Thơ,,"Ninh Kiều, Cần Thơ",VN
442,ChIJAUc-0tSJoDERmnmyc6V-hTc,Quán ăn gia đình Tâm Dê,Nhà hàng,Nhà hàng,+84 939 369 399,"Quán ăn gia đình Tâm Dê, 404E Đường số 7, Khu TĐC Cán bộ giáo viên Trường Đại học Cần Thơ, P.An Khánh, Q, Ninh Kiều, Cần Thơ, Việt Nam","Hưng Lợi, Ninh Kiều","404E Đường số 7, Khu TĐC Cán bộ giáo viên Trường Đại học Cần Thơ, P.An Khánh, Q",Cần Thơ,,"Ninh Kiều, Cần Thơ",VN
447,ChIJkZeH9UWJoDERoYiDgfupK3k,QUÁN DÊ THẬT,Quán ăn nhỏ,Quán ăn nhỏ,+84 907 330 078,"QUÁN DÊ THẬT, 362A Lê Bình, Cái Răng, Cần Thơ 903678, Việt Nam","Lê Bình, Cái Răng",362A Lê Bình,Cần Thơ,903678.0,"Cái Răng, Cần Thơ",VN
455,ChIJ9edbi2KIoDERuL0j1BbFNf4,Quán ăn Bê Thui Đồng Quê,Nhà hàng,Nhà hàng,+84 903 808 906,"Quán ăn Bê Thui Đồng Quê, kv Bình Trung P., Long Tuyền, Bình Thủy, Cần Thơ, Việt Nam","Long Tuyền, Bình Thủy",kv Bình Trung P.,Cần Thơ,,"Bình Thủy, Cần Thơ",VN
457,ChIJRwFQ-y9joDER-ai82tgXUyI,Mì vịt tiềm Tấn Phát,Nhà hàng gia đình,Nhà hàng gia đình,+84 977 448 950,"Mì vịt tiềm Tấn Phát, 24A Đ. Lý Thường Kiệt, P, Ninh Kiều, Cần Thơ, Việt Nam","P, Ninh Kiều",24A Đ. Lý Thường Kiệt,Cần Thơ,,"Ninh Kiều, Cần Thơ",VN
458,ChIJC5zrVLKJoDERhztCVnNPF_4,Quán nhậu 123,Quán ăn nhỏ,Quán ăn nhỏ,+84 913 157 434,"Quán nhậu 123, ĐT923, An Bình, Ninh Kiều, Cần Thơ, Việt Nam","An Bình, Ninh Kiều",ĐT923,Cần Thơ,,"Ninh Kiều, Cần Thơ",VN
461,ChIJA8JeU_yJoDERf4vAsam9pAk,Cá lóc quay Hiệp Thành,Quán ăn nhỏ,Quán ăn nhỏ,+84 905 522 256,"Cá lóc quay Hiệp Thành, 759A Đ. Nguyễn Văn Cừ, Phường An Khánh, Ninh Kiều, Cần Thơ, Việt Nam","Phường An Khánh, Ninh Kiều",759A Đ. Nguyễn Văn Cừ,Cần Thơ,,"Ninh Kiều, Cần Thơ",VN
463,ChIJpTY4NUiJoDER3piGPju8cMo,Quán ăn pallet,Nhà hàng gia đình,Nhà hàng gia đình,,"2QW7+C37 Quán ăn pallet, Võ Văn Kiệt, Phường An Khánh, Ninh Kiều, Cần Thơ, Việt Nam","Phường An Khánh, Ninh Kiều","2QW7+C37, Võ Văn Kiệt",Cần Thơ,,"Ninh Kiều, Cần Thơ",VN
470,ChIJoZzjq32JoDERZPK2uY-eNCY,Phố Đậu- Mắm tôm tóp mỡ,Quán ăn nhỏ,Quán ăn nhỏ,+84 824 439 555,"Phố Đậu- Mắm tôm tóp mỡ, 48 Đ. Nguyễn Tri Phương, Phường An Khánh, Ninh Kiều, Cần Thơ 900000, Việt Nam","Phường An Khánh, Ninh Kiều",48 Đ. Nguyễn Tri Phương,Cần Thơ,900000.0,"Ninh Kiều, Cần Thơ",VN
471,ChIJYXdxBtVjoDERT6hH61gnRCI,Quán GÀ ĐỐT 79,Nhà hàng,Nhà hàng,+84 919 234 340,"Quán GÀ ĐỐT 79, 259K/8, Khu vực 2/Hẻm 259 Đ. Trần Vĩnh Kiết, Cần Thơ, 94118, Việt Nam","Phường An Khánh, Cần Thơ","259K/8, Khu vực 2/Hẻm 259 Đ. Trần Vĩnh Kiết",Cần Thơ,94118.0,Cần Thơ,VN
473,ChIJry-p2SWJoDERSEgl5MrcihI,Quán cháo gà ta - Chị Tư,Nhà hàng cháo,Nhà hàng cháo,+84 918 026 418,"Quán cháo gà ta - Chị Tư, chạy dọc bờ kè khoảng, từ, Cầu Rạch Ngỗng 2/200m Bờ kè Lò Mổ, Phường An Khánh, Ninh Kiều, Cần Thơ, Việt Nam","Phường An Khánh, Ninh Kiều","chạy dọc bờ kè khoảng, từ, Cầu Rạch Ngỗng 2/200m Bờ kè Lò Mổ",Cần Thơ,,"Ninh Kiều, Cần Thơ",VN
474,ChIJ3ceX2OeJoDER9VQ9yINLE1w,Tiệm Bún A Nhỉu,Quán ăn nhỏ,Quán ăn nhỏ,+84 339 771 518,"Tiệm Bún A Nhỉu, 41 Đ. Mạc Thiên Tích, Xuân Khánh, Ninh Kiều, Cần Thơ, Việt Nam","Xuân Khánh, Ninh Kiều",41 Đ. Mạc Thiên Tích,Cần Thơ,,"Ninh Kiều, Cần Thơ",VN
475,ChIJmXdsCbOJoDERD3hXmyrsnlc,Quán Cơm 69,Nhà hàng,Nhà hàng,+84 292 3847 250,"Quán Cơm 69, 94 Đ. 3 Tháng 2, An Bình, Ninh Kiều, Cần Thơ, Việt Nam","An Bình, Ninh Kiều",94 Đ. 3 Tháng 2,Cần Thơ,,"Ninh Kiều, Cần Thơ",VN
479,ChIJMaEWugFjoDERTg94WcHpxq0,LA CÀ (quán ăn gia đình),Nhà hàng Việt Nam,Nhà hàng Việt Nam,,"LA CÀ (quán ăn gia đình), 121 Trần Văn Khéo, Cái Khế, Ninh Kiều, Cần Thơ, Việt Nam","Cái Khế, Ninh Kiều",121 Trần Văn Khéo,Cần Thơ,,"Ninh Kiều, Cần Thơ",VN
480,ChIJ7V7NxQaJoDERc_ya8Z3l068,Quán ăn Cây Cầu Đỏ,Nhà hàng châu Á,Nhà hàng châu Á,+84 922 794 486,"Quán ăn Cây Cầu Đỏ, 17 Đ. Trần Nam Phú, Xuân Khánh, Ninh Kiều, Cần Thơ, Việt Nam","Xuân Khánh, Ninh Kiều",17 Đ. Trần Nam Phú,Cần Thơ,,"Ninh Kiều, Cần Thơ",VN
496,ChIJW8oAF6BioDERx71bibjhPTQ,Quán Phở Minh,Nhà hàng phở,"Nhà hàng phở, Quán ăn nhỏ",+84 944 892 989,"Quán Phở Minh, 15 Đ. Đề Thám, Tân An, Ninh Kiều, Cần Thơ 900000, Việt Nam","Tân An, Ninh Kiều",15 Đ. Đề Thám,Cần Thơ,900000.0,"Ninh Kiều, Cần Thơ",VN
497,ChIJz9Ltvi1joDERDwkU8uyncmY,Nhà Hàng Sen Vàng,Nhà hàng hải sản,Nhà hàng hải sản,,"Nhà Hàng Sen Vàng, 143 Trần Văn Khéo, Cái Khế, Ninh Kiều, Cần Thơ, Việt Nam","Cái Khế, Ninh Kiều",143 Trần Văn Khéo,Cần Thơ,,"Ninh Kiều, Cần Thơ",VN
501,ChIJr_5p7zCIoDERVW3UBCSrqDE,Quán 33k,Quán ăn nhỏ,Quán ăn nhỏ,,"2QC8+5HR Quán 33k, QL91B, Hưng Lợi, Ninh Kiều, Cần Thơ, Việt Nam","Hưng Lợi, Ninh Kiều","2QC8+5HR, QL91B",Cần Thơ,,"Ninh Kiều, Cần Thơ",VN
502,ChIJI0pcYa6JoDERQHsfdCOnT6g,Cơm Tấm 510,Quán ăn nhỏ,Quán ăn nhỏ,+84 945 279 179,"Cơm Tấm 510, 510 Đ. 30 Tháng 4, Hưng Lợi, Ninh Kiều, Cần Thơ, Việt Nam","Hưng Lợi, Ninh Kiều",510 Đ. 30 Tháng 4,Cần Thơ,,"Ninh Kiều, Cần Thơ",VN
503,ChIJMTqGUjSJoDER4cDG9L_jNHE,Lẩu Chay Chế Út,Nhà hàng món chay,Nhà hàng món chay,+84 932 960 070,"Lẩu Chay Chế Út, 20 Đ. Nguyễn Tri Phương, Phường An Khánh, Ninh Kiều, Cần Thơ 900000, Việt Nam","Phường An Khánh, Ninh Kiều",20 Đ. Nguyễn Tri Phương,Cần Thơ,900000.0,"Ninh Kiều, Cần Thơ",VN
504,ChIJuzCn7gmHoDERUXHSxQHJACI,Kae Galbi - Quán thịt nướng,Nhà hàng Hàn Quốc,Nhà hàng Hàn Quốc,+84 934 651 939,"Kae Galbi - Quán thịt nướng, 8 Đ. Số 18, Cái Khế, Ninh Kiều, Cần Thơ, Việt Nam","Cái Khế, Ninh Kiều",8 Đ. Số 18,Cần Thơ,,"Ninh Kiều, Cần Thơ",VN
506,ChIJF32LUriJoDER7XZyjpP0K7w,Bún Cá Kiên Giang Ngộ,Quán ăn nhỏ,"Quán ăn nhỏ, Quán cà phê",+84 946 100 999,"Bún Cá Kiên Giang Ngộ, 67 Đ. Trần Bình Trọng, An Phú, Ninh Kiều, Cần Thơ, Việt Nam","An Phú, Ninh Kiều",67 Đ. Trần Bình Trọng,Cần Thơ,,"Ninh Kiều, Cần Thơ",VN
507,ChIJMx-wSLuJoDEROgjzLwqlm2g,Quán Nhậu Hèm 24h,Nhà hàng,Nhà hàng,+84 919 738 868,"Quán Nhậu Hèm 24h, 14 Đường Trần Hoàng Na, Hưng Lợi, Ninh Kiều, Cần Thơ, Việt Nam","Hưng Lợi, Ninh Kiều",14 Đường Trần Hoàng Na,Cần Thơ,,"Ninh Kiều, Cần Thơ",VN
508,ChIJs8lQniaIoDERnSBin3dsIBA,Quán Cơm Tấm Trâm,Quán ăn nhỏ,Quán ăn nhỏ,+84 939 474 771,"Quán Cơm Tấm Trâm, 7A, Đường 30/4, Quận Ninh Kiều, TP Cần Thơ, Xuân Khánh, Ninh Kiều, Cần Thơ, Việt Nam","Xuân Khánh, Ninh Kiều","7A, Đường 30/4, Quận Ninh Kiều, TP Cần Thơ",Cần Thơ,,"Ninh Kiều, Cần Thơ",VN
509,ChIJS9Fcy_GHoDERh_JDK9X8ozk,Quán Gà Vườn Táo Cồn Khương.,Quán ăn nhỏ,Quán ăn nhỏ,+84 707 322 328,"3Q6H+M3F Quán Gà Vườn Táo Cồn Khương., Đường số 1, Cái Khế, Ninh Kiều, Cần Thơ, Việt Nam","Cái Khế, Ninh Kiều","3Q6H+M3F, Đường số 1",Cần Thơ,,"Ninh Kiều, Cần Thơ",VN
511,ChIJp57j4yCIoDER3h9HRossjls,Quán Ăn Đông Hồ,Nhà hàng,Nhà hàng,+84 292 3824 199,"Quán Ăn Đông Hồ, 73 Đ. 30 Tháng 4, An Lạc, Ninh Kiều, Cần Thơ, Việt Nam","An Lạc, Ninh Kiều",73 Đ. 30 Tháng 4,Cần Thơ,,"Ninh Kiều, Cần Thơ",VN
513,ChIJ155s2M5joDERA94D8u3pZ_8,Hai Lạng Mốt Cái Khế,Nhà hàng,Nhà hàng,+84 866 675 986,"Hai Lạng Mốt Cái Khế, 03B Sông Hậu, Cái Khế, Ninh Kiều, Cần Thơ, Việt Nam","Cái Khế, Ninh Kiều",03B Sông Hậu,Cần Thơ,,"Ninh Kiều, Cần Thơ",VN
516,ChIJJQhfUj6JoDERetHcZ23bQyY,Quán cơm Chú Lùn,Quán ăn nhỏ,Quán ăn nhỏ,,"Quán cơm Chú Lùn, 75 Đ. Phan Đăng Lưu, Thới Bình, Ninh Kiều, Cần Thơ, Việt Nam","Thới Bình, Ninh Kiều",75 Đ. Phan Đăng Lưu,Cần Thơ,,"Ninh Kiều, Cần Thơ",VN
525,ChIJdy4nGCCIoDERtfM7nbegA4k,Nem Nướng Anh Mập,Quán ăn nhỏ,Quán ăn nhỏ,+84 292 3734 135,"Nem Nướng Anh Mập, Số 18 Đường Nguyễn An Ninh, Tân An, Ninh Kiều, Cần Thơ, Việt Nam","Tân An, Ninh Kiều",Số 18 Đường Nguyễn An Ninh,Cần Thơ,,"Ninh Kiều, Cần Thơ",VN
526,ChIJfym6kX6JoDERoir36gzAe2U,Quán cơm Quê Nhà,Quán ăn nhỏ,Quán ăn nhỏ,+84 939 998 563,"Quán cơm Quê Nhà, Hẻm 132 Đ. 3 Tháng 2, Hưng Lợi, Ninh Kiều, Cần Thơ, Việt Nam","Hưng Lợi, Ninh Kiều",Hẻm 132 Đ. 3 Tháng 2,Cần Thơ,,"Ninh Kiều, Cần Thơ",VN
535,ChIJC9wQtvyJoDERnljdQa0ulC4,An Nhiên House,Nhà hàng món nướng,Nhà hàng món nướng,+84 919 300 588,"An Nhiên House, ĐỊA CHỈ: CẠNH, 96 Đ. Nguyễn Văn Cừ, KV IV, Ninh Kiều, Cần Thơ 90000, Việt Nam","KV IV, Ninh Kiều","ĐỊA CHỈ: CẠNH, 96 Đ. Nguyễn Văn Cừ",Cần Thơ,90000.0,"Ninh Kiều, Cần Thơ",VN
536,ChIJ5dqbvnmJoDERfZmIYVX4GgY,Đồ Nướng Hẻm 132,Quán ăn nhỏ,Quán ăn nhỏ,+84 375 775 575,"Đồ Nướng Hẻm 132, Hưng Lợi, Ninh Kiều, Cần Thơ, Việt Nam","Hưng Lợi, Ninh Kiều",,Cần Thơ,,"Ninh Kiều, Cần Thơ",VN
538,ChIJlaTeEEGJoDERDcmbzKgrM3k,Cơm Tấm Sà - Bì - Chưởng 15k,Quán ăn nhỏ,Quán ăn nhỏ,+84 856 724 717,"Cơm Tấm Sà - Bì - Chưởng 15k, Hẻm 107 Đ. 3 Tháng 2, Hưng Lợi, Ninh Kiều, Cần Thơ, Việt Nam","Hưng Lợi, Ninh Kiều",Hẻm 107 Đ. 3 Tháng 2,Cần Thơ,,"Ninh Kiều, Cần Thơ",VN
540,ChIJ78QL6UOHoDERZALzYlTO2Xs,Buffet Home BBQ,Nhà hàng,Nhà hàng,,"Buffet Home BBQ, 42 Đ. Nguyễn Văn Cừ, Cái Khế, Ninh Kiều, Cần Thơ, Việt Nam","Cái Khế, Ninh Kiều",42 Đ. Nguyễn Văn Cừ,Cần Thơ,,"Ninh Kiều, Cần Thơ",VN
541,ChIJ38RG7zCIoDEReZz7gkmlR4s,Quán Ăn Thu Hiền (Bún Măng Vịt Xiêm),Quán ăn nhỏ,Quán ăn nhỏ,+84 905 520 379,"Quán Ăn Thu Hiền (Bún Măng Vịt Xiêm), 9a Đ. Nguyễn Văn Linh, Hưng Lợi, Ninh Kiều, Cần Thơ, Việt Nam","Hưng Lợi, Ninh Kiều",9a Đ. Nguyễn Văn Linh,Cần Thơ,,"Ninh Kiều, Cần Thơ",VN
542,ChIJ6Xpf2NyJoDERO6TrqY4VSf0,Dê Miền Tây,Quán ăn nhỏ,Quán ăn nhỏ,+84 946 641 304,"Dê Miền Tây, 189A Nguyễn Văn Cừ Nối Dài, An Bình, Ninh Kiều, Cần Thơ, Việt Nam","An Bình, Ninh Kiều",189A Nguyễn Văn Cừ Nối Dài,Cần Thơ,,"Ninh Kiều, Cần Thơ",VN
543,ChIJ-ydrNfmJoDER47kknedUPts,Quán ăn Hoa Súng (thực đơn ngon),Quán ăn nhỏ,Quán ăn nhỏ,,"XPMM+QJM Quán ăn Hoa Súng (thực đơn ngon), Ba Láng, Cái Răng, Cần Thơ, Việt Nam","Ba Láng, Cái Răng",XPMM+QJM,Cần Thơ,,"Cái Răng, Cần Thơ",VN
544,ChIJB_C-bjGIoDERsJ0vwoMiLqg,Quán Cơm 504,Nhà hàng,Nhà hàng,,"Quán Cơm 504, 510 Đ. 30 Tháng 4, Hưng Lợi, Ninh Kiều, Cần Thơ, Việt Nam","Hưng Lợi, Ninh Kiều",510 Đ. 30 Tháng 4,Cần Thơ,,"Ninh Kiều, Cần Thơ",VN
546,ChIJbVaN0vOJoDERnlsL842h6SA,NƯỚNG LẨU 59 CẦN THƠ,Nhà hàng gia đình,Nhà hàng gia đình,+84 939 607 604,"NƯỚNG LẨU 59 CẦN THƠ, Số 1B đường 3/2, An Bình, Ninh Kiều, Cần Thơ, Việt Nam","An Bình, Ninh Kiều",Số 1B đường 3/2,Cần Thơ,,"Ninh Kiều, Cần Thơ",VN
548,ChIJpZ-m-biJoDERkTS4pT0gUqc,Bún Cá Cô Bảy,Quán ăn nhỏ,Quán ăn nhỏ,+84 396 736 969,"2Q97+25X Bún Cá Cô Bảy, Hẻm 117 Đ. 3 Tháng 2, Hưng Lợi, Ninh Kiều, Cần Thơ, Việt Nam","Hưng Lợi, Ninh Kiều","2Q97+25X, Hẻm 117 Đ. 3 Tháng 2",Cần Thơ,,"Ninh Kiều, Cần Thơ",VN
551,ChIJQ9jwmyGIoDERTLnab8JCYyc,Quán Ăn Hồng,Nhà hàng,Nhà hàng,+84 292 3830 653,"Quán Ăn Hồng, 108 Đ. Nguyễn Việt Hồng, Xuân Khánh, Ninh Kiều, Cần Thơ, Việt Nam","Xuân Khánh, Ninh Kiều",108 Đ. Nguyễn Việt Hồng,Cần Thơ,,"Ninh Kiều, Cần Thơ",VN
557,ChIJ9WXhw_uJoDERipXRZxp0QYw,Sugar D&B,Nhà hàng,Nhà hàng,+84 936 686 778,"Sugar D&B, 59 Đ1 Hồ Bún Xáng, Phường An Khánh, Ninh Kiều, Cần Thơ 900000, Việt Nam","Phường An Khánh, Ninh Kiều",59 Đ1 Hồ Bún Xáng,Cần Thơ,900000.0,"Ninh Kiều, Cần Thơ",VN
558,ChIJufscJfuHoDERnRcTXANbltE,Cháo cá lóc quán nghèo,Nhà hàng,Nhà hàng,+84 943 018 332,"3Q6C+WFF Cháo cá lóc quán nghèo, Cầu Cồn Khương, Cái Khế, Ninh Kiều, Cần Thơ, Việt Nam","Cái Khế, Ninh Kiều","3Q6C+WFF, Cầu Cồn Khương",Cần Thơ,,"Ninh Kiều, Cần Thơ",VN
559,ChIJDcDmHR6IoDERrCow5v9yJlg,Quán Ăn Hùng,Quán ăn nhỏ,Quán ăn nhỏ,+84 939 522 480,"Quán Ăn Hùng, 22/23, 22 Hẻm 22 Đ. Mạc Đĩnh Chi, Tân An, Ninh Kiều, Cần Thơ, Việt Nam","Tân An, Ninh Kiều","22/23, 22 Hẻm 22 Đ. Mạc Đĩnh Chi",Cần Thơ,,"Ninh Kiều, Cần Thơ",VN
560,ChIJEWuRcUuHoDERYkr7fujmskw,Quán nhậu vườn xoài,Nhà hàng,Nhà hàng,+84 772 002 275,"Quán nhậu vườn xoài, Lầu 1, Lô 29, Khu Dân Cư Vạn Phát - Cồn Khương, Đường Số 7, Ninh Kiều, Việt Nam","Cái Khế, Ninh Kiều","Lầu 1, Lô 29, Khu Dân Cư Vạn Phát - Cồn Khương, Đường Số 7",Cần Thơ,,"Ninh Kiều, Cần Thơ",VN
561,ChIJq4MqZoiJoDERMqo5Q_L4pMY,Quán Mộc Quê_ Mộc mạc vị quê,Nhà hàng,"Nhà hàng, Phòng tiệc, Dịch vụ tiệc cho trẻ em, Hội họp, Nơi tổ chức sự kiện, Nhà hàng gia đình, Nhà tổ chức buổi tiệc",+84 903 273 279,"Quán Mộc Quê_ Mộc mạc vị quê, 127 Võ Văn Kiệt, An Hoà, Ninh Kiều, Cần Thơ, Việt Nam","An Hoà, Ninh Kiều",127 Võ Văn Kiệt,Cần Thơ,,"Ninh Kiều, Cần Thơ",VN
562,ChIJAX3mQ_yHoDER6rdsoyGZhW4,Quán Câu Cua BIển Green,Nhà hàng,Nhà hàng,,"Quán Câu Cua BIển Green, Số 15 Trần Văn Giàu, Khu Biệt Thự Linh Thành Cồn Khương, Cần Thơ, 900000, Việt Nam","Khu Biệt Thự Linh Thành Cồn Khương, Cần Thơ",Số 15 Trần Văn Giàu,Cần Thơ,900000.0,Cần Thơ,VN
574,ChIJD34M2m-JoDERZfWlkUKx6bI,Quán Nhà Quê,Nhà hàng gia đình,Nhà hàng gia đình,,"Quán Nhà Quê, 257b Đ. Lê Anh Xuân, An Nghiệp, Ninh Kiều, Cần Thơ, Việt Nam","An Nghiệp, Ninh Kiều",257b Đ. Lê Anh Xuân,Cần Thơ,,"Ninh Kiều, Cần Thơ",VN
580,ChIJcUBbvHdjoDERMLJAZOFDvWE,Quán ăn gia đình Hương Tràm,Nhà hàng,Nhà hàng,+84 907 937 424,"2QXP+8PW Quán ăn gia đình Hương Tràm, Trần Quang Khải, Cái Khế, Ninh Kiều, Cần Thơ, Việt Nam","Cái Khế, Ninh Kiều","2QXP+8PW, Trần Quang Khải",Cần Thơ,,"Ninh Kiều, Cần Thơ",VN
588,ChIJ8ZP3f8OJoDERjg4Mt6EMxrs,Dê Tươi Tây Sơn,Nhà hàng quán rượu dành cho người sành ăn,Nhà hàng quán rượu dành cho người sành ăn,+84 899 678 778,"2PCV+QCM Dê Tươi Tây Sơn, Nguyễn Văn Cừ Nối Dài, An Bình, Ninh Kiều, Cần Thơ, Việt Nam","An Bình, Ninh Kiều","2PCV+QCM, Nguyễn Văn Cừ Nối Dài",Cần Thơ,,"Ninh Kiều, Cần Thơ",VN
589,ChIJ65l039-HoDERfjthglZBBxw,Bình Thuỷ Quán,Nhà hàng gia đình,Nhà hàng gia đình,,"Bình Thuỷ Quán, 93 Đ. Cách Mạng Tháng 8, An Thới, Bình Thủy, Cần Thơ, Việt Nam","An Thới, Bình Thủy",93 Đ. Cách Mạng Tháng 8,Cần Thơ,,"Bình Thủy, Cần Thơ",VN
590,ChIJMc921t6JoDERIw2zzvV6HtI,Tiệm ăn Bọ Đá,Quán ăn nhỏ,Quán ăn nhỏ,+84 333 340 310,"Tiệm ăn Bọ Đá, 110_112_114 Đ. Số 2, Khu Cán, Ninh Kiều, Cần Thơ, Việt Nam","Khu Cán, Ninh Kiều",110_112_114 Đ. Số 2,Cần Thơ,,"Ninh Kiều, Cần Thơ",VN
591,ChIJzbSTfJqJoDERAVy9WhHit14,Quán Cơm Phở Ngọc Hiệp,Nhà hàng,Nhà hàng,+84 942 854 722,"Quán Cơm Phở Ngọc Hiệp, 45 QL1A, Ba Láng, Cái Răng, Cần Thơ, Việt Nam","Ba Láng, Cái Răng",45 QL1A,Cần Thơ,,"Cái Răng, Cần Thơ",VN
593,ChIJjdzdWjmIoDERldVncrN2Rjg,Quán A.Lùn,Nhà hàng,Nhà hàng,,"2QG7+WG3 Quán A.Lùn, Hẻm 51, Xuân Khánh, Ninh Kiều, Cần Thơ, Việt Nam","Xuân Khánh, Ninh Kiều","2QG7+WG3, Hẻm 51",Cần Thơ,,"Ninh Kiều, Cần Thơ",VN
595,ChIJr1j3XKlioDERwMPFp2lBfyg,Quán nhậu 120,Quán ăn nhỏ,Quán ăn nhỏ,+84 932 476 898,"Quán nhậu 120, 120 Trần Quang Khải, Cái Khế, Ninh Kiều, Cần Thơ, Việt Nam","Cái Khế, Ninh Kiều",120 Trần Quang Khải,Cần Thơ,,"Ninh Kiều, Cần Thơ",VN
596,ChIJEx9S5vVjoDERiE9HeA4Y9HI,Quán ăn Thùy Linh,Nhà hàng,Nhà hàng,+84 945 597 501,"Quán ăn Thùy Linh, 7 Đường A8, Hưng Phú, Cái Răng, Cần Thơ, Việt Nam","Hưng Phú, Cái Răng",7 Đường A8,Cần Thơ,,"Cái Răng, Cần Thơ",VN
597,ChIJBwQvNUtjoDERZtWDpF1TEi8,Buffet Tâm Bo,Nhà hàng,Nhà hàng,,"Buffet Tâm Bo, 31 Lê Lợi, Cái Khế, Ninh Kiều, Cần Thơ, Việt Nam","Cái Khế, Ninh Kiều",31 Lê Lợi,Cần Thơ,,"Ninh Kiều, Cần Thơ",VN
603,ChIJK4nNeaaJoDERmsOKGn0uifA,CƠM PHẦN CHÍ THIỆN,Nhà hàng,Nhà hàng,+84 907 800 934,"CƠM PHẦN CHÍ THIỆN, An Bình, Ninh Kiều, Cần Thơ, Việt Nam","An Bình, Ninh Kiều",,Cần Thơ,,"Ninh Kiều, Cần Thơ",VN
606,ChIJz7ONPEeIoDERlP4wAvGCP4Q,Quán cơm tấm mẵn Long Xuyên,Quán ăn nhỏ,Quán ăn nhỏ,,"2QG4+XGQ Quán cơm tấm mẵn Long Xuyên, Phường An Khánh, Ninh Kiều, Cần Thơ, Việt Nam","Phường An Khánh, Ninh Kiều",2QG4+XGQ,Cần Thơ,,"Ninh Kiều, Cần Thơ",VN
608,ChIJzTJeZ6BioDERc7dhNnshz80,Quán Mì Thạnh Ký,Quán ăn nhỏ,Quán ăn nhỏ,+84 939 401 497,"Quán Mì Thạnh Ký, 22 Đ. Nguyễn Khuyến, Tân An, Ninh Kiều, Cần Thơ, Việt Nam","Tân An, Ninh Kiều",22 Đ. Nguyễn Khuyến,Cần Thơ,,"Ninh Kiều, Cần Thơ",VN
609,ChIJ214a80qIoDERWErM_1b-Vjk,Quán Cơm 38,Nhà hàng,Nhà hàng,+84 979 013 751,"Quán Cơm 38, Hẻm 58 Đ. 3 Tháng 2, Hưng Lợi, Ninh Kiều, Cần Thơ, Việt Nam","Hưng Lợi, Ninh Kiều",Hẻm 58 Đ. 3 Tháng 2,Cần Thơ,,"Ninh Kiều, Cần Thơ",VN
616,ChIJp_GO95GJoDERKp0hdrBRAMQ,Cơm gà Lê Trang,Quán ăn nhỏ,Quán ăn nhỏ,+84 944 015 012,"Cơm gà Lê Trang, 375 Đ. Nguyễn Văn Cừ, An Hoà, Ninh Kiều, Cần Thơ 02923, Việt Nam","An Hoà, Ninh Kiều",375 Đ. Nguyễn Văn Cừ,Cần Thơ,2923.0,"Ninh Kiều, Cần Thơ",VN
618,ChIJF8O9Id9joDERx_zN97Vt0Pw,Tiệm Cơm Nhật,Nhà hàng Nhật Bản,Nhà hàng Nhật Bản,+84 964 733 939,"Tiệm Cơm Nhật, 122 Trần Phú, Cái Khế, Ninh Kiều, Cần Thơ, Việt Nam","Cái Khế, Ninh Kiều",122 Trần Phú,Cần Thơ,,"Ninh Kiều, Cần Thơ",VN
623,ChIJk53jETeIoDERXqvv_utD-qU,Cửa Hàng Ăn Uống Thanh Xuân,Nhà hàng,Nhà hàng,,"Cửa Hàng Ăn Uống Thanh Xuân, 195/4 Đ. 3 Tháng 2, Hưng Lợi, Ninh Kiều, Cần Thơ, Việt Nam","Hưng Lợi, Ninh Kiều",195/4 Đ. 3 Tháng 2,Cần Thơ,,"Ninh Kiều, Cần Thơ",VN
624,ChIJiQ8e2QJjoDER9lhWjePanvg,Bánh canh ghẹ Minh Thư,Nhà hàng châu Á,Nhà hàng châu Á,,"Bánh canh ghẹ Minh Thư, 173 Trần Văn Khéo, Cái Khế, Ninh Kiều, Cần Thơ, Việt Nam","Cái Khế, Ninh Kiều",173 Trần Văn Khéo,Cần Thơ,,"Ninh Kiều, Cần Thơ",VN
627,ChIJe-3Ex0mJoDERr-S4c3xGdb8,Ăn vặt 636,Quán ăn nhỏ,Quán ăn nhỏ,,"2Q87+QMX Ăn vặt 636, Hẻm 558, Hưng Lợi, Ninh Kiều, Cần Thơ, Việt Nam","Hưng Lợi, Ninh Kiều","2Q87+QMX, Hẻm 558",Cần Thơ,,"Ninh Kiều, Cần Thơ",VN
628,ChIJLw0PuEOJoDEROPT9zsnUFwo,ĂN VẶT TRÚC QUỲNH,Quán ăn nhỏ,Quán ăn nhỏ,+84 768 898 377,"2Q74+RX2 ĂN VẶT TRÚC QUỲNH, Hẻm 38 Đ. 3 Tháng 2, Hưng Lợi, Ninh Kiều, Cần Thơ, Việt Nam","Hưng Lợi, Ninh Kiều","2Q74+RX2, Hẻm 38 Đ. 3 Tháng 2",Cần Thơ,,"Ninh Kiều, Cần Thơ",VN
629,ChIJ0Qp6UkZ9oDERtkCNxGgzw_I,Quán Ăn Sáu Hương,Nhà hàng,Nhà hàng,+84 906 095 152,"Quán Ăn Sáu Hương, khóm 4 phường thành phước, Cái Vồn, Bình Minh, Vĩnh Long 890000, Việt Nam","Cái Vồn, Bình Minh",khóm 4 phường thành phước,Vĩnh Long,890000.0,"Bình Minh, Vĩnh Long",VN
631,ChIJLeQajAWJoDERpS57fzEw-oQ,quán Lẩu Trâu Hai Hiệp 2,Nhà hàng món lẩu,Nhà hàng món lẩu,,"quán Lẩu Trâu Hai Hiệp 2, 139B Đ. Nguyễn Đệ, An Hoà, Ninh Kiều, Cần Thơ, Việt Nam","An Hoà, Ninh Kiều",139B Đ. Nguyễn Đệ,Cần Thơ,,"Ninh Kiều, Cần Thơ",VN
633,ChIJe8OEsM-JoDERuuYaG-oaIBA,Quán A Thái,Quán ăn nhỏ,Quán ăn nhỏ,+84 787 178 877,"Quán A Thái, 14 Đ. Nguyễn Văn Linh, Hưng Lợi, Ninh Kiều, Cần Thơ, Việt Nam","Hưng Lợi, Ninh Kiều",14 Đ. Nguyễn Văn Linh,Cần Thơ,,"Ninh Kiều, Cần Thơ",VN
635,ChIJqWxWkeZjoDERWBZWZMFBGJE,Khô Mực Chiên Dì Bày,Quán ăn nhỏ,Quán ăn nhỏ,+84 939 990 569,"Khô Mực Chiên Dì Bày, 12A Đ. Trương Định, An Cư, Ninh Kiều, Cần Thơ, Việt Nam","An Cư, Ninh Kiều",12A Đ. Trương Định,Cần Thơ,,"Ninh Kiều, Cần Thơ",VN
636,ChIJyVoRwaBioDERsy-4BiGOu1w,Quán Bạch Tuột Nướng Số 1,Nhà hàng,Nhà hàng,+84 909 723 927,"Quán Bạch Tuột Nướng Số 1, 40 Đ. Trương Định, Tân An, Ninh Kiều, Cần Thơ, Việt Nam","Tân An, Ninh Kiều",40 Đ. Trương Định,Cần Thơ,,"Ninh Kiều, Cần Thơ",VN
637,ChIJ4z1Bfm1joDERuj9JTwUPSyw,Mỳ Cay GangNam Cần Thơ,Quán ăn nhỏ,Quán ăn nhỏ,+84 932 936 363,"Mỳ Cay GangNam Cần Thơ, 40 Đ. Nguyễn Khuyến, Tân An, Ninh Kiều, Cần Thơ, Việt Nam","Tân An, Ninh Kiều",40 Đ. Nguyễn Khuyến,Cần Thơ,,"Ninh Kiều, Cần Thơ",VN
638,ChIJffsl6c-JoDERaeAJ7eGoBOo,NHÀ HÀNG HẦM RƯỢU CÂY BÀNG,Nhà hàng,Nhà hàng,+84 387 976 510,"NHÀ HÀNG HẦM RƯỢU CÂY BÀNG, 136A Nguyễn Văn Cừ Nối Dài, Phường An Khánh, Ninh Kiều, Cần Thơ 270000, Việt Nam","Phường An Khánh, Ninh Kiều",136A Nguyễn Văn Cừ Nối Dài,Cần Thơ,270000.0,"Ninh Kiều, Cần Thơ",VN
640,ChIJfX_MURyJoDERz7CFZs-fStA,Ăn vặt Cần Thơ,Quán ăn nhỏ,Quán ăn nhỏ,+84 934 460 656,"Ăn vặt Cần Thơ, 12/1 Hẻm 51, Xuân Khánh, Ninh Kiều, Cần Thơ, Việt Nam","Xuân Khánh, Ninh Kiều",12/1 Hẻm 51,Cần Thơ,,"Ninh Kiều, Cần Thơ",VN
641,ChIJudHrx3qJoDER7YE_9cDm9kA,"Diệp Thị Food - Cơm Gà Sốt, Cơm Bò Xào",Quán ăn nhỏ,Quán ăn nhỏ,+84 964 156 661,"Diệp Thị Food - Cơm Gà Sốt, Cơm Bò Xào, 381I Đ. Trần Nam Phú, Phường An Khánh, Ninh Kiều, Cần Thơ 94000, Việt Nam","Phường An Khánh, Ninh Kiều",381I Đ. Trần Nam Phú,Cần Thơ,94000.0,"Ninh Kiều, Cần Thơ",VN
642,ChIJp1rBETGJoDERLmRkP0_XuiA,Quán Ăn Gia Đình Thanh Nhã 1,Nhà hàng gia đình,Nhà hàng gia đình,+84 292 3783 235,"Quán Ăn Gia Đình Thanh Nhã 1, 71 Huỳnh Cương, P, Ninh Kiều, Cần Thơ 94000, Việt Nam","P, Ninh Kiều",71 Huỳnh Cương,Cần Thơ,94000.0,"Ninh Kiều, Cần Thơ",VN
643,ChIJnfo_JeSJoDERjZfwCDBpK9U,Quán ăn gia đình 41 Cần Thơ,Nhà hàng,Nhà hàng,,"Quán ăn gia đình 41 Cần Thơ, 144 Đ. Tú Xương, kdc hồng phát, Ninh Kiều, Cần Thơ, Việt Nam","kdc hồng phát, Ninh Kiều",144 Đ. Tú Xương,Cần Thơ,,"Ninh Kiều, Cần Thơ",VN
650,ChIJK4BN40OJoDERQko2o7kfnxU,Dê Phố Núi,Nhà hàng gia đình,Nhà hàng gia đình,+84 988 062 108,"Dê Phố Núi, 180 Võ Văn Kiệt, An Hoà, Ninh Kiều, Cần Thơ, Việt Nam","An Hoà, Ninh Kiều",180 Võ Văn Kiệt,Cần Thơ,,"Ninh Kiều, Cần Thơ",VN
656,ChIJQRgjkJKJoDERkbiIhnJh2Jk,Quán Hương Biển 35k,Quán ăn nhỏ,Quán ăn nhỏ,,"2Q32+J48 Quán Hương Biển 35k, Số 7, Yên Bình, Cái Răng, Cần Thơ, Việt Nam","Yên Bình, Cái Răng","2Q32+J48, Số 7",Cần Thơ,,"Cái Răng, Cần Thơ",VN
662,ChIJd66x_SKIoDERbMUW0lE9vXo,Quán cơm tấm bình dân,Nhà hàng,Nhà hàng,,"2QJF+54R Quán cơm tấm bình dân, Đ. 3 Tháng 2, Xuân Khánh, Ninh Kiều, Cần Thơ, Việt Nam","Xuân Khánh, Ninh Kiều","2QJF+54R, Đ. 3 Tháng 2",Cần Thơ,,"Ninh Kiều, Cần Thơ",VN
665,ChIJvSKNXmCJoDERmLRZ6q-fv-A,Quán Vịt Nấu Chao Cô Minh,Quán ăn nhỏ,Quán ăn nhỏ,+84 939 642 711,"Quán Vịt Nấu Chao Cô Minh, 1/1c Đ. Lý Tự Trọng, p, Ninh Kiều, Cần Thơ, Việt Nam","p, Ninh Kiều",1/1c Đ. Lý Tự Trọng,Cần Thơ,,"Ninh Kiều, Cần Thơ",VN
666,ChIJWciXuBOIoDER5ywnemIxvwM,Quán Ăn Ven Sông 35k,Nhà hàng,Nhà hàng,+84 944 424 340,"Quán Ăn Ven Sông 35k, 6 Đ. Nguyễn Văn Cừ, Phường An Khánh, Ninh Kiều, Cần Thơ, Việt Nam","Phường An Khánh, Ninh Kiều",6 Đ. Nguyễn Văn Cừ,Cần Thơ,,"Ninh Kiều, Cần Thơ",VN
667,ChIJJV60S9aHoDERFgGdpKZdY-U,Quán Ăn Gia Đình Ngày Mới,Nhà hàng,Nhà hàng,+84 919 065 676,"Quán Ăn Gia Đình Ngày Mới, Cầu Rạch Súc, Võ Văn Kiệt, Long Hoà, Bình Thủy, Cần Thơ 960530, Việt Nam","Long Hoà, Bình Thủy","Cầu Rạch Súc, Võ Văn Kiệt",Cần Thơ,960530.0,"Bình Thủy, Cần Thơ",VN
676,ChIJyQ9vEG6JoDER3doAxQxyXXw,Cơm Tấm Bà Bảy,Nhà hàng gia đình,Nhà hàng gia đình,,"2QP5+82P Cơm Tấm Bà Bảy, Nguyễn Văn Cừ Nối Dài, Phường An Khánh, Ninh Kiều, Cần Thơ, Việt Nam","Phường An Khánh, Ninh Kiều","2QP5+82P, Nguyễn Văn Cừ Nối Dài",Cần Thơ,,"Ninh Kiều, Cần Thơ",VN
678,ChIJr7XuX1aIoDEROiMBK038NYM,Quán ăn sân vườn Cô Ba,Nhà hàng,Nhà hàng,+84 939 955 557,"Quán ăn sân vườn Cô Ba, 222PT KV Bình Thường B,P., An Bình, Bình Thủy, Cần Thơ, Việt Nam","An Bình, Bình Thủy","222PT KV Bình Thường B,P.",Cần Thơ,,"Bình Thủy, Cần Thơ",VN
679,ChIJG4OU71yJoDERR2LQrBPUXE0,Quán 333,Nhà hàng,Nhà hàng,,"Quán 333, 104 Đ.Xuân Thủy, An Bình, Ninh Kiều, Cần Thơ, Việt Nam","An Bình, Ninh Kiều",104 Đ.Xuân Thủy,Cần Thơ,,"Ninh Kiều, Cần Thơ",VN
680,ChIJDWRqDJKJoDERZaGqtqJdZvY,Quán Nhậu Mũi Tàu,Quán ăn nhỏ,Quán ăn nhỏ,,"Quán Nhậu Mũi Tàu, 260C/8 Đ. Trần Vĩnh Kiết, Phường An Khánh, Ninh Kiều, Cần Thơ, Việt Nam","Phường An Khánh, Ninh Kiều",260C/8 Đ. Trần Vĩnh Kiết,Cần Thơ,,"Ninh Kiều, Cần Thơ",VN
685,ChIJ0SjlOi6JoDERI5zO4lVkvCk,Tiền ký,Nhà hàng Trung Quốc,Nhà hàng Trung Quốc,,"Tiền ký, 410h Đ. Nguyễn Văn Linh, Hưng Lợi, Ninh Kiều, Cần Thơ, Việt Nam","Hưng Lợi, Ninh Kiều",410h Đ. Nguyễn Văn Linh,Cần Thơ,,"Ninh Kiều, Cần Thơ",VN
688,ChIJ_7QwzBaJoDERTOhhmhdaU6Y,Quán Ăn Gia Đình Sáu Đời 1,Nhà hàng,Nhà hàng,,"Quán Ăn Gia Đình Sáu Đời 1, 807 Nguyễn Văn Cừ Nối Dài, Phường An Khánh, Ninh Kiều, Cần Thơ, Việt Nam","Phường An Khánh, Ninh Kiều",807 Nguyễn Văn Cừ Nối Dài,Cần Thơ,,"Ninh Kiều, Cần Thơ",VN
692,ChIJoeLUbnNjoDERzLM19JsNNCM,Lẩu Bò Giáo Sĩ,Nhà hàng gia đình,Nhà hàng gia đình,,"Lẩu Bò Giáo Sĩ, 212 Trần Phú, Cái Khế, Ninh Kiều, Cần Thơ, Việt Nam","Cái Khế, Ninh Kiều",212 Trần Phú,Cần Thơ,,"Ninh Kiều, Cần Thơ",VN
699,ChIJC3BWFKBioDERBmU-HSnzseU,Quán Phở Bò Kho 34,Quán ăn nhỏ,Quán ăn nhỏ,+84 902 959 730,"Quán Phở Bò Kho 34, 34 Đ. Đề Thám, Tân An, Ninh Kiều, Cần Thơ, Việt Nam","Tân An, Ninh Kiều",34 Đ. Đề Thám,Cần Thơ,,"Ninh Kiều, Cần Thơ",VN
700,ChIJ7-YQRXyJoDERYjbYlQBncOo,Quán cháo gà ta 3 món Diễm ( Võ Văn Kiệt dời về),Quán ăn nhỏ,Quán ăn nhỏ,+84 777 821 721,"Quán cháo gà ta 3 món Diễm ( Võ Văn Kiệt dời về), 172 Đ. Nguyễn Đệ, An Hoà, Bình Thủy, Cần Thơ, Việt Nam","An Hoà, Bình Thủy",172 Đ. Nguyễn Đệ,Cần Thơ,,"Bình Thủy, Cần Thơ",VN
701,ChIJtcJa5DSIoDER64xwvuE0x5o,quán ăn. Lẩu mắm Hương Quê,Nhà hàng,Nhà hàng,,"quán ăn. Lẩu mắm Hương Quê, 37 Đ. 30 Tháng 4, Hưng Lợi, Ninh Kiều, Cần Thơ, Việt Nam","Hưng Lợi, Ninh Kiều",37 Đ. 30 Tháng 4,Cần Thơ,,"Ninh Kiều, Cần Thơ",VN
702,ChIJYXEYdWqJoDER3oCHwy6nJ40,Bún Thái 68 - PHƯƠNG TÂM CN4,Quán ăn nhỏ,Quán ăn nhỏ,,"Bún Thái 68 - PHƯƠNG TÂM CN4, 48 Đ. Trần Hoàng Na, khu dân cư, Ninh Kiều, Cần Thơ, Việt Nam","khu dân cư, Ninh Kiều",48 Đ. Trần Hoàng Na,Cần Thơ,,"Ninh Kiều, Cần Thơ",VN
703,ChIJPw9xiUGJoDERicCOag6hXdQ,Quán ăn LÚA VÀNG,Nhà hàng,Nhà hàng,+84 914 199 232,"Quán ăn LÚA VÀNG, 225 Trần Hưng Đạo, Lê Bình, Cái Răng, Cần Thơ, Việt Nam","Lê Bình, Cái Răng",225 Trần Hưng Đạo,Cần Thơ,,"Cái Răng, Cần Thơ",VN
711,ChIJVXUPmLaJoDER2I-SyZNgaOI,Thái Street,Nhà hàng,Nhà hàng,+84 767 139 764,"Thái Street, 118 Đ. 30 Tháng 4, Hưng Lợi, Ninh Kiều, Cần Thơ, Việt Nam","Hưng Lợi, Ninh Kiều",118 Đ. 30 Tháng 4,Cần Thơ,,"Ninh Kiều, Cần Thơ",VN
713,ChIJSy2PXv6JoDERYl8-Ywry_Qo,Quán Ăn Câu Cá Giải Trí Quê Tui,Nhà hàng,Nhà hàng,+84 939 537 339,"Quán Ăn Câu Cá Giải Trí Quê Tui, 11 Đ. Nguyễn Văn Linh, Khu vực 10, Cái Răng, Cần Thơ, Việt Nam","Khu vực 10, Cái Răng",11 Đ. Nguyễn Văn Linh,Cần Thơ,,"Cái Răng, Cần Thơ",VN
714,ChIJ_ydU_l6JoDER2MYZCmZI5wM,Quán bia sệt 63,Quán ăn nhỏ,"Quán ăn nhỏ, Quán bia",+84 839 385 685,"Quán bia sệt 63, 1/1C Đ. Mậu Thân, An Nghiệp, Ninh Kiều, Cần Thơ, Việt Nam","An Nghiệp, Ninh Kiều",1/1C Đ. Mậu Thân,Cần Thơ,,"Ninh Kiều, Cần Thơ",VN
715,ChIJg0b-apOHoDERaU6nxbHhQKY,Quán cháo cá lóc Vươn Mận,Nhà hàng,Nhà hàng,,"Quán cháo cá lóc Vươn Mận, C4-20, Khu Dân Cư An Thới, Phường Bùi Hữu Nghĩa, Quận Bình Thuỷ, Ninh Kiều, Cần Thơ, Việt Nam","Cái Khế, Ninh Kiều","C4-20, Khu Dân Cư An Thới, Phường Bùi Hữu Nghĩa, Quận Bình Thuỷ",Cần Thơ,,"Ninh Kiều, Cần Thơ",VN
716,ChIJF7iMrPGHoDERop18SzUAClo,Quán 85 Trâu luộc mẻ,Nhà hàng gia đình,Nhà hàng gia đình,+84 772 122 251,"Quán 85 Trâu luộc mẻ, 85 Đ. Cách Mạng Tháng 8, An Thới, Bình Thủy, Cần Thơ, Việt Nam","An Thới, Bình Thủy",85 Đ. Cách Mạng Tháng 8,Cần Thơ,,"Bình Thủy, Cần Thơ",VN
717,ChIJMfjeW9KHoDERt12Td-S95A8,Quán ăn gia đình DÂU TẰM RIVERSIDE,Quán bia sân vườn,Quán bia sân vườn,+84 939 123 508,"Quán ăn gia đình DÂU TẰM RIVERSIDE, 349A Đ. Bùi Hữu Nghĩa, Bình Thuỷ, Bình Thủy, Cần Thơ 900000, Việt Nam","Bình Thuỷ, Bình Thủy",349A Đ. Bùi Hữu Nghĩa,Cần Thơ,900000.0,"Bình Thủy, Cần Thơ",VN
719,ChIJV64Ju-BjoDERN9E_lmgp7Bg,Quán Ốc Hoa,Nhà hàng hải sản,Nhà hàng hải sản,,"Quán Ốc Hoa, 42-44 Đ. Lương Định Của, Cái Khế, Ninh Kiều, Cần Thơ, Việt Nam","Cái Khế, Ninh Kiều",42-44 Đ. Lương Định Của,Cần Thơ,,"Ninh Kiều, Cần Thơ",VN
722,ChIJ-f2oaEeJoDERSI6RU3gRciU,Thơm Rùm Quán,Nhà hàng,Nhà hàng,,"Thơm Rùm Quán, 122/6a Đ. 3 Tháng 2, Xuân Khánh, Ninh Kiều, Cần Thơ, Việt Nam","Xuân Khánh, Ninh Kiều",122/6a Đ. 3 Tháng 2,Cần Thơ,,"Ninh Kiều, Cần Thơ",VN
723,ChIJXc1TDtBjoDERwUp2ku3e5mg,Bún Chả Hà Nội Kim Anh,Quán ăn nhỏ,Quán ăn nhỏ,+84 906 109 206,"Bún Chả Hà Nội Kim Anh, 50 Đ. Trương Định, Tân An, Ninh Kiều, Cần Thơ, Việt Nam","Tân An, Ninh Kiều",50 Đ. Trương Định,Cần Thơ,,"Ninh Kiều, Cần Thơ",VN
724,ChIJT9OxzBiHoDERBEjk1LhGcs4,Seoul Bulgogi BBQ,Nhà hàng Hàn Quốc,Nhà hàng Hàn Quốc,,"Seoul Bulgogi BBQ, 56 Đ. Nguyễn Văn Cừ, Cái Khế, Ninh Kiều, Cần Thơ, Việt Nam","Cái Khế, Ninh Kiều",56 Đ. Nguyễn Văn Cừ,Cần Thơ,,"Ninh Kiều, Cần Thơ",VN
725,ChIJZzveuuSJoDERKCGkTRykQjs,Bún Mắm Chị Tuyết Cái Răng,Quán ăn nhỏ,Quán ăn nhỏ,+84 326 268 369,"2Q42+458 Bún Mắm Chị Tuyết Cái Răng, Lê Bình, Cái Răng, Cần Thơ, Việt Nam","Lê Bình, Cái Răng",2Q42+458,Cần Thơ,,"Cái Răng, Cần Thơ",VN
726,ChIJ-X0aJTWIoDER6nMOAluRAjc,Quán Cháo Vịt Hồng,Quán ăn nhỏ,Quán ăn nhỏ,+84 938 553 492,"Quán Cháo Vịt Hồng, 91 Đ. 30 Tháng 4, Hưng Lợi, Ninh Kiều, Cần Thơ, Việt Nam","Hưng Lợi, Ninh Kiều",91 Đ. 30 Tháng 4,Cần Thơ,,"Ninh Kiều, Cần Thơ",VN
727,ChIJm4nKrSiJoDER16C9IYvLFZA,Quán Lẩu Chay An Nhiên,Nhà hàng cho người ăn chay,Nhà hàng cho người ăn chay,+84 939 234 070,"Quán Lẩu Chay An Nhiên, 02 Nguyễn Văn Trỗi, Xuân Khánh, Ninh Kiều, Cần Thơ, Việt Nam","Xuân Khánh, Ninh Kiều",02 Nguyễn Văn Trỗi,Cần Thơ,,"Ninh Kiều, Cần Thơ",VN
728,ChIJzajX_fNjoDER8VlmM29sjFw,Quán ăn A Ni,Nhà hàng,Nhà hàng,+84 939 375 633,"Quán ăn A Ni, 114 Đường Hai Bà Trưng, Tân An, Ninh Kiều, Cần Thơ, Việt Nam","Tân An, Ninh Kiều",114 Đường Hai Bà Trưng,Cần Thơ,,"Ninh Kiều, Cần Thơ",VN
732,ChIJS-Zp0xWIoDERDn1FnvEarcc,Quán Ăn Tư Dầy,Gian hàng rong,Gian hàng rong,+84 976 201 367,"Quán Ăn Tư Dầy, 6A, Tổ 2, Khu Vực 2, Phường An Khánh, Quận Ninh Kiều, Cần Thơ, Việt Nam","Xuân Khánh, Ninh Kiều","6A, Tổ 2, Khu Vực 2, Phường An Khánh, Quận Ninh Kiều",Cần Thơ,,"Ninh Kiều, Cần Thơ",VN
737,ChIJKyQWOECJoDER3_pTDJ6Bldc,Cơm Gà Lê Trang,Quán ăn nhỏ,Quán ăn nhỏ,+84 949 568 795,"Cơm Gà Lê Trang, 425a Nguyễn Văn Cừ Nối Dài, An Bình, Ninh Kiều, Cần Thơ, Việt Nam","An Bình, Ninh Kiều",425a Nguyễn Văn Cừ Nối Dài,Cần Thơ,,"Ninh Kiều, Cần Thơ",VN
738,ChIJa8UxPQSJoDERLSaiyUZMvzE,Quán 268,Quán ăn nhỏ,Quán ăn nhỏ,,"Quán 268, 268 Hẻm 558, Hưng Lợi, Ninh Kiều, Cần Thơ, Việt Nam","Hưng Lợi, Ninh Kiều",268 Hẻm 558,Cần Thơ,,"Ninh Kiều, Cần Thơ",VN
741,ChIJM5L5YKBioDERO1F0ILZkyPg,Bún Riêu Cua - Bún ốc Phương Minh,Quán mì,Quán mì,+84 292 3829 412,"Bún Riêu Cua - Bún ốc Phương Minh, 32 Đ. Nguyễn Khuyến, Tân An, Ninh Kiều, Cần Thơ, Việt Nam","Tân An, Ninh Kiều",32 Đ. Nguyễn Khuyến,Cần Thơ,,"Ninh Kiều, Cần Thơ",VN
742,ChIJNwjEUYNioDER2aaKO18cPfY,Quán Ăn Gia Đình Thảo NHI Cần Thơ,Nhà hàng,Nhà hàng,+84 939 692 975,"Quán Ăn Gia Đình Thảo NHI Cần Thơ, khu dân cư, Đường A1,P011, Cái Răng, Cần Thơ, Việt Nam","KDC Hưng Phú 1, Cái Răng","khu dân cư, Đường A1,P011",Cần Thơ,,"Cái Răng, Cần Thơ",VN
743,ChIJU2rcp7GJoDERMksdkyNHv6Q,Quán cháo Thẩm,Quán ăn nhỏ,Quán ăn nhỏ,,"2P4X+2R2 Quán cháo Thẩm, Lê Bình, Cái Răng, Cần Thơ, Việt Nam","Lê Bình, Cái Răng",2P4X+2R2,Cần Thơ,,"Cái Răng, Cần Thơ",VN
745,ChIJ8cqo4YyJoDERi3zzBn9WkhI,Quán cơm Ngon,Nhà hàng gia đình,Nhà hàng gia đình,,"Quán cơm Ngon, Đ. Nguyễn Văn Linh, Phường An Khánh, Ninh Kiều, Cần Thơ, Việt Nam","Phường An Khánh, Ninh Kiều",Đ. Nguyễn Văn Linh,Cần Thơ,,"Ninh Kiều, Cần Thơ",VN
748,ChIJS8WT83tjoDERUCTPF2Mo_QA,Quán chay Ngọc Thảo,Nhà hàng cho người ăn chay,Nhà hàng cho người ăn chay,+84 944 738 758,"Quán chay Ngọc Thảo, 98 Nguyễn Thái Học, Tân An, Ninh Kiều, Cần Thơ, Việt Nam","Tân An, Ninh Kiều",98 Nguyễn Thái Học,Cần Thơ,,"Ninh Kiều, Cần Thơ",VN
750,ChIJ4XRVFj-HoDERGySlh1kMKiQ,Quán ăn gia đình - cà phê Xóm Củi,Quán ăn nhỏ,Quán ăn nhỏ,+84 939 484 895,"Quán ăn gia đình - cà phê Xóm Củi, 360 Đ. Cách Mạng Tháng 8, Bùi Hữu Nghĩa, Bình Thủy, Cần Thơ 94000, Việt Nam","Bùi Hữu Nghĩa, Bình Thủy",360 Đ. Cách Mạng Tháng 8,Cần Thơ,94000.0,"Bình Thủy, Cần Thơ",VN
752,ChIJU_hD5-6JoDERgDiinrnLvF4,Ẩm thực Đồng quê 14-16 Lương Định Của,,,+84 987 700 079,"Ẩm thực Đồng quê 14-16 Lương Định Của, 14-16 Đ. Lương Định Của, Cái Khế, Ninh Kiều, Cần Thơ 900000, Việt Nam","Cái Khế, Ninh Kiều",14-16 Đ. Lương Định Của,Cần Thơ,900000.0,"Ninh Kiều, Cần Thơ",VN
755,ChIJSwn_Y3FjoDERrpd9KJ7G33Y,Ẩm Thực sân vườn Mạnh Tuấn,Nhà hàng hải sản,Nhà hàng hải sản,,"Ẩm Thực sân vườn Mạnh Tuấn, 293E Trần Văn Khéo, Cái Khế, Ninh Kiều, Cần Thơ, Việt Nam","Cái Khế, Ninh Kiều",293E Trần Văn Khéo,Cần Thơ,,"Ninh Kiều, Cần Thơ",VN
761,ChIJB_fYmBqJoDERvDQy47EOjGs,Quán Cơm Mỹ Linh,Nhà hàng,Nhà hàng,+84 949 600 343,"Quán Cơm Mỹ Linh, 171 Trần Bạch Đằng, Phường An Khánh, Ninh Kiều, Cần Thơ, Việt Nam","Phường An Khánh, Ninh Kiều",171 Trần Bạch Đằng,Cần Thơ,,"Ninh Kiều, Cần Thơ",VN
763,ChIJVZ-zCUqLoDERN9Q3fYr8MtA,QUÁN ĂN GIA ĐÌNH HOA LAN,Nhà hàng gia đình,Nhà hàng gia đình,+84 355 900 924,"QUÁN ĂN GIA ĐÌNH HOA LAN, QL1A, Tân Phú Thạnh, Châu Thành A, Hậu Giang, Việt Nam","Tân Phú Thạnh, Châu Thành A",QL1A,Hậu Giang,,"Châu Thành A, Hậu Giang",VN
764,ChIJwSZTe52JoDERmwMB__GIdus,Quán Cơm Tấm 74 ( Mậu Thân ),Nhà hàng gia đình,Nhà hàng gia đình,,"Quán Cơm Tấm 74 ( Mậu Thân ), 74 Đ. Mậu Thân, An Nghiệp, Ninh Kiều, Cần Thơ, Việt Nam","An Nghiệp, Ninh Kiều",74 Đ. Mậu Thân,Cần Thơ,,"Ninh Kiều, Cần Thơ",VN
767,ChIJVZWiaWWJoDERzGFPEsESifY,Quán chay Liên Huệ,Nhà hàng cho người ăn chay,Nhà hàng cho người ăn chay,+84 932 809 489,"Quán chay Liên Huệ, 676 Đ. Mậu Thân, An Hoà, Ninh Kiều, Cần Thơ, Việt Nam","An Hoà, Ninh Kiều",676 Đ. Mậu Thân,Cần Thơ,,"Ninh Kiều, Cần Thơ",VN
769,ChIJDbzwCumJoDERsPjrgeCZ9Xg,Quán ăn gia đình Hương Vị Sông Nước (Kiểu),Nhà hàng gia đình,Nhà hàng gia đình,+84 916 474 243,"Quán ăn gia đình Hương Vị Sông Nước (Kiểu), 42/3 Khu vực Yên Thuận, P, Cái Răng, Cần Thơ, Việt Nam","P, Cái Răng",42/3 Khu vực Yên Thuận,Cần Thơ,,"Cái Răng, Cần Thơ",VN
772,ChIJrcKrELyJoDERcEMpb5z9Oxo,Quán Baba,Nhà hàng,Nhà hàng,+84 933 115 472,"XQV2+PJM Quán Baba, Trần Hưng Đạo nối dài, Lê Bình, Cái Răng, Cần Thơ, Việt Nam","Lê Bình, Cái Răng","XQV2+PJM, Trần Hưng Đạo nối dài",Cần Thơ,,"Cái Răng, Cần Thơ",VN
774,ChIJCUHtJ3GJoDERWlyx64Rh5UE,Tiệm ăn ngon nhà Táo Đỏ,Quán ăn nhẹ,Quán ăn nhẹ,,"2QH6+524 Tiệm ăn ngon nhà Táo Đỏ, Đ. Số 7, Hưng Lợi, Ninh Kiều, Cần Thơ, Việt Nam","Hưng Lợi, Ninh Kiều","2QH6+524, Đ. Số 7",Cần Thơ,,"Ninh Kiều, Cần Thơ",VN
775,ChIJVZvKoMGJoDERTEEVfZNUOtA,Lẩu Chay TÂM AN,Nhà hàng ăn chay,Nhà hàng ăn chay,,"Lẩu Chay TÂM AN, khu dân cư 91b, số 88 Đ. b31, P, Ninh Kiều, Cần Thơ, Việt Nam","P, Ninh Kiều","khu dân cư 91b, số 88 Đ. b31",Cần Thơ,,"Ninh Kiều, Cần Thơ",VN
777,ChIJ_RYkRzljoDERnEG6FTsldn8,Bún Riêu Tôm Lê Liêm,Quán ăn nhỏ,Quán ăn nhỏ,,"Bún Riêu Tôm Lê Liêm, 12 Đ. Nguyễn Khuyến, Tân An, Ninh Kiều, Cần Thơ, Việt Nam","Tân An, Ninh Kiều",12 Đ. Nguyễn Khuyến,Cần Thơ,,"Ninh Kiều, Cần Thơ",VN
778,ChIJj3R9Ay9joDERUJM8jKkf6IY,Lẩu Dê Thanh Bạch,Nhà hàng,Nhà hàng,,"Lẩu Dê Thanh Bạch, 120 Trần Quang Khải, Cái Khế, Ninh Kiều, Cần Thơ, Việt Nam","Cái Khế, Ninh Kiều",120 Trần Quang Khải,Cần Thơ,,"Ninh Kiều, Cần Thơ",VN
779,ChIJt7jREhyIoDERGKS7-Mhpx2s,Quán Phở Nghĩa,Nhà hàng,Nhà hàng,,"Quán Phở Nghĩa, 18 Đ. Trần Hưng Đạo, An Cư, Ninh Kiều, Cần Thơ, Việt Nam","An Cư, Ninh Kiều",18 Đ. Trần Hưng Đạo,Cần Thơ,,"Ninh Kiều, Cần Thơ",VN
780,ChIJ15HOv6uJoDERz6gHHWPFh5w,Gà ác Dương Gia Quán,Quán ăn nhỏ,Quán ăn nhỏ,+84 939 789 132,"Gà ác Dương Gia Quán, 231 Huỳnh Cương, An Cư, Ninh Kiều, Cần Thơ, Việt Nam","An Cư, Ninh Kiều",231 Huỳnh Cương,Cần Thơ,,"Ninh Kiều, Cần Thơ",VN
781,ChIJQXsnY4uJoDER9zk7l1hY254,Quán cơm Sinh Viên Ngọc Lan,Nhà hàng,Nhà hàng,+84 855 404 688,"Quán cơm Sinh Viên Ngọc Lan, 79 Đ. Số 11, Phường An Khánh, Ninh Kiều, Cần Thơ, Việt Nam","Phường An Khánh, Ninh Kiều",79 Đ. Số 11,Cần Thơ,,"Ninh Kiều, Cần Thơ",VN
782,ChIJca72LkWIoDERgbffjJWmT6A,Quán Cơm Cẩm Tú,Quán ăn nhỏ,Quán ăn nhỏ,+84 907 044 448,"Quán Cơm Cẩm Tú, 107 Nguyễn Văn Cừ Nối Dài, An Bình, Ninh Kiều, Cần Thơ, Việt Nam","An Bình, Ninh Kiều",107 Nguyễn Văn Cừ Nối Dài,Cần Thơ,,"Ninh Kiều, Cần Thơ",VN
783,ChIJ4XTMqHaJoDERfZGp4ejt3ec,Quán Ăn Lộc Vừng,Nhà hàng gia đình,Nhà hàng gia đình,,"Quán Ăn Lộc Vừng, 69 Đ. Trương Vĩnh Nguyên, Thường Thạnh, Cái Răng, Cần Thơ, Việt Nam","Thường Thạnh, Cái Răng",69 Đ. Trương Vĩnh Nguyên,Cần Thơ,,"Cái Răng, Cần Thơ",VN
786,ChIJ76Qnh5uJoDERS1rh0ddcNxE,Hong Kong Quán,Quán ăn nhỏ,Quán ăn nhỏ,+84 939 638 855,"Hong Kong Quán, 15A3 Đ. Trần Hoàng Na, Khu dân cư 91B, Ninh Kiều, Cần Thơ, Việt Nam","Khu dân cư 91B, Ninh Kiều",15A3 Đ. Trần Hoàng Na,Cần Thơ,,"Ninh Kiều, Cần Thơ",VN
791,ChIJX3-fRKqJoDERpYK8Gn9uSU4,Quán THÍCH ĂN UỐNG,Nhà hàng Việt Nam,Nhà hàng Việt Nam,+84 559 313 858,"Quán THÍCH ĂN UỐNG, 51/51/51D2 Hẻm 132 Đ. 3 Tháng 2, Xuân Khánh, Ninh Kiều, Cần Thơ, Việt Nam","Xuân Khánh, Ninh Kiều",51/51/51D2 Hẻm 132 Đ. 3 Tháng 2,Cần Thơ,,"Ninh Kiều, Cần Thơ",VN
793,ChIJpcoGC4GHoDERx4ccNVs39sU,Hàng Tre Quán,Nhà hàng,Nhà hàng,+84 917 193 868,"3Q7C+Q3 Hàng Tre Quán, Cái Khế, Ninh Kiều, Cần Thơ, Việt Nam","Cái Khế, Ninh Kiều",3Q7C+Q3,Cần Thơ,,"Ninh Kiều, Cần Thơ",VN
794,ChIJC2HbN4CHoDER--nTd2Z3TTE,Nem Nướng Nha Trang Mỹ Linh,Quán ăn nhỏ,Quán ăn nhỏ,,"Nem Nướng Nha Trang Mỹ Linh, 392 Đ. Cách Mạng Tháng 8, Bùi Hữu Nghĩa, Bình Thủy, Cần Thơ, Việt Nam","Bùi Hữu Nghĩa, Bình Thủy",392 Đ. Cách Mạng Tháng 8,Cần Thơ,,"Bình Thủy, Cần Thơ",VN
795,ChIJ_d2-cNOJoDERbwU09YpKMYk,Quán Ăn Gia Đình Hải Sản Tấn Tài,Nhà hàng,Nhà hàng,+84 939 053 565,"Quán Ăn Gia Đình Hải Sản Tấn Tài, 176/7 Nguyễn Văn Cừ Nối Dài, KV4, Ninh Kiều, Cần Thơ 900000, Việt Nam","KV4, Ninh Kiều",176/7 Nguyễn Văn Cừ Nối Dài,Cần Thơ,900000.0,"Ninh Kiều, Cần Thơ",VN
796,ChIJTchmLQaJoDERNzIbhbvvkWo,Quán bún thịt Xào Cô Ba,Quán ăn nhỏ,Quán ăn nhỏ,,"Quán bún thịt Xào Cô Ba, 14/5 Đ. Bà Huyện Thanh Quan, Thới Bình, Ninh Kiều, Cần Thơ, Việt Nam","Thới Bình, Ninh Kiều",14/5 Đ. Bà Huyện Thanh Quan,Cần Thơ,,"Ninh Kiều, Cần Thơ",VN
797,ChIJz6rjkn-JoDERePGv7HK-jLs,Quán Ăn Chuẩn NVC,Nhà hàng,Nhà hàng,,"Quán Ăn Chuẩn NVC, 131 Đ. Nguyễn Văn Cừ, Phường An Khánh, Ninh Kiều, Cần Thơ, Việt Nam","Phường An Khánh, Ninh Kiều",131 Đ. Nguyễn Văn Cừ,Cần Thơ,,"Ninh Kiều, Cần Thơ",VN
798,ChIJwaeA24-JoDERZtQndMh-KBE,Quán Ăn 69 Hẹn - Lẩu Cá Mẻ,Nhà hàng gia đình,Nhà hàng gia đình,+84 939 193 907,"Quán Ăn 69 Hẹn - Lẩu Cá Mẻ, 233 Huỳnh Cương, An Cư, Ninh Kiều, Cần Thơ, Việt Nam","An Cư, Ninh Kiều",233 Huỳnh Cương,Cần Thơ,,"Ninh Kiều, Cần Thơ",VN
799,ChIJGSsdnOCHoDERSGR-qtXCy8k,Quán nhậu Ngọc Nam Phương 1,Nhà hàng,Nhà hàng,+84 292 3884 474,"Quán nhậu Ngọc Nam Phương 1, 543 Trần Quang Diệu, An Thới, Bình Thủy, Cần Thơ, Việt Nam","An Thới, Bình Thủy",543 Trần Quang Diệu,Cần Thơ,,"Bình Thủy, Cần Thơ",VN
805,ChIJbfP1e1qJoDERJ-0dX3JLS-4,Quán ăn Tiền Ký,Quán ăn nhỏ,Quán ăn nhỏ,,"Quán ăn Tiền Ký, 51 Đ. 3 Tháng 2, Hưng Lợi, Ninh Kiều, Cần Thơ, Việt Nam","Hưng Lợi, Ninh Kiều",51 Đ. 3 Tháng 2,Cần Thơ,,"Ninh Kiều, Cần Thơ",VN
807,ChIJo723pqNjoDERIBiEyB_0_js,ZBEER CẦN THƠ,Nhà hàng thịt bò Hàn Quốc,"Nhà hàng thịt bò Hàn Quốc, Quán bar",+84 924 318 888,"ZBEER CẦN THƠ, 1 Sông Hậu, Cái Khế, Ninh Kiều, Cần Thơ 94000, Việt Nam","Cái Khế, Ninh Kiều",1 Sông Hậu,Cần Thơ,94000.0,"Ninh Kiều, Cần Thơ",VN
808,ChIJY8lboURjoDERr8OOAVWULUQ,Nhà hàng Hồ Sen,Nhà hàng gia đình,Nhà hàng gia đình,,"2QQQ+CFX Nhà hàng Hồ Sen, Cầu Ninh Kiều, Tân An, Ninh Kiều, Cần Thơ, Việt Nam","Tân An, Ninh Kiều","2QQQ+CFX, Cầu Ninh Kiều",Cần Thơ,,"Ninh Kiều, Cần Thơ",VN
812,ChIJh2JqMR-IoDERfMXfe9Rires,Quán Cơm Tấm Cà Phê,Quán ăn nhỏ,Quán ăn nhỏ,+84 292 3730 670,"Quán Cơm Tấm Cà Phê, 227/12, Trần Bình Trọng, Phường An Phú, Quận Ninh Kiều, TP Cần Thơ, An Phú, Ninh Kiều, Cần Thơ, Việt Nam","An Phú, Ninh Kiều","227/12, Trần Bình Trọng, Phường An Phú, Quận Ninh Kiều, TP Cần Thơ",Cần Thơ,,"Ninh Kiều, Cần Thơ",VN
828,ChIJCyArWg2JoDERJXgtOrIxA-I,Quán ăn Tư Ngon,Nhà hàng,Nhà hàng,+84 946 461 913,"2P6W+2QJ Quán ăn Tư Ngon, An Bình, Ninh Kiều, Cần Thơ, Việt Nam","An Bình, Ninh Kiều",2P6W+2QJ,Cần Thơ,,"Ninh Kiều, Cần Thơ",VN
829,ChIJB8dLEHKJoDER1_QpKUh7fX8,Quán Cơm Gà 3 Ký,Quán ăn nhỏ,Quán ăn nhỏ,+84 919 737 307,"Quán Cơm Gà 3 Ký, Đ. Nguyễn Văn Linh, Phường An Khánh, Ninh Kiều, Cần Thơ, Việt Nam","Phường An Khánh, Ninh Kiều",Đ. Nguyễn Văn Linh,Cần Thơ,,"Ninh Kiều, Cần Thơ",VN
830,ChIJh7YnX1uJoDERcgNy0i6s-cA,Quán cơm Tiền Ký,Nhà hàng Trung Quốc,Nhà hàng Trung Quốc,,"2Q75+JF2 Quán cơm Tiền Ký, Đ. 3 Tháng 2, Hưng Lợi, Ninh Kiều, Cần Thơ, Việt Nam","Hưng Lợi, Ninh Kiều","2Q75+JF2, Đ. 3 Tháng 2",Cần Thơ,,"Ninh Kiều, Cần Thơ",VN
848,ChIJedl3YDSIoDERYv4dXlT3t5A,Quán Cơm Bình Dân 165,Quán ăn nhỏ,"Quán ăn nhỏ, Nhà hàng",+84 292 3838 494,"Quán Cơm Bình Dân 165, 165 Đ. 30 Tháng 4, Hưng Lợi, Ninh Kiều, Cần Thơ, Việt Nam","Hưng Lợi, Ninh Kiều",165 Đ. 30 Tháng 4,Cần Thơ,,"Ninh Kiều, Cần Thơ",VN
849,ChIJf8EMj-KJoDERRTjD65gQQm8,Nhà hàng Ẩm Thực Miền Quê G20,Nhà hàng gia đình,Nhà hàng gia đình,+84 939 200 924,"Nhà hàng Ẩm Thực Miền Quê G20, 592 Đ. 30 Tháng 4, Hưng Lợi, Ninh Kiều, Cần Thơ, Việt Nam","Hưng Lợi, Ninh Kiều",592 Đ. 30 Tháng 4,Cần Thơ,,"Ninh Kiều, Cần Thơ",VN
855,ChIJcQs4yCSIoDERr7WiVN-Q9XE,Quán Cơm Quỳnh,Nhà hàng,Nhà hàng,+84 913 823 867,"Quán Cơm Quỳnh, 25 Đ. Trần Văn Hoài, Xuân Khánh, Ninh Kiều, Cần Thơ, Việt Nam","Xuân Khánh, Ninh Kiều",25 Đ. Trần Văn Hoài,Cần Thơ,,"Ninh Kiều, Cần Thơ",VN
859,ChIJcx-zPaBioDERDQ4d0R7GBMs,Quán Bún Mắm Phi Long,Quán ăn nhỏ,Quán ăn nhỏ,+84 376 787 789,"Quán Bún Mắm Phi Long, 12 Đ. Đề Thám, An Cư, Ninh Kiều, Cần Thơ, Việt Nam","An Cư, Ninh Kiều",12 Đ. Đề Thám,Cần Thơ,,"Ninh Kiều, Cần Thơ",VN
860,ChIJEWOrMOJjoDERc45NOCFET6Y,Nhà hàng sáu đời 3,Nhà hàng gia đình,Nhà hàng gia đình,,"Nhà hàng sáu đời 3, 23 Lê Lợi, Cái Khế, Ninh Kiều, Cần Thơ, Việt Nam","Cái Khế, Ninh Kiều",23 Lê Lợi,Cần Thơ,,"Ninh Kiều, Cần Thơ",VN
861,ChIJw7Xsj5RjoDERTSmKETAuhqA,CHẾ THƯ TRÙM ĂN VẶT,Nhà hàng,Nhà hàng,,"CHẾ THƯ TRÙM ĂN VẶT, 8 Đ. Nguyễn Khuyến, Tân An, Ninh Kiều, Cần Thơ, Việt Nam","Tân An, Ninh Kiều",8 Đ. Nguyễn Khuyến,Cần Thơ,,"Ninh Kiều, Cần Thơ",VN
862,ChIJ1f99XmZjoDERBGopQFqATPc,Tiệm Cơm Quê Mình,Nhà hàng,Nhà hàng,+84 888 888 326,"Tiệm Cơm Quê Mình, 23 Ngô Gia Tự, Tân An, Ninh Kiều, Cần Thơ, Việt Nam","Tân An, Ninh Kiều",23 Ngô Gia Tự,Cần Thơ,,"Ninh Kiều, Cần Thơ",VN
865,ChIJK_e-7-iJoDERj6AUUFPvc9g,Quán Cơm Phần,Quán ăn nhỏ,Quán ăn nhỏ,,"Quán Cơm Phần, 389D4A, Đ. Trần Nam Phú, Xuân Khánh, Ninh Kiều, Cần Thơ, Việt Nam","Xuân Khánh, Ninh Kiều","389D4A, Đ. Trần Nam Phú",Cần Thơ,,"Ninh Kiều, Cần Thơ",VN
866,ChIJWSthhwGJoDERz9uZeZy4yyM,Chè Kim Tuyền,Quán ăn nhỏ,Quán ăn nhỏ,+84 939 318 877,"Chè Kim Tuyền, 399 ab2, Đường Số 7, khu dân cư Hồng Phát, Ninh Kiều, Cần Thơ, Việt Nam","khu dân cư Hồng Phát, Ninh Kiều","399 ab2, Đường Số 7",Cần Thơ,,"Ninh Kiều, Cần Thơ",VN
867,ChIJEQSI1FqIoDERWaWOAUvSXF8,Quán Dê Thật 2,Nhà hàng,Nhà hàng,+84 914 713 612,"Quán Dê Thật 2, 400 Nguyễn Văn Cừ Nối Dài, An Bình, Ninh Kiều, Cần Thơ, Việt Nam","An Bình, Ninh Kiều",400 Nguyễn Văn Cừ Nối Dài,Cần Thơ,,"Ninh Kiều, Cần Thơ",VN
868,ChIJAw05RlOJoDERWBwUTYu-Lsw,"Quán Ăn Kiều Oanh - Lẩu Hải Sản, Lẩu Bò & Đồ Nướng",Nhà hàng gia đình,Nhà hàng gia đình,,"Quán Ăn Kiều Oanh - Lẩu Hải Sản, Lẩu Bò & Đồ Nướng, 06 Kv Thạnh Huề, Thường Thạnh, Cái Răng, Cần Thơ, Việt Nam","Thường Thạnh, Cái Răng",06 Kv Thạnh Huề,Cần Thơ,,"Cái Răng, Cần Thơ",VN
871,ChIJI_bbq8qJoDERqFp4Dlu4Qd4,Bún chay THIỆN PHƯỚC,Quán ăn nhỏ,Quán ăn nhỏ,,"Bún chay THIỆN PHƯỚC, 26 Đ. 3 Tháng 2, Hưng Lợi, Ninh Kiều, Cần Thơ, Việt Nam","Hưng Lợi, Ninh Kiều",26 Đ. 3 Tháng 2,Cần Thơ,,"Ninh Kiều, Cần Thơ",VN
872,ChIJY1eIESOJoDERJempUu4lKdI,"Quán nguyên khang - bún bò huế, bún cua",Quán ăn nhỏ,Quán ăn nhỏ,+84 988 258 598,"Quán nguyên khang - bún bò huế, bún cua, 118/14 Đ. Trần Hoàng Na, Hưng Lợi, Ninh Kiều, Cần Thơ, Việt Nam","Hưng Lợi, Ninh Kiều",118/14 Đ. Trần Hoàng Na,Cần Thơ,,"Ninh Kiều, Cần Thơ",VN
875,ChIJgyRt5kpjoDERnya0PAB8gK8,Cơm cháy kho quẹt Happy,Quán ăn nhỏ,Quán ăn nhỏ,+84 933 556 578,"Cơm cháy kho quẹt Happy, Đường Đ. Ngô Văn Sở, Tân An, Ninh Kiều, Cần Thơ, Việt Nam","Tân An, Ninh Kiều",Đường Đ. Ngô Văn Sở,Cần Thơ,,"Ninh Kiều, Cần Thơ",VN
876,ChIJKWnw3lxjoDERxo7eRTbDBrA,Bánh Canh Mộc Cô Vân,Quán ăn nhỏ,Quán ăn nhỏ,+84 847 130 058,"Bánh Canh Mộc Cô Vân, 27A Đường Châu Văn Liêm, Tân An, Ninh Kiều, Cần Thơ 900000, Việt Nam","Tân An, Ninh Kiều",27A Đường Châu Văn Liêm,Cần Thơ,900000.0,"Ninh Kiều, Cần Thơ",VN
877,ChIJY9EFoZuHoDEReU1mHI5PeNc,NHÀ HÀNG SƠN LÂM QUÁN,Nhà hàng,Nhà hàng,+84 906 110 909,"NHÀ HÀNG SƠN LÂM QUÁN, 33 ĐƯỜNG Trần Văn Giàu, Cái Khế, Ninh Kiều, Cần Thơ 94000, Việt Nam","Cái Khế, Ninh Kiều",33 ĐƯỜNG Trần Văn Giàu,Cần Thơ,94000.0,"Ninh Kiều, Cần Thơ",VN
878,ChIJY7HUjj-JoDERmaBPVECALf4,Quán ăn Tuấn Phát,Nhà hàng,Nhà hàng,,"2QJ2+FJG Quán ăn Tuấn Phát, Phường An Khánh, Ninh Kiều, Cần Thơ, Việt Nam","Phường An Khánh, Ninh Kiều",2QJ2+FJG,Cần Thơ,,"Ninh Kiều, Cần Thơ",VN
879,ChIJocN930GJoDERXh_xZFGnVkI,QUÁN ĂN TƯ MINH,Quán ăn nhỏ,Quán ăn nhỏ,+84 783 787 271,"QUÁN ĂN TƯ MINH, 41/7 Đ. Mạc Thiên Tích, Xuân Khánh, Ninh Kiều, Cần Thơ, Việt Nam","Xuân Khánh, Ninh Kiều",41/7 Đ. Mạc Thiên Tích,Cần Thơ,,"Ninh Kiều, Cần Thơ",VN
880,ChIJ2wXzpyBjoDER8OgEw6nT0w8,Quán Ăn A Hón,Nhà hàng,Nhà hàng,,"Quán Ăn A Hón, 70 Phan Đình Phùng, Tân An, Ninh Kiều, Cần Thơ, Việt Nam","Tân An, Ninh Kiều",70 Phan Đình Phùng,Cần Thơ,,"Ninh Kiều, Cần Thơ",VN
885,ChIJuzOjzqBjoDER1oHXpGh4ito,Quán Ăn THÍCH DÊ,Nhà hàng gia đình,Nhà hàng gia đình,,"2QFR+27Q Quán Ăn THÍCH DÊ, KDC Hưng Phú 1, Cái Răng, Cần Thơ, Việt Nam","KDC Hưng Phú 1, Cái Răng",2QFR+27Q,Cần Thơ,,"Cái Răng, Cần Thơ",VN
892,ChIJS-9JPB2IoDERTTRe9uN_wM0,Quán Nghêu - Sò - Ốc Ngọc,Nhà hàng,Nhà hàng,,"2QRJ+X3M Quán Nghêu - Sò - Ốc Ngọc, Đ. Đinh Tiên Hoàng, An Hội, Ninh Kiều, Cần Thơ, Việt Nam","An Hội, Ninh Kiều","2QRJ+X3M, Đ. Đinh Tiên Hoàng",Cần Thơ,,"Ninh Kiều, Cần Thơ",VN
896,ChIJscgRnA9joDERrFKtQNFaCVg,Cơm tấm Dì Năm (Ninh Kiều),Quán ăn nhỏ,Quán ăn nhỏ,+84 901 213 114,"Cơm tấm Dì Năm (Ninh Kiều), đối diện Yamaha, Nhà lồng 3 Trung Tâm Thương Mại, Trần Văn Khéo, Hồng Phúc, Ninh Kiều, Cần Thơ, Việt Nam","Hồng Phúc, Ninh Kiều","đối diện Yamaha, Nhà lồng 3 Trung Tâm Thương Mại, Trần Văn Khéo",Cần Thơ,,"Ninh Kiều, Cần Thơ",VN
905,ChIJxRjDM6SJoDERS4XWmS4M-p0,Quán Cơm Hẻm 131B,Nhà hàng,Nhà hàng,,"Quán Cơm Hẻm 131B, 131B Nguyễn Văn Cừ (ND, Phường An Khánh, Ninh Kiều, Cần Thơ, Việt Nam","Phường An Khánh, Ninh Kiều",131B Nguyễn Văn Cừ (ND,Cần Thơ,,"Ninh Kiều, Cần Thơ",VN
908,ChIJ0VCupPaJoDERgCy1WP6Z50Y,Cơm Mẹ Nấu,Quán ăn nhỏ,Quán ăn nhỏ,,"2QV5+CWV Cơm Mẹ Nấu, Phường An Khánh, Ninh Kiều, Cần Thơ, Việt Nam","Phường An Khánh, Ninh Kiều",2QV5+CWV,Cần Thơ,,"Ninh Kiều, Cần Thơ",VN
909,ChIJ15gJSCOJoDERSjv9PAgAgaU,Quán lẩu SinVi,Quán ăn nhỏ,Quán ăn nhỏ,+84 979 563 212,"Quán lẩu SinVi, Số 63 Đ.Số 4, khu dân cư Thới Nhựt 2, Ninh Kiều, Cần Thơ, Việt Nam","khu dân cư Thới Nhựt 2, Ninh Kiều",Số 63 Đ.Số 4,Cần Thơ,,"Ninh Kiều, Cần Thơ",VN
912,ChIJsbGWMhKIoDERLDGrQLppm5Y,Quán Nem Nướng Ngọc Trang,Nhà hàng,Nhà hàng,+84 832 323 335,"2QR7+H3G Quán Nem Nướng Ngọc Trang, Phường An Khánh, Ninh Kiều, Cần Thơ, Việt Nam","Phường An Khánh, Ninh Kiều",2QR7+H3G,Cần Thơ,,"Ninh Kiều, Cần Thơ",VN
913,ChIJEzOI4o-JoDER_b1EoHNTL4w,Cơm gà Lê Gia,Quán ăn nhỏ,Quán ăn nhỏ,+84 899 167 166,"2PCR+8WP Cơm gà Lê Gia, Nguyễn Văn Cừ Nối Dài, An Bình, Ninh Kiều, Cần Thơ, Việt Nam","An Bình, Ninh Kiều","2PCR+8WP, Nguyễn Văn Cừ Nối Dài",Cần Thơ,,"Ninh Kiều, Cần Thơ",VN
915,ChIJeUsCz4KJoDER1i4qXmTOymk,Quán Ăn Hằng Ni,Quán ăn nhẹ,Quán ăn nhẹ,+84 946 484 417,"Quán Ăn Hằng Ni, Nhơn Hưng A, Phong Điền, Cần Thơ, Việt Nam","Nhơn Hưng A, Phong Điền",,Cần Thơ,,"Phong Điền, Cần Thơ",VN
917,ChIJU-MFR8CJoDERDXoAwVxdN7k,Quán Ăn Gia Hân,Nhà hàng,Nhà hàng,,"2MHV+2GH Quán Ăn Gia Hân, Đ. Bùi Hữu Nghĩa, Giai Xuân, Phong Điền, Cần Thơ, Việt Nam","Giai Xuân, Phong Điền","2MHV+2GH, Đ. Bùi Hữu Nghĩa",Cần Thơ,,"Phong Điền, Cần Thơ",VN
919,ChIJIV3Vr02JoDERwZWEM5v7WQI,Quán Chay Thiện Tâm KC,Quán ăn nhỏ,Quán ăn nhỏ,,"Quán Chay Thiện Tâm KC, 360 Lê Bình, Yên Hạ, Khu Vực, Cái Răng, Cần Thơ, Việt Nam","Khu Vực, Cái Răng","360 Lê Bình, Yên Hạ",Cần Thơ,,"Cái Răng, Cần Thơ",VN
922,ChIJPTaTOjaIoDERhjjgx6ZHIv0,Maika Quán - Bún Thịt Xào,Quán ăn nhỏ,Quán ăn nhỏ,+84 968 695 529,"Maika Quán - Bún Thịt Xào, Hẻm 132 Đ. 3 Tháng 2, Hưng Lợi, Ninh Kiều, Cần Thơ, Việt Nam","Hưng Lợi, Ninh Kiều",Hẻm 132 Đ. 3 Tháng 2,Cần Thơ,,"Ninh Kiều, Cần Thơ",VN
930,ChIJFa76GaBioDERGeNk9s4j0T4,Quán Bún Riêu Cua 13,Quán ăn tự phục vụ,Quán ăn tự phục vụ,+84 292 3824 099,"Quán Bún Riêu Cua 13, 13 Đ. Đề Thám, Tân An, Ninh Kiều, Cần Thơ, Việt Nam","Tân An, Ninh Kiều",13 Đ. Đề Thám,Cần Thơ,,"Ninh Kiều, Cần Thơ",VN
932,ChIJ1fB_uSFjoDERgZh1DtYjCmA,Làng Quê quán,Nhà hàng,Nhà hàng,,"Làng Quê quán, 14 Đ. Lương Định Của, Cái Khế, Ninh Kiều, Cần Thơ, Việt Nam","Cái Khế, Ninh Kiều",14 Đ. Lương Định Của,Cần Thơ,,"Ninh Kiều, Cần Thơ",VN
934,ChIJz3tm6kSIoDERrcEb_QctVME,Quán ăn Tuấn Anh,Quán ăn nhỏ,Quán ăn nhỏ,,"Quán ăn Tuấn Anh, 28 Nguyễn Văn Cừ Nối Dài, An Bình, Ninh Kiều, Cần Thơ, Việt Nam","An Bình, Ninh Kiều",28 Nguyễn Văn Cừ Nối Dài,Cần Thơ,,"Ninh Kiều, Cần Thơ",VN
937,ChIJ67U-RUGIoDERiFji2vxsO3s,Quán Ăn Tây Đô,Quán ăn nhỏ,Quán ăn nhỏ,,"2QH3+Q68 Quán Ăn Tây Đô, Đ. Nguyễn Văn Linh, Phường An Khánh, Ninh Kiều, Cần Thơ, Việt Nam","Phường An Khánh, Ninh Kiều","2QH3+Q68, Đ. Nguyễn Văn Linh",Cần Thơ,,"Ninh Kiều, Cần Thơ",VN
940,ChIJJSnNSkKIoDERE2KRyPKb6Vc,Quán Ăn Đốc Tờ Dê,Nhà hàng,Nhà hàng,,"Quán Ăn Đốc Tờ Dê, 290G Đ. Nguyễn Văn Linh, Phường An Khánh, Ninh Kiều, Cần Thơ, Việt Nam","Phường An Khánh, Ninh Kiều",290G Đ. Nguyễn Văn Linh,Cần Thơ,,"Ninh Kiều, Cần Thơ",VN
942,ChIJfRQEsSWJoDER9tK7GwX891k,Hủ Tiếu Gõ,Quán ăn nhỏ,Quán ăn nhỏ,,"2PCR+5H8 Hủ Tiếu Gõ, An Bình, Ninh Kiều, Cần Thơ, Việt Nam","An Bình, Ninh Kiều",2PCR+5H8,Cần Thơ,,"Ninh Kiều, Cần Thơ",VN
944,ChIJ_Y8gJ_eJoDERDv_c54swLDM,Quán Cơm Anh Em,Quán ăn nhỏ,Quán ăn nhỏ,+84 965 691 561,"2Q83+2XG Quán Cơm Anh Em, Hẻm 38 Đ. 3 Tháng 2, Hưng Lợi, Ninh Kiều, Cần Thơ, Việt Nam","Hưng Lợi, Ninh Kiều","2Q83+2XG, Hẻm 38 Đ. 3 Tháng 2",Cần Thơ,,"Ninh Kiều, Cần Thơ",VN
947,ChIJ2fw6RUWIoDERLTogVMCewAM,Quán Tư Cang,Nhà hàng,Nhà hàng,+84 945 671 899,"Quán Tư Cang, 6 Đường số 3, An Bình, Ninh Kiều, Cần Thơ, Việt Nam","An Bình, Ninh Kiều",6 Đường số 3,Cần Thơ,,"Ninh Kiều, Cần Thơ",VN
948,ChIJ94uwJ2GJoDER-Cu6N5hcewM,Quán Ăn Tiền Ký,Quán ăn nhẹ,Quán ăn nhẹ,,"Quán Ăn Tiền Ký, 429 QL1A, Lê Bình, Cái Răng, Cần Thơ, Việt Nam","Lê Bình, Cái Răng",429 QL1A,Cần Thơ,,"Cái Răng, Cần Thơ",VN
951,ChIJdWLX3rSPoDERsJMrIxLC978,Quán Ăn Cô Hoa,Quán ăn nhỏ,Quán ăn nhỏ,,"Quán Ăn Cô Hoa, 249 ĐT923, Thị trấn Phong Điền, Phong Điền, Cần Thơ, Việt Nam","Thị trấn Phong Điền, Phong Điền",249 ĐT923,Cần Thơ,,"Phong Điền, Cần Thơ",VN
967,ChIJJZkRojOJoDER794QGue41f0,Quán 7979,Nhà hàng,Nhà hàng,,"Quán 7979, 41 Đ. Nguyễn Văn Linh, Hưng Lợi, Ninh Kiều, Cần Thơ, Việt Nam","Hưng Lợi, Ninh Kiều",41 Đ. Nguyễn Văn Linh,Cần Thơ,,"Ninh Kiều, Cần Thơ",VN
972,ChIJx9XXX0mJoDER4wtbVkJOcnk,Orange T - Cần Thơ,Quán ăn nhỏ,Quán ăn nhỏ,+84 349 984 843,"Orange T - Cần Thơ, 67 Đ. Trương Định, Tân An, Ninh Kiều, Cần Thơ 90000, Việt Nam","Tân An, Ninh Kiều",67 Đ. Trương Định,Cần Thơ,90000.0,"Ninh Kiều, Cần Thơ",VN
973,ChIJozo2SxKIoDER4yEFgxU7UcU,Quán Ăn Tư Cang,Nhà hàng ăn nhanh,Nhà hàng ăn nhanh,+84 946 871 899,"Quán Ăn Tư Cang, 126, Nguyễn Văn Cừ, Quận Ninh Kiều, Phường An Khánh, Ninh Kiều, Cần Thơ, Việt Nam","Phường An Khánh, Ninh Kiều","126, Nguyễn Văn Cừ, Quận Ninh Kiều",Cần Thơ,,"Ninh Kiều, Cần Thơ",VN
974,ChIJW0Kj3yiJoDERIdMkqXpQd9c,Quán ăn sáng Bún vịt - bao tử cay,Quán ăn nhẹ,Quán ăn nhẹ,,"Quán ăn sáng Bún vịt - bao tử cay, 59 Đường số 25, Phường An Khánh, Ninh Kiều, Cần Thơ, Việt Nam","Phường An Khánh, Ninh Kiều",59 Đường số 25,Cần Thơ,,"Ninh Kiều, Cần Thơ",VN
975,ChIJo5_7AeWJoDERRkr6s2EJlLU,Quán Ăn Nhật bản 6 Đời 1,Nhà hàng Nhật Bản,Nhà hàng Nhật Bản,,"Quán Ăn Nhật bản 6 Đời 1, 132 Đ. Nguyễn Văn Cừ, Phường An Khánh, Ninh Kiều, Cần Thơ, Việt Nam","Phường An Khánh, Ninh Kiều",132 Đ. Nguyễn Văn Cừ,Cần Thơ,,"Ninh Kiều, Cần Thơ",VN
976,ChIJ50Dx4lxjoDERoYgcgdE7LEo,Quán ăn Cô Ba,Nhà hàng,Nhà hàng,+84 869 951 170,"Quán ăn Cô Ba, 06 Hẻm 22 Đ. Mạc Đĩnh Chi, Tân An, Ninh Kiều, Cần Thơ, Việt Nam","Tân An, Ninh Kiều",06 Hẻm 22 Đ. Mạc Đĩnh Chi,Cần Thơ,,"Ninh Kiều, Cần Thơ",VN
977,ChIJW7sDTx6JoDERiSrj3d3M_l0,Quán ăn Phúc,Nhà hàng,Nhà hàng,,"Quán ăn Phúc, 39 Ngô Sỹ, Hưng Lợi, Ninh Kiều, Cần Thơ, Việt Nam","Hưng Lợi, Ninh Kiều",39 Ngô Sỹ,Cần Thơ,,"Ninh Kiều, Cần Thơ",VN
978,ChIJc4A--EKIoDERnTGmz-MVyuY,Quán Ăn Việt Ý,Nhà hàng,Nhà hàng,+84 292 3894 511,"Quán Ăn Việt Ý, 151A8 KDC Thới Nhựt, Quận Ninh Kiều, Tp Cần Thơ, Phường An Khánh, Ninh Kiều, Cần Thơ, Việt Nam","Phường An Khánh, Ninh Kiều","151A8 KDC Thới Nhựt, Quận Ninh Kiều, Tp Cần Thơ",Cần Thơ,,"Ninh Kiều, Cần Thơ",VN
979,ChIJX0FUCO-HoDERQzZRWPiu4EU,Ẩm thực sân vườn Cồn Khương,Quán ăn nhỏ,Quán ăn nhỏ,+84 909 055 979,"3Q4H+5JH Ẩm thực sân vườn Cồn Khương, Cái Khế, Ninh Kiều, Cần Thơ, Việt Nam","Cái Khế, Ninh Kiều",3Q4H+5JH,Cần Thơ,,"Ninh Kiều, Cần Thơ",VN
980,ChIJYw16ffeJoDERtRlZqZbPHUg,ẨM THỰC SÂN VƯỜN - CÂU CÁ GIẢI TRÍ HƯƠNG ĐỒNG,Nhà hàng gia đình,Nhà hàng gia đình,+84 908 673 200,"3Q3J+88 ẨM THỰC SÂN VƯỜN - CÂU CÁ GIẢI TRÍ HƯƠNG ĐỒNG, Cái Khế, Ninh Kiều, Cần Thơ, Việt Nam","Cái Khế, Ninh Kiều",3Q3J+88,Cần Thơ,,"Ninh Kiều, Cần Thơ",VN
988,ChIJFQrm6oGJoDERYNX4pEV6uMw,Quán ăn Thanh Thủy Hẻm 51,Nhà hàng,Nhà hàng,+84 908 342 939,"Quán ăn Thanh Thủy Hẻm 51, 1 Hẻm 51, Phường An Khánh, Ninh Kiều, Cần Thơ, Việt Nam","Phường An Khánh, Ninh Kiều",1 Hẻm 51,Cần Thơ,,"Ninh Kiều, Cần Thơ",VN
989,ChIJ0RVFi59ioDERn7rml0LxEVg,Quán Cơm Chay Thien Phuoc,Nhà hàng,Nhà hàng,+84 977 883 038,"Quán Cơm Chay Thien Phuoc, 81 Đ. Nam Kỳ Khởi Nghĩa, Tân An, Ninh Kiều, Cần Thơ, Việt Nam","Tân An, Ninh Kiều",81 Đ. Nam Kỳ Khởi Nghĩa,Cần Thơ,,"Ninh Kiều, Cần Thơ",VN
990,ChIJkXnk9CqIoDERgBK7hLem0vE,Quán Ăn - Phục Vụ Ca Cổ Ngọc Lan Quán,Nhà hàng,Nhà hàng,+84 939 620 107,"2Q7J+C59 Quán Ăn - Phục Vụ Ca Cổ Ngọc Lan Quán, Võ Nguyên Giáp, Hưng Phú, Cái Răng, Cần Thơ, Việt Nam","Hưng Phú, Cái Răng","2Q7J+C59, Võ Nguyên Giáp",Cần Thơ,,"Cái Răng, Cần Thơ",VN
991,ChIJPTwnbKtjoDER_11TXcTjE_0,Quán nướng 3 Chì,Nhà hàng,Nhà hàng,+84 584 444 833,"2QVV+X49 Quán nướng 3 Chì, công viên, Bờ kè, Cái Khế, Ninh Kiều, Cần Thơ, Việt Nam","Cái Khế, Ninh Kiều","2QVV+X49 công viên, Bờ kè",Cần Thơ,,"Ninh Kiều, Cần Thơ",VN
996,ChIJe3S5Db9joDER2rtsXv8Sfg4,Cháo Ếch Singapore Geylang - Cần Thơ,Nhà hàng,Nhà hàng,+84 935 203 023,"Cháo Ếch Singapore Geylang - Cần Thơ, 107 Trần Văn Khéo, Cái Khế, Ninh Kiều, Cần Thơ, Việt Nam","Cái Khế, Ninh Kiều",107 Trần Văn Khéo,Cần Thơ,,"Ninh Kiều, Cần Thơ",VN
1005,ChIJjVz1mgOIoDERVcPg12Isnko,Quán Phở Nhật Anh,Nhà hàng,Nhà hàng,,"Quán Phở Nhật Anh, 17 Đ. Phạm Ngũ Lão, Thới Bình, Ninh Kiều, Cần Thơ, Việt Nam","Thới Bình, Ninh Kiều",17 Đ. Phạm Ngũ Lão,Cần Thơ,,"Ninh Kiều, Cần Thơ",VN
1018,ChIJtZC0x7qJoDERw3BvI7i2Lng,Quán Nhà tôi: Có,Nhà hàng ăn nhanh,Nhà hàng ăn nhanh,,"Quán Nhà tôi: Có, 115a Đ. Nguyễn Tri Phương, Phường An Khánh, Ninh Kiều, Cần Thơ, Việt Nam","Phường An Khánh, Ninh Kiều",115a Đ. Nguyễn Tri Phương,Cần Thơ,,"Ninh Kiều, Cần Thơ",VN
1021,ChIJUbjxWriJoDERlKiD8CISB6g,Quán Ăn 94 Hẹn,Nhà hàng,Nhà hàng,+84 777 145 896,"Quán Ăn 94 Hẹn, 112 Đ. Trần Hoàng Na, Hưng Lợi, Ninh Kiều, Cần Thơ, Việt Nam","Hưng Lợi, Ninh Kiều",112 Đ. Trần Hoàng Na,Cần Thơ,,"Ninh Kiều, Cần Thơ",VN
1022,ChIJvW_X8lCJoDERbaGbjESETHs,Quán Cơm,Nhà hàng,Nhà hàng,+84 996 202 533,"2Q62+HVQ Quán Cơm, An Bình, Ninh Kiều, Cần Thơ, Việt Nam","An Bình, Ninh Kiều",2Q62+HVQ,Cần Thơ,,"Ninh Kiều, Cần Thơ",VN
1023,ChIJBRwdWDCIoDERfQafgxifgxk,Quán Ăn Nam Bộ Phố Đêm,Nhà hàng,Nhà hàng,+84 292 3736 541,"Quán Ăn Nam Bộ Phố Đêm, 268/48, Đường Nguyễn Văn Linh, Quận Ninh Kiều, Tp Cần Thơ, Hưng Lợi, Ninh Kiều, Cần Thơ, Việt Nam","Hưng Lợi, Ninh Kiều","268/48, Đường Nguyễn Văn Linh, Quận Ninh Kiều, Tp Cần Thơ",Cần Thơ,,"Ninh Kiều, Cần Thơ",VN
1026,ChIJ6V3te1SJoDERt0IYv6ZUQaI,QUÁN ĂN GIA ĐÌNH VƯỜN DÂU,Nhà hàng gia đình,Nhà hàng gia đình,+84 919 880 016,"XPR4+7Q5 QUÁN ĂN GIA ĐÌNH VƯỜN DÂU, Nguyễn Văn Cừ Nối Dài, Mỹ Khánh, Phong Điền, Cần Thơ, Việt Nam","Mỹ Khánh, Phong Điền","XPR4+7Q5, Nguyễn Văn Cừ Nối Dài",Cần Thơ,,"Phong Điền, Cần Thơ",VN
1030,ChIJd-bnH6GJoDER35hZ33YtMv0,Quán ăn gia đình Huỳnh Như,Nhà hàng,Nhà hàng,+84 907 194 132,"Quán ăn gia đình Huỳnh Như, 6 Đường Trần Hoàng Na, Hưng Thành, Cái Răng, Cần Thơ, Việt Nam","Hưng Thành, Cái Răng",6 Đường Trần Hoàng Na,Cần Thơ,,"Cái Răng, Cần Thơ",VN
1031,ChIJ1Z8zXo2JoDER01VTP-Tq7ww,QUÁN ĂN KIỀU OANH - QUÁN ĂN GIA ĐÌNH,Nhà hàng,Nhà hàng,,"XQQ3+248 QUÁN ĂN KIỀU OANH - QUÁN ĂN GIA ĐÌNH, Kv Thạnh Huề, Thường Thạnh, Cái Răng, Cần Thơ, Việt Nam","Thường Thạnh, Cái Răng","XQQ3+248, Kv Thạnh Huề",Cần Thơ,,"Cái Răng, Cần Thơ",VN
1038,ChIJKTYB2YSJoDERD_pV9U3JuIw,Quán Cơm Ban Mai,Gian hàng rong,"Gian hàng rong, Quán ăn tự phục vụ",+84 292 3843 487,"Quán Cơm Ban Mai, 102, KV2 Quốc Lộ 1A, Quận Cái Răng, Ba Láng, Cái Răng, Cần Thơ, Việt Nam","Ba Láng, Cái Răng","102, KV2 Quốc Lộ 1A, Quận Cái Răng",Cần Thơ,,"Cái Răng, Cần Thơ",VN
1048,ChIJCXTX0a-JoDERSSmcudIygws,Quán cơm Đức Minh,Quán ăn nhỏ,Quán ăn nhỏ,,"Quán cơm Đức Minh, 515 Đ. 30 Tháng 4, Hưng Lợi, Ninh Kiều, Cần Thơ, Việt Nam","Hưng Lợi, Ninh Kiều",515 Đ. 30 Tháng 4,Cần Thơ,,"Ninh Kiều, Cần Thơ",VN
1058,ChIJB-Vf3HaJoDERJ0Q9AeBc5aQ,Chân Gà Sả Tắc - Lê Dương,Quán ăn nhỏ,Quán ăn nhỏ,+84 366 314 724,"2Q9C+6CG Chân Gà Sả Tắc - Lê Dương, 12 Hẻm 553, Hưng Lợi, Ninh Kiều, Cần Thơ, Việt Nam","Hưng Lợi, Ninh Kiều","2Q9C+6CG, 12 Hẻm 553",Cần Thơ,,"Ninh Kiều, Cần Thơ",VN
1071,ChIJqYFgF_RjoDERtnCf0YlGRng,Mì Quay Mã Lai,Quán ăn nhỏ,Quán ăn nhỏ,,"Mì Quay Mã Lai, 08 Đ. Nguyễn Khuyến, Tân An, Ninh Kiều, Cần Thơ, Việt Nam","Tân An, Ninh Kiều",08 Đ. Nguyễn Khuyến,Cần Thơ,,"Ninh Kiều, Cần Thơ",VN
1072,ChIJ2b9XX6BioDERLj7hs2UT5Do,Cơm Tấm Phượng,Nhà hàng,Nhà hàng,,"Cơm Tấm Phượng, 12 Đ. Nguyễn Khuyến, Tân An, Ninh Kiều, Cần Thơ, Việt Nam","Tân An, Ninh Kiều",12 Đ. Nguyễn Khuyến,Cần Thơ,,"Ninh Kiều, Cần Thơ",VN
1074,ChIJ6-0nac2HoDERupwHZ2Tie2s,Quán Ăn/Nhậu ANH ĐÀO,Nhà hàng,Nhà hàng,,"3Q6H+G5M Quán Ăn/Nhậu ANH ĐÀO, Đường số 1, Cồn Khương, Ninh Kiều, Cần Thơ, Việt Nam","Cồn Khương, Ninh Kiều","3Q6H+G5M, Đường số 1",Cần Thơ,,"Ninh Kiều, Cần Thơ",VN
1075,ChIJqaBfWuiHoDER9S29zZ-US_8,Quán Ăn Bằng Lăng,Nhà hàng,Nhà hàng,,"Quán Ăn Bằng Lăng, 416 Huỳnh Mẫn Đạt, Bùi Hữu Nghĩa, Bình Thủy, Cần Thơ, Việt Nam","Bùi Hữu Nghĩa, Bình Thủy",416 Huỳnh Mẫn Đạt,Cần Thơ,,"Bình Thủy, Cần Thơ",VN
1076,ChIJI0Gw0MyJoDER3GQIhkCZVaI,Quán ăn Thuận Phát,Quán ăn nhỏ,Quán ăn nhỏ,+84 939 939 011,"Quán ăn Thuận Phát, 116a Đ. Mậu Thân, An Nghiệp, Ninh Kiều, Cần Thơ, Việt Nam","An Nghiệp, Ninh Kiều",116a Đ. Mậu Thân,Cần Thơ,,"Ninh Kiều, Cần Thơ",VN
1077,ChIJxZ8uvwaIoDER1zlGSjbB-r0,Quán Cơm Thúy Liễu,Nhà hàng,Nhà hàng,+84 387 122 832,"Quán Cơm Thúy Liễu, 114 Đ. Cách Mạng Tháng 8, Cái Khế, Ninh Kiều, Cần Thơ, Việt Nam","Cái Khế, Ninh Kiều",114 Đ. Cách Mạng Tháng 8,Cần Thơ,,"Ninh Kiều, Cần Thơ",VN
1078,ChIJTSyYQayJoDERJlGYa2QAHdI,Quán Cơm Chay Thiện Duyên,Quán ăn nhỏ,Quán ăn nhỏ,,"2QR6+6P3 Quán Cơm Chay Thiện Duyên, Nguyễn Văn Cừ Nối Dài, Phường An Khánh, Ninh Kiều, Cần Thơ, Việt Nam","Phường An Khánh, Ninh Kiều","2QR6+6P3, Nguyễn Văn Cừ Nối Dài",Cần Thơ,,"Ninh Kiều, Cần Thơ",VN
1079,ChIJQxgzi6BioDERqeUjLcYVag4,Quán Ăn Cơm Tấm - Bánh Tầm,Nhà hàng,Nhà hàng,+84 292 2480 136,"Quán Ăn Cơm Tấm - Bánh Tầm, 89A Đ. Ngô Quyền, Tân An, Ninh Kiều, Cần Thơ, Việt Nam","Tân An, Ninh Kiều",89A Đ. Ngô Quyền,Cần Thơ,,"Ninh Kiều, Cần Thơ",VN
1085,ChIJC8yKEqqJoDERMVkMmU6iVbI,Quán Cơm An,Nhà hàng gia đình,Nhà hàng gia đình,+84 374 217 707,"Quán Cơm An, Cạnh 2/121C, Hẻm 311 Đ. Nguyễn Văn Cừ, An Hoà, Ninh Kiều, Cần Thơ, Việt Nam","An Hoà, Ninh Kiều","Cạnh 2/121C, Hẻm 311 Đ. Nguyễn Văn Cừ",Cần Thơ,,"Ninh Kiều, Cần Thơ",VN
1086,ChIJXZl6UKlioDERo7t7vtQRllw,Công Ty TNHH Ẩm Thực Ngon - Nhà Hàng Phố Biển,Nhà hàng,Nhà hàng,+84 292 3768 562,"2QXP+6W6 Công Ty TNHH Ẩm Thực Ngon - Nhà Hàng Phố Biển, Vòng Xoay Cồn, Cái Khế, Ninh Kiều, Cần Thơ, Việt Nam","Cái Khế, Ninh Kiều","2QXP+6W6, Vòng Xoay Cồn",Cần Thơ,,"Ninh Kiều, Cần Thơ",VN
1087,ChIJx1jAWaBioDER1rGGNk3z4EM,Quán Ăn Bún Riêu,Quán ăn nhỏ,Quán ăn nhỏ,+84 933 858 744,"Quán Ăn Bún Riêu, 16 Đ. Nguyễn Khuyến, Tân An, Ninh Kiều, Cần Thơ, Việt Nam","Tân An, Ninh Kiều",16 Đ. Nguyễn Khuyến,Cần Thơ,,"Ninh Kiều, Cần Thơ",VN
1088,ChIJBbkiQYdjoDERG82c2UMZVCA,Quán ăn Hoa Sen,Nhà hàng châu Á,Nhà hàng châu Á,,"Quán ăn Hoa Sen, 25 Đ. Đề Thám, Tân An, Ninh Kiều, Cần Thơ, Việt Nam","Tân An, Ninh Kiều",25 Đ. Đề Thám,Cần Thơ,,"Ninh Kiều, Cần Thơ",VN
1090,ChIJVRhs-7JjoDERaMGBeNrPWW4,Quán Cơm 18,Nhà hàng gia đình,Nhà hàng gia đình,,"Quán Cơm 18, 3B Sông Hậu, Cái Khế, Ninh Kiều, Cần Thơ 94000, Việt Nam","Cái Khế, Ninh Kiều",3B Sông Hậu,Cần Thơ,94000.0,"Ninh Kiều, Cần Thơ",VN
1093,ChIJ2b4M-IaJoDERQ6NkDfW4Vjc,Quán cơm gà A.Khánh,Nhà hàng thịt gà,Nhà hàng thịt gà,+84 917 566 339,"Quán cơm gà A.Khánh, 117 - 119 Nguyễn Tri Phương, Phường An Khánh, Ninh Kiều, Cần Thơ 900000, Việt Nam","Phường An Khánh, Ninh Kiều",117 - 119 Nguyễn Tri Phương,Cần Thơ,900000.0,"Ninh Kiều, Cần Thơ",VN
1094,ChIJ_6QWwyCIoDERHuB8sCw7oK8,Quán Ăn Lộc Đỉnh Ký,Nhà hàng,Nhà hàng,+84 842 822 822,"Quán Ăn Lộc Đỉnh Ký, 1, Quang Trung, Phường Hưng Phú, Quận Cái Răng, Thành Phố Cần Thơ, An Lạc, Ninh Kiều, Cần Thơ, Việt Nam","An Lạc, Ninh Kiều","1, Quang Trung, Phường Hưng Phú, Quận Cái Răng, Thành Phố Cần Thơ",Cần Thơ,,"Ninh Kiều, Cần Thơ",VN
1096,ChIJ5dwlR1hjoDERTB15tkNt5fo,Quán cơm sườn Chú Tư,Nhà hàng,Nhà hàng,,"2QPM+3GM Quán cơm sườn Chú Tư, An Cư, Ninh Kiều, Cần Thơ, Việt Nam","An Cư, Ninh Kiều",2QPM+3GM,Cần Thơ,,"Ninh Kiều, Cần Thơ",VN
1097,ChIJQb-msFZjoDERutSqHkKx_Co,Quán Cơm BÀ CỤ,Quán ăn nhỏ,Quán ăn nhỏ,,"2QPP+3W3 Quán Cơm BÀ CỤ, Đ. Trần Quốc Toản, Tân An, Ninh Kiều, Cần Thơ, Việt Nam","Tân An, Ninh Kiều","2QPP+3W3, Đ. Trần Quốc Toản",Cần Thơ,,"Ninh Kiều, Cần Thơ",VN
1098,ChIJhYIP3c5joDER7RSaqS60tXI,Đậu đỏ quán,Nhà hàng gia đình,Nhà hàng gia đình,+84 907 010 359,"Đậu đỏ quán, 34 Đ. Lương Định Của, Cái Khế, Ninh Kiều, Cần Thơ, Việt Nam","Cái Khế, Ninh Kiều",34 Đ. Lương Định Của,Cần Thơ,,"Ninh Kiều, Cần Thơ",VN
1121,ChIJ72UC86BioDER_JzvJSRX4lQ,Quán Cơm Tấm Đông Hồ 2,Nhà hàng,Nhà hàng,+84 397 945 998,"Quán Cơm Tấm Đông Hồ 2, 89A Đ. Ngô Quyền, Tân An, Ninh Kiều, Cần Thơ, Việt Nam","Tân An, Ninh Kiều",89A Đ. Ngô Quyền,Cần Thơ,,"Ninh Kiều, Cần Thơ",VN
1127,ChIJs1mFUFmJoDERayssSjMReD4,Quán Làng Nướng Cần Thơ,Quán ăn nhỏ,Quán ăn nhỏ,,"Quán Làng Nướng Cần Thơ, 189 Huỳnh Cương, An Cư, Ninh Kiều, Cần Thơ 900000, Việt Nam","An Cư, Ninh Kiều",189 Huỳnh Cương,Cần Thơ,900000.0,"Ninh Kiều, Cần Thơ",VN
1137,ChIJFazWbSSJoDERwYNR0Vk1Pw0,Ủn Ỉn Quán,Quán ăn nhỏ,"Quán ăn nhỏ, Quán cà phê",+84 977 460 904,"Ủn Ỉn Quán, 87, đường số 02, Khu Thới Nhựt 1, P. An Khánh, Q. Ninh Kiều, TP, Cần Thơ 900000, Việt Nam","Phường An Khánh, Ninh Kiều","87, đường số 02, Khu Thới Nhựt 1, P. An Khánh, Q. Ninh Kiều, TP",Cần Thơ,900000.0,"Ninh Kiều, Cần Thơ",VN
1138,ChIJfXYM4BiJoDERRzmZGqDQmNs,ND Quán - Cơm Heo Quay & Cơm Tấm & Bún Xào,Quán ăn nhỏ,Quán ăn nhỏ,+84 979 745 941,"ND Quán - Cơm Heo Quay & Cơm Tấm & Bún Xào, 318 Đ. Nguyễn Văn Linh, Phường An Khánh, Ninh Kiều, Cần Thơ, Việt Nam","Phường An Khánh, Ninh Kiều",318 Đ. Nguyễn Văn Linh,Cần Thơ,,"Ninh Kiều, Cần Thơ",VN
1139,ChIJTQwULRKIoDERiRwF2N2p-Ig,Quán Thắm Đồng Quê,Nhà hàng,Nhà hàng,+84 292 3891 949,"Quán Thắm Đồng Quê, 259 Đ. Nguyễn Văn Cừ, Phường An Khánh, Ninh Kiều, Cần Thơ, Việt Nam","Phường An Khánh, Ninh Kiều",259 Đ. Nguyễn Văn Cừ,Cần Thơ,,"Ninh Kiều, Cần Thơ",VN
1140,ChIJay0Hz8SJoDER1a4lrLMNETw,Quán Cơm Phần Uyên Uyên,Quán ăn nhỏ,Quán ăn nhỏ,+84 917 636 699,"Quán Cơm Phần Uyên Uyên, KDC Hồng Phát, 159 Đường số 3, An Bình, Ninh Kiều, Cần Thơ 90000, Việt Nam","An Bình, Ninh Kiều","KDC Hồng Phát, 159 Đường số 3",Cần Thơ,90000.0,"Ninh Kiều, Cần Thơ",VN
1141,ChIJceORcB6JoDERQTt6A4CV5_s,Mẹ Quê Quán Ăn Vặt,Quán ăn nhẹ,Quán ăn nhẹ,+84 913 033 079,"Mẹ Quê Quán Ăn Vặt, 52b Đường số 3, Phường, Ninh Kiều, Cần Thơ, Việt Nam","Phường, Ninh Kiều",52b Đường số 3,Cần Thơ,,"Ninh Kiều, Cần Thơ",VN
1143,ChIJ04GvVbKJoDER_RJppQdSsn4,Quán Ăn Vặt Thanh Trúc,Quán ăn nhỏ,Quán ăn nhỏ,+84 939 072 834,"2P5X+VRP Quán Ăn Vặt Thanh Trúc, An Bình, Ninh Kiều, Cần Thơ, Việt Nam","An Bình, Ninh Kiều",2P5X+VRP,Cần Thơ,,"Ninh Kiều, Cần Thơ",VN
1147,ChIJJ7C1BbyJoDERTYFDxEMN_-A,Quán Ăn Thành Đạt,Quán ăn nhỏ,Quán ăn nhỏ,,"Quán Ăn Thành Đạt, 218 Trần Hưng Đạo, Lê Bình, Cái Răng, Cần Thơ, Việt Nam","Lê Bình, Cái Răng",218 Trần Hưng Đạo,Cần Thơ,,"Cái Răng, Cần Thơ",VN
1150,ChIJRco6DJWJoDERaMAgub7cQh8,Nhà Hàng DNC,Nhà hàng,Nhà hàng,,"Nhà Hàng DNC, 168 Nguyễn Văn Cừ Nối Dài, An Bình, Ninh Kiều, Cần Thơ, Việt Nam","An Bình, Ninh Kiều",168 Nguyễn Văn Cừ Nối Dài,Cần Thơ,,"Ninh Kiều, Cần Thơ",VN
1153,ChIJmyBBwLeJoDERSB2X3lfJirQ,Quán Cơm Nguyên Hoàng,Quán ăn nhỏ,Quán ăn nhỏ,+84 909 070 379,"Quán Cơm Nguyên Hoàng, 47/2, Đường Hậu Thạnh Mỹ, Quận Cái Răng, Lê Bình, Cái Răng, Cần Thơ, Việt Nam","Lê Bình, Cái Răng","47/2, Đường Hậu Thạnh Mỹ, Quận Cái Răng",Cần Thơ,,"Cái Răng, Cần Thơ",VN
1155,ChIJr-UUp0SJoDERu4NOPDaIPDY,Quán ăn Cát Vy,Quán ăn nhỏ,Quán ăn nhỏ,,"Quán ăn Cát Vy, 17 Trần Chiên, Lê Bình, Cái Răng, Cần Thơ, Việt Nam","Lê Bình, Cái Răng",17 Trần Chiên,Cần Thơ,,"Cái Răng, Cần Thơ",VN
1164,ChIJW5tcHrGJoDERlslpGOJgoQg,Quán Điểm Hẹn Hò,Nhà hàng,Nhà hàng,,"Quán Điểm Hẹn Hò, 474a Trần Hưng Đạo, Lê Bình, Cái Răng, Cần Thơ, Việt Nam","Lê Bình, Cái Răng",474a Trần Hưng Đạo,Cần Thơ,,"Cái Răng, Cần Thơ",VN
1167,ChIJlfN-qtOJoDERB-UynjFeAD0,Quán Ăn Gia Đình Hải Sản Cà Mau,Nhà hàng,Nhà hàng,+84 969 979 424,"Quán Ăn Gia Đình Hải Sản Cà Mau, 6 Hẻm 51, Hưng Lợi, Ninh Kiều, Cần Thơ, Việt Nam","Hưng Lợi, Ninh Kiều",6 Hẻm 51,Cần Thơ,,"Ninh Kiều, Cần Thơ",VN
1168,ChIJ72EtnwmJoDERyCIVM5TGiKU,Quán Cơm Khang Ký 30/4,Quán ăn nhỏ,Quán ăn nhỏ,,"2Q99+J66 Quán Cơm Khang Ký 30/4, Hẻm 391, Hưng Lợi, Ninh Kiều, Cần Thơ, Việt Nam","Hưng Lợi, Ninh Kiều","2Q99+J66, Hẻm 391",Cần Thơ,,"Ninh Kiều, Cần Thơ",VN
1169,ChIJd3lAFVSJoDERGQnIdmnC3jc,"ĐỒ CHAY - Bún, bánh ướt, bánh mì",Nhà hàng cho người ăn chay,Nhà hàng cho người ăn chay,+84 906 905 588,"ĐỒ CHAY - Bún, bánh ướt, bánh mì, 125 Đ. Nguyễn Hiền, Khu dân cư 91B, Ninh Kiều, Cần Thơ, Việt Nam","Khu dân cư 91B, Ninh Kiều",125 Đ. Nguyễn Hiền,Cần Thơ,,"Ninh Kiều, Cần Thơ",VN
1170,ChIJ7YnVTBeJoDERdhxyaTm__Tw,"Quán nhậu, Cơm trưa",Nhà hàng gia đình,Nhà hàng gia đình,,"Quán nhậu, Cơm trưa, 592 Đ. 30 Tháng 4, Hưng Lợi, Ninh Kiều, Cần Thơ 94100, Việt Nam","Hưng Lợi, Ninh Kiều",592 Đ. 30 Tháng 4,Cần Thơ,94100.0,"Ninh Kiều, Cần Thơ",VN
1172,ChIJYRwdmA6JoDERCBNoszFecW4,CƠM XÀO 102,Nhà hàng bán đồ ăn mang về,Nhà hàng bán đồ ăn mang về,+84 939 881 993,"CƠM XÀO 102, 40a Đ. Trần Hoàng Na, Hưng Lợi, Ninh Kiều, Cần Thơ, Việt Nam","Hưng Lợi, Ninh Kiều",40a Đ. Trần Hoàng Na,Cần Thơ,,"Ninh Kiều, Cần Thơ",VN
1173,ChIJbSSMqzqIoDERiy9MBqK1-R8,Quán Cơm Bình Dân,Quán ăn nhỏ,Quán ăn nhỏ,+84 292 3840 503,"Quán Cơm Bình Dân, 320 Đ. Trần Ngọc Quế, Xuân Khánh, Ninh Kiều, Cần Thơ, Việt Nam","Xuân Khánh, Ninh Kiều",320 Đ. Trần Ngọc Quế,Cần Thơ,,"Ninh Kiều, Cần Thơ",VN
1175,ChIJ4dXaizaIoDERIi4iP_DehvA,Quán Cơm 79,Nhà hàng,Nhà hàng,,"Quán Cơm 79, 132/12 Đ. 3 Tháng 2, An Bình, Ninh Kiều, Cần Thơ, Việt Nam","An Bình, Ninh Kiều",132/12 Đ. 3 Tháng 2,Cần Thơ,,"Ninh Kiều, Cần Thơ",VN
1177,ChIJZUokOvqJoDERlCr3O44y_jo,Quán Cơm Chú Tám,Nhà hàng gia đình,Nhà hàng gia đình,,"Quán Cơm Chú Tám, 128 Đ. 3 Tháng 2, Xuân Khánh, Ninh Kiều, Cần Thơ, Việt Nam","Xuân Khánh, Ninh Kiều",128 Đ. 3 Tháng 2,Cần Thơ,,"Ninh Kiều, Cần Thơ",VN
1179,ChIJx7RFWzWJoDERuttwzYgLEA8,Quán Cơm Ngọc Hằng 4,Quán ăn nhỏ,Quán ăn nhỏ,,"Quán Cơm Ngọc Hằng 4, 146m Đ. Trần Văn Hoài, Xuân Khánh, Ninh Kiều, Cần Thơ, Việt Nam","Xuân Khánh, Ninh Kiều",146m Đ. Trần Văn Hoài,Cần Thơ,,"Ninh Kiều, Cần Thơ",VN
1186,ChIJ09uUdKBioDERyFaWLW2sL0U,Quán Mì Tân Phát,Nhà hàng,Nhà hàng,,"2QMJ+RQR Quán Mì Tân Phát, Tân An, Ninh Kiều, Cần Thơ, Việt Nam","Tân An, Ninh Kiều",2QMJ+RQR,Cần Thơ,,"Ninh Kiều, Cần Thơ",VN
1192,ChIJ0ef-YhuJoDER-qA-6cwHgoU,Bún chay An Lạc,Nhà hàng cho người ăn chay,Nhà hàng cho người ăn chay,,"Bún chay An Lạc, 245 Huỳnh Cương, An Cư, Ninh Kiều, Cần Thơ 94000, Việt Nam","An Cư, Ninh Kiều",245 Huỳnh Cương,Cần Thơ,94000.0,"Ninh Kiều, Cần Thơ",VN
1193,ChIJMaVnGXyHoDERVmejnEUIHCk,Quán ăn sáng,Quán ăn nhỏ,Quán ăn nhỏ,,"Quán ăn sáng, 172B Trần Quang Diệu, An Thới, Bình Thủy, Cần Thơ, Việt Nam","An Thới, Bình Thủy",172B Trần Quang Diệu,Cần Thơ,,"Bình Thủy, Cần Thơ",VN
1194,ChIJwdfEUuaHoDERyRw_gb-mZUA,Quán Cơm Phương Dung 2,Nhà hàng,Nhà hàng,+84 707 200 009,"Quán Cơm Phương Dung 2, 374 Đ. Cách Mạng Tháng 8, Bùi Hữu Nghĩa, Bình Thủy, Cần Thơ, Việt Nam","Bùi Hữu Nghĩa, Bình Thủy",374 Đ. Cách Mạng Tháng 8,Cần Thơ,,"Bình Thủy, Cần Thơ",VN
1195,ChIJC5EY6AaIoDERpENhvq2QzR4,Quán Cơm Gia Đình 100,Quán ăn nhỏ,Quán ăn nhỏ,+84 292 8992 445,"Quán Cơm Gia Đình 100, Đường Đ. Cách Mạng Tháng 8, Cái Khế, Ninh Kiều, Cần Thơ, Việt Nam","Cái Khế, Ninh Kiều",Đường Đ. Cách Mạng Tháng 8,Cần Thơ,,"Ninh Kiều, Cần Thơ",VN
1196,ChIJvyuwPQeIoDERWJylvZJf5Zo,Quán Ăn Nhi Ngân Phục Vụ Các Món Nướng - Chiên,Nhà hàng,Nhà hàng,,"Quán Ăn Nhi Ngân Phục Vụ Các Món Nướng - Chiên, Cái Khế, Ninh Kiều, Cần Thơ, Việt Nam","Cái Khế, Ninh Kiều",,Cần Thơ,,"Ninh Kiều, Cần Thơ",VN
1197,ChIJ0Tyc0A6IoDERhZZMsmnpmM0,Quán Ăn Gia Đình Ngân Hà,Nhà hàng,Nhà hàng,+84 292 6541 787,"Quán Ăn Gia Đình Ngân Hà, 188 Đ. Nguyễn Văn Cừ, An Hoà, Ninh Kiều, Cần Thơ, Việt Nam","An Hoà, Ninh Kiều",188 Đ. Nguyễn Văn Cừ,Cần Thơ,,"Ninh Kiều, Cần Thơ",VN
1198,ChIJj2ZbNKhioDERVyeuDrcVsIk,Quán Ăn Gia Đình Cây Mai,Gian hàng rong,Gian hàng rong,+84 908 699 292,"Quán Ăn Gia Đình Cây Mai, 118/9/47B, Trần Quang Khải, Quận Ninh Kiều, Cái Khế, Ninh Kiều, Cần Thơ, Việt Nam","Cái Khế, Ninh Kiều","118/9/47B, Trần Quang Khải, Quận Ninh Kiều",Cần Thơ,,"Ninh Kiều, Cần Thơ",VN
1199,ChIJYzYH1PGHoDERxQ68YPBjJP4,Mẹ Miên Quán,Nhà hàng,Nhà hàng,,"Mẹ Miên Quán, 290 Đ. Đồng Văn Cống, An Thới, Bình Thủy, Cần Thơ, Việt Nam","An Thới, Bình Thủy",290 Đ. Đồng Văn Cống,Cần Thơ,,"Bình Thủy, Cần Thơ",VN
1200,ChIJtTWKDvZjoDERmaN49jxuruc,Quán ăn 97 Ngô Quyền,Nhà hàng gia đình,Nhà hàng gia đình,,"Quán ăn 97 Ngô Quyền, 95 Đ. Ngô Quyền, Tân An, Ninh Kiều, Cần Thơ, Việt Nam","Tân An, Ninh Kiều",95 Đ. Ngô Quyền,Cần Thơ,,"Ninh Kiều, Cần Thơ",VN
1201,ChIJ33vYwWqIoDER-Aa4r1YxIew,Quán Ăn Thanh Mai,Nhà hàng,Nhà hàng,+84 776 330 568,"Quán Ăn Thanh Mai, 398 Đ. Nguyễn Văn Cừ, Phường An Khánh, Ninh Kiều, Cần Thơ, Việt Nam","Phường An Khánh, Ninh Kiều",398 Đ. Nguyễn Văn Cừ,Cần Thơ,,"Ninh Kiều, Cần Thơ",VN
1202,ChIJT0pMMCKIoDERJ7S_xgB7eqE,Quán Ăn Gia Đình Những Người Bạn,Quán ăn tự phục vụ,"Quán ăn tự phục vụ, Cửa hàng giao pizza",+84 292 3898 933,"Quán Ăn Gia Đình Những Người Bạn, 25G, Đường Mậu Thân, Phường Xuân Khánh, Quận Ninh Kiều, An Phú, Ninh Kiều, Cần Thơ, Việt Nam","An Phú, Ninh Kiều","25G, Đường Mậu Thân, Phường Xuân Khánh, Quận Ninh Kiều",Cần Thơ,,"Ninh Kiều, Cần Thơ",VN
1203,ChIJcehU0EGIoDERxq4lbLiMjkY,Quán Ăn Mỹ Hằng,Nhà hàng,Nhà hàng,+84 933 899 112,"2QM4+F48 Quán Ăn Mỹ Hằng, Đ. Nguyễn Văn Cừ, Phường An Khánh, Ninh Kiều, Cần Thơ, Việt Nam","Phường An Khánh, Ninh Kiều","2QM4+F48, Đ. Nguyễn Văn Cừ",Cần Thơ,,"Ninh Kiều, Cần Thơ",VN
1206,ChIJm-EzKRmJoDERE7_cPcsx_U0,Quán Sông Quê,Quán ăn nhỏ,Quán ăn nhỏ,,"Quán Sông Quê, 42/28A Đ. Trần Việt Châu, Thới Bình, Ninh Kiều, Cần Thơ, Việt Nam","Thới Bình, Ninh Kiều",42/28A Đ. Trần Việt Châu,Cần Thơ,,"Ninh Kiều, Cần Thơ",VN
1210,ChIJY8MvwRaIoDERdOmLgbDsWsg,Quán Ăn Chị Hai,Nhà hàng,Nhà hàng,,"Quán Ăn Chị Hai, An Khánh, Ninh Kiều, Cần Thơ, Việt Nam","An Khánh, Ninh Kiều",,Cần Thơ,,"Ninh Kiều, Cần Thơ",VN
1212,ChIJS5eS9p9ioDER3IsjGDP5BvU,Quán Ăn Kim Anh,Nhà hàng,Nhà hàng,+84 292 3814 523,"Quán Ăn Kim Anh, 97B Đ. Nam Kỳ Khởi Nghĩa, Tân An, Ninh Kiều, Cần Thơ, Việt Nam","Tân An, Ninh Kiều",97B Đ. Nam Kỳ Khởi Nghĩa,Cần Thơ,,"Ninh Kiều, Cần Thơ",VN
1214,ChIJQ4b7mBiIoDER87f2AefCzP4,Quán Ăn 36 Mậu Thân,Nhà hàng,Nhà hàng,+84 292 3820 587,"Quán Ăn 36 Mậu Thân, 36, Đường Mậu Thân, Quận Ninh Kiều, Tp Cần Thơ, An Phú, Ninh Kiều, Cần Thơ, Việt Nam","An Phú, Ninh Kiều","36, Đường Mậu Thân, Quận Ninh Kiều, Tp Cần Thơ",Cần Thơ,,"Ninh Kiều, Cần Thơ",VN
1215,ChIJBT5dn55ioDERJYfJGAKp-nM,Quán Ăn Ngon Ngon,Nhà hàng,Nhà hàng,+84 292 3814 822,"Quán Ăn Ngon Ngon, 122 Đường Hai Bà Trưng, Tân An, Ninh Kiều, Cần Thơ, Việt Nam","Tân An, Ninh Kiều",122 Đường Hai Bà Trưng,Cần Thơ,,"Ninh Kiều, Cần Thơ",VN
1216,ChIJCap8vw1joDERrh2MUBbiL2M,Quán Sò Ốc 99 Cần Thơ,Quán ăn nhẹ,Quán ăn nhẹ,+84 909 055 758,"Quán Sò Ốc 99 Cần Thơ, 34-46 Trần Văn Khéo, An Hội, Ninh Kiều, Cần Thơ 900000, Việt Nam","An Hội, Ninh Kiều",34-46 Trần Văn Khéo,Cần Thơ,900000.0,"Ninh Kiều, Cần Thơ",VN
1224,ChIJx7TkxIZjoDERJMjbtKDaW2g,Quán Cơm Thanh,Quán ăn nhỏ,Quán ăn nhỏ,,"Quán Cơm Thanh, 38 Hẻm 1 Đ. Hoàng Văn Thụ, Tân An, Ninh Kiều, Cần Thơ, Việt Nam","Tân An, Ninh Kiều",38 Hẻm 1 Đ. Hoàng Văn Thụ,Cần Thơ,,"Ninh Kiều, Cần Thơ",VN
1237,ChIJc5UMUDqJoDERQJ6w9JepQrU,Quán Hảo Tửu,Nhà hàng gia đình,Nhà hàng gia đình,+84 988 896 618,"Quán Hảo Tửu, 86 Huỳnh Cương, An Cư, Ninh Kiều, Cần Thơ, Việt Nam","An Cư, Ninh Kiều",86 Huỳnh Cương,Cần Thơ,,"Ninh Kiều, Cần Thơ",VN
1253,ChIJIUlSKh2IoDERNLeYHeuO-RU,Cây Dương Quán,Nhà hàng,Nhà hàng,+84 902 696 616,"Cây Dương Quán, 1B Đ. Đinh Tiên Hoàng, An Hội, Ninh Kiều, Cần Thơ, Việt Nam","An Hội, Ninh Kiều",1B Đ. Đinh Tiên Hoàng,Cần Thơ,,"Ninh Kiều, Cần Thơ",VN
1260,ChIJ9wRKKR2IoDER1dcZwqqRM40,Quán Nhậu Tám Thanh,Nhà hàng,Nhà hàng,+84 909 515 180,"Quán Nhậu Tám Thanh, 1/76 Đ. Đinh Tiên Hoàng, An Hội, Ninh Kiều, Cần Thơ, Việt Nam","An Hội, Ninh Kiều",1/76 Đ. Đinh Tiên Hoàng,Cần Thơ,,"Ninh Kiều, Cần Thơ",VN
1272,ChIJCxRjbfSJoDERhM_J1Y1XYf0,Quán Cơm Tấm 127,Quán ăn nhỏ,Quán ăn nhỏ,+84 939 284 574,"Quán Cơm Tấm 127, 127a Đ. Mậu Thân, An Hoà, Ninh Kiều, Cần Thơ, Việt Nam","An Hoà, Ninh Kiều",127a Đ. Mậu Thân,Cần Thơ,,"Ninh Kiều, Cần Thơ",VN
1273,ChIJn1b-0wGJoDERi3383eNf4K0,Quán nhậu Tí Khô,Nhà hàng,Nhà hàng,,"Quán nhậu Tí Khô, 18 Đ. Nguyễn Đệ, An Hoà, Bình Thủy, Cần Thơ, Việt Nam","An Hoà, Bình Thủy",18 Đ. Nguyễn Đệ,Cần Thơ,,"Bình Thủy, Cần Thơ",VN
1276,ChIJD52fbEGIoDERLztWL7_0sLI,Quán Ăn Lan,Nhà hàng,Nhà hàng,+84 853 274 217,"Quán Ăn Lan, 337A/13, Quốc Lộ 91B, Quận Ninh Kiều, Thành Phố Cần Thơ, Phường An Khánh, Ninh Kiều, Cần Thơ, Việt Nam","Phường An Khánh, Ninh Kiều","337A/13, Quốc Lộ 91B, Quận Ninh Kiều, Thành Phố Cần Thơ",Cần Thơ,,"Ninh Kiều, Cần Thơ",VN
1278,ChIJq6qqBw-IoDERs6YJR-YiztI,Quán Phở Dành,Nhà hàng,Nhà hàng,+84 292 3839 246,"Quán Phở Dành, 211, 30/04, Quận Ninh Kiều, TP. Cần Thơ, An Hoà, Ninh Kiều, Cần Thơ, Việt Nam","An Hoà, Ninh Kiều","211, 30/04, Quận Ninh Kiều, TP. Cần Thơ",Cần Thơ,,"Ninh Kiều, Cần Thơ",VN
1279,ChIJqSywx_qJoDERHDXGjmQcAyY,Bảo Bảo Lẩu Đuôi Bò,Quán ăn nhỏ,Quán ăn nhỏ,+84 939 838 764,"Bảo Bảo Lẩu Đuôi Bò, 22 Đ. Nguyễn Đệ, An Hoà, Ninh Kiều, Cần Thơ, Việt Nam","An Hoà, Ninh Kiều",22 Đ. Nguyễn Đệ,Cần Thơ,,"Ninh Kiều, Cần Thơ",VN
1280,ChIJ4wPdsXqJoDERQVrbuiSklAk,Quán cơm 38,Quán ăn nhỏ,Quán ăn nhỏ,+84 971 095 095,"Quán cơm 38, 38b Đ. Mậu Thân, An Nghiệp, Ninh Kiều, Cần Thơ, Việt Nam","An Nghiệp, Ninh Kiều",38b Đ. Mậu Thân,Cần Thơ,,"Ninh Kiều, Cần Thơ",VN
1282,ChIJMzPAsBOIoDERdmt5cM1v2Bc,Quán Cơm Phương Hằng,Quán ăn nhỏ,Quán ăn nhỏ,+84 939 730 408,"Quán Cơm Phương Hằng, 142 Nguyễn Văn Cừ Nối Dài, Phường An Khánh, Ninh Kiều, Cần Thơ, Việt Nam","Phường An Khánh, Ninh Kiều",142 Nguyễn Văn Cừ Nối Dài,Cần Thơ,,"Ninh Kiều, Cần Thơ",VN
1287,ChIJiZDvyROIoDERy8OYl32i7Yc,Quán Cơm Khang Phú,Nhà hàng,Nhà hàng,,"Quán Cơm Khang Phú, 131 Đ. Nguyễn Văn Cừ, Phường An Khánh, Ninh Kiều, Cần Thơ, Việt Nam","Phường An Khánh, Ninh Kiều",131 Đ. Nguyễn Văn Cừ,Cần Thơ,,"Ninh Kiều, Cần Thơ",VN
1288,ChIJ8xrb2OKJoDERr3woCaQeLrQ,Ăn Vặt Bà Mười 68,Quán ăn nhẹ,Quán ăn nhẹ,+84 932 825 982,"Ăn Vặt Bà Mười 68, Đường số 6, Phường An Khánh, Ninh Kiều, Cần Thơ, Việt Nam","Phường An Khánh, Ninh Kiều",Đường số 6,Cần Thơ,,"Ninh Kiều, Cần Thơ",VN
1290,ChIJace_VmiJoDER1zZMyMbkho8,Quán Lẩu Bò Hai Cô Tiên,Quán ăn nhỏ,Quán ăn nhỏ,+84 901 058 855,"Quán Lẩu Bò Hai Cô Tiên, 108-1 Đường số 23, Phường An Khánh, Ninh Kiều, Cần Thơ, Việt Nam","Phường An Khánh, Ninh Kiều",108-1 Đường số 23,Cần Thơ,,"Ninh Kiều, Cần Thơ",VN
1292,ChIJ8V_3BsCJoDERo9FjrSLZQcM,"Quán cơm tấm Long Xuyên, Năm Tỷ",Nhà hàng điểm tâm,Nhà hàng điểm tâm,,"Quán cơm tấm Long Xuyên, Năm Tỷ, 38 Đường số 21, Phường An Khánh, Ninh Kiều, Cần Thơ, Việt Nam","Phường An Khánh, Ninh Kiều",38 Đường số 21,Cần Thơ,,"Ninh Kiều, Cần Thơ",VN
1297,ChIJjx0kFnWJoDERk9j8syG_u2I,Quán Cơm Cà-phê KIM,Nhà hàng phục vụ phần ăn nhỏ,Nhà hàng phục vụ phần ăn nhỏ,+84 937 764 269,"Quán Cơm Cà-phê KIM, 1 Đ. số 30, Phường An Khánh, Ninh Kiều, Cần Thơ, Việt Nam","Phường An Khánh, Ninh Kiều",1 Đ. số 30,Cần Thơ,,"Ninh Kiều, Cần Thơ",VN
1298,ChIJx07DUNuJoDERMteDqsP9nMA,Quán Điểm Tâm Sáng Chị Út,Quán ăn nhỏ,Quán ăn nhỏ,,"Quán Điểm Tâm Sáng Chị Út, 123 Đ. số 30, Phường An Khánh, Ninh Kiều, Cần Thơ, Việt Nam","Phường An Khánh, Ninh Kiều",123 Đ. số 30,Cần Thơ,,"Ninh Kiều, Cần Thơ",VN
1303,ChIJvV6DQCOIoDER57ejuuw4L84,Quán Cơm Thanh,Quán ăn nhỏ,Quán ăn nhỏ,,"Quán Cơm Thanh, 116 Đ. 3 Tháng 2, Xuân Khánh, Ninh Kiều, Cần Thơ, Việt Nam","Xuân Khánh, Ninh Kiều",116 Đ. 3 Tháng 2,Cần Thơ,,"Ninh Kiều, Cần Thơ",VN
1307,ChIJdUccYxOIoDERQUPCwiSPiWs,Quán Cơm 68,Nhà hàng,Nhà hàng,+84 919 957 952,"Quán Cơm 68, 136 Đ. Nguyễn Văn Cừ, Phường An Khánh, Ninh Kiều, Cần Thơ, Việt Nam","Phường An Khánh, Ninh Kiều",136 Đ. Nguyễn Văn Cừ,Cần Thơ,,"Ninh Kiều, Cần Thơ",VN
1308,ChIJ3T56oxOIoDERTwlbfM63mks,Lộc Phát Quán,Nhà hàng,Nhà hàng,+84 292 3893 799,"Lộc Phát Quán, 138 Nguyễn Văn Cừ Nối Dài, Phường An Khánh, Ninh Kiều, Cần Thơ, Việt Nam","Phường An Khánh, Ninh Kiều",138 Nguyễn Văn Cừ Nối Dài,Cần Thơ,,"Ninh Kiều, Cần Thơ",VN
1309,ChIJzRtD31CIoDER3JlwPDcmkIQ,Quán Cơm Tấm Bo Bo,Nhà hàng,Nhà hàng,+84 909 055 044,"2PCR+8WH Quán Cơm Tấm Bo Bo, Nguyễn Văn Cừ Nối Dài, An Bình, Ninh Kiều, Cần Thơ, Việt Nam","An Bình, Ninh Kiều","2PCR+8WH, Nguyễn Văn Cừ Nối Dài",Cần Thơ,,"Ninh Kiều, Cần Thơ",VN
1310,ChIJC4hsSiaJoDER8iThlaxKkPM,Quán nhậu Huỳnh Như,Nhà hàng gia đình,Nhà hàng gia đình,,"Quán nhậu Huỳnh Như, 25A3 Đ. Nguyễn Văn Cừ, Khu Vực 4, Ninh Kiều, Cần Thơ, Việt Nam","Khu Vực 4, Ninh Kiều",25A3 Đ. Nguyễn Văn Cừ,Cần Thơ,,"Ninh Kiều, Cần Thơ",VN
1311,ChIJqTZoItGJoDERzJ4vd8dYqts,Quán cơm Hương Lúa,Quán ăn nhỏ,Quán ăn nhỏ,+84 822 880 748,"Quán cơm Hương Lúa, 10 Đường Trần Hoàng Na, Phường An Khánh, Ninh Kiều, Cần Thơ, Việt Nam","Phường An Khánh, Ninh Kiều",10 Đường Trần Hoàng Na,Cần Thơ,,"Ninh Kiều, Cần Thơ",VN
1312,ChIJZVXGFOuJoDERqpvhUO9LMzM,Quán ăn 79,Nhà hàng gia đình,Nhà hàng gia đình,,"2P5J+9VW Quán ăn 79, Nguyễn Văn Trường, An Bình, Ninh Kiều, Cần Thơ, Việt Nam","An Bình, Ninh Kiều","2P5J+9VW, Nguyễn Văn Trường",Cần Thơ,,"Ninh Kiều, Cần Thơ",VN
1314,ChIJV3PhUkuIoDEREzmlu_JslHQ,Quán Cơm Thúy An,Quán ăn nhỏ,Quán ăn nhỏ,+84 292 3843 344,"Quán Cơm Thúy An, 276 phạm hùng cần thơ, Hưng Lợi, Ninh Kiều, Cần Thơ, Việt Nam","Hưng Lợi, Ninh Kiều",276 phạm hùng cần thơ,Cần Thơ,,"Ninh Kiều, Cần Thơ",VN
1315,ChIJhaKr_G6JoDERjcwMeHiGoXY,Quán Gỗ _ Đặc Sản Đồng Quê,Nhà hàng,Nhà hàng,+84 379 767 666,"2P9P+9RR Quán Gỗ _ Đặc Sản Đồng Quê, Đường Số 3, An Bình, Bình Thủy, Cần Thơ, Việt Nam","An Bình, Bình Thủy","2P9P+9RR, Đường Số 3",Cần Thơ,,"Bình Thủy, Cần Thơ",VN
1316,ChIJax7_jVSJoDERzCw5Q8LVCoQ,Quán cơm - phở,Nhà hàng,Nhà hàng,,"Quán cơm - phở, 48 Hẻm 132 Đ. 3 Tháng 2, Hưng Lợi, Ninh Kiều, Cần Thơ, Việt Nam","Hưng Lợi, Ninh Kiều",48 Hẻm 132 Đ. 3 Tháng 2,Cần Thơ,,"Ninh Kiều, Cần Thơ",VN
1317,ChIJOeokSNGJoDERgXXAgq0WzqM,Quán Ăn Lâm Huy,Quán ăn nhẹ,"Quán ăn nhẹ, Nhà hàng",+84 925 998 842,"Quán Ăn Lâm Huy, 188A/5 Kv8, An Bình, Ninh Kiều, Cần Thơ, Việt Nam","An Bình, Ninh Kiều",188A/5 Kv8,Cần Thơ,,"Ninh Kiều, Cần Thơ",VN
1318,ChIJp8C0NrWJoDERrFXzKOinaLw,Quán Cơm Phở A Mũi 114,Quán ăn tự phục vụ,"Quán ăn tự phục vụ, Gian hàng rong",+84 292 2473 456,"Quán Cơm Phở A Mũi 114, 296A, Quốc Lộ 1A, Quận Cái Răng, Hưng Lợi, Ninh Kiều, Cần Thơ, Việt Nam","Hưng Lợi, Ninh Kiều","296A, Quốc Lộ 1A, Quận Cái Răng",Cần Thơ,,"Ninh Kiều, Cần Thơ",VN
1319,ChIJG9C1YlCIoDERHFhPOvAF7nI,Quán Yến Phi,Nhà hàng,Nhà hàng,+84 989 941 241,"Quán Yến Phi, 100 Nguyễn Văn Cừ Nối Dài, An Bình, Ninh Kiều, Cần Thơ, Việt Nam","An Bình, Ninh Kiều",100 Nguyễn Văn Cừ Nối Dài,Cần Thơ,,"Ninh Kiều, Cần Thơ",VN
1320,ChIJY-KvLJeJoDERMMgyvt5o3ys,Quán cơm Ngọc Nhung,Quán ăn nhỏ,Quán ăn nhỏ,+84 366 862 263,"Quán cơm Ngọc Nhung, 390Q/14B, Đ. Trần Nam Phú, Phường An Khánh, Ninh Kiều, Cần Thơ, Việt Nam","Phường An Khánh, Ninh Kiều","390Q/14B, Đ. Trần Nam Phú",Cần Thơ,,"Ninh Kiều, Cần Thơ",VN
1321,ChIJtwLCG0eIoDERRtNkTzNrn5U,Quán Cơm Gà Thành Trung,Quán ăn nhỏ,Quán ăn nhỏ,+84 395 516 809,"Quán Cơm Gà Thành Trung, 339 Quốc Lộ 91B, Quận Ninh Kiều, Tp Cần Thơ, Hưng Lợi, Ninh Kiều, Cần Thơ, Việt Nam","Hưng Lợi, Ninh Kiều","339 Quốc Lộ 91B, Quận Ninh Kiều, Tp Cần Thơ",Cần Thơ,,"Ninh Kiều, Cần Thơ",VN
1322,ChIJJ1sZgZCJoDERXoUTCTLG1aY,Quán Hân Hân,Quán ăn nhỏ,Quán ăn nhỏ,,"Quán Hân Hân, 30 Đ. Nguyễn Hiền, Hưng Lợi, Ninh Kiều, Cần Thơ, Việt Nam","Hưng Lợi, Ninh Kiều",30 Đ. Nguyễn Hiền,Cần Thơ,,"Ninh Kiều, Cần Thơ",VN
1324,ChIJARVNlTWIoDERbU5R_-zapHg,Quán Cơm 84,Quán ăn nhỏ,Quán ăn nhỏ,+84 292 3840 593,"Quán Cơm 84, 84 Đ. 3 Tháng 2, Hưng Lợi, Ninh Kiều, Cần Thơ, Việt Nam","Hưng Lợi, Ninh Kiều",84 Đ. 3 Tháng 2,Cần Thơ,,"Ninh Kiều, Cần Thơ",VN
1325,ChIJJ84riQOJoDERkMihNrh48l0,Quán ăn Tài Ký - Bún cá Kiên Giang,Nhà hàng châu Á,Nhà hàng châu Á,+84 815 999 366,"Quán ăn Tài Ký - Bún cá Kiên Giang, 46B Đ. Nguyễn Văn Linh, Hưng Lợi, Ninh Kiều, Cần Thơ, Việt Nam","Hưng Lợi, Ninh Kiều",46B Đ. Nguyễn Văn Linh,Cần Thơ,,"Ninh Kiều, Cần Thơ",VN
1326,ChIJsRg1ODSIoDERxTpchzBEm78,Quán Ăn Nguyễn Kim Bảo,Gian hàng rong,"Gian hàng rong, Quán ăn tự phục vụ",+84 292 3890 175,"Quán Ăn Nguyễn Kim Bảo, 79, Bên Hông Chợ Hưng Lợi, Quận Ninh Kiều, Thành Phố Cần Thơ, Hưng Lợi, Ninh Kiều, Cần Thơ, Việt Nam","Hưng Lợi, Ninh Kiều","79, Bên Hông Chợ Hưng Lợi, Quận Ninh Kiều, Thành Phố Cần Thơ",Cần Thơ,,"Ninh Kiều, Cần Thơ",VN
1329,ChIJW_54XwmJoDER31xv1ZUkszg,"Quán cơm phần, hủ tiếu, bò kho, cafe Yến Nhi",Quán ăn nhỏ,Quán ăn nhỏ,,"Quán cơm phần, hủ tiếu, bò kho, cafe Yến Nhi, 16 Bông Vang, Mỹ Khánh, Phong Điền, Cần Thơ, Việt Nam","Mỹ Khánh, Phong Điền",16 Bông Vang,Cần Thơ,,"Phong Điền, Cần Thơ",VN
1333,ChIJXRF7XLOOoDERwFco-Pqaqj8,Quán Ăn Phượng,Nhà hàng,Nhà hàng,,"Quán Ăn Phượng, Phong Điền, Cần Thơ, Việt Nam",Phong Điền,,Cần Thơ,,"Phong Điền, Cần Thơ",VN
1335,ChIJCTluNr-JoDERJmIqcdVwj6o,Quán Ăn Hải Sản Ba Tuấn,Nhà hàng,Nhà hàng,,"XQW4+5QH Quán Ăn Hải Sản Ba Tuấn, Nguyễn Thị Trâm, Thường Thạnh, Cái Răng, Cần Thơ, Việt Nam","Thường Thạnh, Cái Răng","XQW4+5QH, Nguyễn Thị Trâm",Cần Thơ,,"Cái Răng, Cần Thơ",VN
1337,ChIJW-HGt72JoDERNAnnIopO_Aw,Quán Ăn Hương Rừng,Nhà hàng,Nhà hàng,+84 939 789 866,"XQV2+4FX Quán Ăn Hương Rừng, Trần Hưng Đạo, Lê Bình, Cái Răng, Cần Thơ, Việt Nam","Lê Bình, Cái Răng","XQV2+4FX, Trần Hưng Đạo",Cần Thơ,,"Cái Răng, Cần Thơ",VN
1338,ChIJzWpQHKWJoDERsdmr8nGN468,Quán Ăn Trúc Hà,Quán ăn nhỏ,Quán ăn nhỏ,,"XQX5+XHG Quán Ăn Trúc Hà, Trần Chiên, Lê Bình, Cái Răng, Cần Thơ, Việt Nam","Lê Bình, Cái Răng","XQX5+XHG, Trần Chiên",Cần Thơ,,"Cái Răng, Cần Thơ",VN
1341,ChIJs6yu-D6JoDERVCOZ54fagKM,Quán cơm tấm Hai Phương,Quán ăn nhỏ,Quán ăn nhỏ,+84 292 3847 790,"Quán cơm tấm Hai Phương, 47/2 Võ Tánh, khu vực, Cái Răng, Cần Thơ, Việt Nam","khu vực, Cái Răng",47/2 Võ Tánh,Cần Thơ,,"Cái Răng, Cần Thơ",VN
1345,ChIJ2_jNXbqJoDERPUq7yX4_iKs,Quán Cơm Bà Tám,Nhà hàng,Nhà hàng,,"2Q22+332 Quán Cơm Bà Tám, Đ. Phạm Hùng, Lê Bình, Cái Răng, Cần Thơ, Việt Nam","Lê Bình, Cái Răng","2Q22+332, Đ. Phạm Hùng",Cần Thơ,,"Cái Răng, Cần Thơ",VN
1346,ChIJiyJT5ROJoDERQqXTLIiXLeM,Ăn Vặt Cô Béo,Quán ăn nhỏ,Quán ăn nhỏ,+84 394 298 741,"Ăn Vặt Cô Béo, 162 kv Yên Hạ, P.Lê Bình, Q, Cái Răng, Cần Thơ, Việt Nam","Lê Bình, Cái Răng","162 kv Yên Hạ, P.Lê Bình, Q",Cần Thơ,,"Cái Răng, Cần Thơ",VN
1350,ChIJ0wAw6peJoDERyH2JX9dRZ1k,Quán Cơm Nam Phong,Nhà hàng,Nhà hàng,,"XPQX+X65 Quán Cơm Nam Phong, QL1A, Ba Láng, Cái Răng, Cần Thơ, Việt Nam","Ba Láng, Cái Răng","XPQX+X65, QL1A",Cần Thơ,,"Cái Răng, Cần Thơ",VN
1352,ChIJLTZwWayJoDERwVIRUCYGBcc,Quán mỳ không tên,Nhà hàng chuyên phục vụ bữa nửa buổi,Nhà hàng chuyên phục vụ bữa nửa buổi,,"Quán mỳ không tên, 102 Lộ Vòng Cung, An Bình, Ninh Kiều, Cần Thơ, Việt Nam","An Bình, Ninh Kiều",102 Lộ Vòng Cung,Cần Thơ,,"Ninh Kiều, Cần Thơ",VN
1370,ChIJqV2ZmYGJoDERDVh2mGFtq0g,Quán ăn Hàn Quốc kiChi,Quán ăn nhỏ,Quán ăn nhỏ,,"Quán ăn Hàn Quốc kiChi, 510 Đ. 30 Tháng 4, Hưng Lợi, Ninh Kiều, Cần Thơ, Việt Nam","Hưng Lợi, Ninh Kiều",510 Đ. 30 Tháng 4,Cần Thơ,,"Ninh Kiều, Cần Thơ",VN
1373,ChIJaztdfDiIoDERsXcPx-doyjY,Quán Cơm Ngọc Nhi,Quán ăn nhỏ,Quán ăn nhỏ,+84 292 2223 297,"Quán Cơm Ngọc Nhi, 410 QL91B, Hưng Lợi, Ninh Kiều, Cần Thơ, Việt Nam","Hưng Lợi, Ninh Kiều",410 QL91B,Cần Thơ,,"Ninh Kiều, Cần Thơ",VN
1374,ChIJ96h53zmIoDERM0Y9JgnU_Q0,Quán Cơm - Bún Oanh,Quán ăn nhỏ,Quán ăn nhỏ,+84 772 617 080,"2QF7+23F Quán Cơm - Bún Oanh, Đ. Nguyễn Văn Linh, Hưng Lợi, Ninh Kiều, Cần Thơ, Việt Nam","Hưng Lợi, Ninh Kiều","2QF7+23F, Đ. Nguyễn Văn Linh",Cần Thơ,,"Ninh Kiều, Cần Thơ",VN
1376,ChIJ80roP36JoDER_qmkGxpLL7k,Quán Cơm KDC 91B,Quán ăn nhỏ,Quán ăn nhỏ,,"Quán Cơm KDC 91B, 21-9 Đ. Nguyễn Hiền, Hưng Lợi, Ninh Kiều, Cần Thơ, Việt Nam","Hưng Lợi, Ninh Kiều",21-9 Đ. Nguyễn Hiền,Cần Thơ,,"Ninh Kiều, Cần Thơ",VN
1379,ChIJe7Pt0DmIoDER46S06eO-UeU,Quán Cơm Hoàng Ngân,Nhà hàng,Nhà hàng,+84 902 536 350,"Quán Cơm Hoàng Ngân, 9 Đ. Nguyễn Văn Linh, Hưng Lợi, Ninh Kiều, Cần Thơ, Việt Nam","Hưng Lợi, Ninh Kiều",9 Đ. Nguyễn Văn Linh,Cần Thơ,,"Ninh Kiều, Cần Thơ",VN
1382,ChIJe-CRUDiIoDERlAsG52yYNaY,Quán Cơm Bình Dân 91B,Quán ăn nhỏ,Quán ăn nhỏ,+84 292 3894 295,"Quán Cơm Bình Dân 91B, 10LA Khu Dân Cư 91B, Tp Cần Thơ, Quận Ninh Kiều, Hưng Lợi, Ninh Kiều, Cần Thơ, Việt Nam","Hưng Lợi, Ninh Kiều","10LA Khu Dân Cư 91B, Tp Cần Thơ, Quận Ninh Kiều",Cần Thơ,,"Ninh Kiều, Cần Thơ",VN
1391,ChIJcRjcbjSIoDER6DDS0u-85dk,Quán Thịt Chó Không Quên,Nhà hàng,Nhà hàng,+84 918 218 806,"Quán Thịt Chó Không Quên, 592 Đ. 30 Tháng 4, Hưng Lợi, Ninh Kiều, Cần Thơ, Việt Nam","Hưng Lợi, Ninh Kiều",592 Đ. 30 Tháng 4,Cần Thơ,,"Ninh Kiều, Cần Thơ",VN
1392,ChIJVxhzNW2JoDERChjU66m1w7s,Tiệm Ăn Vặt Phi Phi,Quán ăn nhỏ,Quán ăn nhỏ,,"Tiệm Ăn Vặt Phi Phi, Hẽm 58 Hẻm 132 Đ. 3 Tháng 2, Hưng Lợi, Ninh Kiều, Cần Thơ, Việt Nam","Hưng Lợi, Ninh Kiều",Hẽm 58 Hẻm 132 Đ. 3 Tháng 2,Cần Thơ,,"Ninh Kiều, Cần Thơ",VN
1394,ChIJwc_50tmJoDER0DEESIsn-Qk,Quán Ăn Gia Đình HÈM,Nhà hàng gia đình,Nhà hàng gia đình,+84 912 052 988,"Quán Ăn Gia Đình HÈM, 178 Đ. Lê Bình, Hưng Lợi, Ninh Kiều, Cần Thơ, Việt Nam","Hưng Lợi, Ninh Kiều",178 Đ. Lê Bình,Cần Thơ,,"Ninh Kiều, Cần Thơ",VN
1401,ChIJ-bmg99yJoDER_uWpfUeic6s,Quán Cơm Nhà,Nhà hàng,Nhà hàng,,"Quán Cơm Nhà, 8 Đ. Mạc Thiên Tích, Xuân Khánh, Ninh Kiều, Cần Thơ, Việt Nam","Xuân Khánh, Ninh Kiều",8 Đ. Mạc Thiên Tích,Cần Thơ,,"Ninh Kiều, Cần Thơ",VN
1403,ChIJbwhuWiOIoDER65Fiyhg7igk,Quán Trái Cây Ăn Thả Ga,Nhà hàng,Nhà hàng,+84 907 355 711,"Quán Trái Cây Ăn Thả Ga, 122/6A, Đường 3/2, Phường Xuân Khánh, Quận Ninh Kiều, Thành Phố Cần Thơ, Xuân Khánh, Ninh Kiều, Cần Thơ, Việt Nam","Xuân Khánh, Ninh Kiều","122/6A, Đường 3/2, Phường Xuân Khánh, Quận Ninh Kiều, Thành Phố Cần Thơ",Cần Thơ,,"Ninh Kiều, Cần Thơ",VN
1408,ChIJ1TpQ-TqIoDERR-gaEPpgxJ4,Quán Cơm Ngân,Nhà hàng,Nhà hàng,,"2QF8+XWP Quán Cơm Ngân, Hẻm 51, Xuân Khánh, Ninh Kiều, Cần Thơ, Việt Nam","Xuân Khánh, Ninh Kiều","2QF8+XWP, Hẻm 51",Cần Thơ,,"Ninh Kiều, Cần Thơ",VN
1412,ChIJ9xnfhqeJoDERlfEcTCOJ_fI,TỨ HOÀ MẸT QUÁN,Quán ăn nhỏ,Quán ăn nhỏ,,"TỨ HOÀ MẸT QUÁN, 83 Đ. Đề Thám, Tân An, Ninh Kiều, Cần Thơ, Việt Nam","Tân An, Ninh Kiều",83 Đ. Đề Thám,Cần Thơ,,"Ninh Kiều, Cần Thơ",VN
1413,ChIJkVXN2B-IoDERT4yZBFnp_Og,Quán Hủ Tiếu Vân,Quán ăn nhỏ,Quán ăn nhỏ,,"Quán Hủ Tiếu Vân, 78 Đ. Đề Thám, Tân An, Ninh Kiều, Cần Thơ, Việt Nam","Tân An, Ninh Kiều",78 Đ. Đề Thám,Cần Thơ,,"Ninh Kiều, Cần Thơ",VN
1419,ChIJheVAlKOHoDERS89sM8OyV7Y,Quán Ăn gia đình 366,Nhà hàng gia đình,Nhà hàng gia đình,,"Quán Ăn gia đình 366, 366/10B, 366/10/7 Đ. Cách Mạng Tháng 8, P, Bình Thủy, Cần Thơ 900000, Việt Nam","P, Bình Thủy","366/10B, 366/10/7 Đ. Cách Mạng Tháng 8",Cần Thơ,900000.0,"Bình Thủy, Cần Thơ",VN
1420,ChIJmauF1rmHoDER_Cps47pytzs,Cơm phần Ngọc,Quán ăn nhỏ,Quán ăn nhỏ,+84 903 865 535,"Cơm phần Ngọc, Đ. Nguyễn Văn Cừ, cồn Khương, Ninh Kiều, Cần Thơ, Việt Nam","cồn Khương, Ninh Kiều",Đ. Nguyễn Văn Cừ,Cần Thơ,,"Ninh Kiều, Cần Thơ",VN
1421,ChIJg-MmE9iHoDERKr4QtUGR8PM,Tiệm ăn vặt Huy,Quán ăn nhẹ,Quán ăn nhẹ,+84 939 059 565,"Tiệm ăn vặt Huy, 154 Trần Quang Diệu, An Thới, Ninh Kiều, Cần Thơ, Việt Nam","An Thới, Ninh Kiều",154 Trần Quang Diệu,Cần Thơ,,"Ninh Kiều, Cần Thơ",VN
1422,ChIJgccqXh-JoDERQYwtm1_2cys,Quán ăn Vĩnh Phát,Nhà hàng gia đình,Nhà hàng gia đình,+84 817 911 912,"Quán ăn Vĩnh Phát, 116 Đ. Nguyễn Đệ, An Hoà, Ninh Kiều, Cần Thơ, Việt Nam","An Hoà, Ninh Kiều",116 Đ. Nguyễn Đệ,Cần Thơ,,"Ninh Kiều, Cần Thơ",VN
1423,ChIJ0S9m-eCHoDERNRqjT5vq8MQ,Quán Cơm Việt Anh,Nhà hàng,Nhà hàng,+84 292 6293 362,"Quán Cơm Việt Anh, 152 Trần Quang Diệu, An Thới, Bình Thủy, Cần Thơ 700000, Việt Nam","An Thới, Bình Thủy",152 Trần Quang Diệu,Cần Thơ,700000.0,"Bình Thủy, Cần Thơ",VN
1424,ChIJ6TgS72SHoDERkj1DCnTYLTA,Quán ăn gia đình Vườn Xoài,Nhà hàng gia đình,Nhà hàng gia đình,+84 795 919 838,"Quán ăn gia đình Vườn Xoài, 11 Đ. Bùi Hữu Nghĩa, Bình Thuỷ, Bình Thủy, Cần Thơ, Việt Nam","Bình Thuỷ, Bình Thủy",11 Đ. Bùi Hữu Nghĩa,Cần Thơ,,"Bình Thủy, Cần Thơ",VN
1425,ChIJq6qqBw-IoDERCW9JNxHDe6M,Quán Ăn Gia Đình Làng Việt,Nhà hàng,Nhà hàng,+84 949 333 883,"Quán Ăn Gia Đình Làng Việt, 163B Đ. Nguyễn Văn Cừ, An Hoà, Ninh Kiều, Cần Thơ, Việt Nam","An Hoà, Ninh Kiều",163B Đ. Nguyễn Văn Cừ,Cần Thơ,,"Ninh Kiều, Cần Thơ",VN
1426,ChIJdXiK0niHoDERYecQtTQVU3I,Cơm gà Tiền Ký,Quán ăn nhỏ,Quán ăn nhỏ,,"Cơm gà Tiền Ký, 528 Đ. Cách Mạng Tháng 8, Bùi Hữu Nghĩa, Bình Thủy, Cần Thơ, Việt Nam","Bùi Hữu Nghĩa, Bình Thủy",528 Đ. Cách Mạng Tháng 8,Cần Thơ,,"Bình Thủy, Cần Thơ",VN
1427,ChIJNf3AtROIoDER1uREVJUkWV0,Quán Ăn Gia Đình Như Ý,Nhà hàng,Nhà hàng,+84 292 3890 979,"Quán Ăn Gia Đình Như Ý, 134 Đ. Nguyễn Văn Cừ, Phường An Khánh, Ninh Kiều, Cần Thơ, Việt Nam","Phường An Khánh, Ninh Kiều",134 Đ. Nguyễn Văn Cừ,Cần Thơ,,"Ninh Kiều, Cần Thơ",VN
1428,ChIJvyFciMSJoDERd73lbXv-SDA,Quán Ăn Gia Đình Sài Gòn CHILL,Nhà hàng gia đình,Nhà hàng gia đình,,"Quán Ăn Gia Đình Sài Gòn CHILL, 132k Đ. Nguyễn Văn Cừ, Phường An Khánh, Ninh Kiều, Cần Thơ, Việt Nam","Phường An Khánh, Ninh Kiều",132k Đ. Nguyễn Văn Cừ,Cần Thơ,,"Ninh Kiều, Cần Thơ",VN
1429,ChIJhQWUuhOIoDERwCRXqpdDtMM,Quán Ăn 138,Nhà hàng,Nhà hàng,+84 292 3893 724,"Quán Ăn 138, 138 Nguyễn Văn Cừ Nối Dài, Phường An Khánh, Ninh Kiều, Cần Thơ, Việt Nam","Phường An Khánh, Ninh Kiều",138 Nguyễn Văn Cừ Nối Dài,Cần Thơ,,"Ninh Kiều, Cần Thơ",VN
1430,ChIJ3_2GNBKIoDERQckMUq-DjOo,Quán Ăn - Ca Cổ Thúy Kiều,Nhà hàng,Nhà hàng,,"Quán Ăn - Ca Cổ Thúy Kiều, 138 Đ. Nguyễn Văn Cừ, Phường An Khánh, Ninh Kiều, Cần Thơ, Việt Nam","Phường An Khánh, Ninh Kiều",138 Đ. Nguyễn Văn Cừ,Cần Thơ,,"Ninh Kiều, Cần Thơ",VN
1431,ChIJmVH4uBSIoDERD_NRGNMS23Q,Quán Ăn Gia Đình Gia Phúc,Nhà hàng,Nhà hàng,+84 292 6260 249,"Quán Ăn Gia Đình Gia Phúc, 148 Nguyễn Văn Cừ Nối Dài, Phường An Khánh, Ninh Kiều, Cần Thơ 900000, Việt Nam","Phường An Khánh, Ninh Kiều",148 Nguyễn Văn Cừ Nối Dài,Cần Thơ,900000.0,"Ninh Kiều, Cần Thơ",VN
1432,ChIJKS315liJoDERsdb8gf_3R5k,Quán ăn Nhà Tui,Nhà hàng gia đình,Nhà hàng gia đình,+84 706 656 668,"2QPH+JHG Quán ăn Nhà Tui, An Cư, Ninh Kiều, Cần Thơ, Việt Nam","An Cư, Ninh Kiều",2QPH+JHG,Cần Thơ,,"Ninh Kiều, Cần Thơ",VN
1433,ChIJq6qqBw-IoDERVc9RrQ8rmQE,Quán Cơm Chay Sao Phú Cương,Quán ăn nhỏ,Quán ăn nhỏ,+84 292 2480 705,"Quán Cơm Chay Sao Phú Cương, 279, Nguyễn Văn Cừ, Quận Ninh Kiều, Tp Cần Thơ, An Hoà, Ninh Kiều, Cần Thơ, Việt Nam","An Hoà, Ninh Kiều","279, Nguyễn Văn Cừ, Quận Ninh Kiều, Tp Cần Thơ",Cần Thơ,,"Ninh Kiều, Cần Thơ",VN
1434,ChIJwRg0DaBioDER86r3AR_mUv8,Quán Ăn Gia Đình Nam Đô 1,Nhà hàng,Nhà hàng,+84 292 3820 057,"Quán Ăn Gia Đình Nam Đô 1, 41 Đ. Đề Thám, Tân An, Ninh Kiều, Cần Thơ, Việt Nam","Tân An, Ninh Kiều",41 Đ. Đề Thám,Cần Thơ,,"Ninh Kiều, Cần Thơ",VN
1435,ChIJY2ocFaBioDERd4leIGgkOww,Quán Ăn Thiện Phát,Nhà hàng,Nhà hàng,+84 939 655 969,"2QMM+G8H Quán Ăn Thiện Phát, Tp, Đ. Nguyễn Khuyến, Tân An, Ninh Kiều, Cần Thơ, Việt Nam","Tân An, Ninh Kiều","2QMM+G8H Tp, Đ. Nguyễn Khuyến",Cần Thơ,,"Ninh Kiều, Cần Thơ",VN
1436,ChIJBQ4atdaJoDER38UPBGWkkgI,Quán ăn gia đình Nàng Út,Quán bia,Quán bia,+84 939 802 777,"Quán ăn gia đình Nàng Út, Bờ Hồ Bún Xáng, Hẻm 51 Đ. Nguyễn Văn Cừ, Phường An Khánh, Ninh Kiều, Cần Thơ 90000, Việt Nam","Phường An Khánh, Ninh Kiều","Bờ Hồ Bún Xáng, Hẻm 51 Đ. Nguyễn Văn Cừ",Cần Thơ,90000.0,"Ninh Kiều, Cần Thơ",VN
1437,ChIJkdAcD8OJoDERFblwKlZxo2I,Quán ăn sáng Cô Tư,Quán ăn nhẹ,Quán ăn nhẹ,,"2PVR+2FC Quán ăn sáng Cô Tư, Nguyễn Thị Tạo, Long Hoà, Bình Thủy, Cần Thơ, Việt Nam","Long Hoà, Bình Thủy","2PVR+2FC, Nguyễn Thị Tạo",Cần Thơ,,"Bình Thủy, Cần Thơ",VN
1438,ChIJi4gLFzeJoDER41FZ6-znwAQ,Quán ăn nhanh,Quán ăn nhỏ,Quán ăn nhỏ,+84 939 142 669,"Quán ăn nhanh, 171 Đ. Nguyễn Tri Phương, Phường An Khánh, Ninh Kiều, Cần Thơ, Việt Nam","Phường An Khánh, Ninh Kiều",171 Đ. Nguyễn Tri Phương,Cần Thơ,,"Ninh Kiều, Cần Thơ",VN
1439,ChIJeRAKtmuIoDER8ikI8snxb8g,Quán Ăn Phước Lộc Thọ,Nhà hàng,Nhà hàng,,"Quán Ăn Phước Lộc Thọ, 52 Trần Bạch Đằng, Phường An Khánh, Ninh Kiều, Cần Thơ, Việt Nam","Phường An Khánh, Ninh Kiều",52 Trần Bạch Đằng,Cần Thơ,,"Ninh Kiều, Cần Thơ",VN
1440,ChIJwQPAf0GIoDERXuJnydhn1Po,Quán Ăn Vườn Mận,Nhà hàng,Nhà hàng,,"2QJ3+F4X Quán Ăn Vườn Mận, Nguyễn Văn Cừ Nối Dài, Phường An Khánh, Ninh Kiều, Cần Thơ, Việt Nam","Phường An Khánh, Ninh Kiều","2QJ3+F4X, Nguyễn Văn Cừ Nối Dài",Cần Thơ,,"Ninh Kiều, Cần Thơ",VN
1441,ChIJIcUNKKBioDER40nVXzj2X5U,Quán Ăn Tây Đô,Nhà hàng,Nhà hàng,,"Quán Ăn Tây Đô, 89 Võ Văn Tần, Tân An, Ninh Kiều, Cần Thơ, Việt Nam","Tân An, Ninh Kiều",89 Võ Văn Tần,Cần Thơ,,"Ninh Kiều, Cần Thơ",VN
1442,ChIJb8VClqBioDERICfo4iZQCEc,Quán Ăn Phở Tái-Viên,Nhà hàng,Nhà hàng,+84 292 3826 451,"Quán Ăn Phở Tái-Viên, 58 Đ. Trương Định, Tân An, Ninh Kiều, Cần Thơ, Việt Nam","Tân An, Ninh Kiều",58 Đ. Trương Định,Cần Thơ,,"Ninh Kiều, Cần Thơ",VN
1443,ChIJI4h2UkiJoDERfEVgcV2LyBY,Quán Ăn Gia Đình Sông Sen,Quán ăn nhỏ,Quán ăn nhỏ,,"2PQV+8V3 Quán Ăn Gia Đình Sông Sen, Phường An Khánh, Ninh Kiều, Cần Thơ, Việt Nam","Phường An Khánh, Ninh Kiều",2PQV+8V3,Cần Thơ,,"Ninh Kiều, Cần Thơ",VN
1444,ChIJZw0SrmeIoDER08FcYBG7oWM,Quán Ăn Cường Ký,Nhà hàng,Nhà hàng,,"Quán Ăn Cường Ký, Long Hòa, Ninh Kiều, Cần Thơ, Việt Nam","Long Hòa, Ninh Kiều",,Cần Thơ,,"Ninh Kiều, Cần Thơ",VN
1445,ChIJWZ36nziJoDERJ0ksg6WIYAg,Quán cơm thiện nguyện 1000 Cần Thơ,Nhà hàng cơm biryani,Nhà hàng cơm biryani,+84 919 778 131,"Quán cơm thiện nguyện 1000 Cần Thơ, Đ. Trần Việt Châu, Thới Bình, Ninh Kiều, Cần Thơ, Việt Nam","Thới Bình, Ninh Kiều",Đ. Trần Việt Châu,Cần Thơ,,"Ninh Kiều, Cần Thơ",VN
1447,ChIJI41GjfGHoDERYkOuWymXQdM,Bếp Xưa Cơm Nhà Ngoại,Nhà hàng cơm,Nhà hàng cơm,+84 909 744 222,"Bếp Xưa Cơm Nhà Ngoại, 87 Đường số 1, khu giảng viên, Ninh Kiều, Cần Thơ, Việt Nam","khu giảng viên, Ninh Kiều",87 Đường số 1,Cần Thơ,,"Ninh Kiều, Cần Thơ",VN
1448,ChIJb5w6wFyJoDERYsl-d2sJf2w,Quán cháo lòng,Quán ăn nhẹ,Quán ăn nhẹ,,"Quán cháo lòng, 95 Đ. Cách Mạng Tháng 8, An Hoà, Ninh Kiều, Cần Thơ, Việt Nam","An Hoà, Ninh Kiều",95 Đ. Cách Mạng Tháng 8,Cần Thơ,,"Ninh Kiều, Cần Thơ",VN
1464,ChIJZahWh6FioDER09gZUusBavE,Quán Ăn Phở 18,Nhà hàng,Nhà hàng,+84 292 3823 535,"Quán Ăn Phở 18, 18 Đ. Lý Thường Kiệt, Tân An, Ninh Kiều, Cần Thơ, Việt Nam","Tân An, Ninh Kiều",18 Đ. Lý Thường Kiệt,Cần Thơ,,"Ninh Kiều, Cần Thơ",VN
1466,ChIJs_da4spjoDEReVv7ZyiEJUU,Quán cơm Tư Muối,Nhà hàng gia đình,Nhà hàng gia đình,+84 988 297 969,"Quán cơm Tư Muối, 26-28 Đ. Ung Văn Khiêm, An Hội, Ninh Kiều, Cần Thơ, Việt Nam","An Hội, Ninh Kiều",26-28 Đ. Ung Văn Khiêm,Cần Thơ,,"Ninh Kiều, Cần Thơ",VN
1467,ChIJHU2rpCGIoDERiQWPpkiXetE,Quán Ăn Ngọc,Nhà hàng,Nhà hàng,+84 939 160 469,"Quán Ăn Ngọc, 91 Đ. Nguyễn Việt Hồng, An Lạc, Ninh Kiều, Cần Thơ, Việt Nam","An Lạc, Ninh Kiều",91 Đ. Nguyễn Việt Hồng,Cần Thơ,,"Ninh Kiều, Cần Thơ",VN
1468,ChIJVxTZuoWJoDERx9A42nQGMVM,quán ăn Hàn Quốc SECHIN,Nhà hàng,Nhà hàng,+84 326 170 049,"quán ăn Hàn Quốc SECHIN, 122/7A1 Đ. 3 Tháng 2, Xuân Khánh, Ninh Kiều, Cần Thơ, Việt Nam","Xuân Khánh, Ninh Kiều",122/7A1 Đ. 3 Tháng 2,Cần Thơ,,"Ninh Kiều, Cần Thơ",VN
1470,ChIJJczdE69ioDERawZ0EvOcG2w,Sơn Dương Quán,Nhà hàng,Nhà hàng,,"Sơn Dương Quán, 192 Lê Lợi, Cái Khế, Ninh Kiều, Cần Thơ, Việt Nam","Cái Khế, Ninh Kiều",192 Lê Lợi,Cần Thơ,,"Ninh Kiều, Cần Thơ",VN
1473,ChIJrcdd-MZjoDERCM7WyQSOkT8,Quán Cơn Dì Hai,Quán ăn nhỏ,Quán ăn nhỏ,,"Quán Cơn Dì Hai, 2a Sông Hậu, Cái Khế, Ninh Kiều, Cần Thơ, Việt Nam","Cái Khế, Ninh Kiều",2a Sông Hậu,Cần Thơ,,"Ninh Kiều, Cần Thơ",VN
1474,ChIJU4RTuKFioDERO60rM3sEESU,Quán Cơm Bình Dân,Nhà hàng,Nhà hàng,+84 292 3825 549,"Quán Cơm Bình Dân, 35 Ngô Gia Tự, Tân An, Ninh Kiều, Cần Thơ, Việt Nam","Tân An, Ninh Kiều",35 Ngô Gia Tự,Cần Thơ,,"Ninh Kiều, Cần Thơ",VN
1475,ChIJSfpmr6dioDERAmz3LAxKu74,Quán Ăn Mười Mập,Nhà hàng,Nhà hàng,+84 292 2293 115,"Quán Ăn Mười Mập, 63 Phan Đình Phùng, Tân An, Ninh Kiều, Cần Thơ, Việt Nam","Tân An, Ninh Kiều",63 Phan Đình Phùng,Cần Thơ,,"Ninh Kiều, Cần Thơ",VN
1476,ChIJ-48LlqBioDERF63FvttieHk,"Quán Ăn Cháo Gà, Vịt Kim Cương",Nhà hàng,Nhà hàng,+84 919 444 140,"Quán Ăn Cháo Gà, Vịt Kim Cương, 52 Đ. Trương Định, Tân An, Ninh Kiều, Cần Thơ, Việt Nam","Tân An, Ninh Kiều",52 Đ. Trương Định,Cần Thơ,,"Ninh Kiều, Cần Thơ",VN
1481,ChIJ1wr6t5CJoDERUL7PvbTGJME,Quán ăn sinh viên,Nhà hàng gia đình,Nhà hàng gia đình,+84 856 495 149,"Quán ăn sinh viên, 71 Đ. Trần Văn Hoài, Xuân Khánh, Ninh Kiều, Cần Thơ, Việt Nam","Xuân Khánh, Ninh Kiều",71 Đ. Trần Văn Hoài,Cần Thơ,,"Ninh Kiều, Cần Thơ",VN
1483,ChIJ3UPWtKFioDERGQHK9n-6Kpw,Binh Dan Restaurant,Nhà hàng,Nhà hàng,+84 292 3825 549,"Binh Dan Restaurant, 21 Đ. Ngô Văn Sở, Tân An, Ninh Kiều, Cần Thơ, Việt Nam","Tân An, Ninh Kiều",21 Đ. Ngô Văn Sở,Cần Thơ,,"Ninh Kiều, Cần Thơ",VN
1484,ChIJ5XNvpQKIoDERUFrqf8VCBpE,Quán Nướng A Sồi,Nhà hàng,Nhà hàng,,"Quán Nướng A Sồi, 80 Trần Quang Khải, Cái Khế, Ninh Kiều, Cần Thơ, Việt Nam","Cái Khế, Ninh Kiều",80 Trần Quang Khải,Cần Thơ,,"Ninh Kiều, Cần Thơ",VN
1485,ChIJY7ib9SCIoDERrqC_TinkiWg,Quán Ăn Đẹp Đời,Nhà hàng,Nhà hàng,,"Quán Ăn Đẹp Đời, 8 Đ. 30 Tháng 4, An Lạc, Ninh Kiều, Cần Thơ, Việt Nam","An Lạc, Ninh Kiều",8 Đ. 30 Tháng 4,Cần Thơ,,"Ninh Kiều, Cần Thơ",VN
1486,ChIJa5oPBJ1ioDEROVl5QkTx4_8,Quán Ăn Đốc Tờ Dê,Nhà hàng,Nhà hàng,,"Quán Ăn Đốc Tờ Dê, 290G Khu Vực IV, Hưng Phú, Ninh Kiều, Cần Thơ, Việt Nam","Hưng Phú, Ninh Kiều",290G Khu Vực IV,Cần Thơ,,"Ninh Kiều, Cần Thơ",VN
1487,ChIJQxPm755ioDERTAwKpehMNBc,Quán Ăn Thúy Oanh,Nhà hàng,Nhà hàng,+84 292 3828 795,"Quán Ăn Thúy Oanh, 9 Đ. Cao Bá Quát, Tân An, Ninh Kiều, Cần Thơ, Việt Nam","Tân An, Ninh Kiều",9 Đ. Cao Bá Quát,Cần Thơ,,"Ninh Kiều, Cần Thơ",VN
1489,ChIJWYdQ_kJjoDERP1za96uihiI,Quán cơm tấm,Quán ăn nhỏ,Quán ăn nhỏ,,"Quán cơm tấm, 4 Đ. Tân Trào, Tân An, Ninh Kiều, Cần Thơ 900000, Việt Nam","Tân An, Ninh Kiều",4 Đ. Tân Trào,Cần Thơ,900000.0,"Ninh Kiều, Cần Thơ",VN
1490,ChIJbxlA2aFioDER0bB6kwwSqL0,Quán Cơm Ngọc Hồ,Nhà hàng,Nhà hàng,,"Quán Cơm Ngọc Hồ, 52 Nguyễn Thái Học, Tân An, Ninh Kiều, Cần Thơ, Việt Nam","Tân An, Ninh Kiều",52 Nguyễn Thái Học,Cần Thơ,,"Ninh Kiều, Cần Thơ",VN
1491,ChIJvRhDMSGIoDERmynvq-3aijI,Quán Ăn Sumo,Nhà hàng,Nhà hàng,,"Quán Ăn Sumo, 99 Đ. 30 Tháng 4, An Lạc, Ninh Kiều, Cần Thơ, Việt Nam","An Lạc, Ninh Kiều",99 Đ. 30 Tháng 4,Cần Thơ,,"Ninh Kiều, Cần Thơ",VN
1492,ChIJsw-PNgGJoDERQhTGuiusynY,Quán Ăn Hàn Quốc Sam 2013,Nhà hàng Hàn Quốc,Nhà hàng Hàn Quốc,,"Quán Ăn Hàn Quốc Sam 2013, 158/43 Đ. Nguyễn Việt Hồng, An Phú, Ninh Kiều, Cần Thơ, Việt Nam","An Phú, Ninh Kiều",158/43 Đ. Nguyễn Việt Hồng,Cần Thơ,,"Ninh Kiều, Cần Thơ",VN
1493,ChIJLZh65SeIoDERzJIladV5NHM,Quán Ăn Vườn Xanh,Nhà hàng,Nhà hàng,,"Quán Ăn Vườn Xanh, 29 Quang Trung, Hưng Phú, Cái Răng, Cần Thơ, Việt Nam","Hưng Phú, Cái Răng",29 Quang Trung,Cần Thơ,,"Cái Răng, Cần Thơ",VN
1495,ChIJ_bTbVDCIoDERUFwyb0EVdJ4,Quán Ăn Ba Miền Ngói Đỏ,Nhà hàng,Nhà hàng,+84 913 619 079,"Quán Ăn Ba Miền Ngói Đỏ, 268 Đ. Nguyễn Văn Linh, Hưng Lợi, Ninh Kiều, Cần Thơ, Việt Nam","Hưng Lợi, Ninh Kiều",268 Đ. Nguyễn Văn Linh,Cần Thơ,,"Ninh Kiều, Cần Thơ",VN
1502,ChIJoyPms65ioDERgYp3wV4uXtw,Quán Nem Nướng 68,Nhà hàng,Nhà hàng,+84 908 679 639,"Quán Nem Nướng 68, 68 Lê Lợi, Cái Khế, Ninh Kiều, Cần Thơ, Việt Nam","Cái Khế, Ninh Kiều",68 Lê Lợi,Cần Thơ,,"Ninh Kiều, Cần Thơ",VN
1512,ChIJHZHBvsNjoDERLrWs65CzaR8,Quán cháo mắt má heo CHẶT CHÉM KHÁCH LÁT ĐẦU,Quán ăn nhỏ,Quán ăn nhỏ,,"Quán cháo mắt má heo CHẶT CHÉM KHÁCH LÁT ĐẦU, 51 Trần Văn Khéo, An Hội, Ninh Kiều, Cần Thơ, Việt Nam","An Hội, Ninh Kiều",51 Trần Văn Khéo,Cần Thơ,,"Ninh Kiều, Cần Thơ",VN
1515,ChIJ3cchT1CJoDERciIcUIkJixA,Quán Xóm Nướng Ngói,Quán ăn nhỏ,Quán ăn nhỏ,+84 911 579 030,"Quán Xóm Nướng Ngói, 1/63 Đ. Đinh Tiên Hoàng, An Hội, Ninh Kiều, Cần Thơ 94000, Việt Nam","An Hội, Ninh Kiều",1/63 Đ. Đinh Tiên Hoàng,Cần Thơ,94000.0,"Ninh Kiều, Cần Thơ",VN
1526,ChIJqRiZwC-JoDERVhBwOpU33oI,Ăn vặt bà Vi,Nhà hàng bán đồ ăn mang về,Nhà hàng bán đồ ăn mang về,+84 335 212 663,"Ăn vặt bà Vi, 132/42/123, Hùng Vương, An Cư, Ninh Kiều, Cần Thơ, Việt Nam","An Cư, Ninh Kiều","132/42/123, Hùng Vương",Cần Thơ,,"Ninh Kiều, Cần Thơ",VN
1554,ChIJofEn7gyJoDERfXKPUB0t6VM,Cơm gà Tây Đô - Chi nhánh 6,Quán ăn nhỏ,Quán ăn nhỏ,,"Cơm gà Tây Đô - Chi nhánh 6, 1/47, Đ. Đinh Tiên Hoàng, An Hội, Ninh Kiều, Cần Thơ, Việt Nam","An Hội, Ninh Kiều","1/47, Đ. Đinh Tiên Hoàng",Cần Thơ,,"Ninh Kiều, Cần Thơ",VN
1555,ChIJqcV17hmIoDERdVQ_ds-HH2k,Quán Cơm Tấn Thành,Nhà hàng,Nhà hàng,+84 908 826 626,"Quán Cơm Tấn Thành, 134 Đ. Mậu Thân, An Nghiệp, Ninh Kiều, Cần Thơ 900000, Việt Nam","An Nghiệp, Ninh Kiều",134 Đ. Mậu Thân,Cần Thơ,900000.0,"Ninh Kiều, Cần Thơ",VN
1556,ChIJZzSBhZiJoDERmWZaJStcXOI,Bún cá Châu Pha,Nhà hàng gia đình,Nhà hàng gia đình,,"Bún cá Châu Pha, 69 Đ. Đinh Tiên Hoàng, An Hội, Ninh Kiều, Cần Thơ, Việt Nam","An Hội, Ninh Kiều",69 Đ. Đinh Tiên Hoàng,Cần Thơ,,"Ninh Kiều, Cần Thơ",VN
1563,ChIJFaWo0hyIoDERJzfKkzO2tN4,Sông Hương Quán,Nhà hàng,Nhà hàng,,"Sông Hương Quán, 54A Hùng Vương, An Hội, Ninh Kiều, Cần Thơ, Việt Nam","An Hội, Ninh Kiều",54A Hùng Vương,Cần Thơ,,"Ninh Kiều, Cần Thơ",VN
1575,ChIJ8Zx9JQOIoDERgkTFN7-10iY,Quán Ốc Lý Tưởng,Nhà hàng,Nhà hàng,,"Quán Ốc Lý Tưởng, 52/1 Hùng Vương, An Hội, Ninh Kiều, Cần Thơ, Việt Nam","An Hội, Ninh Kiều",52/1 Hùng Vương,Cần Thơ,,"Ninh Kiều, Cần Thơ",VN
1596,ChIJq6qqBw-IoDERzcg1b5ISlxA,Quán Cơm 300,Nhà hàng,Nhà hàng,+84 292 2482 319,"Quán Cơm 300, 300, Đường Nguyễn Văn Cừ, Quận Ninh Kiều, Tp Cần Thơ, An Hoà, Ninh Kiều, Cần Thơ, Việt Nam","An Hoà, Ninh Kiều","300, Đường Nguyễn Văn Cừ, Quận Ninh Kiều, Tp Cần Thơ",Cần Thơ,,"Ninh Kiều, Cần Thơ",VN
1598,ChIJq6qqBw-IoDERVi_YC6FUIpU,Quán Phở Lẩu Bò A Lễ,Nhà hàng,Nhà hàng,+84 986 453 034,"Quán Phở Lẩu Bò A Lễ, 388E, Đường Nguyễn Văn Cừ, Quận Ninh Kiều, Tp Cần Thơ, An Hoà, Ninh Kiều, Cần Thơ, Việt Nam","An Hoà, Ninh Kiều","388E, Đường Nguyễn Văn Cừ, Quận Ninh Kiều, Tp Cần Thơ",Cần Thơ,,"Ninh Kiều, Cần Thơ",VN
1600,ChIJq6qqBw-IoDERgYMhb33K2Aw,Quán Cơm Tấm 71,Nhà hàng,Nhà hàng,+84 902 155 829,"Quán Cơm Tấm 71, 71 Đ. Nguyễn Văn Cừ, An Hoà, Ninh Kiều, Cần Thơ, Việt Nam","An Hoà, Ninh Kiều",71 Đ. Nguyễn Văn Cừ,Cần Thơ,,"Ninh Kiều, Cần Thơ",VN
1601,ChIJ7fkAkDSJoDERWFRjg4kgt44,Quán ăn BUKA,Quán ăn nhỏ,Quán ăn nhỏ,+84 763 747 674,"Quán ăn BUKA, 381 Đ. Trần Nam Phú, Phường An Khánh, Ninh Kiều, Cần Thơ, Việt Nam","Phường An Khánh, Ninh Kiều",381 Đ. Trần Nam Phú,Cần Thơ,,"Ninh Kiều, Cần Thơ",VN
1602,ChIJ5xLdNBKIoDERBHJk12rrWa8,Quán Cơm An Phát,Nhà hàng,Nhà hàng,+84 292 6279 470,"Quán Cơm An Phát, 134 Đ. Nguyễn Văn Cừ, Phường An Khánh, Ninh Kiều, Cần Thơ, Việt Nam","Phường An Khánh, Ninh Kiều",134 Đ. Nguyễn Văn Cừ,Cần Thơ,,"Ninh Kiều, Cần Thơ",VN
1606,ChIJOyKNzHaJoDERdEyFUhu3WLQ,Quán cơm Thanh Hồng,Quán ăn nhỏ,Quán ăn nhỏ,,"Quán cơm Thanh Hồng, 163h4 Nguyễn Văn Cừ Nối Dài, Phường An Khánh, Ninh Kiều, Cần Thơ 900000, Việt Nam","Phường An Khánh, Ninh Kiều",163h4 Nguyễn Văn Cừ Nối Dài,Cần Thơ,900000.0,"Ninh Kiều, Cần Thơ",VN
1612,ChIJ2RwLq1aJoDERb5ttDch5n0Q,Quán Cơm Thời Ký,Nhà hàng ăn nhanh,Nhà hàng ăn nhanh,+84 918 709 916,"Quán Cơm Thời Ký, 163D6 Nguyễn Văn Cừ Nối Dài, Phường An Khánh, Ninh Kiều, Cần Thơ, Việt Nam","Phường An Khánh, Ninh Kiều",163D6 Nguyễn Văn Cừ Nối Dài,Cần Thơ,,"Ninh Kiều, Cần Thơ",VN
1617,ChIJ4eUxU12IoDERV3udxzpxNuE,Quán Ăn My My,Nhà hàng,Nhà hàng,+84 292 6539 321,"Quán Ăn My My, 137, Đường Quốc Lộ 91B, Quận Ninh Kiều, TP.Cần Thơ, Phường An Khánh, Ninh Kiều, Cần Thơ, Việt Nam","Phường An Khánh, Ninh Kiều","137, Đường Quốc Lộ 91B, Quận Ninh Kiều, TP.Cần Thơ",Cần Thơ,,"Ninh Kiều, Cần Thơ",VN
1630,ChIJ0xcHWmuIoDERvVcyUC_9O_M,Quán Cơm Tấn Đức,Quán ăn nhỏ,Quán ăn nhỏ,+84 972 774 435,"Quán Cơm Tấn Đức, 10 Đường số 24, Phường An Khánh, Ninh Kiều, Cần Thơ, Việt Nam","Phường An Khánh, Ninh Kiều",10 Đường số 24,Cần Thơ,,"Ninh Kiều, Cần Thơ",VN
1635,ChIJn91yp0KIoDERO00YxEshSm4,Quán Ăn Tài Phát,Nhà hàng,Nhà hàng,+84 906 678 811,"Quán Ăn Tài Phát, 339 Đ. Nguyễn Văn Linh, Phường An Khánh, Ninh Kiều, Cần Thơ, Việt Nam","Phường An Khánh, Ninh Kiều",339 Đ. Nguyễn Văn Linh,Cần Thơ,,"Ninh Kiều, Cần Thơ",VN
1636,ChIJRYCeyhOIoDERkVqaaAvQM9k,Quán Hương Đồng Nội,Nhà hàng,Nhà hàng,+84 292 3892 605,"Quán Hương Đồng Nội, 229 Đ. Nguyễn Văn Cừ, Phường An Khánh, Ninh Kiều, Cần Thơ, Việt Nam","Phường An Khánh, Ninh Kiều",229 Đ. Nguyễn Văn Cừ,Cần Thơ,,"Ninh Kiều, Cần Thơ",VN
1637,ChIJZSN1OFGIoDERc2isVsvCm60,Quán Ăn Gia Đình Lộc Phú,Nhà hàng,Nhà hàng,,"Quán Ăn Gia Đình Lộc Phú, 311 Cái Sơn Hàng Bàng, An Bình, Ninh Kiều, Cần Thơ, Việt Nam","An Bình, Ninh Kiều",311 Cái Sơn Hàng Bàng,Cần Thơ,,"Ninh Kiều, Cần Thơ",VN
1638,ChIJKT6kX1aJoDERI8w79HCmeak,Quán cơm Bà 3,Quán ăn nhẹ,Quán ăn nhẹ,,"Quán cơm Bà 3, 328C Đường Cái Sơn Hàng Bàng, An Bình, Ninh Kiều, Cần Thơ, Việt Nam","An Bình, Ninh Kiều",328C Đường Cái Sơn Hàng Bàng,Cần Thơ,,"Ninh Kiều, Cần Thơ",VN
1639,ChIJ5SARKsqJoDERPwtJcF7smAk,Ăn Vặt Xinh Xắn,Quán ăn nhẹ,Quán ăn nhẹ,,"Ăn Vặt Xinh Xắn, Nhà Trọ DR Thanh, 3 Đ. Số 9, P, Ninh Kiều, Cần Thơ, Việt Nam","P, Ninh Kiều","Nhà Trọ DR Thanh, 3 Đ. Số 9",Cần Thơ,,"Ninh Kiều, Cần Thơ",VN
1640,ChIJQfhJtMaJoDERcyjg4ULfwzA,Cơm tấm 252,Quán ăn nhỏ,Quán ăn nhỏ,+84 798 040 466,"Cơm tấm 252, 206, Đ.Xuân Thủy/AB2 HỒNG PHÁT/cuối Đ. Hoàng Quốc Việt, Cần Thơ, Việt Nam","An Bình, Cần Thơ","206, Đ.Xuân Thủy/AB2 HỒNG PHÁT/cuối Đ. Hoàng Quốc Việt",Cần Thơ,,Cần Thơ,VN
1641,ChIJ7XgQuVqIoDERvB4RsclpdBc,Quán Ăn Hoa Súng Đỏ,Nhà hàng,Nhà hàng,+84 939 965 551,"Quán Ăn Hoa Súng Đỏ, 82 Nguyễn Văn Cừ Nối Dài, An Bình, Ninh Kiều, Cần Thơ, Việt Nam","An Bình, Ninh Kiều",82 Nguyễn Văn Cừ Nối Dài,Cần Thơ,,"Ninh Kiều, Cần Thơ",VN
1642,ChIJieF1HLKJoDER6Tmr8z9tJM0,Quán Cơm Tuấn Anh,Quán ăn nhỏ,Quán ăn nhỏ,,"Quán Cơm Tuấn Anh, Đường Đ. Trần Vĩnh Kiết, An Bình, Ninh Kiều, Cần Thơ, Việt Nam","An Bình, Ninh Kiều",Đường Đ. Trần Vĩnh Kiết,Cần Thơ,,"Ninh Kiều, Cần Thơ",VN
1643,ChIJt2mp4kSJoDER8EwP8V-am4U,Quán cơm Bo Bo,Quán ăn nhỏ,Quán ăn nhỏ,+84 947 913 491,"Quán cơm Bo Bo, 258 Đ. Trần Vĩnh Kiết, An Bình, Ninh Kiều, Cần Thơ, Việt Nam","An Bình, Ninh Kiều",258 Đ. Trần Vĩnh Kiết,Cần Thơ,,"Ninh Kiều, Cần Thơ",VN
1644,ChIJhXR4Y1WIoDER_T-XnNf_NKA,Quán Cơm Trân Anh,Nhà hàng,Nhà hàng,,"2P8P+25M Quán Cơm Trân Anh, Nguyễn Văn Cừ Nối Dài, An Bình, Ninh Kiều, Cần Thơ, Việt Nam","An Bình, Ninh Kiều","2P8P+25M, Nguyễn Văn Cừ Nối Dài",Cần Thơ,,"Ninh Kiều, Cần Thơ",VN
1645,ChIJvfA_P56JoDERD3RTstzbXEs,Quán cơm A Béo,Quán ăn nhẹ,Quán ăn nhẹ,,"2QG2+8FH Quán cơm A Béo, Đ. Trần Vĩnh Kiết, Phường An Khánh, Ninh Kiều, Cần Thơ, Việt Nam","Phường An Khánh, Ninh Kiều","2QG2+8FH, Đ. Trần Vĩnh Kiết",Cần Thơ,,"Ninh Kiều, Cần Thơ",VN
1648,ChIJm2EUeLmJoDERoYhJEHKJELQ,Quán ăn 3 Sáng,Quán ăn nhỏ,Quán ăn nhỏ,,"Quán ăn 3 Sáng, 73 Đ. Nguyễn Hiền, Khu dân cư 91B, Ninh Kiều, Cần Thơ, Việt Nam","Khu dân cư 91B, Ninh Kiều",73 Đ. Nguyễn Hiền,Cần Thơ,,"Ninh Kiều, Cần Thơ",VN
1649,ChIJoe70elWIoDERmhXQZZTaeTA,Quán Cơm Tấm Duy Tân,Nhà hàng,Nhà hàng,,"2P8P+48R Quán Cơm Tấm Duy Tân, Nguyễn Văn Cừ Nối Dài, An Bình, Ninh Kiều, Cần Thơ, Việt Nam","An Bình, Ninh Kiều","2P8P+48R, Nguyễn Văn Cừ Nối Dài",Cần Thơ,,"Ninh Kiều, Cần Thơ",VN
1650,ChIJyx1sIbGJoDERv8Lpp5YgmXk,Quán Ăn Minh Ngọc,Nhà hàng,Nhà hàng,,"Quán Ăn Minh Ngọc, 4 Lê Thái Tổ, Lê Bình, Cái Răng, Cần Thơ, Việt Nam","Lê Bình, Cái Răng",4 Lê Thái Tổ,Cần Thơ,,"Cái Răng, Cần Thơ",VN
1651,ChIJ2wPpGJSJoDERFRrGIChBMQk,Quán ăn Cát Tường,Nhà hàng,Nhà hàng,+84 965 400 266,"2P8P+HPP Quán ăn Cát Tường, Đ. Nguyễn Văn Cừ, An Bình, Ninh Kiều, Cần Thơ, Việt Nam","An Bình, Ninh Kiều","2P8P+HPP, Đ. Nguyễn Văn Cừ",Cần Thơ,,"Ninh Kiều, Cần Thơ",VN
1653,ChIJl4xC8TSIoDER4lN7H9eBuzw,Quán Ăn Ngọc Khánh,Nhà hàng,Nhà hàng,,"2Q77+P37 Quán Ăn Ngọc Khánh, Đ. Trần Hoàng Na, Hưng Lợi, Ninh Kiều, Cần Thơ, Việt Nam","Hưng Lợi, Ninh Kiều","2Q77+P37, Đ. Trần Hoàng Na",Cần Thơ,,"Ninh Kiều, Cần Thơ",VN
1654,ChIJPZscs_aJoDERtefEl4ToFzU,Quán cơm A Thái,Nhà hàng cơm,Nhà hàng cơm,+84 766 334 433,"Quán cơm A Thái, 29 Đ. Hoàng Quốc Việt, An Bình, Ninh Kiều, Cần Thơ, Việt Nam","An Bình, Ninh Kiều",29 Đ. Hoàng Quốc Việt,Cần Thơ,,"Ninh Kiều, Cần Thơ",VN
1656,ChIJt40Cq9CJoDER8-j8VoLQJM8,Quán ăn Như,Quán ăn nhẹ,"Quán ăn nhẹ, Nhà hàng",+84 898 497 063,"Quán ăn Như, 187A/5 kv8, Nguyễn Văn Trường, An Bình, Ninh Kiều, Cần Thơ 94000, Việt Nam","An Bình, Ninh Kiều","187A/5 kv8, Nguyễn Văn Trường",Cần Thơ,94000.0,"Ninh Kiều, Cần Thơ",VN
1657,ChIJH9Fb7lCIoDERxvxgl3Fjwxg,Quán Bia Tô,Nhà hàng,Nhà hàng,,"Quán Bia Tô, 160 Nguyễn Văn Cừ Nối Dài, An Bình, Ninh Kiều, Cần Thơ, Việt Nam","An Bình, Ninh Kiều",160 Nguyễn Văn Cừ Nối Dài,Cần Thơ,,"Ninh Kiều, Cần Thơ",VN
1659,ChIJ82j2J-KJoDERCykj0TYjaIA,Quán ăn đêm,Quán ăn nhỏ,Quán ăn nhỏ,,"Quán ăn đêm, 519 Đ. 30 Tháng 4, Hưng Lợi, Ninh Kiều, Cần Thơ, Việt Nam","Hưng Lợi, Ninh Kiều",519 Đ. 30 Tháng 4,Cần Thơ,,"Ninh Kiều, Cần Thơ",VN
1660,ChIJr1BWTLKJoDERjKB3SfSrX-c,Quán Ăn Linh Nhi,Gian hàng rong,"Gian hàng rong, Quán ăn tự phục vụ",+84 345 173 413,"Quán Ăn Linh Nhi, 7A, Quốc Lộ 1A, Quận Cái Răng, An Bình, Ninh Kiều, Cần Thơ, Việt Nam","An Bình, Ninh Kiều","7A, Quốc Lộ 1A, Quận Cái Răng",Cần Thơ,,"Ninh Kiều, Cần Thơ",VN
1661,ChIJ_8-L5DSIoDERLUBWK08g_T0,Quán Ăn Gia Đình Hoàng Mai,Nhà hàng,Nhà hàng,+84 901 019 333,"Quán Ăn Gia Đình Hoàng Mai, 479 Đ. 30 Tháng 4, Hưng Lợi, Ninh Kiều, Cần Thơ, Việt Nam","Hưng Lợi, Ninh Kiều",479 Đ. 30 Tháng 4,Cần Thơ,,"Ninh Kiều, Cần Thơ",VN
1664,ChIJswizD8mJoDERZ5okVwPZM14,Quán ăn Phương Quyên,Nhà hàng chuyên phục vụ bữa sáng,Nhà hàng chuyên phục vụ bữa sáng,,"2PRR+26W Quán ăn Phương Quyên, QL91B, Long Hoà, Bình Thủy, Cần Thơ, Việt Nam","Long Hoà, Bình Thủy","2PRR+26W, QL91B",Cần Thơ,,"Bình Thủy, Cần Thơ",VN
1665,ChIJAaLFUzOIoDERyt5GUZcounU,Quán Ăn Gia Đình Thanh Nhã,Nhà hàng,Nhà hàng,+84 292 3783 235,"Quán Ăn Gia Đình Thanh Nhã, 52, Đường Đ. Trần Hoàng Na, Hưng Lợi, Ninh Kiều, Cần Thơ, Việt Nam","Hưng Lợi, Ninh Kiều","52, Đường Đ. Trần Hoàng Na",Cần Thơ,,"Ninh Kiều, Cần Thơ",VN
1666,ChIJjabVZzqIoDERRmcNAHGH8KU,Quán Ăn Gia Đình Nam Phương,Nhà hàng,Nhà hàng,+84 292 3818 677,"Quán Ăn Gia Đình Nam Phương, 54 Đ. 3 Tháng 2, Hưng Lợi, Ninh Kiều, Cần Thơ, Việt Nam","Hưng Lợi, Ninh Kiều",54 Đ. 3 Tháng 2,Cần Thơ,,"Ninh Kiều, Cần Thơ",VN
1667,ChIJZbO8woSJoDERXKUFdGEJXRs,Quán ăn Ông Chủ Nhỏ,Quán ăn nhỏ,Quán ăn nhỏ,,"2Q24+HWR Quán ăn Ông Chủ Nhỏ, Trần Chiên, Lê Bình, Cái Răng, Cần Thơ, Việt Nam","Lê Bình, Cái Răng","2Q24+HWR, Trần Chiên",Cần Thơ,,"Cái Răng, Cần Thơ",VN
1668,ChIJl_Ek3EOIoDERApls8HmIH88,Quán Cơm Trung Anh,Nhà hàng,Nhà hàng,+84 939 918 357,"Quán Cơm Trung Anh, 306 Đ. Nguyễn Văn Linh, Phường An Khánh, Ninh Kiều, Cần Thơ, Việt Nam","Phường An Khánh, Ninh Kiều",306 Đ. Nguyễn Văn Linh,Cần Thơ,,"Ninh Kiều, Cần Thơ",VN
1669,ChIJXWEqaUGIoDERZJ2EV33cBYc,Quán Cơm Thanh Kỳ,Nhà hàng,Nhà hàng,+84 902 601 840,"Quán Cơm Thanh Kỳ, 337C/13, Quốc Lộ 91B, Quận Ninh Kiều, Thành Phố Cần Thơ, Việt Nam","Phường An Khánh, Ninh Kiều","337C/13, Quốc Lộ 91B, Quận Ninh Kiều, Thành Phố Cần Thơ",Cần Thơ,,"Ninh Kiều, Cần Thơ",VN
1671,ChIJ30L-yEOIoDERsZHTOo0vcl0,Quán Cơm Bin Bin,Nhà hàng,Nhà hàng,,"2QJ2+7MC Quán Cơm Bin Bin, Đ. Nguyễn Văn Linh, Phường An Khánh, Ninh Kiều, Cần Thơ, Việt Nam","Phường An Khánh, Ninh Kiều","2QJ2+7MC, Đ. Nguyễn Văn Linh",Cần Thơ,,"Ninh Kiều, Cần Thơ",VN
1672,ChIJ340CorWJoDERXOvPiFG4FpQ,Quán cơm phần,Nhà hàng,Nhà hàng,,"2PMW+WJ4 Quán cơm phần, Đ. Hoàng Quốc Việt, Phường An Khánh, Ninh Kiều, Cần Thơ, Việt Nam","Phường An Khánh, Ninh Kiều","2PMW+WJ4, Đ. Hoàng Quốc Việt",Cần Thơ,,"Ninh Kiều, Cần Thơ",VN
1673,ChIJ6Xqj1BaJoDER11dMGvAN_fw,Quán Ăn Gia Đình Huy Hợp,Nhà hàng,Nhà hàng,,"2P28+4XR Quán Ăn Gia Đình Huy Hợp, Nguyễn Văn Cừ Nối Dài, Mỹ Khánh, Phong Điền, Cần Thơ, Việt Nam","Mỹ Khánh, Phong Điền","2P28+4XR, Nguyễn Văn Cừ Nối Dài",Cần Thơ,,"Phong Điền, Cần Thơ",VN
1678,ChIJHQlsOxSJoDERVsmKnS8Wr7U,Quán Ăn Bình Dân Thanh Lan,Nhà hàng,Nhà hàng,,"XPW8+R72 Quán Ăn Bình Dân Thanh Lan, Nguyễn Văn Cừ Nối Dài, Mỹ Khánh, Phong Điền, Cần Thơ, Việt Nam","Mỹ Khánh, Phong Điền","XPW8+R72, Nguyễn Văn Cừ Nối Dài",Cần Thơ,,"Phong Điền, Cần Thơ",VN
1679,ChIJo4UM_GaJoDERT-oDRc_eSPg,Quán ăn Phương Vy,Nhà hàng gia đình,Nhà hàng gia đình,+84 944 944 674,"Quán ăn Phương Vy, 27A KV Thạnh Hưng, Thường Thạnh, Cái Răng, Cần Thơ, Việt Nam","Thường Thạnh, Cái Răng",27A KV Thạnh Hưng,Cần Thơ,,"Cái Răng, Cần Thơ",VN
1680,ChIJj3gVvlCJoDERfgxy3zKXIr0,Quán Ăn CÙ LAO 159,Nhà hàng,Nhà hàng,,"Quán Ăn CÙ LAO 159, 225 Trần Hưng Đạo, Lê Bình, Cái Răng, Cần Thơ, Việt Nam","Lê Bình, Cái Răng",225 Trần Hưng Đạo,Cần Thơ,,"Cái Răng, Cần Thơ",VN
1681,ChIJY2Zm2cWOoDERpw_SkPPmWbM,Quán ăn gia đình Hoàng Phúc,Nhà hàng,Nhà hàng,+84 292 3941 099,"2M2F+3QH Quán ăn gia đình Hoàng Phúc, Thị trấn Phong Điền, Phong Điền, Cần Thơ, Việt Nam","Thị trấn Phong Điền, Phong Điền",2M2F+3QH,Cần Thơ,,"Phong Điền, Cần Thơ",VN
1684,ChIJEVrKZLOJoDERWVmFUCTh6HM,Quán Cơm Tấm,Quán ăn tự phục vụ,"Quán ăn tự phục vụ, Gian hàng rong",+84 917 120 595,"Quán Cơm Tấm, 110/3, Quốc Lộ 1A, P. An Bình, Quận Ninh Kiều, An Bình, Ninh Kiều, Cần Thơ, Việt Nam","An Bình, Ninh Kiều","110/3, Quốc Lộ 1A, P. An Bình, Quận Ninh Kiều",Cần Thơ,,"Ninh Kiều, Cần Thơ",VN
1685,ChIJCV0seNCIoDERV4h9fqu5DZ8,Quán Ăn Thanh Thúy,Nhà hàng,Nhà hàng,,"Quán Ăn Thanh Thúy, Phong Điền, Cần Thơ, Việt Nam",Phong Điền,,Cần Thơ,,"Phong Điền, Cần Thơ",VN
1686,ChIJH3s8IvqJoDERFV33-2gaeOQ,Quán ăn gia đình Linh Cua,Quán ăn nhỏ,Quán ăn nhỏ,+84 989 122 246,"2QG7+4W4 Quán ăn gia đình Linh Cua, Hưng Lợi, Ninh Kiều, Cần Thơ, Việt Nam","Hưng Lợi, Ninh Kiều",2QG7+4W4,Cần Thơ,,"Ninh Kiều, Cần Thơ",VN
1688,ChIJ1_g1CK-JoDERpB6NvoPwHFs,Quán Ăn 7 Tỷ,Nhà hàng,Nhà hàng,,"Quán Ăn 7 Tỷ, An Bình, Ninh Kiều, Cần Thơ, Việt Nam","An Bình, Ninh Kiều",,Cần Thơ,,"Ninh Kiều, Cần Thơ",VN
1689,ChIJ7eAd8LCJoDERdVLSOp5eh6M,Quán Cơm Chay Thiện Đức,Nhà hàng,Nhà hàng,+84 908 506 465,"Quán Cơm Chay Thiện Đức, 148 QL1A, Lê Bình, Cái Răng, Cần Thơ, Việt Nam","Lê Bình, Cái Răng",148 QL1A,Cần Thơ,,"Cái Răng, Cần Thơ",VN
1694,ChIJlWYf_uOPoDERQaQ5cXPg4y8,Quán ăn Tiền Ký,Nhà hàng,Nhà hàng,+84 908 495 798,"XMV8+MHR Quán ăn Tiền Ký, ĐT926, Nhơn ái, Phong Điền, Cần Thơ, Việt Nam","Nhơn ái, Phong Điền","XMV8+MHR, ĐT926",Cần Thơ,,"Phong Điền, Cần Thơ",VN
1695,ChIJE36OdLmJoDER8QDUXeVXWPo,Quán Ăn Hồng Nhung,Nhà hàng,Nhà hàng,+84 773 220 152,"Quán Ăn Hồng Nhung, 180 Lê Bình, Cái Răng, Cần Thơ, Việt Nam","Lê Bình, Cái Răng",180 Lê Bình,Cần Thơ,,"Cái Răng, Cần Thơ",VN
1697,ChIJX8Q2criJoDERzcNaV4jBou0,Quán ăn Huy Lâm,Nhà hàng,Nhà hàng,+84 925 998 842,"Quán ăn Huy Lâm, 5 Nguyễn Văn Trường, An Bình, Ninh Kiều, Cần Thơ, Việt Nam","An Bình, Ninh Kiều",5 Nguyễn Văn Trường,Cần Thơ,,"Ninh Kiều, Cần Thơ",VN
1698,ChIJR_y-nu-IoDERL8gM0I1cgeM,Quán Cơm Thanh Bình,Nhà hàng,Nhà hàng,,"Quán Cơm Thanh Bình, Long Tuyền, Bình Thủy, Cần Thơ, Việt Nam","Long Tuyền, Bình Thủy",,Cần Thơ,,"Bình Thủy, Cần Thơ",VN
1700,ChIJPQABZbmJoDER7jZpsao3skA,Quán Ăn Gia Đình Nhật Thanh,Nhà hàng,Nhà hàng,+84 919 007 127,"Quán Ăn Gia Đình Nhật Thanh, 265A Trần Hưng Đạo, An Phú, Cái Răng, Cần Thơ, Việt Nam","An Phú, Cái Răng",265A Trần Hưng Đạo,Cần Thơ,,"Cái Răng, Cần Thơ",VN
1701,ChIJ9wZF3wOJoDERIMgzKS37B8s,Quán Thích Lẩu,Nhà hàng,Nhà hàng,,"2P5H+VMV Quán Thích Lẩu, Nguyễn Văn Cừ Nối Dài, An Bình, Phong Điền, Cần Thơ, Việt Nam","An Bình, Phong Điền","2P5H+VMV, Nguyễn Văn Cừ Nối Dài",Cần Thơ,,"Phong Điền, Cần Thơ",VN
1706,ChIJX3EuZbqJoDERoF8uxjCu2f0,Quán Cơm Tấm Trúc Linh,Quán ăn nhỏ,Quán ăn nhỏ,,"Quán Cơm Tấm Trúc Linh, 438 QL1A, Lê Bình, Cái Răng, Cần Thơ, Việt Nam","Lê Bình, Cái Răng",438 QL1A,Cần Thơ,,"Cái Răng, Cần Thơ",VN
1708,ChIJI4bWM1qJoDERo2Z2xmJc7Y8,Quán Ăn Kiều Oanh,Nhà hàng gia đình,Nhà hàng gia đình,,"XQF3+Q3H Quán Ăn Kiều Oanh, KV6, phường, Cái Răng, Cần Thơ, Việt Nam","phường, Cái Răng","XQF3+Q3H, KV6",Cần Thơ,,"Cái Răng, Cần Thơ",VN
1711,ChIJY4ae88eJoDER-powQE6f274,Quán Ăn Thảo,Nhà hàng,Nhà hàng,,"Quán Ăn Thảo, Hưng Thạnh, Cái Răng, Cần Thơ, Việt Nam","Hưng Thạnh, Cái Răng",,Cần Thơ,,"Cái Răng, Cần Thơ",VN
1720,ChIJy0rGr3eJoDERNeA9swO72Ws,Quán ăn 165D,Nhà hàng,Nhà hàng,,"XPRX+JC2 Quán ăn 165D, Đ. Phạm Hùng, Ba Láng, Cái Răng, Cần Thơ, Việt Nam","Ba Láng, Cái Răng","XPRX+JC2, Đ. Phạm Hùng",Cần Thơ,,"Cái Răng, Cần Thơ",VN
1721,ChIJ9xxZNbyJoDERxDdM_O4Vzhs,Quán Cơm Phần Tính Nguyễn-Quán Nhậu Kim Ngân,Nhà hàng,Nhà hàng,,"XQV2+CFH Quán Cơm Phần Tính Nguyễn-Quán Nhậu Kim Ngân, Trần Hưng Đạo nối dài, Lê Bình, Cái Răng, Cần Thơ, Việt Nam","Lê Bình, Cái Răng","XQV2+CFH, Trần Hưng Đạo nối dài",Cần Thơ,,"Cái Răng, Cần Thơ",VN
1722,ChIJu_ucjj2JoDERrKXmqNAbAgg,Quán cơm tấm 228,Quán ăn nhỏ,Quán ăn nhỏ,+84 903 011 090,"Quán cơm tấm 228, 228 Đ. Phạm Hùng, Lê Bình, Cái Răng, Cần Thơ, Việt Nam","Lê Bình, Cái Răng",228 Đ. Phạm Hùng,Cần Thơ,,"Cái Răng, Cần Thơ",VN
1727,ChIJdT88S6SJoDERnyu-8vqtPhg,Quán Chay Cô Mười,Cửa hàng bán đồ ăn nấu sẵn,"Cửa hàng bán đồ ăn nấu sẵn, Nhà hàng",+84 902 617 918,"XPXV+M3W Quán Chay Cô Mười, Lộ Vòng Cung, An Bình, Ninh Kiều, Cần Thơ, Việt Nam","An Bình, Ninh Kiều","XPXV+M3W, Lộ Vòng Cung",Cần Thơ,,"Ninh Kiều, Cần Thơ",VN
1731,ChIJwYAoNpqJoDERMLz5msA_zIg,"Cỏ Foody - Ăn vặt nội địa Trung, Mỳ cay tê Tứ Xuyên, Trứng Ngâm Tương",Nhà hàng Trung Quốc,Nhà hàng Trung Quốc,+84 833 821 616,"Cỏ Foody - Ăn vặt nội địa Trung, Mỳ cay tê Tứ Xuyên, Trứng Ngâm Tương, 47/3A KDC Tổ 3A, An Bình, Ninh Kiều, Cần Thơ, Việt Nam","An Bình, Ninh Kiều",47/3A KDC Tổ 3A,Cần Thơ,,"Ninh Kiều, Cần Thơ",VN
1732,ChIJtaIfpLeJoDERYjPOfL1K318,Quán Cơm Quyên,Quán ăn nhỏ,Quán ăn nhỏ,+84 292 3844 283,"Quán Cơm Quyên, 60/3D, Đường Hậu Thạnh Mỹ, Quận Cái Răng, Lê Bình, Cái Răng, Cần Thơ, Việt Nam","Lê Bình, Cái Răng","60/3D, Đường Hậu Thạnh Mỹ, Quận Cái Răng",Cần Thơ,,"Cái Răng, Cần Thơ",VN
1734,ChIJl8KD5k-JoDERzzbtb6xyr3Q,Nhà Hàng,Nhà hàng gia đình,Nhà hàng gia đình,,"2P2R+29H Nhà Hàng, Đường Số 1, An Bình, Ninh Kiều, Cần Thơ, Việt Nam","An Bình, Ninh Kiều","2P2R+29H, Đường Số 1",Cần Thơ,,"Ninh Kiều, Cần Thơ",VN
1748,ChIJuXUWYbuJoDEROSgLh7xG8S0,Quán Cơm Chay Hoàng Kim,Nhà hàng,Nhà hàng,,"XPWX+JCH Quán Cơm Chay Hoàng Kim, Nguyễn Việt Dũng, Lê Bình, Cái Răng, Cần Thơ, Việt Nam","Lê Bình, Cái Răng","XPWX+JCH, Nguyễn Việt Dũng",Cần Thơ,,"Cái Răng, Cần Thơ",VN
1757,ChIJS1yDWfCJoDERqUZk2rFEbkE,Quán Nhậu A Beo,Quán ăn nhỏ,Quán ăn nhỏ,,"2P5W+QXG Quán Nhậu A Beo, Đ. Hoàng Quốc Việt, An Bình, Ninh Kiều, Cần Thơ, Việt Nam","An Bình, Ninh Kiều","2P5W+QXG, Đ. Hoàng Quốc Việt",Cần Thơ,,"Ninh Kiều, Cần Thơ",VN
1764,ChIJKdeqKs6JoDERxN-RdvWbH6U,Quán Vịt Nấu Chao Bò Đùm Phương Thuỷ,Nhà hàng,Nhà hàng,+84 907 177 365,"Quán Vịt Nấu Chao Bò Đùm Phương Thuỷ, 203, Đường Cái Sơn Hàng Bàng, Quận Cái Răng, An Bình, Ninh Kiều, Cần Thơ, Việt Nam","An Bình, Ninh Kiều","203, Đường Cái Sơn Hàng Bàng, Quận Cái Răng",Cần Thơ,,"Ninh Kiều, Cần Thơ",VN
1776,ChIJ741DuZGJoDERRBpVbFt0Wyc,Cua Cà Mau 69 Bao Ăn,Nhà hàng món cua,Nhà hàng món cua,+84 912 897 998,"Cua Cà Mau 69 Bao Ăn, 256c 7a, khu vực 4, Ninh Kiều, Cần Thơ, Việt Nam","khu vực 4, Ninh Kiều",256c 7a,Cần Thơ,,"Ninh Kiều, Cần Thơ",VN
1781,ChIJXSv8kjaIoDER045Wftnxl9A,Quán Cơm 3-2,Quán ăn nhỏ,Quán ăn nhỏ,+84 292 6297 757,"Quán Cơm 3-2, 145 Đ. 3 Tháng 2, Hưng Lợi, Ninh Kiều, Cần Thơ, Việt Nam","Hưng Lợi, Ninh Kiều",145 Đ. 3 Tháng 2,Cần Thơ,,"Ninh Kiều, Cần Thơ",VN
1784,ChIJLaTAJDWIoDERG6YRzEYBEPc,Quán Cơm Cây Me,Nhà hàng,Nhà hàng,,"Quán Cơm Cây Me, 91 Đ. 30 Tháng 4, Hưng Lợi, Ninh Kiều, Cần Thơ, Việt Nam","Hưng Lợi, Ninh Kiều",91 Đ. 30 Tháng 4,Cần Thơ,,"Ninh Kiều, Cần Thơ",VN
1786,ChIJQQQHy8qJoDERkalfLdQjMM8,Quán Cơm Chay Thanh Tịnh,Quán ăn nhỏ,"Quán ăn nhỏ, Quán ăn tự phục vụ",+84 915 858 548,"Quán Cơm Chay Thanh Tịnh, 91/3 Đ. 30 Tháng 4, Hưng Lợi, Ninh Kiều, Cần Thơ, Việt Nam","Hưng Lợi, Ninh Kiều",91/3 Đ. 30 Tháng 4,Cần Thơ,,"Ninh Kiều, Cần Thơ",VN
1789,ChIJ6zw96w2JoDER8QBcSea5w3Y,Quán Ăn Thèn Kon,Nhà hàng hải sản,Nhà hàng hải sản,+84 945 816 819,"Quán Ăn Thèn Kon, Hẻm 636 Đ. 30 Tháng 4, P, Ninh Kiều, Cần Thơ, Việt Nam","P, Ninh Kiều",Hẻm 636 Đ. 30 Tháng 4,Cần Thơ,,"Ninh Kiều, Cần Thơ",VN
1790,ChIJFSPXY62JoDERbw8yBjxWTgk,Quán Nhậu Bình Dân 221,Gian hàng rong,"Gian hàng rong, Cửa hàng thực phẩm",+84 292 3914 119,"Quán Nhậu Bình Dân 221, 221-223, Đường Cái Sơn Hàng Bàng, Quận Cái Răng, An Bình, Ninh Kiều, Cần Thơ, Việt Nam","An Bình, Ninh Kiều","221-223, Đường Cái Sơn Hàng Bàng, Quận Cái Răng",Cần Thơ,,"Ninh Kiều, Cần Thơ",VN
1793,ChIJTf5JVjCIoDERnS4adCEJcGs,Doanh Nghiệp Tư Nhân Quán ăn Hè Phố,Nhà hàng,Nhà hàng,+84 909 709 555,"Doanh Nghiệp Tư Nhân Quán ăn Hè Phố, 279 Đ. Nguyễn Văn Linh, Phường An Khánh, Ninh Kiều, Cần Thơ, Việt Nam","Phường An Khánh, Ninh Kiều",279 Đ. Nguyễn Văn Linh,Cần Thơ,,"Ninh Kiều, Cần Thơ",VN
1794,ChIJV3pOmkqIoDERqSMNnTGS4Gk,Quán Cơm 48,Nhà hàng,Nhà hàng,,"Quán Cơm 48, 48 Đ. 3 Tháng 2, Hưng Lợi, Ninh Kiều, Cần Thơ, Việt Nam","Hưng Lợi, Ninh Kiều",48 Đ. 3 Tháng 2,Cần Thơ,,"Ninh Kiều, Cần Thơ",VN
1795,ChIJZzrD9jCIoDERvcUJXkoVZLs,Quán Ăn Gia Đình Cây Sộp,Nhà hàng,Nhà hàng,+84 292 3831 771,"Quán Ăn Gia Đình Cây Sộp, 272, Đường Nguyễn Văn Linh, Quận Ninh Kiều, Tp Cần Thơ, Hưng Lợi, Ninh Kiều, Cần Thơ, Việt Nam","Hưng Lợi, Ninh Kiều","272, Đường Nguyễn Văn Linh, Quận Ninh Kiều, Tp Cần Thơ",Cần Thơ,,"Ninh Kiều, Cần Thơ",VN
1796,ChIJIV3UBVeJoDER5_NJyD1JI4w,QUÁN HẢI SẢN CÀ MAU,Quán ăn nhỏ,Quán ăn nhỏ,+84 844 198 198,"QUÁN HẢI SẢN CÀ MAU, Hẻm 51 Hẻm 132 Đ. 3 Tháng 2, Hưng Lợi, Ninh Kiều, Cần Thơ 901120, Việt Nam","Hưng Lợi, Ninh Kiều",Hẻm 51 Hẻm 132 Đ. 3 Tháng 2,Cần Thơ,901120.0,"Ninh Kiều, Cần Thơ",VN
1798,ChIJbbgt12KJoDEREBKXk3D4Ztk,Quán Hủ Tiếu A123,Quán ăn nhỏ,Quán ăn nhỏ,+84 899 055 656,"Quán Hủ Tiếu A123, 123 Đ. Nguyễn Hiền, Hưng Lợi, Ninh Kiều, Cần Thơ, Việt Nam","Hưng Lợi, Ninh Kiều",123 Đ. Nguyễn Hiền,Cần Thơ,,"Ninh Kiều, Cần Thơ",VN
1799,ChIJfW41s26JoDERa3jhMBqCXRI,Quán cơm A11,Quán ăn nhỏ,Quán ăn nhỏ,+84 932 849 068,"Quán cơm A11, 11 Đ. Nguyễn Hiền, Khu dân cư 91B, Ninh Kiều, Cần Thơ, Việt Nam","Khu dân cư 91B, Ninh Kiều",11 Đ. Nguyễn Hiền,Cần Thơ,,"Ninh Kiều, Cần Thơ",VN
1800,ChIJc9-9y5KJoDERMGDShFR06eo,Quán Cơm 15,Quán ăn nhỏ,Quán ăn nhỏ,,"2QF5+W3W Quán Cơm 15, Đ. Nguyễn Hiền, Hưng Lợi, Ninh Kiều, Cần Thơ, Việt Nam","Hưng Lợi, Ninh Kiều","2QF5+W3W, Đ. Nguyễn Hiền",Cần Thơ,,"Ninh Kiều, Cần Thơ",VN
1801,ChIJF1iAnUeIoDERhu0GnWBvn_M,Quán Ăn Gia Đình Thanh Huệ,Nhà hàng,Nhà hàng,+84 933 629 096,"Quán Ăn Gia Đình Thanh Huệ, 88 Khu Dân Cư Metro, Quốc Lộ 91B, Quận Ninh Kiều, Tp Cần Thơ, Hưng Lợi, Ninh Kiều, Cần Thơ, Việt Nam","Hưng Lợi, Ninh Kiều","88 Khu Dân Cư Metro, Quốc Lộ 91B, Quận Ninh Kiều, Tp Cần Thơ",Cần Thơ,,"Ninh Kiều, Cần Thơ",VN
1802,ChIJ1Yf7rhCJoDERWOuAsG6GO70,Cơm Chiên Tiền Ký - 40E,Quán ăn nhỏ,Quán ăn nhỏ,+84 938 203 905,"Cơm Chiên Tiền Ký - 40E, 40e Đ. Nguyễn Văn Linh, Phường An Khánh, Ninh Kiều, Cần Thơ, Việt Nam","Phường An Khánh, Ninh Kiều",40e Đ. Nguyễn Văn Linh,Cần Thơ,,"Ninh Kiều, Cần Thơ",VN
1803,ChIJh3nbOEeIoDERf-mnJ-UjTYg,Quán cơm tấm Hương Lúa,Quán ăn nhỏ,Quán ăn nhỏ,,"Quán cơm tấm Hương Lúa, 329D Quốc Lộ 91B, Quận Ninh Kiều, Tp Cần Thơ, Hưng Lợi, Ninh Kiều, Cần Thơ, Việt Nam","Hưng Lợi, Ninh Kiều","329D Quốc Lộ 91B, Quận Ninh Kiều, Tp Cần Thơ",Cần Thơ,,"Ninh Kiều, Cần Thơ",VN
1804,ChIJXS4q822JoDER2kp3zRwgy4o,Quán hủ tiếu gà ác Mỹ Tho,Quán ăn nhỏ,Quán ăn nhỏ,,"2QC3+RX8 Quán hủ tiếu gà ác Mỹ Tho, Đ. Nguyễn Hiền, Hưng Lợi, Ninh Kiều, Cần Thơ 90000, Việt Nam","Hưng Lợi, Ninh Kiều","2QC3+RX8, Đ. Nguyễn Hiền",Cần Thơ,90000.0,"Ninh Kiều, Cần Thơ",VN
1807,ChIJDbKW-BeJoDERfrpDFl9zTVc,Quán Cơm Thiên Hoa,Nhà hàng chuyên phục vụ bữa nửa buổi,Nhà hàng chuyên phục vụ bữa nửa buổi,,"Quán Cơm Thiên Hoa, 86 Đường Trần Hoàng Na, Khu dân cư 91B, Ninh Kiều, Cần Thơ 900000, Việt Nam","Khu dân cư 91B, Ninh Kiều",86 Đường Trần Hoàng Na,Cần Thơ,900000.0,"Ninh Kiều, Cần Thơ",VN
1809,ChIJXRVEpZaJoDERxFvF4YjRftI,Quán cơm Út Huỳnh,Quán ăn nhỏ,Quán ăn nhỏ,+84 763 870 989,"Quán cơm Út Huỳnh, Hẻm 7 Đ. Nguyễn Văn Linh, Phường An Khánh, Ninh Kiều, Cần Thơ 900000, Việt Nam","Phường An Khánh, Ninh Kiều",Hẻm 7 Đ. Nguyễn Văn Linh,Cần Thơ,900000.0,"Ninh Kiều, Cần Thơ",VN
1810,ChIJK5wLHK6JoDERW8pF_3e7djQ,Quán cơm Phúc,Nhà hàng gia đình,Nhà hàng gia đình,,"Quán cơm Phúc, 72 Ngô Sĩ Liên, Hưng Lợi, Ninh Kiều, Cần Thơ, Việt Nam","Hưng Lợi, Ninh Kiều",72 Ngô Sĩ Liên,Cần Thơ,,"Ninh Kiều, Cần Thơ",VN
1817,ChIJBTMvfDiIoDER1B6p5Bfk6Qg,Quán Cơm Phước Lùn,Nhà hàng,Nhà hàng,+84 986 311 727,"Quán Cơm Phước Lùn, 335 Đ. Nguyễn Văn Linh, Hưng Lợi, Ninh Kiều, Cần Thơ, Việt Nam","Hưng Lợi, Ninh Kiều",335 Đ. Nguyễn Văn Linh,Cần Thơ,,"Ninh Kiều, Cần Thơ",VN
1819,ChIJIe7HyDWJoDER8Sap6IIGIDM,Quán cơm Thanh Bình,Quán ăn nhỏ,Quán ăn nhỏ,+84 786 618 665,"Quán cơm Thanh Bình, 20H3/4 Đ. Số 7, KDC, Ninh Kiều, Cần Thơ, Việt Nam","KDC, Ninh Kiều",20H3/4 Đ. Số 7,Cần Thơ,,"Ninh Kiều, Cần Thơ",VN
1820,ChIJd44Hk5iJoDERyFGuccD4Xho,Quán Cơm Hưng Ký,Nhà hàng,Nhà hàng,,"Quán Cơm Hưng Ký, 404 Đ. Nguyễn Văn Linh, Hưng Lợi, Ninh Kiều, Cần Thơ, Việt Nam","Hưng Lợi, Ninh Kiều",404 Đ. Nguyễn Văn Linh,Cần Thơ,,"Ninh Kiều, Cần Thơ",VN
1824,ChIJtdv0pzmIoDERMnbgne0mYeU,QUÁN SAKISA - Đặc sản bún cá Hàn Quốc - Ăn vặt - Cafe checkin ảo tung chảo,Quán ăn nhỏ,Quán ăn nhỏ,+84 899 682 688,"QUÁN SAKISA - Đặc sản bún cá Hàn Quốc - Ăn vặt - Cafe checkin ảo tung chảo, 30/55, P. Q, Đ. Nguyễn Văn Linh, Hưng Lợi, Ninh Kiều, Cần Thơ, Việt Nam","Hưng Lợi, Ninh Kiều","30/55, P. Q, Đ. Nguyễn Văn Linh",Cần Thơ,,"Ninh Kiều, Cần Thơ",VN
1827,ChIJR8vgXzeIoDER567Y6TYmyhc,Quán Cơm Sinh Ký,Nhà hàng,Nhà hàng,+84 858 902 160,"Quán Cơm Sinh Ký, 9 Đ. Nguyễn Văn Linh, Hưng Lợi, Ninh Kiều, Cần Thơ, Việt Nam","Hưng Lợi, Ninh Kiều",9 Đ. Nguyễn Văn Linh,Cần Thơ,,"Ninh Kiều, Cần Thơ",VN
1828,ChIJTwhk6TWIoDEROGviNb6-wMU,Quán Cơm Tấm,Nhà hàng,Nhà hàng,+84 292 3746 470,"Quán Cơm Tấm, Tp, 85 Hẻm 132 Đ. 3 Tháng 2, Hưng Lợi, Ninh Kiều, Cần Thơ, Việt Nam","Hưng Lợi, Ninh Kiều","Tp, 85 Hẻm 132 Đ. 3 Tháng 2",Cần Thơ,,"Ninh Kiều, Cần Thơ",VN
1829,ChIJS16MaDiIoDEREzfr6aoIBiA,Quán Cơm 38,Nhà hàng,Nhà hàng,+84 292 3894 347,"Quán Cơm 38, 38 Quốc Lộ 91B, Quận Ninh Kiều, Tp Cần Thơ, Việt Nam","Hưng Lợi, Ninh Kiều","38 Quốc Lộ 91B, Quận Ninh Kiều, Tp Cần Thơ",Cần Thơ,,"Ninh Kiều, Cần Thơ",VN
1830,ChIJ1ektwi-IoDERqBMt81-KDto,Quán Ăn 7 Liên,Nhà hàng,Nhà hàng,,"2QCC+8H6 Quán Ăn 7 Liên, Đ. Trần Ngọc Quế, Xuân Khánh, Ninh Kiều, Cần Thơ, Việt Nam","Xuân Khánh, Ninh Kiều","2QCC+8H6, Đ. Trần Ngọc Quế",Cần Thơ,,"Ninh Kiều, Cần Thơ",VN
1831,ChIJqyML1UaIoDERZMKyHBDGwbY,Quán Cơm Thúy Vy,Nhà hàng,Nhà hàng,+84 366 262 669,"Quán Cơm Thúy Vy, 313, Quốc Lộ 91B, Quận Ninh Kiều, Tp Cần Thơ, Phường An Khánh, Ninh Kiều, Cần Thơ, Việt Nam","Phường An Khánh, Ninh Kiều","313, Quốc Lộ 91B, Quận Ninh Kiều, Tp Cần Thơ",Cần Thơ,,"Ninh Kiều, Cần Thơ",VN
1832,ChIJzfWHVpqJoDERZFEz-CIerHs,Quán Hột Vịt Lộn 54.3/2,Nhà hàng,Nhà hàng,+84 814 884 996,"Quán Hột Vịt Lộn 54.3/2, 54 Hẻm 132 Đ. 3 Tháng 2, Hưng Lợi, Ninh Kiều, Cần Thơ, Việt Nam","Hưng Lợi, Ninh Kiều",54 Hẻm 132 Đ. 3 Tháng 2,Cần Thơ,,"Ninh Kiều, Cần Thơ",VN
1839,ChIJOciD7TSIoDER5rLx5OT225Y,Quán Cơm Ngọc Trâm,Nhà hàng,Nhà hàng,+84 944 104 387,"Quán Cơm Ngọc Trâm, 151 Đ. Trần Hoàng Na, Hưng Lợi, Ninh Kiều, Cần Thơ, Việt Nam","Hưng Lợi, Ninh Kiều",151 Đ. Trần Hoàng Na,Cần Thơ,,"Ninh Kiều, Cần Thơ",VN
1840,ChIJJep1rPeJoDERkg7Q6_FCnVs,Quán Cơm Chiến,Quán ăn nhỏ,Quán ăn nhỏ,,"Quán Cơm Chiến, 32 Đường Trần Hoàng Na, Hưng Lợi, Ninh Kiều, Cần Thơ, Việt Nam","Hưng Lợi, Ninh Kiều",32 Đường Trần Hoàng Na,Cần Thơ,,"Ninh Kiều, Cần Thơ",VN
1848,ChIJ2Yd77_aJoDERoGwwutLtzq4,Diễm My - Kimpap & Ăn vặt,Quán ăn nhẹ,Quán ăn nhẹ,,"Diễm My - Kimpap & Ăn vặt, 190/13/8 Đ. 30 Tháng 4, Hưng Lợi, Ninh Kiều, Cần Thơ, Việt Nam","Hưng Lợi, Ninh Kiều",190/13/8 Đ. 30 Tháng 4,Cần Thơ,,"Ninh Kiều, Cần Thơ",VN
1851,ChIJDwcfW46JoDERjCHYna97o-8,Quán cơm Hiền,Quán ăn nhỏ,Quán ăn nhỏ,,"Quán cơm Hiền, 408 Đ. 30 Tháng 4, Hưng Lợi, Ninh Kiều, Cần Thơ, Việt Nam","Hưng Lợi, Ninh Kiều",408 Đ. 30 Tháng 4,Cần Thơ,,"Ninh Kiều, Cần Thơ",VN
1855,ChIJI2tk4TaIoDER7dLW4yfJdCk,Quán Cơm - Café Hồng Ân,Nhà hàng,Nhà hàng,+84 292 3731 496,"Quán Cơm - Café Hồng Ân, 168C, Đường 3/2, Quận Ninh Kiều, TP Cần Thơ, Hưng Lợi, Ninh Kiều, Cần Thơ, Việt Nam","Hưng Lợi, Ninh Kiều","168C, Đường 3/2, Quận Ninh Kiều, TP Cần Thơ",Cần Thơ,,"Ninh Kiều, Cần Thơ",VN
1856,ChIJq6e5SzWIoDERkrw3zHJ3EfY,Quán Cơm Tấm Bà Tám,Nhà hàng,Nhà hàng,+84 938 883 993,"Quán Cơm Tấm Bà Tám, 42 Đ. 30 Tháng 4, Hưng Lợi, Ninh Kiều, Cần Thơ, Việt Nam","Hưng Lợi, Ninh Kiều",42 Đ. 30 Tháng 4,Cần Thơ,,"Ninh Kiều, Cần Thơ",VN
1858,ChIJTy-5VDOIoDERLpoP4mrDxbc,Quán Bún Mắm,Quán ăn nhỏ,Quán ăn nhỏ,+84 826 393 340,"Quán Bún Mắm, 151/12, Trần Hoàng Na, Quận Ninh Kiều, Tp Cần Thơ, Việt Nam","Hưng Lợi, Ninh Kiều","151/12, Trần Hoàng Na, Quận Ninh Kiều, Tp Cần Thơ",Cần Thơ,,"Ninh Kiều, Cần Thơ",VN
1859,ChIJuTpIZjGIoDERDhJQMsZRitU,Quán Cơm Chay Thiện Lợi,Nhà hàng,Nhà hàng,+84 292 3739 099,"Quán Cơm Chay Thiện Lợi, 200 Đ. 30 Tháng 4, Hưng Lợi, Ninh Kiều, Cần Thơ, Việt Nam","Hưng Lợi, Ninh Kiều",200 Đ. 30 Tháng 4,Cần Thơ,,"Ninh Kiều, Cần Thơ",VN
1875,ChIJGRMiAySIoDERLGUb-l02u8k,Quán Cơm 2.000 Đồng,Nhà hàng,Nhà hàng,,"Quán Cơm 2.000 Đồng, 8 Đ. 30 Tháng 4, Xuân Khánh, Ninh Kiều, Cần Thơ, Việt Nam","Xuân Khánh, Ninh Kiều",8 Đ. 30 Tháng 4,Cần Thơ,,"Ninh Kiều, Cần Thơ",VN
1877,ChIJCRJvACWIoDERpf4007Sdd2k,Quán Ăn Thành Luân,Nhà hàng,Nhà hàng,+84 913 823 867,"Quán Ăn Thành Luân, C148 Hẻm 15, Đường Trần Văn Hoài, Quận Ninh Kiều, TP Cần Thơ, Xuân Khánh, Ninh Kiều, Cần Thơ, Việt Nam","Xuân Khánh, Ninh Kiều","C148 Hẻm 15, Đường Trần Văn Hoài, Quận Ninh Kiều, TP Cần Thơ",Cần Thơ,,"Ninh Kiều, Cần Thơ",VN
1886,ChIJ0XqZLyKIoDERm53nXs78mNQ,Quán Cơm Phở Ngọc Ánh,Nhà hàng,Nhà hàng,+84 292 3508 445,"Quán Cơm Phở Ngọc Ánh, 134 Đ. Mậu Thân, An Phú, Ninh Kiều, Cần Thơ, Việt Nam","An Phú, Ninh Kiều",134 Đ. Mậu Thân,Cần Thơ,,"Ninh Kiều, Cần Thơ",VN
1891,ChIJla-TPSKIoDER_7s3teATJkM,Quán Cơm 95B,Nhà hàng,Nhà hàng,+84 292 3734 922,"Quán Cơm 95B, 95 Đ. Mậu Thân, An Phú, Ninh Kiều, Cần Thơ, Việt Nam","An Phú, Ninh Kiều",95 Đ. Mậu Thân,Cần Thơ,,"Ninh Kiều, Cần Thơ",VN
1899,ChIJcVo3d9JjoDERRg25aSqltjk,Quán Phở vĩa hè,Quán ăn nhỏ,Quán ăn nhỏ,,"Quán Phở vĩa hè, 42 Đ. Nguyễn Khuyến, Tân An, Ninh Kiều, Cần Thơ, Việt Nam","Tân An, Ninh Kiều",42 Đ. Nguyễn Khuyến,Cần Thơ,,"Ninh Kiều, Cần Thơ",VN
1913,ChIJ4XFWbRljoDERejO6PdaQiSo,Quán Gà Ác Toàn,Nhà hàng gia đình,Nhà hàng gia đình,+84 292 3821 968,"2QPM+XCV Quán Gà Ác Toàn, Hẻm 9 Đ. Xô Viết Nghệ Tĩnh, An Cư, Ninh Kiều, Cần Thơ, Việt Nam","An Cư, Ninh Kiều","2QPM+XCV, Hẻm 9 Đ. Xô Viết Nghệ Tĩnh",Cần Thơ,,"Ninh Kiều, Cần Thơ",VN
1914,ChIJid1kOOaJoDERlm-U5x9aKQE,Quán ốc Vĩa Hè 2,Quán ăn nhỏ,Quán ăn nhỏ,+84 796 851 131,"2QMH+6RF Quán ốc Vĩa Hè 2, Đ. Lê Lai, An Lạc, Ninh Kiều, Cần Thơ, Việt Nam","An Lạc, Ninh Kiều","2QMH+6RF, Đ. Lê Lai",Cần Thơ,,"Ninh Kiều, Cần Thơ",VN
1916,ChIJkxP5PKBioDERURCwhAH3tGo,Quán Cơm Chay Lâm Thị Hai,Gian hàng rong,"Gian hàng rong, Quán ăn tự phục vụ",+84 937 051 148,"Quán Cơm Chay Lâm Thị Hai, 42, Đường Hòa Bình, Phường An Cư, Quận Ninh Kiều, Tân An, Ninh Kiều, Cần Thơ, Việt Nam","Tân An, Ninh Kiều","42, Đường Hòa Bình, Phường An Cư, Quận Ninh Kiều",Cần Thơ,,"Ninh Kiều, Cần Thơ",VN
1917,ChIJ-0X_FJ9ioDERB6tVSQyDAY0,Quán Cơm 115,Nhà hàng,Nhà hàng,+84 292 3834 462,"Quán Cơm 115, 115, Châu Văn Liêm, Quận Ninh Kiều, Tp Cần Thơ, Việt Nam","Tân An, Ninh Kiều","115, Châu Văn Liêm, Quận Ninh Kiều, Tp Cần Thơ",Cần Thơ,,"Ninh Kiều, Cần Thơ",VN
1918,ChIJb2nLHSGIoDERInMvrdgPd_k,Quán Cơm Khải Ký,Nhà hàng,Nhà hàng,+84 7103822567,"Quán Cơm Khải Ký, 7 Đ. 30 Tháng 4, An Lạc, Ninh Kiều, Cần Thơ, Việt Nam","An Lạc, Ninh Kiều",7 Đ. 30 Tháng 4,Cần Thơ,,"Ninh Kiều, Cần Thơ",VN
